YCFS 260600Z AUTO 03016KT //// // ////// 25/17 Q1015 RF00.0/000.0
LIRM 291155Z /////KT 9999 SCT035 21/10 Q1011
EKAH 021050Z AUTO 30006KT 250V010 9999NDV FEW042/// 06/M03 Q1007
2016/12/02 11:20 EDDF 021120Z 20006KT 130V240 9999 VCSH FEW012 BKN018 BKN050 08/05 Q1022 NOSIG
LIPL 282055Z /////KT 9999 BKN056 06/M06 Q1022 RMK BKN VIS MIN 9999 WIND THR31 09017KT BLU
2016/12/02 10:55 LIPL 021055Z /////KT 5000 BR NSC 08/02 Q1013 RMK SKC VIS MIN 5000 WIND THR31 15005KT WHT
LIPL 021055Z /////KT 5000 BR NSC 08/02 Q1013 RMK SKC VIS MIN 5000 WIND THR31 15005KT WHT
2007/10/01 03:47 KTDO 010347Z 14005KT 7SM OVC12 10/06 A2984 RMK SLP105 LAST
2016/08/08 03:00 MGTK 080300Z 00000KT CAVOK 23/23 Q1014 A2994 SCT090
CYXE 261800Z CCA 25013KT 15SM SCT030 BKN090 05/03 A2988 RMK SC4AC2 SLP144
CWSP&A21 000000Z 24705G06KT&D975NG 13520KT&A1508NG 129V141 48KM&B58&D3500 6ST024&ST001FNLR001N 2CU041&CU001FNVR001N 3CI311&CI001FNVN001N 13/12 07/05&A1508 Q1009 @@@ 50 7 135 20 |
CWEB&A6 000000Z 33514G23KT&D980MM 330V340 80KM&B-378&D3048 CLR 20/15 Q0989
CWEL&A4 000000Z 24705G06KT&D975NG 13520KT&A1524NG 129V141 16KM&B74&D3500 8ST025&ST001FNMR002N 4CU041&CU001FNVR002N 5CI312&CI001FNVN002N 13/12 07/05&A1524 Q1009 @@@ 50 7 135 20 |
CWEZ&A24 000000Z 04612G15KT&D985NG 036V056 06315G18KT&A1416LG 058V068 05920G25KT&A2416LG 046V071 32KM&B-33&D2000 7ST046&ST001FNHS000L -2/-4 -9/-11&A1416 -17/-19&A2416 Q1001 @@@ 47 -9 63 15 | 80 -17 59 20 |
CWEZ&A24 000000Z 24705G06KT&D975NG 13520KT&A1505NG 129V141 48KM&B55&D3500 4ST024&ST001FNVR001N 1CI311&CI001FNVN001N 13/12 07/05&A1505 Q1009 @@@ 50 7 135 20 |
CWEZ&A24 000000Z 30110KT&D0NG 300V302 30125KT&A1031LG 295V307 80KM&B-418&D3048 3CU033&CU001FLLN000N 6CI329&CI001FNMN000L 20/12 15/12&A1031 Q1010 @@@ 35 15 301 25 |
CWGT&A4 000000Z 30110KT&D0NG 300V302 30125KT&A1050LG 295V307 80KM&B-399&D3048 1CU034&CU001FLLN000N 13/12 05/04&A1050 Q0996 @@@ 35 5 301 25 |
CWMM&A4 000000Z 30110KT&D0NG 300V302 30125KT&A1050LG 295V307 80KM&B-399&D3048 3CU034&CU001FLLN000N 6CI329&CI001FNMN000L 20/12 15/12&A1050 Q1010 @@@ 35 15 301 25 |
CWMM&A4 000000Z 33514G23KT&D980MM 330V340 80KM&B-376&D3048 CLR 20/15 Q0989
CWQC&A2 000000Z 30110KT&D0NG 300V302 30125KT&A1053LG 295V307 80KM&B-396&D3048 4ST016&ST000FNVN000N 13/12 05/04&A1053 Q0996 @@@ 35 5 301 25 |
CWQC&A2 000000Z 32514G23KT&D980MM 320V330 31522G30KT&A1076MM 311V318 80KM&B-373&D3048 8CB018&CB001FSDR000N 20/15 Q0989 @@@ 35 20 315 22 |
CWWK&A14 000000Z 24705G06KT&D975NG 13520KT&A1514NG 129V141 48KM&B64&D3500 4ST025&ST001FNVR002N 1CI312&CI001FNVN002N 13/12 07/05&A1514 Q1009 @@@ 50 7 135 20 |
CWWK&A14 000000Z 33514G23KT&D980MM 330V340 80KM&B-386&D3048 CLR 20/15 Q0989
CYPW&A130 000000Z 24705G06KT&D975NG 13520KT&A1399NG 129V141 32KM&B-50&D3500 4ST021&ST001FNVR000N 6CI308&CI001FNVN000N 13/12 07/05&A1399 Q1009 @@@ 50 7 135 20 |
CYPW&A130 000000Z 34418G28KT&D980HM 333V355 33530G36KT&A948HS 320V349 80KM&B-501&D3048 8CB014&CB001FSDR000N 20/18 Q0989 @@@ 35 20 335 30 |
CYYJ&A19 000000Z 04612G15KT&D985NG 036V056 06315G18KT&A1421LG 058V068 05920G25KT&A2421LG 046V071 32KM&B-28&D2000 7ST046&ST001FNHS000L -2/-4 -9/-11&A1421 -17/-19&A2421 Q1001 @@@ 47 -9 63 15 | 80 -17 59 20 |
CYYJ&A19 000000Z 30110KT&D0NG 300V302 30125KT&A1036LG 295V307 64KM&B-413&D3048 3CU034&CU001FLLN000N 8CI329&CI001FNMN000L 20/12 15/12&A1036 Q1010 @@@ 35 15 301 25 |
K43S&A3 000000Z 24705G06KT&D975NG 13520KT&A1525NG 129V141 9999 CLR 13/12 07/05&A1525 Q1009 @@@ 50 7 135 20 |
K53S&A1 000000Z 04612G15KT&D985NG 036V056 06315G18KT&A1439LG 058V068 05920G25KT&A2439LG 046V071 32KM&B-10&D2000 5ST047&ST001FNHS000L -2/-4 -9/-11&A1439 -17/-19&A2439 Q1001 @@@ 47 -9 63 15 | 80 -17 59 20 |
K53S&A1 000000Z 24705G06KT&D975NG 13520KT&A1528NG 129V141 9999 2ST025&ST001FNVN002N 1CI312&CI001FNVN002N 13/12 07/05&A1528 Q1009 @@@ 50 7 135 20 |
K53S&A1 000000Z 30110KT&D0NG 300V302 30125KT&A1054LG 295V307 80KM&B-395&D3048 1CU025&CU000FLVN000N 6CI329&CI001FNMN000L 20/12 15/12&A1054 Q1010 @@@ 35 15 301 25 |
K76S&A57 000000Z 30110KT&D0NG 300V302 30125KT&A997LG 295V307 80KM&B-452&D3048 6CI327&CI001FNMN000L 20/12 15/12&A997 Q1010 @@@ 35 15 301 25 |
K76S&A57 000000Z 33514G23KT&D980MM 330V340 80KM&B-429&D3048 CLR 20/15 Q0989
K84S&A5 000000Z 30110KT&D0NG 300V302 30125KT&A1049LG 295V307 80KM&B-400&D3048 6CI329&CI001FNMN000L 11/08 15/12&A1049 Q0989 @@@ 35 15 301 25 |
K96S&A12 000000Z 04612G15KT&D985NG 036V056 06315G18KT&A1428LG 058V068 05920G25KT&A2428LG 046V071 32KM&B-21&D2000 5ST046&ST001FNHS000L -2/-4 -9/-11&A1428 -17/-19&A2428 Q1001 @@@ 47 -9 63 15 | 80 -17 59 20 |
K97S&A1 000000Z 24705G06KT&D975NG 13520KT&A1528NG 129V141 9999 CLR 13/12 07/05&A1528 Q1009 @@@ 50 7 135 20 |
K97S&A1 000000Z 30110KT&D0NG 300V302 30125KT&A1054LG 295V307 80KM&B-395&D3048 1ST016&ST000FLVN000N 11/08 05/04&A1054 Q0989 @@@ 35 5 301 25 |
KBLI&A51 000000Z 04612G15KT&D985NG 036V056 06315G18KT&A1389LG 058V068 05920G25KT&A2389LG 046V071 32KM&B-60&D2000 5ST045&ST001FNHS000L -2/-4 -9/-11&A1389 -17/-19&A2389 Q1001 @@@ 47 -9 63 15 | 80 -17 59 20 |
KFHR&A34 000000Z 04612G15KT&D985NG 036V056 06315G18KT&A1406LG 058V068 05920G25KT&A2406LG 046V071 32KM&B-43&D2000 7ST046&ST001FNHS000L -2/-4 -9/-11&A1406 -17/-19&A2406 Q1001 @@@ 47 -9 63 15 | 80 -17 59 20 |
KFHR&A34 000000Z 24705G06KT&D975NG 13520KT&A1495NG 129V141 48KM&B45&D3500 4ST024&ST001FNVR001N 1CI311&CI001FNVN001N 13/12 07/05&A1495 Q1009 @@@ 50 7 135 20 |
KFHR&A34 000000Z 30110KT&D0NG 300V302 30125KT&A1021LG 295V307 80KM&B-428&D3048 1CU033&CU001FLLN000N 6CI328&CI001FNMN000L 20/12 15/12&A1021 Q1010 @@@ 35 15 301 25 |
KFHR&A34 000000Z 33514G23KT&D980MM 330V340 80KM&B-405&D3048 CLR 20/15 Q0989
KGRF&A91 000000Z 33514G23KT&D980MM 330V340 80KM&B-463&D3048 CLR 20/15 Q0989
KHQM&A3 000000Z 04612G15KT&D985NG 036V056 06315G18KT&A1436LG 058V068 05920G25KT&A2436LG 046V071 32KM&B-13&D2000 7ST047&ST001FNHS000L -2/-4 -9/-11&A1436 -17/-19&A2436 Q1001 @@@ 47 -9 63 15 | 80 -17 59 20 |
KHQM&A3 000000Z 33514G23KT&D980MM 330V340 80KM&B-375&D3048 CLR 20/15 Q0989
KNOW&A3 000000Z 24705G06KT&D975NG 13520KT&A1525NG 129V141 9999 4ST025&ST001FNVR002N 1CI312&CI001FNVN002N 13/12 07/05&A1525 Q1009 @@@ 50 7 135 20 |
KNUW&A13 000000Z 30110KT&D0NG 300V302 30125KT&A1041LG 295V307 80KM&B-408&D3048 6CI329&CI001FNMN000L 20/12 15/12&A1041 Q1010 @@@ 35 15 301 25 |
KNUW&A13 000000Z 33514G23KT&D980MM 330V340 80KM&B-385&D3048 CLR 20/15 Q0989
KPAE&A185 000000Z 24705G06KT&D975NG 13520KT&A1344NG 129V141 9999 CLR 13/12 07/05&A1344 Q1009 @@@ 50 7 135 20 |
KPAE&A185 000000Z 30110KT&D0NG 300V302 30125KT&A870LG 295V307 80KM&B-579&D3048 2ST010&ST000FLVN000N 1CU028&CU001FLLN000N 11/08 05/04&A870 Q0989 @@@ 35 5 301 25 |
KPWT&A134 000000Z 04612G15KT&D985NG 036V056 06315G18KT&A1306LG 058V068 05920G25KT&A2306LG 046V071 32KM&B-143&D2000 7ST042&ST001FNHS000L -2/-4 -9/-11&A1306 -17/-19&A2306 Q1001 @@@ 47 -9 63 15 | 80 -17 59 20 |
KS38&A17 000000Z 24705G06KT&D975NG 13520KT&A1511NG 129V141 9999 CLR 13/12 07/05&A1511 Q1009 @@@ 50 7 135 20 |
KS88&A42 000000Z 30110KT&D0NG 300V302 30125KT&A1013LG 295V307 80KM&B-436&D3048 CLR 11/08 05/04&A1013 Q0989 @@@ 35 5 301 25 |
KTCM&A98 000000Z 04612G15KT&D985NG 036V056 06315G18KT&A1342LG 058V068 05920G25KT&A2342LG 046V071 32KM&B-107&D2000 7ST044&ST001FNHS000L -2/-4 -9/-11&A1342 -17/-19&A2342 Q1001 @@@ 47 -9 63 15 | 80 -17 59 20 |
KTCM&A98 000000Z 33514G23KT&D980MM 330V340 80KM&B-469&D3048 CLR 20/15 Q0989
KZSE&A99 000000Z 24705G06KT&D975NG 13520KT&A1430NG 129V141 9999 CLR 13/12 07/05&A1430 Q1009 @@@ 50 7 135 20 |
CYAZ&A24 000000Z 04612G15KT&D985NG 036V056 06315G18KT&A1416LG 058V068 05920G25KT&A2416LG 046V071 32KM&B-33&D2000 7ST046&ST001FNHS000L -2/-4 -9/-11&A1416 -17/-19&A2416 Q1001 @@@ 47 -9 63 15 | 80 -17 59 20 |
CYAZ&A24 000000Z 30110KT&D0NG 300V302 30125KT&A1031LG 295V307 80KM&B-418&D3048 1CU033&CU001FLLN000N 11/08 05/04&A1031 Q0989 @@@ 35 5 301 25 |
CYAZ&A24 000000Z 33514G23KT&D980MM 330V340 80KM&B-395&D3048 6CU018&CU001FHHR000N 20/15 Q0989
CYBL&A105 000000Z 04612G15KT&D985NG 036V056 06315G18KT&A1335LG 058V068 05920G25KT&A2335LG 046V071 32KM&B-114&D2000 7ST043&ST001FNHS000L -2/-4 -9/-11&A1335 -17/-19&A2335 Q1001 @@@ 47 -9 63 15 | 80 -17 59 20 |
CYBL&A105 000000Z 24705G06KT&D975NG 13520KT&A1424NG 129V141 48KM&B-25&D3500 2ST022&ST001FNVN000N 13/12 07/05&A1424 Q1009 @@@ 50 7 135 20 |
CYBL&A105 000000Z 33514G23KT&D980MM 330V340 33530G36KT&A973HS 320V349 80KM&B-476&D3048 8CU015&CU001FHHR000N 20/15 Q0989 @@@ 35 20 335 30 |
CYCD&A27 000000Z 30110KT&D0NG 300V302 30125KT&A1027LG 295V307 64KM&B-422&D3048 4CU033&CU001FLLR000N 18/12 05/04&A1027 Q0999 @@@ 35 5 301 25 |
CYPW&A130 000000Z 30110KT&D0NG 300V302 30125KT&A925LG 295V307 80KM&B-524&D3048 2ST015&ST000FLVN000N 11/08 05/04&A925 Q0989 @@@ 35 5 301 25 |
CYPW&A130 000000Z 34418G28KT&D980HM 333V355 33530G36KT&A948HS 320V349 80KM&B-501&D3048 8CB014&CB001FSDR000N 20/18 Q0989 @@@ 35 20 335 30 |
CYQQ&A25 000000Z 04612G15KT&D985NG 036V056 06315G18KT&A1414LG 058V068 05920G25KT&A2414LG 046V071 32KM&B-35&D2000 7ST046&ST001FNHS000L -2/-4 -9/-11&A1414 -17/-19&A2414 Q1001 @@@ 47 -9 63 15 | 80 -17 59 20 |
CYQQ&A25 000000Z 30110KT&D0NG 300V302 30125KT&A1029LG 295V307 80KM&B-420&D3048 CLR 11/08 05/04&A1029 Q0989 @@@ 35 5 301 25 |
CYQQ&A25 000000Z 34418G28KT&D980HM 333V355 33530G36KT&A1052HS 320V349 80KM&B-397&D3048 8CB018&CB001FSDR000N 20/18 Q0989 @@@ 35 20 335 30 |
CYVR&A3 000000Z 24705G06KT&D975NG 13520KT&A1525NG 129V141 48KM&B75&D3500 6ST025&ST001FNLR002N 2CU041&CU001FNVR002N 3CI312&CI001FNVN002N 13/12 07/05&A1525 Q1009 @@@ 50 7 135 20 |
CYVR&A3 000000Z 33514G23KT&D980MM 330V340 80KM&B-375&D3048 2CI330&CI001FMVN000N 20/15 Q0989
CYWH&A4 000000Z 33514G23KT&D980MM 330V340 80KM&B-376&D3048 CLR 20/15 Q0989
CYXX&A57 000000Z 04612G15KT&D985NG 036V056 06315G18KT&A1382LG 058V068 05920G25KT&A2382LG 046V071 32KM&B-67&D2000 7ST045&ST001FNHS000L -2/-4 -9/-11&A1382 -17/-19&A2382 Q1001 @@@ 47 -9 63 15 | 80 -17 59 20 |
CYXX&A57 000000Z 33514G23KT&D980MM 330V340 80KM&B-429&D3048 CLR 20/15 Q0989
CYYJ&A19 000000Z 30110KT&D0NG 300V302 30125KT&A1036LG 295V307 64KM&B-413&D3048 3CU034&CU001FLLN000N 8CI329&CI001FNMN000L 20/12 15/12&A1036 Q1010 @@@ 35 15 301 25 |
KAST&A4 000000Z 30110KT&D0NG 300V302 30125KT&A1050LG 295V307 80KM&B-399&D3048 4ST022&ST000FLVN000N 1CU034&CU001FLLN000N 18/12 05/04&A1050 Q0999 @@@ 35 5 301 25 |
KAWO&A42 000000Z 04612G15KT&D985NG 036V056 06315G18KT&A1398LG 058V068 05920G25KT&A2398LG 046V071 32KM&B-51&D2000 7ST045&ST001FNHS000L -2/-4 -9/-11&A1398 -17/-19&A2398 Q1001 @@@ 47 -9 63 15 | 80 -17 59 20 |
KAWO&A42 000000Z 33514G23KT&D980MM 330V340 80KM&B-413&D3048 CLR 20/15 Q0989
KBFI&A4 000000Z 30110KT&D0NG 300V302 30125KT&A1050LG 295V307 80KM&B-399&D3048 1CU034&CU001FLLN000N 13/12 05/04&A1050 Q0996 @@@ 35 5 301 25 |
KBLI&A51 000000Z 04612G15KT&D985NG 036V056 06315G18KT&A1389LG 058V068 05920G25KT&A2389LG 046V071 32KM&B-60&D2000 5ST045&ST001FNHS000L -2/-4 -9/-11&A1389 -17/-19&A2389 Q1001 @@@ 47 -9 63 15 | 80 -17 59 20 |
KBLI&A51 000000Z 33514G23KT&D980MM 330V340 80KM&B-422&D3048 CLR 20/15 Q0989
KCLM&A89 000000Z 04612G15KT&D985NG 036V056 06315G18KT&A1351LG 058V068 05920G25KT&A2351LG 046V071 32KM&B-98&D2000 7ST044&ST001FNHS000L -2/-4 -9/-11&A1351 -17/-19&A2351 Q1001 @@@ 47 -9 63 15 | 80 -17 59 20 |
KHQM&A3 000000Z 30110KT&D0NG 300V302 30125KT&A1051LG 295V307 80KM&B-398&D3048 3ST016&ST000FNVN000N 6CI329&CI001FNMN000L 11/08 15/12&A1051 Q0989 @@@ 35 15 301 25 |
KHQM&A3 000000Z 33514G23KT&D980MM 330V340 80KM&B-375&D3048 CLR 20/15 Q0989
KNOW&A3 000000Z 04612G15KT&D985NG 036V056 06315G18KT&A1436LG 058V068 05920G25KT&A2436LG 046V071 32KM&B-13&D2000 7ST047&ST001FNHS000L -2/-4 -9/-11&A1436 -17/-19&A2436 Q1001 @@@ 47 -9 63 15 | 80 -17 59 20 |
KNOW&A3 000000Z 24705G06KT&D975NG 13520KT&A1525NG 129V141 9999 4ST025&ST001FNVR002N 1CI312&CI001FNVN002N 13/12 07/05&A1525 Q1009 @@@ 50 7 135 20 |
KNOW&A3 000000Z 33514G23KT&D980MM 330V340 80KM&B-375&D3048 CLR 20/15 Q0989
KNRA&A60 000000Z 30110KT&D0NG 300V302 30125KT&A994LG 295V307 80KM&B-455&D3048 6CI327&CI001FNMN000L 20/12 15/12&A994 Q1010 @@@ 35 15 301 25 |
KNUW&A13 000000Z 24705G06KT&D975NG 13520KT&A1515NG 129V141 9999 2ST025&ST001FNVN002N 1CI312&CI001FNVN002N 13/12 07/05&A1515 Q1009 @@@ 50 7 135 20 |
KOLM&A63 000000Z 04612G15KT&D985NG 036V056 06315G18KT&A1377LG 058V068 05920G25KT&A2377LG 046V071 32KM&B-72&D2000 5ST045&ST001FNHS000L -2/-4 -9/-11&A1377 -17/-19&A2377 Q1001 @@@ 47 -9 63 15 | 80 -17 59 20 |
KOLM&A63 000000Z 33514G23KT&D980MM 330V340 80KM&B-434&D3048 CLR 20/15 Q0989
KPAE&A185 000000Z 30110KT&D0NG 300V302 30125KT&A870LG 295V307 80KM&B-579&D3048 2ST010&ST000FLVN000N 1CU028&CU001FLLN000N 11/08 05/04&A870 Q0989 @@@ 35 5 301 25 |
KPWT&A134 000000Z 04612G15KT&D985NG 036V056 06315G18KT&A1306LG 058V068 05920G25KT&A2306LG 046V071 32KM&B-143&D2000 7ST042&ST001FNHS000L -2/-4 -9/-11&A1306 -17/-19&A2306 Q1001 @@@ 47 -9 63 15 | 80 -17 59 20 |
KSEA&A131 000000Z 04612G15KT&D985NG 036V056 06315G18KT&A1309LG 058V068 05920G25KT&A2309LG 046V071 32KM&B-140&D2000 7ST042&ST001FNHS000L -2/-4 -9/-11&A1309 -17/-19&A2309 Q1001 @@@ 47 -9 63 15 | 80 -17 59 20 |
KSEA&A131 000000Z 30110KT&D0NG 300V302 30125KT&A924LG 295V307 80KM&B-525&D3048 1CU030&CU001FLLN000N 13/12 05/04&A924 Q0996 @@@ 35 5 301 25 |
KSEA&A131 000000Z 33514G23KT&D980MM 330V340 80KM&B-502&D3048 CLR 20/15 Q0989
KSHN&A83 000000Z 30110KT&D0NG 300V302 30125KT&A972LG 295V307 80KM&B-477&D3048 1ST015&ST000FLVN000N 11/08 05/04&A972 Q0989 @@@ 35 5 301 25 |
KSHN&A83 000000Z 33514G23KT&D1000MM 330V340 80KM&B-454&D3048 CLR 20/15 Q0989
KTCM&A98 000000Z 04612G15KT&D985NG 036V056 06315G18KT&A1342LG 058V068 05920G25KT&A2342LG 046V071 32KM&B-107&D2000 7ST044&ST001FNHS000L -2/-4 -9/-11&A1342 -17/-19&A2342 Q1001 @@@ 47 -9 63 15 | 80 -17 59 20 |
KTCM&A98 000000Z 33514G23KT&D980MM 330V340 80KM&B-469&D3048 CLR 20/15 Q0989
KTDO&A113 000000Z 30110KT&D0NG 300V302 30125KT&A941LG 295V307 80KM&B-508&D3048 1ST013&ST000FLVN000N 4CU030&CU001FLLR000N 18/12 05/04&A941 Q0999 @@@ 35 5 301 25 |
KTIW&A89 000000Z 04612G15KT&D985NG 036V056 06315G18KT&A1351LG 058V068 05920G25KT&A2351LG 046V071 32KM&B-98&D2000 7ST044&ST001FNHS000L -2/-4 -9/-11&A1351 -17/-19&A2351 Q1001 @@@ 47 -9 63 15 | 80 -17 59 20 |
KTIW&A89 000000Z 33514G23KT&D980MM 330V340 80KM&B-460&D3048 CLR 20/15 Q0989
KUIL&A58 000000Z 33514G23KT&D980MM 330V340 80KM&B-430&D3048 CLR 20/15 Q0989
????&A0 262026Z 30111KT&D900NG 299V302 80KM&B-394&D3048 1CU034&CU001FLLN000N 8CI329&CI001FNMN000L 17/11 Q0999
????&A0 262028Z 30110KT&D0NG 300V302 80KM&B-394&D3048 2ST016&ST000FNVN000N 1CU034&CU001FLLN000N 11/10 Q0995
????&A0 262028Z 30110KT&D0NG 300V302 80KM&B-394&D3048 CLR 17/11 Q0999
????&A0 262029Z 30110KT&D0NG 300V302 80KM&B-394&D3048 1CU034&CU001FLLN000N 12/09 Q0990
????&A0 262029Z 30110KT&D0NG 300V302 80KM&B-394&D3048 1CU036&CU000FMVN000N 6CI329&CI001FNMN000L 20/12 Q1009
????&A0 262029Z 30110KT&D900NG 299V302 80KM&B-394&D3048 1CU034&CU001FLLN000N 8CI329&CI001FNMN000L 18/12 Q0999
????&A0 262029Z 30115KT&D900NG 298V303 80KM&B-394&D3048 1CU034&CU001FLLN000N 8CI329&CI001FNMN000L 13/09 Q0999
????&A0 262036Z 30110KT&D0NG 300V302 80KM&B-394&D3048 1CU025&CU000FLVN000N 6CI329&CI001FNMN000L 19/12 Q1008
????&A0 262036Z 30110KT&D0NG 300V302 80KM&B-394&D3048 1CU027&CU000FMVN000N 6CI329&CI001FNMN000L 20/12 Q1010
????&A0 262036Z 30110KT&D0NG 300V302 80KM&B-394&D3048 1CU034&CU001FLLN000N 10/08 Q0989
????&A0 262036Z 30110KT&D0NG 300V302 80KM&B-394&D3048 1CU034&CU001FLLN000N 6CI329&CI001FNMN000L 19/12 Q1008
????&A0 262036Z 30110KT&D0NG 300V302 80KM&B-394&D3048 1CU034&CU001FLLN000N 6CI329&CI001FNMN000L 19/12 Q1010
????&A0 262036Z 30110KT&D0NG 300V302 80KM&B-394&D3048 1CU034&CU001FLLN000N 6CI329&CI001FNMN000L 20/12 Q1010
????&A0 262036Z 30110KT&D0NG 300V302 80KM&B-394&D3048 1ST016&ST000FLVN000N 6CI329&CI001FNMN000L 13/09 Q0992
????&A0 262036Z 30110KT&D0NG 300V302 80KM&B-394&D3048 3CU029&CU000FLVN000N 6CI329&CI001FNMN000L 19/12 Q1010
????&A0 262036Z 30110KT&D0NG 300V302 80KM&B-394&D3048 3CU034&CU001FLLN000N 6CI329&CI001FNMN000L 20/12 Q1010
????&A0 262036Z 30110KT&D0NG 300V302 80KM&B-394&D3048 6CI329&CI001FNMN000L 19/12 Q1010
????&A0 262036Z 30111KT&D900NG 299V302 80KM&B-394&D3048 1CU034&CU001FLLN000N 8CI329&CI001FNMN000L 17/11 Q0999
????&A0 262037Z 24705G06KT&D975NG 100KM&B-457&D30936 4ST025&ST001FNVR002N 1CI312&CI001FNVN002N 15/14 Q1009
????&A0 262037Z 24705G06KT&D975NG 100KM&B-457&D30936 4ST025&ST001FNVR002N 1CI312&CI001FNVN002N 16/15 Q1009
????&A0 262037Z 24705G06KT&D975NG 48KM&B79&D3500 4ST025&ST001FNVR002N 1CI312&CI001FNVN002N 15/14 Q1009
????&A0 262038Z 24705G06KT&D975NG 100KM&B-457&D30936 2CU016&CU000FLVN000N 12/11 Q1009
????&A0 262038Z 24705G06KT&D975NG 100KM&B-457&D30936 2CU016&CU000FLVN000N 13/12 Q1009
????&A0 262038Z 24705G06KT&D975NG 100KM&B-457&D30936 2ST025&ST001FNVN002N 13/12 Q1009
????&A0 262038Z 24705G06KT&D975NG 100KM&B-457&D30936 2ST025&ST001FNVN002N 15/14 Q1009
????&A0 262038Z 24705G06KT&D975NG 100KM&B-457&D30936 2ST025&ST001FNVN002N 1CI312&CI001FNVN002N 13/12 Q1009
????&A0 262038Z 24705G06KT&D975NG 100KM&B-457&D30936 4ST025&ST001FNVR002N 1CI312&CI001FNVN002N 12/11 Q1009
????&A0 262038Z 24705G06KT&D975NG 100KM&B-457&D30936 CLR 09/08 Q1009
????&A0 262038Z 24705G06KT&D975NG 100KM&B-457&D30936 CLR 12/11 Q1009
????&A0 262038Z 24705G06KT&D975NG 100KM&B-457&D30936 CLR 13/12 Q1009
????&A0 262038Z 24705G06KT&D975NG 100KM&B-457&D30936 CLR 14/13 Q1009
????&A0 262038Z 24705G06KT&D975NG 100KM&B-457&D30936 CLR 16/15 Q1009
????&A0 262038Z 24705G06KT&D975NG 16KM&B79&D3500 8ST025&ST001FNMR002N 2CU041&CU001FNVR002N 5CI312&CI001FNVN002N 14/13 Q1009
????&A0 262038Z 24705G06KT&D975NG 32KM&B79&D3500 4ST025&ST001FNVR002N 2CU041&CU001FNVR002N 6CI312&CI001FNVN002N 14/13 Q1009
????&A0 262038Z 24705G06KT&D975NG 48KM&B79&D3500 6ST025&ST001FNLR002N 2CU041&CU001FNVR002N 3CI312&CI001FNVN002N 14/13 Q1009
????&A0 262040Z 04612G15KT&D985NG 036V056 32KM&B-9&D2000 4ST016&ST000FNVN000N 7ST047&ST001FNHS000L 00/-2 Q1001
????&A0 262040Z 04612G15KT&D985NG 036V056 32KM&B-9&D2000 5ST047&ST001FNHS000L -3/-5 Q1001
????&A0 262040Z 04612G15KT&D985NG 036V056 32KM&B-9&D2000 7ST047&ST001FNHS000L 00/-2 Q1001
????&A0 262040Z 04612G15KT&D985NG 036V056 32KM&B-9&D2000 7ST047&ST001FNHS000L -1/-3 Q1001
????&A0 262040Z 04612G15KT&D985NG 036V056 32KM&B-9&D2000 7ST047&ST001FNHS000L -2/-4 Q1001
????&A0 262040Z 04612G15KT&D985NG 036V056 32KM&B-9&D2000 7ST047&ST001FNHS000L -3/-13 Q1001
????&A0 262040Z 04612G15KT&D985NG 036V056 32KM&B-9&D2000 7ST047&ST001FNHS000L -4/-6 Q1001
????&A0 262040Z 04612G15KT&D985NG 036V056 32KM&B-9&D2000 7ST047&ST001FNHS000L -8/-18 Q1001
????&A0 262040Z 05417G21KT&D985NG 043V066 100KM&B-457&D30936 7ST047&ST001FNHS000L -15/-17 Q1001
????&A0 262041Z 04612G15KT&D985NG 036V056 32KM&B-9&D2000 7ST047&ST001FNHS000L -8/-18 Q1001
????&A0 262041Z 04612G15KT&D985NG 036V056 32KM&B-9&D2000 7ST047&ST001FNHS000L -8/-9 Q1001
????&A0 262041Z 04612G15KT&D985NG 036V056 32KM&B-9&D2000 7ST047&ST001FNHS000L -9/-10 Q1001
????&A0 262041Z 04612G15KT&D985NG 036V056 32KM&B-9&D2000 7ST047&ST001FNHS000L -9/-9 Q1001
????&A0 262041Z 05014G18KT&D985NG 039V061 32KM&B-9&D2000 7ST047&ST001FNHS000L -12/-14 Q1001
????&A0 262042Z 32514G23KT&D980MM 320V331 80KM&B-371&D3048 8CB018&CB001FSDR000N 18/13 Q0989
????&A0 262042Z 32518G28KT&D980MM 320V330 80KM&B-371&D3048 8CB018&CB001FSDR000N 4CI330&CI001FMVN000N 18/16 Q0989
????&A0 262042Z 33514G23KT&D980MM 330V340 80KM&B-371&D3048 CLR 15/10 Q0989
????&A0 262042Z 33514G23KT&D980MM 330V340 80KM&B-371&D3048 CLR 17/12 Q0989
????&A0 262042Z 33514G23KT&D980MM 330V340 80KM&B-371&D3048 CLR 19/14 Q0989
????&A0 262042Z 33514G23KT&D980MM 330V340 80KM&B-371&D3048 CLR 20/15 Q0989
????&A0 262042Z 34418G28KT&D980HM 333V354 80KM&B-371&D3048 8CB018&CB001FSDR000N 18/16 Q0989
????&A0 262043Z 32518G28KT&D980MM 320V330 80KM&B-371&D3048 8CB018&CB001FSDR000N 4CI330&CI001FMVN000N 19/17 Q0989
????&A0 262043Z 32518G28KT&D980MM 320V330 80KM&B-371&D3048 8CB018&CB001FSDR000N 4CI330&CI001FMVN000N 20/18 Q0989
????&A0 262043Z 33514G23KT&D980MM 330V340 80KM&B-371&D3048 CLR 19/14 Q0989
????&A0 262043Z 33514G23KT&D980MM 330V340 80KM&B-371&D3048 CLR 20/15 Q0989
AGGH 291200Z 09009KT 9999 FEW014 FEW015CB SCT028 BKN100 26/25 Q1011
BGBW 291150Z 04003KT 0050 FG VV/// 02/01 Q1018
BGGH 291150Z 17032G42KT 1200 RA BKN008 BKN022 OVC040 06/06 Q1012
BGJN 291150Z AUTO 00000KT 7000NDV -SN SCT034/// BKN041/// M02/M03 Q1010
BGKK 291150Z AUTO 24004KT 9999NDV OVC064/// 02/M05 Q1024
BGSF 291150Z AUTO 07003KT 9999NDV BKN070/// OVC085/// 03/02 Q1010
BGTL 291158Z AUTO 08011KT 9999 CLR M21/M23 A2998 RMK AO2 SLP143 T12111234 11162 21224 53001
BIAR 291200Z 18007KT 9999 FEW060 02/M03 Q1025
BIBD 291149Z 18004KT 9999 SCT050 04/M02 Q1026
BIEG 291200Z 20008KT CAVOK 01/M04 Q1029
BIHN 291210Z 34005KT 9999 FEW030 BKN045 02/M04 Q1031
BIIS 291200Z VRB02KT 9999 FEW050 01/M04 Q1024
BIKF 291200Z 14020KT 9999 FEW027 BKN110 06/04 Q1026
BIKF 291230Z 14021KT 9999 FEW026 BKN100 06/04 Q1026
BIRK 291200Z 09011KT 9999 FEW021 SCT150 06/01 Q1028
BIVM 291200Z 10020KT 9999 FEW015 BKN020 BKN030 07/04 Q1029
BKPR 291200Z 23015KT CAVOK 14/M04 Q1004 NOSIG
BKPR 291230Z 22026KT 9999 SCT090 BKN140 14/M04 Q1002 NOSIG
CAHR 291200Z AUTO 17002KT 08/06 RMK AO1 SLP191 T00820060 53003
CBBC 291200Z AUTO VRB02KT 9SM CLR RMK T MISG TD MISG DENSITY ALT MISG
CERM 291200Z AUTO 16003KT 10/08 RMK AO1 SLP152 T00970083 53007
CMFM 291200Z AUTO 18001KT 08/07 RMK AO1 SLP129 T00780067 53010
CMGB 291145Z AUTO 00000KT 10/09 RMK AO1 SLP114 T01010088 53008
CMGB 291200Z AUTO 00000KT 10/09 RMK AO1 SLP110 T01010090 50003
CMGB 291215Z AUTO 00000KT 10/09 RMK AO1 SLP110 T01010091 50003
CMGB 291230Z AUTO 02001KT 10/09 RMK AO1 SLP110 T01020093 50003
CPBT 291200Z AUTO 29008KT 03/02 RMK AO1 T00330019 50012
CPEH 291200Z AUTO 32014KT 05/M00 RMK AO1 PK WND 33019/1156 T00501001 50005
CPFI 291200Z AUTO 31010KT 05/02 RMK AO1 T00490023 50019
CPIR 291200Z AUTO 29009KT 04/02 RMK AO1 T00410015 50009
CPRO 291200Z AUTO 31014KT 05/M03 RMK AO1 PK WND 31022/1126 T00521026 50005
CPRY 291200Z AUTO 28009KT 04/03 RMK AO1 T00360026 50014
CPST 291200Z AUTO 34019KT 03/M03 RMK AO1 PK WND 35029/1125 T00331027 50004
CPSV 291200Z AUTO 30013KT 05/02 RMK AO1 PK WND 29018/1153 T00500023 50005
CPXL 291200Z AUTO 30009KT 05/01 RMK AO1 T00520013 50010
CTCK 291200Z AUTO 03001KT 07/06 RMK AO1 SLP105 T00680055 58003
CTNK 291200Z AUTO 00000KT 01/M00 RMK AO1 SOG 00 1003 SLP111 T00111004
CTRA 291200Z AUTO 18006KT M02/M03 RMK AO1 6023 SLP003 T10221026 50007
CWAF 291200Z AUTO 04006KT 07/06 RMK AO1 T00650056
CWAJ 291200Z AUTO RMK AO1
CWAQ 291200Z AUTO 32021G28KT 06/M02 RMK AO1 SOG 00 3021 PK WND 31031/1131 SLP096 T00551020
CWAV 291200Z AUTO 31011G21KT 02/M04 RMK AO1 PK WND 33021/1153 SLP243 T00201041 53017
CWBA 291200Z AUTO 20002KT 04/04 RMK AO1 T00400040 50010
CWBE 291200Z AUTO 35003KT 04/02 RMK AO1 SLP112 T00400015 51011
CWBK 291200Z AUTO 21005KT 09/08 RMK AO1 SLP194 T00920077 50001
CWBO 291200Z AUTO 32016G22KT 06/M01 RMK AO1 PK WND 32023/1122 SLP196 T00551006 53015
CWBS 291200Z AUTO 19006KT 11/09 RMK AO1 T01120094
CWBT 291200Z AUTO 04003KT 05/04 RMK AO1 SLP171 T00490039 53009
CWBU 291200Z AUTO 32015G20KT 02/M04 RMK AO1 SOG 01 3005 PK WND 31035/1127 SLP038 T00241036
CWBY 291200Z AUTO 13010G16KT 07/07 RMK AO1 PK WND 14018/1114 SLP154 T00700067 53004
CWBZ 291200Z AUTO 24001KT 08/08 RMK AO1 SLP112 T00820076 55002
CWCA 291200Z 22004KT 15SM BKN020 03/02 A3004 RMK SC6 SLP175
CWCF 291200Z AUTO 32011G17KT 03/02 RMK AO1 0PAST HR 5010 PK WND 32020/1131 SLP947 P0004 T00330024 50024
CWCI 291200Z AUTO 14002KT 01/M01 RMK AO1 SLP104 T00081012 55000
CWCJ 291200Z AUTO 06002KT M05/M05 RMK AO1 SOG 05 6004 SLP101 T10501050
CWCO 291200Z AUTO 16002KT 03/01 RMK AO1 SLP100 T00320008 53003
CWCT 291200Z AUTO 32028G36KT 03/M05 RMK AO1 PK WND 31036/1152 SLP195 T00291051 51021
CWDA 291200Z AUTO 31002KT 06/06 RMK AO1 SLP181 T00570055 53008
CWDC 291200Z AUTO 04013G19KT M07/M10 RMK AO1 PK WND 03021/1120 SLP185 T10651098 53053
CWDJ 291200Z AUTO 31019G24KT 03/M02 RMK AO1 SOG 00 3014 PK WND 32025/1116 SLP081 T00321024
CWDK 291200Z AUTO 33006KT 04/M00 RMK AO1 SLP231 T00381003 53013
CWDM 291200Z AUTO 33002KT 01/M00 RMK AO1 SLP190 T00071002 53009
CWDO 291200Z AUTO 30008KT 04/04 RMK AO1 SLP187 T00440036 52014
CWDQ 291200Z AUTO 01001KT 08/07 RMK AO1 2021 SLP122 T00800073 50020
CWDT 291200Z AUTO 22003KT 06/05 RMK AO1 SLP123 T00610046 53029
CWDV 291200Z AUTO 17005KT M04/M05 RMK AO1 SOG 18 6020 SLP061 T10411054
CWDZ 291200Z AUTO 35012KT 05/M04 RMK AO1 PK WND 33021/1112 T00451035
CWEE 291200Z AUTO 04/04 RMK AO1 SLP108 T00430043 53019
CWEF 291200Z AUTO 33001KT 09/07 RMK AO1 SLP199 T00900069 53015
CWEH 291200Z AUTO 32021G26KT 03/M02 RMK AO1 PK WND 31029/1144 SLP152 T00321015 51015
CWEK 291200Z AUTO 04031KT 11/01 RMK AO1 PK WND 04039/1143 SLP218 T01140010 53004
CWEL 291200Z AUTO 31007KT 10/09 RMK AO1 SLP158 T00980086 51002
CWEP 291200Z AUTO 20005KT 12/11 RMK AO1 SLP200 T01220110 52008
CWEQ 291200Z AUTO 30012G18KT 04/M02 RMK AO1 PK WND 30020/1127 SLP012 T00361023 53004
CWER 291200Z AUTO 03008KT RMK AO1
CWEU 291200Z 00000KT 10SM IC SKC M34/M38 A3031 RMK SLP268
CWEW 291200Z AUTO 21001KT 09/08 RMK AO1 SLP120 T00930083 53005
CWEZ 291200Z AUTO 30004KT 10/08 RMK AO1 SLP155 T00980075 55000
CWFF 291200Z AUTO 30013G19KT 02/M01 RMK AO1 SOG 08 3014 PK WND 32025/1101 SLP060 T00161011
CWFJ 291200Z AUTO 28007KT 03/01 RMK AO1 T00260013 50013
CWFQ 291200Z AUTO 36005KT 09/08 RMK AO1 SLP108 T00860083 58001
CWGB 291200Z AUTO 27004KT 09/08 RMK AO1 SLP158 T00930075 51005
CWGD 291200Z AUTO 14005KT 04/03 RMK AO1 3PAST HR 3001 SLP100 P0001 T00430033 50003
CWGL 291200Z AUTO 08003KT 03/01 RMK AO1 SLP101 T00270014 54000
CWGM 291200Z AUTO 21005KT 01/M00 RMK AO1 7PAST HR M P0003 T00101001 50017
CWGR 291200Z AUTO 19004KT 10/09 RMK AO1 SLP189 T00970087 51007
CWGT 291200Z AUTO 33003KT 10/09 RMK AO1 SLP161 T00960086 53004
CWGW 291200Z AUTO 15008G15KT 05/M02 RMK AO1 SOG 00 3028 SLP222 T00541018
CWGX 291200Z AUTO 08009G15KT M04/M05 RMK AO1 3PAST HR SOG 10 3016 SLP021 P0001 T10371047 50020
CWGY 291200Z AUTO 30020G27KT 03/M05 RMK AO1 PK WND 29027/1112 SLP176 T00321047 53017
CWHL 291200Z AUTO 36006KT 07/05 RMK AO1 SLP211 T00710047 52005
CWHN 291200Z AUTO 32018G29KT 9SM FEW024 BKN048 01/M04 A2987 RMK SLP140
CWHO 291200Z AUTO 18006KT 02/M00 RMK AO1 9PAST HR 8011 SLP139 P0011 T00241002 50029
CWHP 291200Z AUTO 16009KT 07/06 RMK AO1 5000 SLP177 T00660059 50002
CWHQ 291200Z AUTO 34001KT 10/09 RMK AO1 T00950094
CWHT 291200Z AUTO 07002KT M06/M07 RMK AO1 SOG 00 0001 SLP325 T10601069
CWHV 291200Z AUTO 19002KT 07/07 RMK AO1 SLP128 T00650066 51006
CWID 291200Z AUTO 30006KT 02/M01 RMK AO1 SLP264 T00231011 52027
CWIG 291200Z AUTO 02006KT RMK AO1
CWII 291200Z AUTO 23013KT 03/01 RMK AO1 T00280012
CWIJ 291200Z AUTO 20001KT M15/M17 RMK AO1 SLP249 T11541172 51014
CWIK 291200Z AUTO 32007KT 03/01 RMK AO1 SOG 00 2006 SLP044 T00250005
CWIL 291200Z AUTO 33008KT ////SM OVC008 M13/M14 A3020
CWIP 291200Z AUTO 06005KT 05/ RMK AO1 T0045
CWIS 291200Z AUTO 20004KT 07/07 RMK AO1 SLP133 T00720071 53008
CWIT 291200Z AUTO 32002KT 09/08 RMK AO1 6PAST HR 5002 SLP108 P0002 T00870080 50020
CWIW 291200Z AUTO 32016G25KT 03/M03 RMK AO1 PK WND 32025/1159 SLP084 T00261029 53015
CWIX 291200Z AUTO 02003KT 08/07 RMK AO1 SLP118 T00810072 51035
CWIZ 291200Z AUTO 05001KT 09/08 RMK AO1 2PAST HR M P0001 T00930082 50009
CWJB 291200Z AUTO 02002KT 10/09 RMK AO1 T01010093
CWJC 291200Z AUTO 03015KT M18/M19 RMK AO1 SOG 15 1035 PK WND 03018/1124 SLP193 T11751193 50002
CWJD 291200Z AUTO 28009G16KT 02/01 RMK AO1 1PAST HR 5003 PK WND 29017/1131 SLP965 P0000 T00170006 50001
CWJH 291200Z AUTO 34009G16KT M02/M02 RMK AO1 9PAST HR SOG 02 3043 PK WND 34020/1108 SLP025 P0004 T10201015 50019
CWJI 291200Z AUTO 29016KT 04/M02 RMK AO1 PK WND 31024/1106 SLP112 T00371023 53017
CWJO 291200Z AUTO 33008KT 09/08 RMK AO1 SLP129 T00860075 53024
CWJR 291200Z AUTO 00000KT 03/02 RMK AO1 SLP203 T00280017 53010
CWJT 291200Z AUTO 00000KT 07/07 RMK AO1 0006 SLP112 T00710071 50040
CWJV 291200Z AUTO 08002KT M00/M00 RMK AO1 SLP218 T10011001 51016
CWJW 291200Z AUTO 09001KT M00/M04 RMK AO1 SLP278 T10031040 51017
CWJX 291200Z AUTO 32020G29KT 05/M04 RMK AO1 PK WND 34029/1158 SLP165 T00511043 51019
CWKD 291200Z AUTO 27005KT 06/04 RMK AO1 1028 SLP104 T00550043 50006
CWKG 291200Z AUTO 12002KT 02/01 RMK AO1 SLP198 T00170011 53001
CWKH 291200Z AUTO 10/06 RMK AO1 SLP145 T01020058 56001
CWKK 291200Z AUTO 21012G19KT M01/M03 RMK AO1 SOG 01 8017 PK WND 20020/1140 SLP067 T10091027
CWKM 291200Z AUTO 25009KT M01/ A3019 RMK SLP230
CWKO 291200Z AUTO 32018G23KT 04/M02 RMK AO1 PK WND 33032/1115 SLP109 T00421022 53018
CWKP 291200Z AUTO 10012KT M06/ A3007 RMK SLP218
CWKW 291200Z AUTO ///// A2964
CWKX 291200Z AUTO 03003KT M05/M06 RMK AO1 SOG 02 1003 SLP368 T10471056
CWLB 291200Z AUTO 32012G21KT 03/M04 RMK AO1 PK WND 31024/1140 SLP185 T00291043 51012
CWLC 291200Z AUTO 35007KT 09/04 RMK AO1 T00930043
CWLE 291200Z AUTO 30021G26KT 04/M01 RMK AO1 PK WND 30028/1111 SLP121 T00361013 53014
CWLI 291200Z AUTO 06010KT ////SM //// OVC003 M03/M03 A3004
CWLM 291200Z AUTO 25005KT 09/08 RMK AO1 SLP156 T00920080 53001
CWLP 291200Z AUTO 12008KT 08/07 RMK AO1 SLP157 T00770074 50001
CWLS 291200Z AUTO 16001KT 03/02 RMK AO1 SLP104 T00280019 55002
CWLY 291200Z AUTO 02007KT 9SM CLR 04/04 A3017 RMK SLP224
CWME 291200Z AUTO 06031G45KT 15/01 RMK AO1 PK WND 05045/1158 SLP184 T01520007 51010
CWMJ 291200Z AUTO 00000KT 05/05 RMK AO1 SOG 01 1007 SLP115 T00490046
CWMM 291200Z AUTO 00000KT 05/05 RMK AO1 SLP158 T00530049 50000
CWMQ 291200Z AUTO 32009KT 05/M01 RMK AO1 PK WND 33026/1130 SLP180 T00511012 51012
CWMT 291200Z AUTO 35006KT 00/M03 RMK AO1 SLP253 T00001029 51026
CWMZ 291200Z AUTO 24012KT 07/03 RMK AO1 SLP096 T00740027 53004
CWNC 291200Z AUTO 08002KT 05/03 RMK AO1 2PAST HR 1001 SLP103 P0001 T00490027 50002
CWND 291200Z AUTO 27014KT M02/ RMK AO1 PK WND 27017/1156 SLP172 T1022 52023
CWNE 291200Z AUTO 22008KT 09/07 RMK AO1 SLP184 T00930066 53007
CWNH 291200Z AUTO 17005KT 10/08 RMK AO1 SLP128 T00990078 53007
CWNK 291200Z AUTO 30008KT 05/02 RMK AO1 T00490015
CWNL 291200Z AUTO 36003KT 04/M00 RMK AO1 SLP103 T00381001 52011
CWNM 291200Z AUTO 20002KT 05/04 RMK AO1 SOG 00 1011 SLP202 T00450035
CWNP 291200Z AUTO 11002KT 04/03 RMK AO1 SOG 00 1011 SLP212 T00440029
CWNQ 291200Z AUTO 16002KT 11/09 RMK AO1 SLP112 T01060090 51008
CWNZ 291200Z AUTO 36002KT M04/M05 RMK AO1 SOG 07 3007 SLP117 T10381052 50004
CWOB 291200Z AUTO 07018G27KT 040V100 ////SM //// OVC002 M05/M05 A2980
CWOC 291200Z AUTO 20004KT 07/06 RMK AO1 SLP167 T00720063 53007
CWOD 291200Z AUTO 14001KT 07/06 RMK AO1 3024 SLP106 T00670060 50012
CWOE 291200Z AUTO 31016G21KT 03/02 RMK AO1 PK WND 31021/1115 SLP188 T00290019 51020
CWOY 291200Z AUTO 32016G27KT 02/M02 RMK AO1 SOG 01 3010 PK WND 30027/1151 SLP066 T00151024 50003
CWPC 291200Z AUTO 07005KT 05/03 RMK AO1 SLP106 T00510030 58004
CWPD 291200Z AUTO 19005KT 07/07 RMK AO1 SLP103 T00720072 53011
CWPE 291200Z AUTO 17009KT 13/12 RMK AO1 6PAST HR 2006 SLP183 P0002 T01290124 50006
CWPF 291145Z AUTO 01002KT 07/06 RMK AO1 T00740064
CWPF 291200Z AUTO 35002KT 07/06 RMK AO1 SLP154 T00720062 53001
CWPF 291215Z AUTO 02002KT 07/06 RMK AO1 T00700060
CWPF 291230Z AUTO 02003KT 07/06 RMK AO1 T00700060
CWPK 291200Z AUTO 22002KT 03/02 RMK AO1 SLP119 T00310023 53016
CWPO 291200Z AUTO 30007KT 04/02 RMK AO1 SLP015 T00430016 50003
CWPR 291200Z AUTO 00000KT M01/M01 RMK AO1 SOG 00 1019 SLP229 T10061007
CWPS 291200Z AUTO 36011KT 08/M01 RMK AO1 PK WND 35017/1115 SLP097 T00771009 55000
CWPX 291200Z AUTO ///// ////SM //// BKN003 BKN039 OVC055 M15/M17 A3018
CWPZ 291200Z AUTO 30002KT M05/M06 RMK AO1 SLP318 T10451061 52013
CWQH 291200Z AUTO 05005KT 10/09 RMK AO1 T01000092
CWQK 291200Z AUTO 27011KT 10/08 RMK AO1 SLP155 T00960084 50000
CWQO 291200Z AUTO 35002KT 06/05 RMK AO1 T00590053
CWQP 291200Z AUTO 03006KT 05/04 RMK AO1 6PAST HR 8002 SLP103 P0006 T00530042 50027
CWQR 291200Z AUTO 06014KT 05/04 RMK AO1 PK WND 06018/1148 T00490040
CWQS 291200Z AUTO 07004KT 13/M01 RMK AO1 SLP210 T01301007 51008
CWQV 291200Z AUTO 07003KT 09/06 RMK AO1 T00890055
CWRA 291200Z AUTO 01007KT 08/06 RMK AO1 SLP182 T00750064 53020
CWRF 291200Z AUTO 00000KT M12/ A3003 RMK SLP214
CWRH 291200Z AUTO ///// M03/ A2974 RMK SLP105
CWRJ 291200Z AUTO 31019G25KT 04/M01 RMK AO1 PK WND 32026/1149 SLP124 T00411011 53013
CWRK 291200Z AUTO 00000KT 02/02 RMK AO1 SOG 00 0002 SLP111 T00160016
CWRM 291200Z AUTO 29013G19KT 02/M04 RMK AO1 PK WND 29021/1128 SLP251 T00191039 51023
CWRN 291200Z AUTO 24002KT 09/08 RMK AO1 SLP208 T00890078 53009
CWRO 291200Z AUTO 01016G22KT 09/06 RMK AO1 1PAST HR 5001 PK WND 01022/1101 SLP220 P0000 T00860058 50007
CWRT 291200Z AUTO 13003KT 02/M00 RMK AO1 T00171003
CWRU 291200Z AUTO 07003KT 11/08 RMK AO1 SLP137 T01090081 53004
CWRX 291200Z AUTO 02016G25KT ////SM //// ////// M12/M14 A3007
CWRY 291200Z AUTO 33013G19KT 03/02 RMK AO1 2PAST HR 1021 PK WND 34020/1113 SLP213 P0001 T00320022 50013
CWRZ 291200Z AUTO 23010KT 08/08 RMK AO1 SLP160 T00790075 53002
CWSA 291151Z AUTO 26002KT 9SM SCT022 10/08 A3016 RMK TS/LTNG TEMPO UNAVBL SLP215
CWSA 291200Z AUTO 00000KT 9SM FEW022 11/09 A3018 RMK PRESRR TS/LTNG TEMPO UNAVBL SLP221
CWSD 291200Z AUTO 22007KT 10/08 RMK AO1 SLP193 T00980075 53007
CWSF 291200Z AUTO 15012KT 08/05 RMK AO1 PK WND 21022/1115 SLP140 T00840047 53009
CWSG 291200Z AUTO 21003KT 03/03 RMK AO1 SLP139 T00280027 51007
CWSK 291200Z AUTO 02002KT 07/07 RMK AO1 SLP162 T00740071 50002
CWSL 291200Z AUTO 20002KT 03/03 RMK AO1 SLP225 T00320032 51013
CWSP 291200Z AUTO 29001KT 09/08 RMK AO1 SLP159 T00880081 50003
CWSR 291200Z AUTO 31018G27KT 03/M05 RMK AO1 PK WND 32029/1118 SLP087 T00271047 53006
CWSS 291200Z AUTO 17004KT 13/11 RMK AO1 SLP175 T01260113 53004
CWST 291200Z AUTO 16012G18KT 11/09 RMK AO1 PK WND 16018/1155 SLP121 T01120087 53006
CWTA 291200Z AUTO 10001KT 09/07 RMK AO1 2PAST HR 2003 SLP112 P0001 T00930069 50007
CWTG 291200Z AUTO 03007KT 04/04 RMK AO1 SLP143 T00390038 52011
CWTN 291200Z AUTO 01001KT 09/08 RMK AO1 SLP124 T00880084 53005
CWTT 291200Z AUTO 11002KT 12/10 RMK AO1 T01220101
CWTU 291200Z AUTO ///// A2992
CWTY 291200Z AUTO 18005KT 11/10 RMK AO1 SLP108 T01130098 51009
CWUP 291200Z AUTO ///// M08/ A2990 RMK SLP162
CWUS 291200Z AUTO 27003KT 02/01 RMK AO1 SLP212 T00160006 51015
CWUW 291200Z AUTO 09020G27KT ////SM //// BKN043 OVC070 M10/M11 A2987
CWUX 291200Z AUTO 29005KT 08/07 RMK AO1 SLP115 T00800072 53017
CWVD 291200Z AUTO 01011KT M08/ A2986 RMK SLP169
CWVF 291145Z AUTO 31007KT 10/ RMK AO1 T0101
CWVF 291200Z AUTO 30009KT 10/ RMK AO1 T0101
CWVF 291215Z AUTO 30008KT 10/ RMK AO1 T0102
CWVF 291230Z AUTO 31007KT 10/ RMK AO1 T0101
CWVH 291200Z AUTO 27017KT M04/ A3011 RMK SLP221
CWVI 291200Z AUTO 31018G24KT 04/M03 RMK AO1 PK WND 33033/1102 SLP188 T00351034 51018
CWVN 291200Z AUTO 33024G31KT 06/M03 RMK AO1 SOG 00 1029 PK WND 33031/1151 SLP144 T00581031
CWVP 291200Z AUTO 32011G21KT 01/M02 RMK AO1 3014 PK WND 31029/1113 SLP152 T00101021 50007
CWVQ 291200Z AUTO 28002KT 08/08 RMK AO1 3PAST HR 3001 SLP114 P0001 T00750075 50007
CWVT 291200Z AUTO 33020G33KT M00/M04 RMK AO1 2PAST HR 1023 PK WND 33034/1143 SLP122 P0001 T10021043 50002
CWVU 291200Z AUTO 14011KT 12/11 RMK AO1 SOG 00 3010 SLP205 T01220108
CWWA 291200Z AUTO 00000KT 11/06 RMK AO1 SLP152 T01070064 58003
CWWB 291200Z AUTO 35003KT 06/01 RMK AO1 SLP101 T00630007 57006
CWWE 291200Z AUTO 02003KT 09/09 RMK AO1 SLP197 T00930093 53002
CWWF 291200Z AUTO 32016G22KT 04/M02 RMK AO1 PK WND 34026/1108 SLP073 T00401015 53014
CWWK 291200Z AUTO 00000KT 06/06 RMK AO1 SLP157 T00640060 58002
CWWL 291200Z AUTO 03006KT 08/ RMK AO1 SLP204 T0084 51007
CWWS 291200Z AUTO 31021G26KT 04/02 RMK AO1 4PAST HR 3002 PK WND 31028/1138 SLP948 P0002 T00360019 50022
CWWU 291200Z 01012KT 15SM OVC011 08/07 A3007 RMK SC8 T3019 SLP185
CWWU 291230Z 35009KT 15SM OVC009 08/07 A3008 RMK SF8 SLP188
CWWX 291200Z AUTO 03006KT 06/04 RMK AO1 SLP094 T00580039 51009
CWWZ 291200Z AUTO 13007KT 07/04 RMK AO1 SLP099 T00690044 58006
CWXA 291200Z AUTO 14001KT M00/M01 RMK AO1 2012 SLP224 T10041010 50007
CWXC 291200Z AUTO 24002KT 08/07 RMK AO1 SLP111 T00810068 53031
CWXI 291200Z AUTO 29004KT 07/04 RMK AO1 SLP177 T00710041 53009
CWXL 291200Z AUTO 31012G17KT 05/02 RMK AO1 PK WND 29018/1135 T00480022 50008
CWXR 291200Z AUTO 14007KT M06/ A3015 RMK SLP221
CWYJ 291200Z AUTO 24002KT 06/06 RMK AO1 SLP155 T00550061 53001
CWYL 291200Z AUTO 07007KT 02/M05 RMK AO1 SOG 05 1022 SLP221 T00201049
CWYM 291200Z AUTO 34017KT M08/ A2982 RMK SLP150
CWYY 291200Z AUTO 03005KT 06/04 RMK AO1 SLP195 T00590041 51009
CWZA 291200Z AUTO 32011G17KT 15/07 RMK AO1 6004 PK WND 01018/1114 SLP153 T01460070 50001
CWZG 291200Z AUTO 05003KT 01/M01 RMK AO1 1014 SLP230 T00101006 50014
CWZL 291200Z AUTO 31010KT 10/04 RMK AO1 PK WND 32018/1106 SLP224 T01010039 51008
CWZO 291200Z AUTO 36001KT RMK AO1
CWZQ 291200Z AUTO 14005KT 10/10 RMK AO1 SLP199 T01030096 51012
CWZQ 291220Z AUTO 16005KT 11/10 RMK AO1 T01100099
CWZQ 291240Z AUTO 16004KT 11/10 RMK AO1 T01140100
CWZS 291200Z AUTO 16005KT 08/07 RMK AO1 SLP141 T00840069 51004
CWZV 291200Z AUTO 02022G28KT 13/ RMK AO1 PK WND 03030/1148 SLP180 T0125 51004
CWZW 291200Z AUTO 07004KT M06/M07 RMK AO1 SLP340 T10611066 58002
CWZZ 291200Z AUTO 20022G28KT ////SM //// SCT065 SCT090 OVC130 M03/M03 A2970
CXAF 291200Z AUTO 33016KT 02/M04 RMK AO1 PK WND 33028/1144 T00241043
CXAG 291200Z AUTO 32020KT 03/M04 RMK AO1 PK WND 31027/1149 T00321042
CXAJ 291200Z AUTO 32016KT 03/M03 RMK AO1 PK WND 32027/1115 T00281034
CXAK 291200Z AUTO 32021KT 02/M03 RMK AO1 PK WND 31038/1105 T00191033 50004
CXAT 291200Z AUTO 08005KT M14/M16 RMK AO1 SOG 01 7006 SLP222 T11351163 50002
CXBA 291200Z AUTO 32017KT 03/M03 RMK AO1 PK WND 33030/1104 T00321026
CXBI 291200Z AUTO 31001KT M00/M01 RMK AO1 SOG 01 5000 SLP111 T10021008
CXBK 291200Z AUTO 30016G21KT 03/M03 RMK AO1 PK WND 31022/1102 SLP074 T00271028 51014
CXBO 291200Z AUTO 06006KT RMK AO1
CXBR 291200Z AUTO 27005KT 04/M01 RMK AO1 T00361008
CXBW 291200Z AUTO 29012KT 05/01 RMK AO1 T00480013 50005
CXCA 291200Z AUTO 18005KT M02/M04 RMK AO1 SOG 01 6013 SLP085 T10211041
CXCD 291200Z AUTO 11001KT 00/M03 RMK AO1 T00001026
CXCH 291200Z AUTO 05/02 RMK AO1 T00480024
CXCK 291200Z AUTO 01001KT M07/M08 RMK AO1 SOG 05 1002 SLP316 T10711080
CXCP 291200Z AUTO 32013KT 04/M00 RMK AO1 PK WND 32017/1154 T00361003 50004
CXDB 291200Z AUTO 31013KT 01/01 RMK AO1 4PAST HR M PK WND 31020/1102 P0002 T00110006 50009
CXDE 291200Z AUTO 29002KT M06/M07 RMK AO1 SOG 07 1003 SLP262 T10641070
CXDI 291200Z AUTO 00000KT 04/02 RMK AO1 SLP099 T00400020 55002
CXDK 291200Z AUTO M08/M09 RMK AO1 SLP296 T10771086 51011
CXDP 291200Z AUTO 31015KT 02/M03 RMK AO1 PK WND 31022/1158 T00181028
CXDW 291200Z AUTO 29012KT 05/01 RMK AO1 SOG 02 1006 PK WND 30019/1120 SLP003 T00490013
CXEA 291200Z AUTO 14003KT M02/M02 RMK AO1 SOG 01 6025 SLP999 T10191015 50021
CXEC 291200Z AUTO 30012G18KT 02/M03 RMK AO1 PK WND 29021/1102 SLP221 T00181034 51011
CXEG 291200Z AUTO 01/M03 RMK AO1 T00141027
CXET 291200Z AUTO 12003KT 02/01 RMK AO1 SLP104 T00160007 55001
CXFM 291200Z AUTO 28012KT 04/02 RMK AO1 T00420015 50009
CXFR 291200Z AUTO 30005KT M01/M02 RMK AO1 T10081022
CXGH 291200Z AUTO 25005KT 01/M01 RMK AO1 T00101007
CXHA 291200Z AUTO 29003KT 03/01 RMK AO1 SLP107 T00340011 55001
CXHD 291200Z AUTO 31020KT 03/M03 RMK AO1 PK WND 31030/1137 T00271031
CXHF 291200Z AUTO 06/06 RMK AO1 T00630059
CXHM 291200Z AUTO 30001KT 04/04 RMK AO1 SLP098 T00440042 56005
CXHR 291200Z AUTO 32019KT 02/M04 RMK AO1 PK WND 32032/1105 T00211040
CXIB 291200Z AUTO 23001KT 05/04 RMK AO1 SOG 00 3015 SLP206 T00490038
CXKA 291200Z AUTO 34001KT M03/M05 RMK AO1 SOG 02 3014 SLP114 T10261050 50002
CXKE 291200Z AUTO 36001KT 06/06 RMK AO1 SOG 01 8002 SLP108 T00640064
CXKI 291200Z AUTO M00/M00 RMK AO1 SOG 00 3010 SLP109 T10041001
CXKM 291200Z AUTO 32021KT 03/M04 RMK AO1 PK WND 32030/1118 T00281039
CXKT 291200Z AUTO 00000KT 03/03 RMK AO1 SLP197 T00330031 53007
CXLB 291200Z AUTO 28003KT 09/09 RMK AO1 SLP193 T00890088 53004
CXLC 291200Z AUTO 34003KT M07/M08 RMK AO1 SLP236 T10691077 51025
CXLL 291200Z AUTO 19001KT M03/M03 RMK AO1 SLP292 T10331034 50008
CXMD 291200Z AUTO 29009KT 05/02 RMK AO1 SLP999 T00500015 51004
CXMG 291200Z AUTO 30006KT 01/M01 RMK AO1 T00071013
CXMI 291200Z AUTO 00000KT 11/10 RMK AO1 T01080101
CXMM 291200Z AUTO 33019G28KT 02/M04 RMK AO1 PK WND 32031/1122 SLP161 T00201040 53025
CXMO 291200Z AUTO 34014KT 02/M05 RMK AO1 PK WND 35027/1104 T00161048
CXMY 291200Z AUTO 03/02 RMK AO1 T00270022
CXNM 291200Z AUTO 28006KT 07/04 RMK AO1 SOG 02 T00720042
CXNP 291200Z AUTO 17005KT 06/05 RMK AO1 SLP200 T00550053 53010
CXOL 291200Z AUTO 31021KT 02/M04 RMK AO1 PK WND 31029/1143 T00211038
CXOX 291200Z AUTO 31014G26KT 00/M03 RMK AO1 SOG 00 1015 PK WND 33026/1154 SLP044 T00001027 50004
CXOY 291200Z AUTO 33022KT 03/M04 RMK AO1 PK WND 34029/1157 T00281039
CXPA 291200Z AUTO 25003KT 01/M02 RMK AO1 T00071022
CXPC 291200Z AUTO 05/04 RMK AO1 SLP093 T00470036 53005
CXPL 291200Z AUTO 33023KT 04/M04 RMK AO1 PK WND 33032/1119 T00361039
CXRB 291200Z AUTO 04009KT M25/M27 RMK AO1 SLP253 T12481269 53001
CXRH 291200Z AUTO 15002KT 02/ RMK AO1 T0015
CXRL 291200Z AUTO 27014KT 01/M04 RMK AO1 4PAST HR M PK WND 28028/1131 P0002 T00101040 50004
CXSC 291200Z AUTO 33023KT 05/M03 RMK AO1 PK WND 32036/1141 T00511029
CXSE 291200Z AUTO 32005KT M24/M27 RMK AO1 SOG 28 1004 SLP301 T12351269
CXSH 291200Z AUTO 16003KT 10/10 RMK AO1 1012 SLP111 T00950097 50006
CXSL 291200Z AUTO 32019KT 03/M04 RMK AO1 PK WND 32030/1154 T00261041
CXSP 291200Z AUTO 31018KT 02/M04 RMK AO1 PK WND 30028/1134 T00151036
CXSR 291200Z AUTO 32009KT M00/M03 RMK AO1 SLP294 T10011027 51010
CXTD 291200Z AUTO 22005KT 09/07 RMK AO1 SOG 00 1013 SLP214 T00940071
CXTH 291200Z AUTO 31023KT 03/M05 RMK AO1 PK WND 32039/1119 T00291048
CXTN 291200Z AUTO 24007KT M06/M06 RMK AO1 SLP212 T10561064 58006
CXTO 291200Z AUTO 07/01 RMK AO1 SLP101 T00650012 56005
CXTP 291200Z AUTO 31003KT 07/06 RMK AO1 SLP183 T00690063 53016
CXTV 291200Z AUTO 29013KT M01/M03 RMK AO1 PK WND 30022/1105 SLP202 T10111034 53027
CXVM 291200Z AUTO 34012KT 03/M02 RMK AO1 PK WND 32021/1106 T00271022
CXVN 291200Z AUTO 19002KT 06/03 RMK AO1 SLP095 T00600034 58004
CXVW 291200Z AUTO 28008KT 02/M02 RMK AO1 T00161019
CXWB 291200Z AUTO 06021KT M08/M10 RMK AO1 PK WND 05028/1118 SLP177 T10751102 53010
CXWM 291200Z AUTO 28012KT 04/02 RMK AO1 PK WND 30018/1108 T00350024 50022
CXWN 291200Z AUTO 24003KT 03/M00 RMK AO1 SLP983 T00251003 56004
CXYH 291200Z AUTO M05/M06 RMK AO1 SLP280 T10491056 51014
CXZC 291200Z AUTO 27005KT M02/M02 RMK AO1 SOG 00 3023 SLP107 T10161023 50004
CXZV 291200Z AUTO 06006KT 05/05 RMK AO1 SLP149 T00490048 51008
CYAH 291200Z AUTO 22015G23KT 9SM BKN016 BKN021 OVC034 02/00 A2962 RMK TS/LTNG TEMPO UNAVBL SLP048
CYAH 291210Z AUTO 22015G23KT 9SM SCT016 OVC034 02/00 A2962 RMK SLP049
CYAH 291218Z AUTO 22014G22KT 9SM BKN016 OVC034 02/00 A2963 RMK TS/LTNG TEMPO UNAVBL SLP052
CYAH 291235Z AUTO 21015G22KT 9SM -RA BKN016 BKN036 OVC048 02/00 A2963 RMK TS/LTNG TEMPO UNAVBL SLP053
CYAM 291200Z CCA VRB02KT 6SM -SHSN FEW011 BKN016TCU 00/M00 A2982 RMK CF1TCU6 SLP107
CYAM 291200Z VRB02KT 6SM -SHSN FEW011 BKN016TCU 00/M00 A2982 RMK CF1TCU6 SLP107
CYAM 291234Z 00000KT 1SM R12/P6000FT/D -SHSN BKN017 00/M00 A2983 RMK SN2SC5 CVCTV CLD EMBD SLP111
CYAM 291244Z 00000KT 2 1/2SM -SHRA BKN021 00/M00 A2983 RMK SN1SC6 CVCTV CLD EMBD SLP112
CYAT 291200Z AUTO /////KT 9SM OVC028 M03/M05 A2981 RMK WND MISG SLP096
CYAT 291241Z AUTO /////KT 9SM OVC024 M03/M05 A2982 RMK WND MISG SLP101
CYAY 291148Z AUTO VRB02KT 9SM BKN015 OVC026 06/06 A3006 RMK SLP182
CYAY 291200Z AUTO 00000KT 9SM BKN013 OVC024 06/06 A3006 RMK SLP182
CYAY 291225Z AUTO 27004KT 220V290 9SM OVC011 07/06 A3006 RMK SLP181
CYBC 291200Z AUTO 10012KT 9SM SCT075 BKN100 06/05 A2994 RMK SLP140
CYBG 291200Z 26004KT 4SM -SHRA BR FEW006 SCT010 OVC025 09/08 A2988 RMK SF2SF1SC5 SLP122
CYBG 291211Z 30009KT 4SM -RA BR BKN005 OVC025 09/08 A2989 RMK SF5SC3 SLP125
CYBK 291200Z 34012KT 15SM FEW004 SCT018 M16/M17 A3012 RMK ST2SC1 SLP204
CYBN 291200Z AUTO 00000KT 8SM CLR M01/M01 A2982 RMK SLP108
CYBQ 291200Z AUTO 04014G20KT 3SM -SN FEW010 OVC036 M06/M06 A2975 RMK SLP100
CYBQ 291221Z AUTO 05012G20KT 2 1/2SM -SN OVC032 M06/M07 A2977 RMK SLP106
CYBQ 291230Z AUTO 04016G24KT 3SM -SN OVC032 M06/M07 A2978 RMK SLP108
CYBQ 291236Z AUTO 05014G21KT 6SM -SN OVC037 M06/M07 A2978 RMK SLP111
CYBQ 291241Z AUTO 04014G21KT 5SM -SN OVC039 M06/M07 A2979 RMK SLP112
CYBR 291200Z 30011KT 15SM OVC074 04/00 A2955 RMK AC8 SLP027
CYBU 291200Z AUTO 30015G24KT 9SM FEW040 BKN080 OVC160 02/M03 A2960 RMK SLP041
CYBW 291200Z AUTO 32009G15KT 9SM OVC085 02/M03 A3017 RMK SLP240
CYBX 291200Z 00000KT 15SM BKN017 06/05 A3006 RMK SC7 SLP184
CYCB 291200Z 06006KT 3SM -SN FEW006 BKN025 M16/M18 A3028 RMK SF1SC7 SF TR SLP261
CYCK 291200Z AUTO 34008KT 9SM OVC048 04/03 A2982 RMK SLP106
CYCO 291200Z 24009KT 2SM -SN BR OVC006 M05/M06 A3018 RMK ST8 SLP225
CYCO 291200Z CCA 24009KT 2SM -SN BR OVC006 M05/M06 A3018 RMK ST8 SLP225
CYCX 291200Z 14004KT 15SM BKN010 10/10 A3005 RMK SC7 DA-338FT SF ASOCTD SLP179
CYCY 291200Z 29015KT 25SM OVC035 M11/M14 A3012 RMK SC8 SLP205
CYDB 291200Z AUTO 30004KT 9SM SCT150 OVC180 M06/M08 A3031 RMK SLP311
CYDF 291200Z 00000KT 15SM SCT017 BKN021 04/02 A3012 RMK SC3SC4 SLP202
CYDL 291200Z AUTO 04004KT 9SM OVC003 M05/M05 A3048 RMK SLP354
CYDL 291221Z AUTO 06007KT 9SM SCT003 M05/M07 A3048 RMK SLP356
CYDL 291238Z AUTO 07005KT 9SM BKN003 M05/M07 A3048 RMK SLP356
CYDN 291200Z AUTO 27011KT 9SM BKN055 03/M01 A2951 RMK SLP007
CYDP 291200Z 17004KT 15SM FEW022 BKN100 01/M02 A2985 RMK SC1AS6 PRESFR SLP111
CYDQ 291200Z AUTO 26005KT 9SM CLR M00/M03 A3037 RMK SLP317
CYED 291200Z AUTO 29011G18KT 9SM CLR 01/M04 A3012 RMK SLP221
CYEG 291200Z 30016KT 15SM FEW040 02/M04 A3014 RMK SC1 SC TR SLP230
CYEK 291153Z AUTO 34016KT 9SM OVC012 M11/M12 A2995 RMK SLP144
CYEK 291200Z AUTO 34016KT 9SM BKN010 OVC013 M11/M12 A2995 RMK SLP145
CYEK 291207Z AUTO 34017KT 5SM BR BKN008 OVC013 M10/M11 A2995 RMK SLP146
CYEK 291209Z AUTO 35016KT 4SM BR SCT006 OVC011 M10/M11 A2995 RMK SLP146
CYEK 291219Z AUTO 35016KT 6SM BR SCT006 OVC016 M10/M11 A2996 RMK SLP148
CYEK 291233Z AUTO 35016KT 4SM BR SCT006 OVC014 M10/M11 A2996 RMK SLP148
CYEK 291234Z AUTO 35016KT 3SM BR SCT006 OVC014 M10/M11 A2996 RMK ICG SLP148
CYEK 291237Z AUTO 35014KT 2 1/2SM BR SCT004 OVC014 M10/M11 A2996 RMK ICG SLP148
CYEK 291240Z AUTO 35013G18KT 2 1/2SM BR BKN004 OVC014 M10/M11 A2996 RMK ICG SLP148
CYEK 291244Z AUTO 35013G18KT 2 1/2SM BR SCT004 OVC012 M09/M10 A2996 RMK ICG SLP149
CYEN 291200Z 30018G24KT 15SM OVC140 06/M01 A2969 RMK AC8 SLP069
CYER 291200Z AUTO 05003KT 9SM BKN028 OVC034 M05/M05 A2976 RMK SLP079
CYET 291200Z AUTO 29006KT 9SM CLR 01/M05 A3028 RMK SLP284
CYEV 291200Z 01003KT 300V020 15SM SCT040 BKN078 M02/M04 A3016 RMK SC3AC3 SLP222
CYFB 291200Z 12010KT 5SM -SN OVC032 M04/M05 A2987 RMK SC8 SLP120
CYFC 291200Z AUTO 08002KT 9SM OVC012 09/09 A3004 RMK SLP176
CYFO 291200Z 28010G18KT 10SM -SN OVC009 01/M00 A2940 RMK SC8 SLP972
CYFO 291219Z 30010G17KT 250V330 2 1/2SM -SN OVC009 01/M01 A2940 RMK SN1SC7 SLP973
CYFO 291243Z 32014KT 280V350 5SM -SN OVC007 01/M01 A2941 RMK SC8 SLP975
CYFS 291200Z 29006KT 15SM FEW087 FEW250 01/M02 A3034 RMK AC1CI1 CI TR SLP287
CYFT 291200Z VRB02KT 15SM SCT220 01/M01 A2995 RMK CI4 SENT VIA CYDP SLP148
CYGE 291200Z 34003KT 20SM FEW055 SCT090 01/01 A3012 RMK SC1AC2 SLP227
CYGE 291227Z 31005KT 290V360 20SM FEW004 FEW050 SCT090 00/M00 A3014 RMK ST1SC1AC2 VIS N 1 SLP235
CYGK 291200Z 35003KT 4SM -RA BR SCT004 OVC038 06/05 A2984 RMK SF4NS4 SLP109
CYGL 291200Z 26010KT 1SM -SN OVC006 M02/M02 A2965 RMK SF8 /S04/ SLP055
CYGL 291200Z CCA 26010KT 1SM -SN OVC006 M02/M02 A2965 RMK SF8 SLP055
CYGL 291214Z 27009KT 2SM -SN OVC004 M02/M02 A2966 RMK SF8 SLP058
CYGP 291200Z VRB02KT 15SM BKN240 BKN260 01/00 A3000 RMK CC5CI2 SLP163
CYGQ 291200Z 13004KT 15SM -SG OVC018 M05/M05 A2975 RMK SC8 SLP097
CYGQ 291232Z 13005KT 15SM OVC018 M05/M05 A2975 RMK SC8 SLP097
CYGR 291200Z 20005KT 20SM BKN270 10/09 A3010 RMK CI6 SLP193
CYGV 291200Z AUTO 06009KT 9SM CLR 04/04 A3002 RMK SLP170
CYGV 291222Z AUTO 06007KT 9SM BKN004 BKN230 BKN250 04/04 A3003 RMK SLP171
CYGW 291149Z AUTO 32010KT 9SM -SN SCT015 SCT020 OVC046 01/M01 A2960 RMK ICG PAST HR SLP025
CYGW 291154Z AUTO 33010KT 9SM -SN SCT013 BKN020 OVC048 01/M01 A2960 RMK ICG PAST HR SLP025
CYGW 291200Z AUTO 32011KT 8SM -SN SCT013 SCT017 BKN022 OVC046 01/M01 A2960 RMK SLP027
CYGW 291204Z AUTO 32006KT 5SM -SN FEW013 SCT017 BKN030 OVC042 01/M01 A2961 RMK SLP028
CYGW 291213Z AUTO 32009KT 7SM -SN FEW013 SCT020 SCT030 OVC042 01/M01 A2961 RMK SLP028
CYGW 291222Z AUTO 30012KT 5SM -SN SCT015 BKN027 OVC037 01/M01 A2961 RMK SLP031
CYGW 291230Z AUTO 33006G15KT 6SM -SN SCT015 SCT020 BKN029 OVC037 01/M01 A2962 RMK SLP032
CYGW 291231Z AUTO 33006G15KT 8SM -SN SCT015 BKN020 BKN029 OVC039 01/M01 A2962 RMK SLP032
CYGW 291238Z AUTO 32009KT 9SM -SN SCT015 SCT021 BKN027 OVC041 01/M01 A2962 RMK SLP032
CYGX 291200Z 08009KT 040V110 9SM -SN OVC010 M04/M05 A2957 RMK SC8 SLP026
CYHA 291200Z 08020G28KT 1 1/4SM -SN BLSN OVC009 M01/M03 A2971 RMK ST8 SN COV/MED PACK SLP064
CYHD 291200Z AUTO 17014G20KT 9SM OVC010 M02/M03 A2950 RMK ICG PAST HR SLP014
CYHD 291224Z AUTO 16013G18KT 9SM -SN OVC008 M02/M03 A2949 RMK SLP012
CYHE 291200Z AUTO 06006G15KT 040V110 9SM CLR 10/07 A3008 RMK SLP188
CYHK 291200Z AUTO 02009KT 9SM -SN OVC004 M16/M18 A3019 RMK SLP230
CYHK 291212Z AUTO 02008KT 5SM -SN OVC004 M15/M16 A3018 RMK SLP229
CYHK 291216Z AUTO 02008KT 7SM -SN OVC004 M15/M16 A3018 RMK SLP229
CYHK 291224Z AUTO 01008KT 9SM -SN OVC006 M15/M16 A3019 RMK SLP230
CYHK 291240Z AUTO 03007KT 9SM -SN OVC008 M15/M16 A3018 RMK SLP228
CYHM 291200Z 05004KT 15SM OVC040 04/02 A2981 RMK SC8 SLP104
CYHU 291200Z AUTO 00000KT 9SM -RA OVC026 10/08 A2986 RMK SLP115
CYHY 291149Z 35005KT 320V030 15SM -DZ SCT015 BKN026 OVC046 02/M00 A3024 RMK ST3SC3SC2 PCPN VRY LGT SLP252
CYHY 291200Z 34006KT 15SM -DZ SCT015 BKN032 OVC047 02/M01 A3024 RMK ST3SC3SC2 PCPN VRY LGT SLP253
CYHZ 291200Z 15008KT 2 1/2SM BR FEW250 09/09 A3012 RMK CI1 VSBY 1/2 NM E SLP203
CYHZ 291228Z 16007KT 15SM FEW250 09/09 A3012 RMK CI1 FOG BANK N-E SLP206
CYIN 291200Z AUTO 31007G15KT 9SM CLR 04/M03 A3021 RMK SLP238
CYIO 291200Z AUTO 13006KT 9SM BKN008 OVC080 M16/M18 A3017 RMK SLP226
CYIO 291210Z AUTO 14006KT 9SM -SN BKN008 OVC080 M16/M18 A3017 RMK SLP226
CYIO 291219Z AUTO 14006KT 9SM -SN SCT008 OVC080 M16/M18 A3017 RMK SLP226
CYIO 291225Z AUTO 15006KT 9SM SCT008 OVC080 M16/M18 A3016 RMK SLP225
CYIV 291200Z 13014KT 3SM -SN BKN006 OVC012 M01/M02 A2940 RMK SN2SC4SC2 VIS VRB 2-4 /S06/ SLP970
CYJT 291200Z 09004KT 030V100 15SM FEW010 BKN022 06/04 A3012 RMK SF1SC7 SF TR SLP203
CYKA 291200Z 08006KT 070V230 40SM FEW080 SCT250 02/01 A3018 RMK AC1CI3 SLP235
CYKF 291200Z AUTO 30002KT 9SM OVC041 03/02 A2981 RMK SLP104
CYKJ 291200Z AUTO 01015G20KT 4SM -SN FEW014 BKN020 OVC026 M06/M08 A2970 RMK SLP088
CYKL 291200Z AUTO 17011G17KT 9SM -RA FEW031 BKN080 OVC091 03/02 A2968 RMK SLP079
CYKL 291242Z AUTO 18012G17KT 9SM OVC100 03/02 A2967 RMK SLP074
CYKP 291200Z AUTO 17004KT 9SM OVC018 M04/M07 A2977 RMK SLP095
CYKY 291200Z 34021G28KT 15SM OVC043 04/M02 A2993 RMK SC8 SLP150
CYKZ 291200Z 36002KT 12SM OVC047 04/02 A2982 RMK SC8 SLP104
CYLA 291200Z 10006KT 12SM SCT018 OVC060 M01/M02 A2961 RMK SC4SC4 SN CVR/MUCH LOOSE SLP031
CYLA 291239Z 08005KT 12SM -SN BKN012 OVC043 M01/M02 A2960 RMK SC5SC3 SLP026
CYLD 291200Z 36002KT 15SM OVC007 M05/M06 A2980 RMK SC8 SLP121
CYLH 291200Z AUTO 13005KT 9SM OVC021 M04/M08 A2968 RMK SLP069
CYLJ 291200Z 31020G31KT 15SM -SN BKN030 03/M02 A2983 RMK SC7 SLP120
CYLL 291200Z AUTO 32022G32KT 9SM OVC046 03/M05 A2994 RMK SLP161
CYLL 291203Z AUTO 32021G32KT 9SM -RA BKN044 OVC050 03/M04 A2994 RMK SLP160
CYLL 291218Z AUTO 32020G33KT 9SM OVC046 03/M05 A2994 RMK SLP161
CYLT 291200Z 28005KT 9SM BKN060 M26/M30 A3027 RMK SC6 SLP256
CYLU 291200Z 13010KT 10SM -RASN OVC021 02/00 A2967 RMK SC8 SLP053
CYLW 291145Z AUTO 34006KT 330V040 6SM BR FEW003 M02/M02 A3014 RMK SLP221
CYLW 291148Z AUTO 33003KT 2SM BR SCT003 M02/M02 A3014 RMK SLP221
CYLW 291150Z AUTO 33004KT 1SM BR SCT001 M01/M01 A3014 RMK SLP221
CYLW 291153Z AUTO 34005KT 3/8SM FZFG BKN001 M00/M00 A3014 RMK SLP221
CYLW 291154Z AUTO 33004KT 3/8SM FG BKN001 00/00 A3014 RMK SLP221
CYLW 291200Z AUTO VRB02KT 1/4SM FG BKN001 01/01 A3014 RMK SLP222
CYMA 291200Z 22002KT 20SM BKN160 M07/M07 A3035 RMK AS5 CLIMAT -2.5/-8.1/0.0 SOG 10 SLP318
CYMH 291200Z AUTO VRB02KT 9SM BKN024 OVC032 06/05 A3006 RMK SLP181
CYMM 291200Z AUTO 33016G31KT 9SM -SN BKN033 OVC045 02/M04 A2998 RMK SLP169
CYMM 291208Z AUTO 34020G30KT 5SM -SN BKN028 OVC034 02/M03 A2998 RMK PRESRR SLP170
CYMM 291215Z AUTO 34017G27KT 2 1/4SM -SN SCT022 BKN028 OVC034 01/M02 A2999 RMK VIS VRB 1 1/2-3 PRESRR SLP174
CYMM 291222Z AUTO 34013G23KT 3SM -SN BKN026 OVC034 01/M02 A2999 RMK SLP174
CYMM 291226Z AUTO 34011G22KT 6SM -SN FEW023 BKN028 OVC036 01/M02 A2999 RMK SLP175
CYMO 291200Z AUTO 28008KT 9SM OVC008 M02/M02 A2984 RMK SLP108
CYMO 291221Z AUTO 28007KT 8SM -SN OVC008 M02/M02 A2985 RMK SLP112
CYMO 291223Z AUTO 28008KT 5SM -SN OVC008 M02/M02 A2986 RMK SLP113
CYMO 291231Z AUTO 29007KT 5SM -SN OVC010 M02/M02 A2986 RMK SLP114
CYMO 291233Z AUTO 29007KT 6SM -SN OVC010 M02/M02 A2986 RMK SLP114
CYMO 291239Z AUTO 28005KT 5SM -SN OVC010 M02/M02 A2986 RMK SLP115
CYMT 291200Z AUTO 23006KT 9SM SCT010 OVC016 03/02 A2982 RMK PRESRR SLP114
CYMT 291213Z AUTO 25006KT 5SM BR BKN008 BKN011 OVC018 03/02 A2983 RMK SLP116
CYMT 291214Z AUTO 26006KT 220V290 5SM -RA BR BKN008 BKN011 OVC018 03/02 A2983 RMK SLP116
CYMT 291236Z AUTO 23003KT 200V290 5SM -RA BR FEW006 BKN010 OVC024 03/02 A2984 RMK SLP120
CYMT 291239Z AUTO 27003KT 200V290 7SM -RA SCT008 BKN012 OVC026 03/02 A2984 RMK SLP120
CYMT 291241Z AUTO 27003KT 200V290 9SM -RA SCT010 OVC026 03/02 A2984 RMK SLP120
CYMU 291200Z 00000KT 15SM -SHSN BKN064 OVC080 M02/M04 A2955 RMK SC6AC2 SLP012
CYMX 291200Z 26004KT 220V290 8SM -RA BKN004 OVC032 08/07 A2986 RMK SF5SC3 SLP116
CYNA 291200Z AUTO 09006KT 9SM BKN230 02/02 A3006 RMK SLP182
CYND 291200Z 32003KT 12SM -RA OVC052 07/07 A2986 RMK SC8 SLP113
CYNE 291200Z AUTO 29006KT 250V310 9SM -RA BKN006 OVC012 01/00 A2932 RMK SLP943
CYNM 291200Z AUTO 27004KT 220V290 9SM OVC007 M01/M01 A2983 RMK ICG SLP116
CYOA 291200Z 10005KT 15SM SCT070 BKN120 M18/M20 A3013
CYOD 291200Z 31013G21KT 12SM -SHSN BKN044 OVC060 03/M04 A2994 RMK SC6SC2 PCPN VRY LGT SLP157
CYOD 291244Z 32016G26KT 12SM BKN038 BKN070 03/M05 A2996 RMK SC5AC2 SLP164
CYOJ 291200Z AUTO 33013G22KT 9SM CLR 03/M01 A3024 RMK SLP260
CYOO 291200Z AUTO 02004KT 9SM OVC047 05/02 A2982 RMK SLP105
CYOW 291200Z 08002KT 6SM -RA BR FEW008 OVC046 06/06 A2985 RMK SF1SC7 SLP112
CYOY 291200Z 00000KT 12SM -SHRA BKN027 OVC075 09/08 A2989 RMK SC7AC1 DA136FT FST STFD OBS SLP126
CYOY 291237Z 01002KT 12SM -SHRA BKN024 OVC027 09/08 A2989 RMK SC5SC3 DA87FT PCPN VRY LGT SLP128
CYPA 291200Z 32016G27KT 15SM -SN FEW030 SCT052 BKN090 02/M03 A2971 RMK SC1SC3AC3 SLP079
CYPA 291226Z 31016G24KT 15SM SCT037 BKN090 02/M03 A2971 RMK SC3AC3 SLP079
CYPC 291205Z 27007KT 1 1/2SM -SN OVC020 M03/M03 A3013 RMK SC8 SLP204
CYPD 291200Z AUTO 00000KT 9SM CLR 06/06 A3013 RMK SLP208
CYPE 291200Z 30010KT 15SM SCT061 02/M02 A3030 RMK SC4 SLP285
CYPH 291200Z AUTO 01013KT 8SM -SN OVC055 M04/M04 A2962 RMK SLP035
CYPH 291240Z AUTO 01013KT 9SM -SN BKN014 OVC055 M03/M04 A2963 RMK SLP036
CYPL 291200Z 16008KT 10SM -SN OVC015 M03/M06 A2957 RMK SC8 SLP039
CYPL 291226Z 16008KT 2 1/2SM -SN OVC015 M04/M05 A2956 RMK SN3SC5 SLP037
CYPL 291228Z 16009KT 1SM -SN VV011 M04/M05 A2956 RMK SN8 SLP037
CYPO 291200Z AUTO 22004KT 9SM OVC034 M03/M08 A2975 RMK SLP080
CYPQ 291200Z AUTO 00000KT 9SM BKN070 OVC083 04/03 A2984 RMK SLP112
CYPQ 291226Z AUTO 00000KT 9SM -RA OVC065 04/03 A2983 RMK SLP110
CYPR 291200Z AUTO 05007KT 9SM CLR 06/02 A3016 RMK SLP215
CYPX 291200Z AUTO 01010KT 4SM -SN OVC017 M04/M04 A2968 RMK SLP055
CYPY 291200Z AUTO 35011KT 9SM OVC018 M02/M04 A3006 RMK SLP196
CYQA 291145Z AUTO 00000KT 2SM BR FEW240 M00/M00 A2981 RMK SLP108
CYQA 291200Z AUTO 00000KT 2 1/4SM BR CLR M00/M01 A2982 RMK SLP112
CYQA 291238Z AUTO 00000KT 2 1/2SM BR CLR 00/M00 A2983 RMK SLP113
CYQA 291244Z AUTO 00000KT 3SM BR CLR 00/M00 A2982 RMK SLP112
CYQB 291200Z 06005KT 30SM -RA FEW030 BKN035 OVC055 10/08 A2990 RMK SC2SC5SC1 SLP127
CYQD 291200Z 29016KT 13SM -RA OVC007 01/M00 A2941 RMK ST8 CIG PROJECTOR 700 FT SLP973
CYQF 291200Z 32018G28KT 15SM SCT120 03/M05 A3016 RMK AC3 SLP238
CYQG 291200Z 26004KT 15SM OVC048 04/02 A2984 RMK SC8 SLP110
CYQH 291200Z VRB02KT 30SM SKC M06/M07 A3043 RMK CLIMAT -0.8/-6.6/0.0 SLP344
CYQI 291200Z 08003KT 3/8SM FG SCT150 SCT210 07/07 A3010 RMK FG2AC1CI1 CI TR SLP194
CYQI 291211Z 10005KT 1/2SM FG SCT150 SCT210 07/07 A3010 RMK FG1AC2CI1 SLP194
CYQI 291214Z 10005KT 3/4SM BR SCT150 SCT210 08/08 A3010 RMK FG1AC2CI1 VIS 6 NE-NW SLP194
CYQI 291217Z 09005KT 3SM BR SCT150 SCT210 08/08 A3010 RMK FG1AC2CI1 VIS 2 SE-SW SLP194
CYQK 291200Z 19011G16KT 12SM DRSN OVC005 M01/M02 A2945 RMK SF8 SLP996
CYQL 291200Z 29010KT 15SM -RA OVC080 04/02 A3017 RMK AC8 SLP227
CYQL 291236Z 29012G19KT 15SM OVC080 04/01 A3018 RMK AC8 SLP231
CYQM 291200Z 21003KT 15SM FEW020 FEW160 BKN220 04/04 A3009 RMK SC1AC2CI4 SC TR CC ASOCTD SLP193
CYQQ 291200Z 32004KT 15SM SKC 08/08 A3002 RMK SLP165
CYQR 291200Z 30019G26KT 15SM BKN057 03/M02 A2973 RMK SC5 SLP084
CYQT 291200Z 00000KT 15SM OVC027 M02/M03 A2974 RMK SC8 SLP082
CYQU 291200Z 35004KT 25SM FEW090 SCT240 M01/M03 A3036 RMK AC2CI1 SLP310
CYQV 291200Z AUTO 29018G26KT 9SM FEW030 SCT036 BKN043 OVC050 04/00 A2958 RMK SLP036
CYQW 291200Z AUTO 31020G33KT 9SM BKN055 03/M04 A2987 RMK SLP133
CYQX 291152Z 33006KT 3/4SM R13/4000VP6000FT/D R03/P6000FT/N -DZ BR OVC002 07/07 A3008 RMK FG6SF2 VIS S 2 SLP191
CYQX 291200Z 31005KT 3/4SM R13/3500VP6000FT/U R03/P6000FT/N -DZ BR OVC002 07/07 A3008 RMK FG6SF2 VIS S 2 SLP191
CYQX 291205Z 32006KT 1 1/2SM R13/5000VP6000FT/U -DZ BR OVC002 07/07 A3008 RMK FG4SF4 VIS VRB 1-2 VIS SE 6 SLP191
CYQX 291235Z 32005KT 4SM -DZ BR BKN002 BKN005 BKN018 07/07 A3008 RMK SF5SF1SC1 SLP191
CYQY 291200Z 24004KT 15SM FEW240 05/05 A3014 RMK CI2 SLP209
CYQZ 291200Z AUTO VRB02KT 9SM CLR 02/M02 A3032 RMK SLP289
CYRB 291200Z 04015KT 3/8SM R35/P6000FT/U IC FZFG SKC M27/M30 A3027 RMK FG5 VIS IMPRVNG SLP265
CYRB 291224Z 03014KT 15SM SKC M27/M30 A3027 RMK SLP265
CYRJ 291200Z 00000KT 8SM -RA OVC054 08/08 A2987 RMK SC8 SLP123
CYRL 291200Z 16009KT 1SM -SN DRSN VV007 M02/M03 A2942 RMK SN8 SLP984
CYRL 291200Z CCA 16009KT 1SM -SN DRSN VV007 M02/M03 A2942 RMK SN8 SLP984
CYRQ 291200Z AUTO 22003KT 9SM FEW009 OVC028 11/09 A2986 RMK SLP115
CYRQ 291214Z AUTO 20004KT 9SM -RA FEW009 OVC028 11/09 A2987 RMK SLP118
CYRT 291200Z 01014KT 6SM BR FEW005 SCT030 M10/M11 A2996 RMK ST2SC1 SLP150
CYRV 291200Z AUTO VRB02KT 3SM BR OVC015 05/05 A3013 RMK SLP217
CYRV 291216Z AUTO 00000KT 2 1/2SM BR OVC015 05/04 A3013 RMK SLP218
CYSB 291200Z 14006KT 1/4SM R22/1000V1600FT/N FZFG BKN020 M00/M00 A2979 RMK FG6SC1 SLP102
CYSB 291235Z 00000KT 1SM R22/3000VP6000FT/N BR BKN020 00/00 A2980 RMK SC5 SLP106
CYSC 291200Z AUTO 07003KT 9SM OVC036 11/08 A2988 RMK SLP125
CYSF 291200Z AUTO 01004KT 340V060 9SM -SN SCT050 BKN065 BKN080 OVC140 M06/M08 A2992 RMK PRESRR SLP151
CYSJ 291200Z 00000KT 15SM FEW007 BKN019 08/08 A3009 RMK SF1SC6 SLP196
CYSM 291200Z 36008KT 15SM -SN BKN011 M02/M04 A3014 RMK SC7 SLP221
CYSN 291200Z 11006KT 10SM -RA SCT040 OVC076 06/04 A2981 RMK SC3AC5 PRESFR SLP099
CYSN 291225Z 13005KT 15SM FEW035 OVC055 06/04 A2982 RMK SC2SC6 SLP103
CYSP 291200Z 12006KT 10SM FEW004 BKN021 BKN027 M05/M06 A2978 RMK SF2SC3SC2 VIS VRB 5-15 VIS N 5 SLP106
CYTE 291200Z AUTO 04008KT 9SM OVC075 M05/M07 A2981 RMK SLP100
CYTH 291200Z 06009G16KT 1SM R06/P6000FT/D -SN VV008 M01/M02 A2939 RMK SN8 SLP967
CYTH 291200Z CCA 06009G16KT 1SM R06/6000FT/D -SN VV008 M01/M02 A2939 RMK SN8 SLP967
CYTH 291212Z 06011G17KT 1 1/2SM -SN DRSN VV008 M01/M02 A2939 RMK SN8 VIS VRB 1-2 VV VRB 007-009 SLP969
CYTL 291200Z AUTO 14010G17KT 100V170 9SM FEW019 OVC032 M03/M06 A2961 RMK SLP044
CYTQ 291200Z VRB02KT 12SM FEW009 SCT028 OVC039 M01/M02 A2959 RMK SF1SC2SC5 SLP026
CYTR 291200Z 02003KT 10SM -SHRA OVC024 05/05 A2985 RMK SC8 SLP110
CYTS 291200Z 32003KT 15SM -SN BKN005 OVC020 M02/M02 A2982 RMK SF5SC3 WND ESTD SLP115
CYTZ 291200Z AUTO 31002KT 9SM OVC048 07/02 A2982 RMK SLP101
CYUL 291200Z 31003KT 300V360 12SM -RA FEW028 BKN045 OVC075 09/08 A2986 RMK SC2SC5AC1 SLP115
CYUL 291214Z 32005KT 280V350 8SM -RA FEW010 OVC028 09/07 A2986 RMK SC1SC7 SLP113
CYUS 291200Z AUTO 07016KT 310V080 ////SM //// OVC023 ///// A////
CYUX 291200Z 36014KT 15SM DRSN FEW020 SCT140 M12/M14 A3009 RMK SC1AC3 -8.5/-23.3/TR/62 SNW CVR/TRACE LOOSE SLP192
CYUY 291200Z 01004KT 15SM FEW002 OVC025 02/02 A2982 RMK SF2SC6 SLP114
CYVC 291200Z 30018G28KT 6SM -SHSN BKN018 OVC033 M00/M02 A2963 RMK SC5SC3 SLP053
CYVC 291200Z CCA 30018G28KT 6SM -SHSN BKN018 OVC033 M00/M02 A2963 RMK SC5SC3 /S01/ SLP053
CYVC 291215Z 29017G32KT 2SM -SHSN BKN018 OVC031 M00/M02 A2964 RMK SC5SC3 SLP056
CYVC 291244Z 29015G23KT 2SM -SHSN BKN014 OVC024 M01/M02 A2965 RMK SC5SC3 CIG RAG SLP058
CYVL 291156Z AUTO 23010G15KT 5SM -SN OVC039 M00/M01 A3013 RMK SLP227
CYVL 291200Z AUTO 24010KT 3SM -SN BKN036 OVC044 M00/M01 A3014 RMK SLP228
CYVL 291204Z AUTO 24010KT 2 1/2SM -SN BKN031 OVC040 M01/M02 A3014 RMK SLP228
CYVM 291200Z 20004KT 1 1/4SM -SHSN VV018 M05/M06 A3002 RMK SN8 /S01/ SLP168
CYVM 291208Z 19004KT 3SM -SHSN SCT010 BKN018 OVC031 M05/M06 A3002 RMK SN2ST1SC4SC1 SLP167
CYVO 291200Z 18002KT 15SM FEW007 SCT030 SCT260 02/02 A2982 RMK CF1SC3CI1 CI TR SLP117
CYVP 291200Z 07005KT 15SM -SN OVC028 00/M00 A2960 RMK SC8 /S01/ SLP028
CYVQ 291200Z 08004KT 30SM SKC M05/M06 A3027 RMK SLP258
CYVR 291155Z 00000KT 3/8SM R26L/1200V1800FT/N R08L/2200FT/N FG FEW001 05/05 A2998 RMK ST2 VIS E SE 10 SLP155
CYVR 291200Z 00000KT 1/4SM R26L/1100V1600FT/N R08L/3000FT/N FG FEW001 05/05 A2998 RMK FG1ST1 VIS S SE 2 SLP155
CYVR 291242Z 00000KT 1/2SM R26L/3000VP6000FT/U R08L/2000FT/N FG SKC 05/05 A3000 RMK FG1 VIS N 21/2 SLP159
CYVT 291200Z 34018G37KT 15SM OVC035 M00/M05 A2980 RMK SC8 SNW CVR/NIL SLP113
CYVV 291200Z 15006KT 15SM FEW012 BKN023 04/04 A2981 RMK SF1SC7 SF TR SLP104
CYVV 291243Z 15004KT 15SM -SHRA FEW012 BKN023 04/04 A2982 RMK SF1SC7 SF TR CVCTV CLD EMBD SLP106
CYWA 291200Z AUTO 29002KT 7SM FEW008 02/02 A2986 RMK SLP118
CYWE 291146Z AUTO 00000KT 9SM -SN OVC018 M08/M09 A3015 RMK SLP246
CYWE 291158Z AUTO 00000KT 9SM OVC018 M08/M09 A3016 RMK SLP247
CYWE 291200Z AUTO 00000KT 9SM OVC018 M08/M09 A3016 RMK SLP247
CYWE 291213Z AUTO 00000KT 9SM -SN OVC018 M08/M09 A3016 RMK SLP249
CYWG 291150Z 27008KT 15SM -SHRA BKN014 OVC038 01/00 A2946 RMK SC7SC1 CVCTV CLD EMBD SLP988
CYWG 291200Z 26008KT 15SM SCT014 OVC026 01/00 A2946 RMK SF3SC5 OCNL -SHRA CVCTV CLD EMBD SLP988
CYWG 291242Z 28012KT 15SM BKN029 02/01 A2946 RMK SC6 SLP989
CYWK 291200Z 19008KT 15SM SCT024 BKN060 04/01 A2979 RMK SC3SC4 SLP113
CYWL 291200Z 30011G19KT 15SM FEW240 02/M03 A3024 RMK CI1 SLP266
CYXC 291200Z VRB02KT 25SM FEW230 M01/M02 A3007 RMK CI2 SLP207
CYXE 291200Z 30015G22KT 15SM SCT060 03/M03 A2980 RMK SC3 SLP110
CYXH 291200Z AUTO 29014G20KT 9SM FEW046 OVC110 06/02 A3007 RMK SLP191
CYXJ 291200Z 22006KT 35SM FEW160 M03/M05 A3038 RMK AC1 SLP322
CYXL 291200Z 18009KT 140V220 2SM -FZDZ -SN OVC008 M02/M04 A2954 RMK SN2SF6 SLP028
CYXL 291235Z 16008G15KT 4SM -FZDZ -SN BKN006 OVC029 M02/M03 A2952 RMK SF6SC2 SLP022
CYXR 291200Z AUTO 35008KT 8SM OVC003 02/02 A2981 RMK SLP108
CYXR 291215Z AUTO 36006KT 9SM -RA OVC003 02/02 A2982 RMK SLP109
CYXR 291224Z AUTO 01007KT 5SM -RA BR OVC003 02/02 A2981 RMK SLP108
CYXR 291225Z AUTO 01007KT 5SM -RA BR OVC005 02/02 A2981 RMK SLP108
CYXR 291235Z AUTO 35006KT 6SM -RA BR OVC005 02/02 A2982 RMK SLP109
CYXS 291200Z AUTO 01002KT 9SM CLR M01/M04 A3034 RMK SLP302
CYXT 291200Z 01020G28KT 20SM SKC 04/02 A3033 RMK SLP280
CYXU 291200Z 32006KT 15SM SCT047 BKN200 BKN240 03/02 A2981 RMK SC4CI2CI1 SH DIST NW SLP105
CYXX 291200Z 00000KT 15SM MIFG SKC 07/07 A2998 RMK SLP155
CYXY 291200Z 17011KT 15SM SCT230 M01/M05 A3035 RMK CI4 SLP316
CYXZ 291200Z 09004KT 15SM FEW018 M04/M05 A2983 RMK SC2 SLP118
CYYB 291147Z 12005KT 8SM BKN004 OVC035 04/03 A2980 RMK SC7SC1 CIG RAG SLP105
CYYB 291200Z 13006KT 8SM BKN004 OVC035 04/03 A2980 RMK SC7SC1 SLP106
CYYB 291221Z 12007KT 3SM BR OVC002 03/03 A2981 RMK ST8 SLP109
CYYB 291240Z 14007KT 1/2SM R08/P6000FT/N FG VV002 03/03 A2981 RMK FG8 SLP110
CYYC 291200Z 33015G23KT 15SM BKN090 03/M04 A3016 RMK AC6 SLP237
CYYD 291200Z AUTO 13003KT 120V220 3/4SM BR VV002 00/00 A3043 RMK SLP325
CYYD 291228Z AUTO VRB02KT 1/2SM FZFG VV003 M00/M00 A3043 RMK SLP324
CYYD 291229Z AUTO 00000KT 1/2SM FG VV003 00/00 A3043 RMK SLP324
CYYE 291200Z 00000KT 15SM SKC M03/M05 A3040 RMK WND ESTD SLP318
CYYF 291200Z 34005KT 15SM FEW009 FEW085 SCT110 02/01 A3012 RMK SF1AC1AC1 SLP211
CYYG 291200Z 16004KT 15SM BKN260 09/08 A3011 RMK CI6 SLP198
CYYH 291200Z 36010KT 12SM -SN SCT009 BKN051 M18/M20 A3020 RMK SC3SC4 SLP232
CYYJ 291200Z 26005KT 15SM FEW250 07/07 A2999 RMK CI1 CI TR SLP157
CYYL 291200Z AUTO 03016G24KT 2 1/4SM -SN SCT013 OVC020 M04/M05 A2951 RMK VIS VRB 1 3/4-3 SLP018
CYYL 291201Z AUTO 04015G24KT 2 1/2SM -SN SCT013 OVC020 M04/M05 A2951 RMK VIS VRB 1 3/4-3 SLP018
CYYL 291207Z AUTO 04017G24KT 3SM -SN SCT013 BKN020 OVC024 M04/M05 A2952 RMK PRESRR SLP018
CYYL 291211Z AUTO 04014G26KT 2 1/4SM -SN SCT013 BKN020 OVC024 M04/M05 A2952 RMK VIS VRB 1 1/4-3 SLP021
CYYL 291243Z AUTO 04018G25KT 1 1/4SM -SN FEW012 OVC016 M04/M05 A2955 RMK SLP029
CYYN 291200Z AUTO 32026G35KT 9SM SCT030 BKN038 BKN048 OVC130 04/M02 A2988 RMK SLP134
CYYQ 291200Z 08015KT 15SM BKN018 OVC034 M02/M04 A2981 RMK SC5SC3 SLP099
CYYR 291200Z 33002KT 15SM FEW230 BKN270 M01/M02 A3002 RMK CC2CI6 SLP168
CYYT 291200Z 36010KT 12SM OVC005 07/06 A3005 RMK SF8 SLP182
CYYU 291200Z 22003KT 6SM -SN BKN012 OVC014 M03/M04 A2985 RMK SC7SC1 SLP122
CYYW 291200Z AUTO 17008KT 150V220 9SM OVC009 M04/M05 A2967 RMK SLP071
CYYY 291200Z 16005KT 30SM SCT100 BKN240 09/07 A2992 RMK AC3CI4 SLP134
CYYZ 291200Z 02005KT 15SM OVC046 05/02 A2982 RMK NS8 SLP104
CYYZ 291200Z CCA 02005KT 15SM OVC046 05/02 A2982 RMK SC8 SLP104
CYZE 291200Z AUTO 31004KT 9SM FEW022 03/01 A2981 RMK SLP103
CYZF 291200Z 34004KT 15SM -SN BKN040 OVC100 M05/M06 A3021 RMK SC6AC2 SLP247
CYZG 291200Z 11002KT 15SM OVC035 M05/M08 A2973 RMK SC8 SNW CVR/TRACE LOOSE SLP091
CYZH 291200Z AUTO 30022G32KT 9SM BKN029 OVC034 03/M01 A3017 RMK SLP241
CYZP 291200Z AUTO 33016KT 9SM CLR 09/04 A3018 RMK SLP222
CYZR 291200Z AUTO 25005KT 9SM OVC045 05/02 A2983 RMK SLP107
CYZS 291200Z 04018KT 15SM -SN DRSN FEW015 BKN033 M06/M09 A2981 RMK SC1SC5 SLP104
CYZT 291200Z VRB02KT 3/8SM FG VV001 07/07 A3000 RMK FG8 SLP162
CYZU 291200Z 31014G20KT 15SM SCT070 02/M04 A3025 RMK AC4 SLP272
CYZV 291200Z 07008KT 15SM OVC006 05/04 A2997 RMK ST8 SLP153
CYZX 291200Z 01002KT 15SM BKN250 02/00 A3013 RMK CI6 WNDY HILL UNAVBL SLP204
CYZY 291200Z AUTO 00000KT 9SM CLR M03/M03 A3040 RMK SLP326
CZBF 291200Z 20003KT 5SM BR BKN003 OVC080 05/05 A3001 RMK SF5AS3 SLP168
CZCR 291200Z AUTO 11002KT 07/06 RMK AO1 SLP163 T00710061 53004
CZDB 291200Z AUTO 00000KT 03/03 RMK AO1 SLP209 T00250029 53006
CZEL 291200Z AUTO 01003KT 03/02 RMK AO1 SLP102 T00300015 56007
CZEV 291200Z AUTO 32003KT M01/M03 RMK AO1 SOG 10 1021 SLP220 T10131033
CZFS 291200Z AUTO 28006KT 01/M02 RMK AO1 SLP286 T00131015 51014
CZMD 291200Z AUTO 10006KT 050V130 1SM -SN FEW006 OVC019 M04/M05 A2952 RMK SLP016
CZMJ 291200Z AUTO 30017G23KT 04/M02 RMK AO1 PK WND 30024/1119 SLP107 T00351016 53016
CZMU 291200Z AUTO 31015KT 02/M03 RMK AO1 PK WND 32027/1105 T00151033
CZOL 291200Z AUTO 31011KT 02/M03 RMK AO1 PK WND 31020/1156 T00171033
CZPC 291153Z AUTO 23007KT 9SM 02/01 A3020 RMK CLD MISG SLP241
CZPC 291159Z AUTO 23007KT 9SM -RA 02/01 A3020 RMK CLD MISG SLP241
CZPC 291200Z AUTO 23008KT 9SM -RA 02/01 A3020 RMK CLD MISG SLP245
CZPC 291213Z AUTO 24006KT 9SM 02/01 A3021 RMK CLD MISG SLP247
CZPC 291232Z AUTO VRB02KT 9SM -RA 03/M02 A3021 RMK CLD MISG SLP246
CZPC 291242Z AUTO VRB02KT 9SM 03/M00 A3021 RMK CLD MISG SLP248
CZPS 291200Z AUTO 32018KT 01/M05 RMK AO1 PK WND 32029/1119 T00051049
CZSJ 291200Z AUTO 13008KT 1 1/2SM -SN BKN010 OVC015 M03/M03 A2943 RMK SLP985
CZSP 291200Z AUTO 17004KT 07/06 RMK AO1 SLP203 T00700063 53005
CZTB 291200Z AUTO 06001KT M01/M03 RMK AO1 SLP080 T10141031 58014
CZUM 291200Z AUTO 12005KT 9SM BKN160 01/M01 A2987 RMK SLP141
CZVL 291200Z AUTO 29017KT 9SM CLR 02/M04 A3013 RMK SLP224
CZZJ 291200Z AUTO 28004KT 01/M05 RMK AO1 SLP287 T00121049 51017
DAAD 291200Z 05003KT CAVOK 20/08 Q1023
DAAE 291200Z 08006KT 9999 FEW016 23/17 Q1020
DAAG 291200Z 04009KT 9999 FEW026 24/13 Q1020
DAAG 291230Z 04009KT 360V080 9999 FEW026 24/13 Q1020
DAAJ 291200Z 33003KT CAVOK 24/01 Q1021
DAAP 291200Z 08008KT CAVOK 29/06 Q1019
DAAS 291200Z 26006KT 9999 FEW030 18/10 Q1023
DAAT 291200Z 11007KT CAVOK 27/// Q1022
DAAT 291230Z 10004KT 050V150 CAVOK 27/// Q1021
DAAV 291200Z 32007KT 9999 FEW020 22/15 Q1020
DAAY 291200Z 23014KT CAVOK 22/05 Q1026
DABB 291200Z 28009KT 9999 FEW023 SCT033 24/12 Q1018
DABB 291230Z 27010KT 9999 FEW023 SCT033 24/10 Q1018
DABC 291200Z 25008KT 180V320 9999 FEW026 20/08 Q1021
DABC 291230Z 34004KT 250V010 9999 SCT026 20/09 Q1021
DABS 291200Z 30008KT 9999 FEW040 19/07 Q1023
DABT 291200Z 27005KT 9999 FEW020 19/07 Q1022
DAFH 291200Z 00000KT CAVOK 22/07 Q1023
DAOB 291200Z 27004KT CAVOK 20/09 Q1022
DAOF 291200Z 09004KT CAVOK 27/M05 Q1019
DAOI 291200Z 22005KT CAVOK 23/11 Q1021
DAOL 291200Z 06008KT 9000 NSC 26/12 Q1020
DAON 291200Z 00000KT CAVOK 22/14 Q1020
DAON 291230Z 00000KT CAVOK 23/14 Q1019
DAOO 291200Z 34006KT CAVOK 25/14 Q1019
DAOO 291230Z 34007KT CAVOK 24/14 Q1019
DAOR 291200Z 09004KT CAVOK 26/00 Q1023
DAOV 291200Z 27002KT CAVOK 24/08 Q1020
DAOY 291200Z 24006KT CAVOK 20/03 Q1023
DATM 291200Z 10010KT CAVOK 33/01 Q1015
DAUA 291200Z 05011KT CAVOK 30/03 Q1017
DAUB 291200Z 11005KT 9999 FEW040 24/12 Q1021
DAUE 291200Z 04006KT CAVOK 26/05 Q1021
DAUG 291200Z 05005KT 010V120 CAVOK 24/02 Q1021
DAUH 291200Z 08006KT CAVOK 27/09 Q1020
DAUH 291230Z 06005KT CAVOK 27/09 Q1020
DAUK 291200Z 20004KT CAVOK 24/11 Q1020
DAUL 291200Z 25010KT CAVOK 23/06 Q1022
DAUO 291200Z 21007KT CAVOK 27/09 Q1020
DAUT 291200Z 07012KT CAVOK 28/02 Q1020
DAUU 291200Z 12006KT CAVOK 27/04 Q1019
DAUZ 291200Z 10005KT CAVOK 26/02 Q1020
DBBB 291200Z 19006KT 150V230 9999 SCT013 31/24 Q1010 NOSIG
DGAA 291200Z 19008KT 140V210 9999 FEW018 30/24 Q1011 NOSIG
DIAP 291200Z 21009KT 9999 SCT012 FEW020CB SCT025 30/24 Q1011 NOSIG
DIAP 291200Z 21009KT 9999 SCT012 FEW020CB SCT025 30/24 Q1011 TEMPO TS
DIAP 291230Z 22010KT 9999 SCT012 FEW020CB 30/25 Q1010 TEMPO TS
DIBK 291200Z 18004KT 9999 BKN011 30/21 Q1013 NOSIG
DIDL 291200Z ///// 9999 BKN013 27/23 Q1013 NOSIG
DIKO 291200Z 12004KT 9999 FEW013 32/16 Q1012 NOSIG
DIMN 291200Z VRB02KT 9999 SCT015 29/22 Q1013 NOSIG
DIOD 291200Z 08006KT 9999 FEW015 33/16 Q1013 NOSIG
DISP 291200Z 20008KT 9999 SCT013 30/25 Q1010 NOSIG
DIYO 291200Z 00000KT 9999 BKN013 29/23 Q1012 NOSIG
DNKN 291200Z 09010KT 0800 DU NSC 32/08 Q1015 NOSIG
DNMM 291200Z 21004KT 8000 BKN014 32/24 Q1011 NOSIG
DNPO 291200Z 32005KT 9999 BKN012 FEW021CB 31/24 Q1009 NOSIG
DRRN 291200Z 13008KT 070V160 5000 DU NSC 35/02 Q1012 NOSIG
DRZA 291200Z 12014KT 080V160 CAVOK 32/04 Q1015
DTKA 291200Z 26016KT 9999 FEW020 22/14 Q1019 NOSIG
DTMB 291200Z 28014KT 8000 FEW023 25/09 Q1018
DTMB 291230Z 29011KT 260V330 8000 NSC 25/08 Q1017
DTNH 291200Z AUTO 32017KT CAVOK 24/07 Q1017
DTNH 291230Z AUTO 30012KT 270V330 CAVOK 25/08 Q1017
DTTA 291200Z 29015KT 200V310 9999 SCT023 23/11 Q1017 NOSIG
DTTA 291230Z 27014KT 200V310 9999 SCT023 23/12 Q1017 NOSIG
DTTB 291200Z 28019G32KT 9999 FEW020 23/14 Q1017
DTTD 291200Z VRB02KT 9999 FEW023 23/10 Q1021
DTTF 291200Z 25010KT 220V290 CAVOK 23/09 Q1019 NOSIG
DTTG 291200Z 30004KT 260V330 9999 SCT020 24/09 Q1020 NOSIG
DTTJ 291200Z 28007KT 260V320 9999 FEW020 22/11 Q1019 NOSIG
DTTJ 291230Z 27007KT 240V310 9999 FEW020 22/12 Q1019 NOSIG
DTTK 291200Z 02002KT 9999 FEW023 25/11 Q1018
DTTL 291200Z AUTO 29012G24KT 220V350 NCD 22/16 Q1016
DTTN 291200Z 27005KT 9999 SCT020 SCT030 22/10 Q1019
DTTR 291200Z 35004KT 999 FEW026 25/09 Q1021
DTTX 291200Z 24008KT 200V270 9999 FEW030 24/09 Q1018 NOSIG
DTTZ 291200Z VRB02KT CAVOK 25/12 Q1020 NOSIG
DXNG 291200Z 01005KT 290V090 CAVOK 32/08 Q1014 NOSIG
DXSK 291200Z 18002KT 9999 FEW016 BKN260 32/17 Q////
DXXX 291200Z 19009KT 150V230 9999 FEW014 31/25 Q1011 NOSIG
EBAW 291150Z 33016KT 9999 FEW035 12/04 Q1018 TEMPO 33015G25KT
EBAW 291220Z 33016KT 9999 FEW035 13/02 Q1019 TEMPO 33015G25KT
EBBE 291225Z AUTO 32010KT 9999 BKN055/// 12/04 Q1018 BLU
EBBL 291155Z AUTO 32008KT 9999 FEW038/// BKN058/// 12/05 Q1017 BLU
EBBL 291210Z AUTO 30008KT 6000 -RA BKN033/// 11/05 Q1017 WHT
EBBL 291223Z AUTO 31009KT 9999 BKN034/// 10/07 Q1018 BLU
EBBL 291225Z AUTO 32009KT 9999 -RA BKN034/// 10/06 Q1018 BLU
EBBR 291150Z 32011KT 300V360 9999 FEW030 12/05 Q1018 NOSIG
EBBR 291220Z 34012KT 310V010 9999 FEW040 11/05 Q1019 NOSIG
EBCI 291150Z 34011KT 290V010 9999 FEW025 12/03 Q1018 TEMPO 33015G25KT
EBCI 291220Z 35017G27KT 310V020 9999 FEW025 11/04 Q1019 TEMPO 33015G25KT
EBCV 291155Z AUTO 35013KT 9999 FEW051/// BKN068/// 12/05 Q1019 BLU
EBCV 291225Z AUTO 35016KT 9999 FEW050/// 12/04 Q1019 BLU
EBDT 291155Z AUTO 36014KT 9999 FEW036/// BKN050/// OVC065/// 11/04 Q1018 BLU
EBDT 291225Z AUTO 33011KT 9999 FEW039/// SCT065/// 12/04 Q1018 BLU
EBFN 291155Z AUTO 35017KT 9999 FEW041/// SCT059/// 12/04 Q1021 BLU
EBFN 291225Z AUTO 36016KT 9999 -DZ BKN036/// 12/06 Q1021 BLU
EBFS 291155Z AUTO 33010KT 9999 FEW031/// SCT039/// BKN050/// 10/02 Q1018 BLU
EBFS 291225Z AUTO 33011KT 9999 SCT031/// 11/03 Q1018 BLU
EBLB 291155Z AUTO 34010KT 9999 OVC027/// 07/03 Q1016 BLU
EBLB 291225Z AUTO 35013KT 9999 FEW025/// BKN047/// 08/03 Q1016 BLU
EBLB 291233Z AUTO 34014KT 7000 -RA BKN026/// 07/02 Q1016 WHT
EBLG 291150Z 32009KT 280V350 9999 FEW022 SCT040 11/03 Q1017 NOSIG
EBLG 291220Z 33013KT 9999 FEW022 SCT040 11/03 Q1017 NOSIG
EBOS 291150Z 35016G26KT 9999 SCT035 13/03 Q1020 NOSIG
EBOS 291220Z 34016G26KT 9999 SCT030 12/04 Q1021 NOSIG
EDAC 291150Z 32025G40KT 9999 BKN039 10/03 Q1003
EDAC 291220Z 32028G39KT 9999 BKN040 10/02 Q1003
EDAH 291150Z 34015G27KT 290V020 9999 BKN041 08/02 Q0996
EDAH 291220Z 34013G26KT 300V010 9999 BKN034 08/02 Q0997
EDDB 291150Z 30018KT 9999 SCT016TCU BKN080 07/04 Q0999 TEMPO 31020G40KT SHRA
EDDB 291220Z 31020KT 9999 -SHRA SCT016TCU BKN120 06/04 Q1000 TEMPO 31020G40KT SHRA
EDDC 291150Z 32021KT 9999 FEW017 SCT038 BKN096 06/04 Q0999 TEMPO 32020G40KT
EDDC 291220Z 32017G29KT 290V350 9999 -SHRA SCT017TCU BKN023 06/04 Q1000 TEMPO 32020G40KT
EDDE 291150Z 31019G29KT 9999 SCT033 FEW050CB SCT083 08/04 Q1006 TEMPO 32030G40KT 4000 SHRA BKN020
EDDE 291220Z 30025G38KT 9999 VCSH FEW030 FEW034CB SCT085 08/03 Q1007 TEMPO 4000 SHRA BKN020
EDDF 291150Z 31018KT 9999 FEW032 BKN250 12/03 Q1013 NOSIG
EDDF 291220Z 31014KT 9999 FEW036 SCT060 BKN250 12/02 Q1013 NOSIG
EDDG 291150Z 30014KT 9999 FEW035CB SCT250 10/03 Q1012 NOSIG
EDDG 291220Z 30017G30KT 9999 FEW035 SCT250 11/03 Q1012 NOSIG
EDDH 291150Z 33023KT 9999 VCSH SCT043CB 11/02 Q1005 TEMPO 32025G35KT
EDDH 291220Z 34016KT 9999 VCSH FEW043CB 10/04 Q1006 TEMPO 34015G30KT
EDDK 291150Z 33012KT 290V360 9999 -SHRA FEW027CB 11/05 Q1014 NOSIG
EDDK 291220Z 34012KT 310V020 9999 -SHRA FEW016 FEW030CB SCT035 10/04 Q1015 NOSIG
EDDL 291150Z 33016KT 9999 -SHRA FEW030CB SCT035CB BKN060 11/04 Q1015 NOSIG
EDDL 291220Z 33020G31KT 300V360 9999 -SHRA FEW030CB SCT035 BKN060 10/03 Q1015 NOSIG
EDDM 291150Z 28017KT 250V310 9999 -RA FEW005 BKN020 BKN050 09/06 Q1008 TEMPO 29025G45KT
EDDM 291220Z 29015G25KT 260V320 9999 FEW010 SCT020 BKN070 10/05 Q1009 TEMPO 29025G45KT
EDDN 291150Z 29027KT 9999 BKN045 10/01 Q1009 NOSIG
EDDN 291220Z 30020KT 270V340 9999 BKN045 10/02 Q1009 NOSIG
EDDP 291150Z 31036KT 9999 BKN035 10/03 Q1002 BECMG 30030G40KT
EDDP 291220Z 31030G41KT 9999 BKN040 10/03 Q1003 BECMG 29020G30KT
EDDR 291150Z 32010KT 9999 FEW013 BKN030 10/07 Q1015 TEMPO 31015G25KT
EDDR 291220Z 32011KT 300V360 9999 FEW013 SCT027 11/08 Q1015 TEMPO 31015G25KT
EDDS 291150Z 31015KT 9999 -RA BKN015 BKN040 10/08 Q1013 TEMPO RA
EDDS 291220Z 30020G31KT 270V340 9999 -RA BKN015 BKN030 10/06 Q1013 NOSIG
EDDT 291150Z 31014G24KT 280V350 9999 -RA FEW025 OVC110 06/04 Q0999 TEMPO 32020G35KT SHRA
EDDT 291220Z 32012KT 290V350 9999 -RA SCT025 OVC120 06/04 Q1000 TEMPO 32020G35KT SHRA
EDDV 291150Z 31022G32KT 9999 BKN038 11/03 Q1006 NOSIG
EDDV 291220Z 31021KT 280V360 9999 -SHRA BKN038 11/04 Q1008 TEMPO 30025G35KT
EDDW 291150Z 33021G32KT 9999 -SHRA SCT017CB SCT040 10/05 Q1008 RESHRA NOSIG
EDDW 291220Z 32020G30KT 290V350 9999 FEW017CB SCT033 11/04 Q1008 NOSIG
EDFH 291150Z 31016G27KT 270V340 9999 SCT040 09/01 Q1014
EDFH 291220Z 31015G25KT 280V340 9999 SCT040 09/00 Q1014
EDFM 291150Z 32014KT 280V350 9999 FEW046 13/02 Q1014
EDFM 291220Z 32013G24KT 290V010 9999 SCT048 13/02 Q1014
EDGS 291150Z 32020KT 290V350 9999 SCT026 06/02 Q1012
EDGS 291220Z 31019G32KT 9999 SCT032 06/01 Q1012
EDHI 291150Z AUTO 32019KT 9999 // BKN046/// 12/02 Q1005
EDHI 291220Z AUTO 33021G32KT 9999 // SCT048/// 11/01 Q1006
EDHK 291150Z 33017KT 300V360 9999 FEW039 10/02 Q1004
EDHK 291220Z 34015KT 9999 FEW043 10/02 Q1005
EDHL 291150Z 31007KT 9999 SCT025CB 08/05 Q1004
EDHL 291220Z 30011G21KT 250V360 9999 SCT032 09/05 Q1005
EDJA 291150Z 24024KT 6000 -RA BKN007 BKN014 08/07 Q1011
EDJA 291220Z 27018G28KT 250V310 7000 -RA BKN007 BKN015 08/07 Q1012
EDLN 291150Z 32016KT 9999 FEW038 SCT070 12/05 Q1015
EDLN 291220Z 31014KT 9999 FEW030 SCT050 11/06 Q1015
EDLP 291150Z 28012G28KT 240V320 9999 FEW040 08/04 Q1011
EDLP 291220Z 29013KT 250V320 9999 FEW042 10/04 Q1011
EDLV 291150Z VRB09KT 9000 -SHRA BKN030CB 11/05 Q1015
EDLV 291220Z 31008KT 240V360 9999 VCSH FEW030CB 11/06 Q1015
EDLW 291150Z 30014G29KT 200V360 9999 -SHRA SCT036 09/02 Q1012
EDLW 291220Z 31010KT 250V350 9999 SCT036 10/03 Q1013
EDMA 291150Z 29017KT 9999 -RA SCT024 BKN030 OVC044 09/07 Q1010 RERA
EDMA 291220Z 28017KT 9999 -RA BKN049 OVC064 08/05 Q1010
EDMO 291220Z 30016G29KT 9000 -RA BKN011 07/06 Q1011
EDNY 291150Z 26013KT 9999 BKN018 OVC028 10/07 Q1015
EDNY 291220Z 25014KT 9999 SCT018 BKN026 OVC038 10/07 Q1015
EDQM 291150Z 28019KT 250V320 9999 FEW036 SCT051 07/M00 Q1005
EDQM 291220Z 32014G25KT 290V350 6000 RA OVC016 04/01 Q1006
EDSB 291150Z 29006KT 260V320 8000 RA FEW008 BKN060 12/10 Q1015
EDSB 291220Z 27004KT 240V330 9999 VCSH FEW018 SCT033 BKN050 12/10 Q1015 RERA
EDTY 291150Z 30015KT 9999 FEW040 11/04 Q1011
EDTY 291220Z 31017G27KT 270V330 9999 FEW041 10/02 Q1012
EDVE 291220Z 31018G32KT 3500 SHRA BKN031CB OVC035 09/07 Q1006
EDVK 291150Z 29030G45KT 9999 -RA SCT040 BKN062 07/03 Q1009
EDVK 291220Z 29020KT 9999 SCT030 08/04 Q1009
EDXW 291150Z 33022KT 9999 FEW041 11/03 Q1007
EDXW 291220Z 33023KT 9999 FEW043 12/03 Q1007
EEEI 291150Z 31007KT 9999 -DZ FEW012 OVC015 04/03 Q0976 R24/290095 NOSIG
EEKE 291150Z AUTO 33005KT 290V360 9999NDV -RA FEW015 BKN019 OVC027 05/04 Q0977
EEKE 291227Z AUTO 32008KT 290V350 9999NDV -RA BKN017 BKN025 OVC030 05/04 Q0978
EEPU 291150Z 29007KT 270V330 9999 -DZ SCT015 BKN026 05/03 Q0975
EETN 291150Z 29007KT 9000 -SHRA BKN010 FEW017CB 05/03 Q0975 R08/290195 TEMPO 4000 SHRA
EETN 291220Z 27006KT 9000 -SHRA BKN007 FEW018CB 04/03 Q0975 RESHRA R08/290195 TEMPO 4000 SHRA
EETU 291150Z 27004KT 240V340 9999 OVC022 06/03 Q0975
EFET 291150Z AUTO 00000KT CAVOK M07/M08 Q0993
EFET 291220Z AUTO 30001KT CAVOK M09/M10 Q0993
EFHA 291150Z AUTO 01008KT 9000 -RA OVC006 01/00 Q0980
EFHA 291220Z AUTO 01009KT 9999 -RA OVC007 01/00 Q0980
EFHK 291150Z 36013KT 8000 -RASN SCT006 BKN009 02/01 Q0976 TEMPO 7000
EFHK 291220Z 36012KT 9999 -RASN FEW005 BKN008 BKN011 02/01 Q0976 NOSIG
EFIV 291150Z 34003KT CAVOK M01/M04 Q0991
EFIV 291220Z 33004KT CAVOK M02/M04 Q0992
EFJO 291150Z AUTO 03007KT 010V070 2800 -SN OVC007 M00/M01 Q0981
EFJO 291220Z AUTO 04007KT 360V080 9000 -RASN BKN007 BKN047 00/M01 Q0981
EFJY 291150Z AUTO 03008KT 9999 -SG OVC008 01/00 Q0981
EFJY 291220Z AUTO 02008KT 9999 -SN OVC007 01/00 Q0981
EFKE 291150Z AUTO 35013KT 9999 -SN BKN010 OVC055 M00/M02 Q0988
EFKE 291220Z AUTO 36013KT 6000 -SN BKN009 OVC036 M00/M02 Q0989
EFKI 291150Z 06004KT 6000 -RASN BKN009 OVC033 00/M01 Q0984
EFKI 291220Z AUTO 06006KT 4000 -SN SCT008 OVC031 M00/M01 Q0985
EFKK 291150Z 35005KT 2500 -SNRA BKN001 OVC003 00/00 Q0985
EFKK 291220Z AUTO 35006KT 310V020 7000 -PL SCT001 BKN003 BKN005 00/00 Q0986
EFKS 291150Z AUTO 08004KT 050V110 3100 -SN OVC006 M01/M01 Q0986
EFKS 291220Z AUTO 07003KT 5000 -SN OVC019 M01/M02 Q0986
EFKT 291150Z AUTO 33012KT CAVOK M03/M05 Q0991
EFKT 291220Z AUTO 33012KT CAVOK M03/M05 Q0992
EFKU 291150Z AUTO 04010KT 9999 -SN BKN008 BKN053 01/00 Q0982
EFKU 291220Z AUTO 04009KT 8000 -SN VCSH OVC010 01/00 Q0983
EFLP 291150Z AUTO 06006KT 9999 -SHRA BKN007 OVC023 01/01 Q0977
EFLP 291220Z AUTO 06007KT 9999 -SHRA FEW006 OVC012 01/00 Q0977
EFMA 291150Z 34018KT 9999 -RA OVC011 04/03 Q0981
EFMA 291220Z 35018KT 9999 -RA OVC013 04/03 Q0982
EFMI 291150Z AUTO VRB05KT 3200 -RA OVC007 01/00 Q0979
EFMI 291220Z AUTO 04005KT 320V110 9999 -PL BKN008 OVC030 01/00 Q0979
EFOU 291150Z AUTO 01004KT 3800 -RASN BKN003 OVC011 00/00 Q0986
EFOU 291150Z AUTO 01004KT 3800 -RASN BKN003/// OVC011/// 00/00 Q0986
EFOU 291220Z AUTO 01005KT 340V040 6000 -RASN BKN003 OVC011 00/00 Q0986
EFOU 291220Z AUTO 01005KT 340V040 6000 -RASN BKN003/// OVC011/// 00/00 Q0986
EFPO 291150Z AUTO 36007KT 320V040 9999 -RA BKN009/// OVC016/// 02/01 Q0982
EFPO 291220Z AUTO 36009G19KT 320V050 9999 BKN009/// BKN012/// OVC014/// 02/00 Q0983
EFRO 291150Z AUTO 36014KT 9999 -SN FEW008 SCT033 BKN043 BKN049 M01/M02 Q0988
EFRO 291220Z AUTO 35013KT 5000 -SN FEW007 SCT026 BKN032 BKN037 M01/M02 Q0988
EFSA 291150Z AUTO 04006KT 340V090 1800 -RASN OVC005 00/M00 Q0979
EFSA 291220Z AUTO 04006KT 350V080 2400 -RASN OVC005 00/M00 Q0980
EFSI 291150Z AUTO 35008KT 320V020 9999 -RA BKN004 OVC009 01/01 Q0984
EFSI 291220Z AUTO 35008KT 9999 -RA BKN004 OVC010 01/00 Q0984
EFTP 291150Z AUTO 01006KT 9999 FEW012 BKN015 OVC018 01/00 Q0980
EFTP 291220Z AUTO 36007KT 9999 FEW011 BKN014 BKN018 OVC021 01/00 Q0981
EFTU 291150Z AUTO 01009KT 9999 -RA BKN009 BKN016 OVC020 02/01 Q0979
EFTU 291150Z AUTO 01009KT 9999 -RA BKN009/// BKN016/// OVC020/// 02/01 Q0979
EFTU 291220Z AUTO 01008KT 9999 -RA SCT007 BKN010 OVC019 02/01 Q0980
EFTU 291220Z AUTO 01008KT 9999 -RA SCT007/// BKN010/// OVC019/// 02/01 Q0980
EFUT 291150Z AUTO 03007KT 360V060 9999 -RA OVC004 01/00 Q0977
EFUT 291220Z AUTO 02006KT 9999 -RA OVC004 01/00 Q0977
EFVA 291150Z AUTO 01008KT 4000 RA OVC007 02/01 Q0985
EFVA 291150Z AUTO 01008KT 4000 RA OVC007/// 02/01 Q0985
EFVA 291220Z AUTO 36009KT 5000 -RASN BKN006 OVC013 02/01 Q0986
EFVA 291220Z AUTO 36009KT 5000 -RASN BKN006/// OVC013/// 02/01 Q0986
EGAA 291150Z 34010KT 9999 SCT029 11/06 Q1028
EGAA 291220Z 33011KT 9999 FEW029 11/05 Q1028
EGAC 291150Z 35011KT 9999 FEW034 12/04 Q1028
EGAC 291220Z 36010KT 9999 FEW035 12/04 Q1028
EGAE 291150Z 36009KT 9999 FEW034 12/06 Q1029
EGAE 291220Z 01009KT 9999 SCT035 12/06 Q1029
EGBB 291150Z 02011KT 9999 SCT035 11/04 Q1025
EGBB 291220Z 02007KT 9999 FEW040 11/04 Q1025
EGBJ 291150Z 02008KT 9999 FEW016 SCT035 14/07 Q1024
EGBJ 291220Z 02007KT 9999 FEW016 SCT035 14/08 Q1024
EGCC 291150Z AUTO 02010KT 9999 NCD 11/02 Q1026 NOSIG
EGCC 291220Z AUTO 04009KT 9999 NCD 11/01 Q1026 NOSIG
EGCK 291220Z 01012KT 9999 FEW027 BKN038 13/08 Q1026
EGCN 291150Z 33015KT 9999 FEW031 12/05 Q1026
EGCN 291220Z 35016KT 9999 SCT031 11/04 Q1026
EGDM 291150Z 01015KT 9999 FEW027 SCT042 13/07 Q1024 BLU NOSIG
EGDR 291150Z AUTO 32018KT 6000 // BKN009/// BKN030/// 14/12 Q1026
EGDX 291150Z 35008KT 9999 SCT032 14/07 Q1025 BLU
EGDY 291150Z AUTO 01009KT 9999 FEW025/// BKN029/// 14/10 Q1024
EGEO 291150Z 36006KT 9999 FEW042 10/01 Q1028
EGEO 291220Z 36006KT 9999 FEW048 10/01 Q1029
EGFF 291150Z AUTO 33009KT 9999 SCT029 OVC035 14/09 Q1025
EGFF 291220Z AUTO 35008KT 9999 SCT030 BKN039 15/09 Q1025
EGGD 291150Z AUTO 36011KT 9999 BKN031 BKN038 13/07 Q1025
EGGD 291220Z AUTO 36011KT 320V030 9999 BKN035 OVC044 13/07 Q1025
EGGP 291150Z 04012KT 9999 FEW034 SCT042 11/02 Q1026
EGGP 291220Z 05007KT 9999 FEW034 SCT046 11/03 Q1026
EGGW 291150Z AUTO 36012KT 9999 OVC046 11/04 Q1024
EGGW 291220Z 36010KT CAVOK 11/04 Q1024
EGHH 291150Z 02013KT 320V040 9999 FEW020 SCT042 14/07 Q1023
EGHH 291220Z 01015KT 340V070 9999 FEW030 SCT038 15/08 Q1023
EGHI 291150Z 36013KT 340V040 9999 FEW030 SCT042 14/07 Q1023
EGHI 291220Z 36013KT 340V040 9999 SCT042 14/07 Q1023
EGHQ 291150Z 34011KT 9999 FEW013 BKN018 13/11 Q1027
EGHQ 291220Z 33013KT 9999 SCT011 BKN018 13/11 Q1026
EGJA 291150Z 32017KT 9999 FEW006 SCT020 15/// Q1024
EGJA 291220Z 32017KT 9999 FEW006 SCT020 15/// Q1023
EGJB 291150Z 30014KT 9999 FEW006 BKN038 15/13 Q1024
EGJB 291220Z 30014KT 9999 FEW006 BKN008 BKN040 15/13 Q1024
EGJJ 291150Z 32013KT 280V340 9999 FEW008 BKN010 BKN040 15/14 Q1024
EGJJ 291220Z 32013KT 290V350 9999 FEW010 SCT036 BKN049 15/14 Q1023
EGKA 291150Z 03012KT 9999 FEW018 SCT030 13/08 Q1022
EGKA 291220Z 02009KT 9999 FEW016 SCT028 13/08 Q1023
EGKB 291150Z 01014KT 9999 FEW030 12/05 Q1023
EGKB 291220Z 35014KT 320V020 9999 FEW040 12/04 Q1023
EGKK 291150Z 01014KT 9999 FEW029 SCT044 13/06 Q1023
EGKK 291220Z 36013G25KT 350V110 9999 SCT040 12/04 Q1023
EGLC 291150Z AUTO 01008KT 310V040 9999 NCD 13/04 Q1024
EGLC 291220Z AUTO 01010KT 330V030 9999 NCD 13/03 Q1024
EGLF 291150Z 04010KT 360V060 9999 SCT024 12/07 Q1024
EGLF 291220Z 04012KT 9999 FEW024 12/03 Q1024
EGLL 291150Z AUTO 02009KT 340V060 9999 FEW034 13/04 Q1024 NOSIG
EGLL 291220Z AUTO 01008KT 330V040 9999 FEW036 13/05 Q1024 NOSIG
EGMC 291150Z 34010KT 300V020 9999 SCT038 12/04 Q1023
EGMC 291220Z 34010KT 9999 SCT038 12/03 Q1023
EGMD 291150Z 01015KT 9999 FEW027 14/07 Q1022
EGMD 291220Z 01016KT 9999 FEW025 14/06 Q1022
EGNH 291150Z 04008KT 010V070 9999 FEW038 11/02 Q1026
EGNH 291220Z 02009KT 350V060 9999 FEW033 11/02 Q1026
EGNJ 291150Z 34015KT 9999 -SHRA FEW017 SCT021 BKN028 10/07 Q1024
EGNJ 291220Z 31010KT 9999 VCSH FEW013 SCT031 09/07 Q1024
EGNM 291150Z 01011KT 320V050 9999 FEW025 09/02 Q1025
EGNM 291220Z 02010KT 340V090 9999 FEW025 09/02 Q1025
EGNR 291150Z 02009KT 9999 FEW029 SCT037 12/04 Q1026
EGNR 291220Z 03009KT 9999 FEW029 SCT037 12/03 Q1026
EGNS 291150Z 03010KT 9999 FEW030 12/04 Q1027 NOSIG
EGNS 291220Z 05007KT 9999 FEW030 SCT038 12/04 Q1027 NOSIG
EGNT 291150Z 34014KT 300V010 9999 SCT030 09/02 Q1025
EGNT 291220Z 34016KT 310V020 9999 SCT030 08/02 Q1025
EGNV 291150Z 35012KT 9999 VCSH SCT033 08/04 Q1025
EGNV 291220Z 34010KT 9999 SCT033 09/03 Q1026
EGNX 291150Z 35012KT 9999 FEW035 11/03 Q1025
EGNX 291220Z 35011KT 330V040 9999 FEW034 11/03 Q1025
EGOM 291150Z AUTO 36013KT 9999 FEW032/// BKN038/// 07/00 Q1025
EGOP 291150Z AUTO 36015G25KT 9999 // SCT030/// SCT037/// 14/08 Q1026
EGOS 291150Z AUTO 03010KT 9999 BKN045/// 12/06 Q1025
EGOV 291150Z AUTO 36013KT 9999 FEW031/// 14/06 Q1026
EGOW 291150Z 05010KT 9999 SCT040 12/03 Q1026 BLU
EGPA 291150Z 35017KT 9999 VCSH FEW018 SCT030 09/04 Q1026
EGPA 291220Z 35012KT 9999 VCSH FEW018 SCT035 08/04 Q1026
EGPB 291150Z 36012KT 9999 VCSH SCT024 06/02 Q1024
EGPB 291150Z 36012KT 9999 VCSH SCT024 06/02 Q1024 NOSIG
EGPB 291220Z 34018KT 9999 SCT025 07/M00 Q1024
EGPB 291220Z 34018KT 9999 SCT025 07/M00 Q1024 NOSIG
EGPC 291150Z AUTO 32013KT 9999 FEW031/// 09/04 Q1026
EGPC 291220Z AUTO 31013KT 9999 FEW034/// 09/04 Q1026
EGPD 291150Z AUTO 32014KT 9999 -RA BKN029/// //////TCU 07/04 Q1026 TEMPO SHRA
EGPD 291220Z AUTO 31014KT 9000 -RA BKN023/// BKN033/// //////TCU 07/04 Q1026 TEMPO SHRA
EGPE 291150Z 31006KT 9999 FEW035 09/03 Q1028
EGPE 291220Z 33007KT 300V010 9999 FEW035 09/03 Q1028
EGPF 291150Z AUTO 01008KT 340V040 9999 NCD 10/00 Q1028
EGPF 291220Z AUTO 01006KT 330V050 9999 SCT045 11/01 Q1028
EGPH 291150Z 35006KT 310V020 9999 SCT043 09/00 Q1028
EGPH 291220Z 36006KT 310V030 9999 FEW042 09/01 Q1028
EGPI 291150Z AUTO 35013KT 320V020 9999 NCD 11/04 Q1028
EGPI 291220Z AUTO 35012KT 9999 NCD 11/04 Q1028
EGPK 291150Z 02004KT 320V060 9999 FEW045 10/01 Q1028
EGPK 291220Z 02004KT 330V050 9999 FEW045 10/01 Q1028
EGPL 291150Z 35013KT 9999 -DZ FEW020 BKN042 09/03 Q1030
EGPL 291220Z AUTO 36012KT 9999 SCT035/// 09/03 Q1031
EGPM 291150Z AUTO 33016KT 9999 FEW002/// SCT031/// BKN046/// 06/02 Q1024 RERA
EGPM 291220Z AUTO 33022KT 9999 FEW028/// BKN040/// 06/01 Q1024
EGPN 291150Z 35005KT 310V040 9999 SCT040 09/01 Q1027
EGPN 291220Z 34008KT 300V020 9999 FEW040 10/01 Q1027
EGPO 291150Z AUTO 33007KT 9999 NCD 11/04 Q1030
EGPO 291220Z AUTO 01008KT 9999 SCT047/// 11/03 Q1030
EGPU 291150Z AUTO VRB12KT 9999 BKN038/// 10/03 Q1029
EGPU 291220Z AUTO 02013KT 060V220 9999 BKN034/// SCT042/// 10/03 Q1029
EGQK 291150Z AUTO 30012KT 9999 FEW041/// BKN050/// 08/03 Q1028
EGQL 291150Z 35011KT 9999 BKN041 09/01 Q1027 BLU
EGQM 291150Z AUTO 32015KT 9999 FEW032/// BKN049/// 10/03 Q1025
EGQS 291150Z 31012KT 9999 FEW033 SCT038 08/02 Q1027 BLU
EGSC 291150Z 35015KT 9999 SCT032 12/04 Q1023
EGSC 291220Z 01011KT 9999 SCT034 12/04 Q1023
EGSH 291150Z 36013G24KT 290V030 9999 -SHRA FEW025 SCT040 11/06 Q1022 NOSIG
EGSH 291220Z 34011KT 310V030 9999 VCSH FEW025 SCT040 11/04 Q1022 NOSIG
EGSS 291150Z AUTO 35009KT 9999 FEW032 11/04 Q1023
EGSS 291220Z AUTO 35012KT 9999 FEW033 SCT040 12/04 Q1023
EGTC 291150Z 01013KT 9999 SCT045 12/05 Q1024
EGTC 291220Z 36011KT 330V030 9999 FEW046 12/05 Q1024
EGTE 291150Z 35014KT 9999 SCT030 14/09 Q1025
EGTE 291220Z 34012KT 320V020 9999 FEW030 15/08 Q1025
EGTK 291150Z 03012KT 9999 FEW027 SCT041 11/06 Q1024
EGTK 291220Z 03012KT 9999 SCT035 12/05 Q1024
EGUB 291150Z AUTO 02014KT 9999 // FEW025/// BKN050/// 12/05 Q1024
EGUL 291156Z AUTO 36015G20KT 9999 FEW033 12/07 A3020 RMK AO2 RAE1057RAB08E18 SLP230 P0000 60000 T01200067 10127 20105 52019 $
EGUN 291155Z 35013G19KT 9999 FEW033 SCT045 12/06 A3020 RMK AO2A SLP231 10133 20112 .
EGUN 291155Z 35013G19KT 9999 FEW033 SCT045 12/06 A3020 RMK AO2A SLP231 10133 20112 $
EGUW 291150Z AUTO 01012KT 9999 FEW034/// BKN050/// 11/04 Q1022 RERA
EGVA 291156Z AUTO 02008KT 9999 SCT028 OVC049 13/07 A3024 RMK AO2 SLP244 60000 T01300072 10142 20123 52014 $
EGVN 291150Z 36010KT 9999 FEW026 BKN048 13/07 Q1024 BLU NOSIG
EGVN 291150Z 36010KT 9999 FEW026 BKN048 13/07 Q1024 NOSIG
EGVO 291150Z AUTO 36011KT 9999 FEW023/// BKN043/// 13/08 Q1023
EGVP 291150Z AUTO 36013KT 9999 // BKN044/// 14/06 Q1024
EGWC 291150Z 06011KT 9999 BKN032 11/06 Q1026 BLU
EGWU 291150Z 03014KT 9999 FEW032 BKN055 12/04 Q1023 BLU NOSIG
EGWU 291150Z 03014KT 9999 FEW032 BKN055 12/04 Q1023 NOSIG
EGXC 291150Z 36014KT 9999 FEW033 11/03 Q1024 BLU
EGXE 291150Z AUTO 34011KT 9999 BKN048/// 10/03 Q1025
EGXP 291150Z AUTO 33013KT 9999 // SCT030/// 11/05 Q1024
EGXS 291150Z AUTO 34019G30KT 6000 // FEW025/// SCT042/// 10/07 Q1024
EGXT 291150Z AUTO 35012KT 9999 SCT050/// 11/03 Q1023
EGXU 291150Z AUTO 34014KT 9999 // SCT033/// 10/03 Q1025
EGXV 291150Z AUTO 32010KT 9999 FEW030/// BKN050/// 09/05 Q1024 RERA
EGXW 291150Z 34011KT 9999 SCT030 11/03 Q1024 BLU
EGXZ 291150Z AUTO 33014KT 9999 NCD 10/03 Q1025 RERA
EGYD 291150Z 34014KT 9999 SCT033 SCT250 11/03 Q1024 BLU NOSIG
EGYM 291150Z AUTO 33018KT 9999 FEW029/// SCT034/// 11/05 Q1023
EGYP 291150Z 05013KT 9999 7000N RA BKN003 OVC005 08/08 Q0998 YLO2 NOSIG
EHAK 291155Z AUTO 35040KT 310V020 9999 FEW024/// SCT030/// 10/05 Q1015
EHAK 291225Z AUTO 35041KT 310V010 9999 FEW024/// 10/04 Q1016
EHAM 291155Z 34019KT 310V030 9999 -SHRA FEW028TCU SCT037 10/05 Q1017 NOSIG
EHAM 291225Z 35021KT 320V030 9999 FEW028TCU 12/04 Q1017 NOSIG
EHBK 291155Z AUTO 32012KT 280V010 9999 OVC034 11/04 Q1016 TEMPO 34015G25KT 7000 -SHRA FEW035TCU
EHBK 291225Z AUTO 30008KT 240V340 9999 NSC 10/06 Q1017 REDZ TEMPO 34015G25KT 7000 -SHRA FEW035TCU
EHDL 291155Z AUTO 33020G31KT 300V020 9999 NCD 11/05 Q1015 BLU
EHDL 291225Z AUTO 32011KT 280V360 9999 BKN072 10/05 Q1016 BLU
EHDV 291155Z AUTO 34038KT 9999 FEW027/// SCT036/// BKN048/// 10/04 Q1018 REDZ
EHDV 291225Z AUTO 34033KT 9999 FEW031/// SCT045/// 11/04 Q1018
EHEH 291155Z AUTO 31014KT 260V010 9999 -RA FEW026 SCT037 OVC047 11/05 Q1017 RERA REDZ BLU 32012KT 9999 SCT035 SCT050 TEMPO 35018G30KT FEW025CB BKN040
EHEH 291225Z AUTO 31011KT 250V010 9999 NCD 12/06 Q1017 BLU 32012KT 9999 SCT035 SCT050 TEMPO 35018G28KT SCT025CB BKN040
EHEH 291225Z AUTO 31011KT 250V010 9999 NSC 12/06 Q1017 BLU 32012KT 9999 SCT035 SCT050 TEMPO 35018G28KT SCT025CB BKN040
EHFD 291155Z AUTO ///35G46KT //// // FEW029/// SCT034/// BKN041/// 11/05 Q1014 RE//
EHFD 291225Z AUTO ///34KT //// // FEW030/// SCT036/// BKN042/// 11/04 Q1015 RE//
EHFS 291155Z AUTO 34020KT 310V010 9999 SCT038 13/03 Q1019
EHFS 291155Z AUTO 34020KT 310V010 9999 SCT038/// 13/03 Q1019
EHFS 291225Z AUTO 34019KT 310V020 9999 NSC 13/03 Q1019
EHFZ 291155Z AUTO 33034KT 9999 FEW031 SCT037 09/06 Q1017
EHFZ 291225Z AUTO 33034KT 9999 FEW021 SCT040 10/05 Q1017
EHGG 291155Z AUTO 32017G34KT 9999 FEW029 SCT037 10/05 Q1013 TEMPO 32025G40KT 4000 -SHRA FEW025TCU
EHGG 291225Z AUTO 32015KT 280V360 9999 FEW031 SCT044 08/05 Q1014 TEMPO 32025G40KT 4000 -SHRA FEW025TCU
EHGR 291155Z AUTO 33013KT 270V020 9999 NCD 12/05 Q1017 REDZ BLU
EHGR 291225Z AUTO 32015KT 260V030 9999 -RADZ FEW038 BKN043 OVC049 11/05 Q1018 BLU
EHHW 291155Z AUTO 35037KT //// // ///////// 10/04 Q1013 RE//
EHHW 291225Z AUTO 36034KT //// // ///////// 11/04 Q1013 RE//
EHJA 291155Z AUTO 32034KT 230V010 //// // FEW028/// SCT047/// 11/04 Q1019 RE//
EHJA 291225Z AUTO 32035KT 280V350 //// // FEW032/// SCT044/// 11/03 Q1019 RE//
EHJR 291155Z AUTO 35029G35KT //// ///////// 11/04 Q1019 W14/H42
EHJR 291225Z AUTO 35032G36KT //// ///////// 11/04 Q1019 W14/H41
EHKD 291155Z AUTO 34019G33KT 300V020 9999 FEW034 12/04 Q1016 BLU
EHKD 291225Z AUTO 34014G27KT 280V020 9999 FEW039 SCT045 BKN052 12/03 Q1017 BLU
EHKV 291155Z AUTO 34031KT 9999 FEW025 SCT037 11/02 Q1018
EHKV 291225Z AUTO 34030KT 9999 SCT035 SCT043 11/04 Q1019
EHLW 291155Z AUTO 33022KT 280V010 9999 FEW029 11/06 Q1014 REDZ BLU
EHLW 291225Z AUTO 34021KT 310V020 9999 FEW059 11/05 Q1015 BLU
EHMA 291155Z AUTO 33037KT 9999 FEW032 11/05 Q1013
EHMA 291225Z AUTO 34029KT 5000 -RA FEW019 SCT033 09/05 Q1014 RE//
EHMG 291155Z AUTO 33040KT //// // FEW035 11/02 Q1015 RE//
EHMG 291225Z AUTO 34037KT //// // FEW035 11/04 Q1015 RE//
EHPG 291155Z AUTO 33025KT 280V010 9999 -RA SCT034 BKN041 BKN049 12/// Q1019
EHPG 291225Z AUTO 33027G39KT 280V040 9999 FEW026 SCT031 BKN047 11/// Q1019
EHQE 291155Z AUTO 34032KT 9999 FEW028 SCT033 BKN042 12/04 Q1017
EHQE 291225Z AUTO 34033KT 9999 FEW025 SCT035 11/03 Q1017
EHRD 291155Z AUTO 33014KT 280V030 9999 FEW038 SCT044 12/05 Q1018 NOSIG
EHRD 291225Z AUTO 34012KT 290V020 9999 FEW022CB SCT045 12/06 Q1018 NOSIG
EHSA 291155Z AUTO 33028G31KT 9999 ///////// 12/03 Q1019 W15/H35
EHSA 291225Z AUTO 33029G34KT 9999 ///////// 12/04 Q1019 W15/H33
EHSC 291155Z AUTO 35028G35KT 9999 ///////// 12/04 Q1018 W15/H31
EHSC 291225Z AUTO 36029G36KT 9999 ///////// 12/04 Q1018 W15/H29
EHVK 291155Z AUTO 32010KT 270V010 9999 SCT037 BKN042 BKN050 12/05 Q1016 BLU
EHVK 291225Z AUTO 32010KT 280V360 9999 FEW040 SCT049 BKN055 11/04 Q1017 BLU
EHVL 291145Z AUTO 36025KT 6000 -RA FEW027 BKN034 BKN040 10/05 Q1015 WHT
EHVL 291149Z AUTO 36022KT 8000 HZ FEW027 SCT036 BKN052 10/05 Q1015 BLU
EHVL 291155Z AUTO 35021G34KT 9000 HZ FEW040 11/04 Q1015 BLU
EHVL 291205Z AUTO 34030G41KT 9000 HZ FEW034 SCT074 12/05 Q1015 BLU
EHVL 291225Z AUTO 34028KT 9000 HZ FEW035 SCT047 11/03 Q1016 BLU
EHWO 291155Z AUTO 33016G27KT 250V050 9999 FEW044 SCT049 BKN054 12/04 Q1018 BLU
EHWO 291225Z AUTO 32010G21KT 260V040 9999 FEW035 BKN054 OVC059 12/05 Q1018 BLU
EICK 291200Z 33017KT 9999 BKN016 14/10 Q1029 NOSIG
EICK 291230Z 34015KT 9999 BKN016 14/10 Q1029 NOSIG
EIDL 291200Z 04009KT 9999 FEW026 BKN040 12/06 Q1030
EIDL 291230Z 04010KT 9999 SCT026 BKN037 12/06 Q1030
EIDW 291200Z 33011KT 9999 FEW020 SCT025 12/08 Q1028 NOSIG
EIDW 291230Z 33009KT 9999 FEW020 SCT025 13/08 Q1028 NOSIG
EIKN 291200Z 35008KT 310V020 9999 FEW016 BKN023 11/07 Q1030 NOSIG
EIKN 291230Z 36006KT 320V030 9999 FEW015 BKN024 11/07 Q1029 NOSIG
EIKY 291200Z 31007KT 270V340 9999 BKN008 BKN011 OVC017 13/12 Q1030
EIKY 291230Z 31007KT 270V340 9999 SCT007 BKN009 OVC015 13/12 Q1030
EIME 291200Z 33008KT 9999 FEW018 BKN026 12/07 Q1028
EINN 291200Z 34007KT 9999 FEW015 BKN018 13/10 Q1030 NOSIG
EINN 291230Z 32006KT 9999 FEW015 BKN018 13/10 Q1030 NOSIG
EISG 291200Z 34005KT 9999 SCT030 13/08 Q1029
EISG 291230Z 32005KT CAVOK 13/08 Q1029
EIWF 291200Z 36007KT 310V040 9999 SCT022 14/10 Q1028
EIWF 291230Z 01008G18KT 330V050 9999 SCT025 14/09 Q1028
EKAH 291150Z AUTO 33018G30KT 9999NDV FEW051/// 10/M00 Q1003
EKAH 291220Z AUTO 33019G33KT 300V360 9999NDV NCD 10/M00 Q1003
EKBI 291150Z AUTO 32017KT 9999NDV SCT051/// 10/M00 Q1005
EKBI 291220Z AUTO 33015G26KT 290V360 9999NDV NCD 10/M00 Q1005
EKCH 291150Z 33021G32KT 9999 FEW042 09/M00 Q0999 NOSIG
EKCH 291220Z 33023G38KT 300V360 9999 FEW045 09/M00 Q0999 NOSIG
EKEB 291150Z AUTO 34017G27KT 9999NDV NCD 11/02 Q1006
EKEB 291220Z AUTO 34020KT 9999NDV NCD 11/02 Q1007
EKKA 291150Z AUTO 33017KT 9999NDV FEW056/// 11/00 Q1005
EKKA 291220Z AUTO 33017KT 9999NDV NCD 11/00 Q1005
EKOD 291150Z 32018KT 290V350 9999 FEW029TCU 10/02 Q1003
EKRK 291150Z AUTO 35024KT 320V020 9999NDV FEW040/// SCT050/// 09/01 Q0999
EKRK 291220Z AUTO 34020G30KT 9999NDV FEW042/// SCT050/// 09/01 Q1000
EKRN 291150Z 33021G34KT 9999 FEW028 08/M00 Q0994
EKRN 291220Z 32020G30KT 9999 FEW033 08/00 Q0995
EKSB 291150Z 33019KT 9999 FEW035 11/04 Q1004
EKSB 291220Z 32019KT 9999 SCT035 11/04 Q1005
EKSP 291150Z 33014KT 300V360 9999 SCT040 11/02 Q1005
EKSP 291220Z 32015G25KT 290V360 9999 SCT040 10/02 Q1006
EKVD 291150Z 33017KT 9999 SCT030 11/01 Q1005
EKVG 291150Z AUTO 35012KT 9999NDV FEW044/// 05/01 Q1030
EKVG 291150Z AUTO 35012KT 9999NDV FEW044/// 05/01 Q1030 RMK BKN029/// WIND 850FT 35010G23KT 310V030
EKVG 291220Z AUTO 34014KT 9999NDV BKN022/// 05/00 Q1030
EKVG 291220Z AUTO 34014KT 9999NDV BKN022/// 05/00 Q1030 RMK BKN025/// WIND 850FT 34010G22KT 300V070
EKYT 291150Z AUTO 34011KT 290V030 9999NDV NCD 11/M01 Q1004
EKYT 291220Z AUTO 34012G23KT 300V020 9999NDV NCD 11/M02 Q1004
ELLX 291150Z 33015KT 290V010 9999 FEW030 BKN050 10/05 Q1016 TEMPO 34015G25KT
ELLX 291220Z 32013KT 290V350 9999 FEW035 SCT050 12/05 Q1016 NOSIG
ENAL 291150Z 35016KT 9999 VCSH SCT020CB SCT040 06/M02 Q1012
ENAL 291220Z 35018G29KT 9999 VCSH SCT018CB SCT040 05/00 Q1013
ENAN 291150Z 34016KT 9999 VCSH FEW028CB BKN057 02/M03 Q0997
ENAN 291220Z 31013G23KT 9999 VCSH FEW025CB BKN041 02/M02 Q0997
ENAT 291150Z 17003KT 9999 VCSH FEW028 SCT043 M02/M04 Q0993 RMK WIND 700FT 19006KT
ENBL 291150Z 31009KT 9999 VCSH FEW008 SCT013 02/00 Q1011
ENBN 291150Z 01019G30KT 330V030 9999 -SHRA FEW010CB BKN023 03/01 Q1001
ENBN 291220Z 34025G39KT 5000 SHRASN SCT007CB BKN024 02/02 Q1002
ENBO 291150Z 01012KT 9999 -SHGS FEW010 FEW015CB BKN030 03/00 Q1000 RESHGS TEMPO 34020G35KT 3000 SHSNRAGS BKN014CB
ENBO 291220Z 34014KT 9999 FEW010 FEW015CB SCT040 04/M03 Q1000 TEMPO 34020G35KT 3000 SHSNRAGS BKN014CB
ENBR 291150Z 35016KT 310V040 9999 VCSH FEW016 SCT018CB SCT023 05/03 Q1012 TEMPO 35025G35KT SHRA RMK WIND 1200FT 34030G47KT
ENBR 291220Z 35015KT 9999 VCSH FEW015 FEW018CB SCT025 07/02 Q1012 TEMPO 35025G35KT SHRA RMK WIND 1200FT 34025G38KT
ENCN 291150Z 33017G31KT 290V360 CAVOK 11/M05 Q1005
ENCN 291220Z 33011G22KT 290V360 CAVOK 11/M04 Q1005
ENDR 291150Z AUTO 35036KT 04/00 Q1006
ENDR 291220Z AUTO 35032G46KT 04/01 Q1007
ENDU 291150Z 23003KT 210V290 9999 5000S -SHSN FEW010 SCT020 BKN035 M00/M01 Q0996 TEMPO 4000 -SHSN VV014 RMK WIND 1100FT 30011KT WIND 2200FT 29013KT
ENDU 291220Z 25004KT 220V280 9999 VCSH FEW010 SCT030 M00/M01 Q0996 TEMPO 4000 -SHSN VV014 RMK WIND 1100FT 31009KT WIND 2200FT 29016KT
ENEV 291150Z VRB02KT 9999 VCSH FEW020 SCT035 00/M00 Q0998 RMK WIND 1400FT 28010KT
ENFB 291150Z AUTO 34036KT 9999NDV FEW035/// SCT042/// 06/M03 Q1018 W///S6
ENFB 291220Z AUTO 35033KT 9999NDV SCT031/// 06/M02 Q1018 W///S7
ENFL 291150Z 35022KT 9999 VCSH FEW016CB SCT025TCU 06/01 Q1013
ENFL 291220Z 34023KT 9999 -SHRA FEW015CB SCT025TCU 05/01 Q1013
ENGC 291150Z 35035KT 9999 SCT015TCU 07/00 Q1017 W08/S6
ENGC 291220Z 36040G51KT 9999 -SHRA SCT015CB SCT030 07/01 Q1018 W08/S6
ENGM 291150Z 35016G27KT 300V030 CAVOK 07/M06 Q1000 NOSIG
ENGM 291220Z 35018G32KT 320V030 CAVOK 07/M06 Q1000 NOSIG
ENHD 291150Z 35036KT 9999 VCSH SCT016CB SCT033 08/03 Q1011 RERA
ENHD 291220Z 35031G43KT 9999 VCSH FEW010 FEW016CB SCT030 08/03 Q1012 RERA
ENHE 291150Z 36034KT 9999 FEW010CB BKN030 03/00 Q1008 W///S7
ENHE 291220Z 01034KT 9999 VCSH SCT030CB 04/M02 Q1008 W///S7
ENHF 291150Z 24004KT 9999 VCSH SCT020TCU BKN029 00/M03 Q0991 RESG RMK WIND 1254FT 31017KT
ENHF 291220Z VRB06KT 9999 FEW012 FEW020TCU 01/M04 Q0992 RMK WIND 1254FT 31020KT
ENHM 291150Z 35036KT 9999 FEW030 SCT080 07/01 Q1017 W10/S6
ENHM 291220Z 35034KT 9999 VCSH FEW025 BKN040 07/01 Q1017 W10/S6
ENKB 291150Z 30007KT 170V340 9999 -SHRAGS FEW007TCU SCT025 BKN042 04/01 Q1009 RMK WIND 745FT 34023G41KT
ENKB 291220Z 34012G24KT 290V020 9999 VCSH FEW016TCU SCT025 BKN042 05/M02 Q1010 RMK WIND 745FT 35030G40KT
ENKR 291150Z 29005KT 9999 FEW020 M01/M04 Q0991 RMK WIND 731FT 29008KT
ENKR 291220Z 29005KT 9999 FEW020 M02/M04 Q0991 RMK WIND 731FT 28010KT
ENLA 291150Z AUTO 35040KT 9999NDV SCT031/// 10/00 Q1015 W///S6
ENLA 291220Z AUTO 35042G54KT 9999NDV FEW039/// SCT053/// 09/01 Q1016 W///S6
ENLE 291150Z 33037KT 9999 VCSH FEW025CB 09/02 Q1016 W11/S6
ENLE 291220Z 34037KT 9999 VCSH FEW025CB 09/02 Q1017 W11/S6
ENLK 291150Z 34012KT 9999 VCSH SCT022 SCT035CB 02/M03 Q1000
ENLK 291220Z 32021G35KT 3500 -SN VV007 02/M02 Q1000
ENML 291150Z 31011G23KT 260V350 9999 SHRAGS FEW010CB SCT019 BKN035 07/M03 Q1010
ENML 291220Z 35013KT 9999 -SHRASN FEW010CB SCT019 BKN035 04/M01 Q1011
ENMS 291150Z 34006KT 9999 VCSH FEW008 SCT018 BKN028 01/M00 Q0999 RESHSN RMK WIND 412FT 34004KT 280V060
ENMS 291220Z 33004KT 290V030 9999 VCSH SCT014 BKN025 01/M00 Q1000 RESHSN RMK WIND 412FT 35004KT 290V050
ENNA 291150Z VRB02KT CAVOK 01/M05 Q0993 RMK WIND 1800FT 28013KT
ENNA 291220Z 11004KT CAVOK 00/M06 Q0993 RMK WIND 1800FT 29019KT
ENNE 291150Z 36037KT 9999 VCSH FEW010 SCT025CB 04/01 Q1007 W///S7
ENNE 291220Z 32037G52KT 9999 VCSH FEW010 SCT025CB 05/M02 Q1007 W///S7
ENOA 291150Z 35042KT 9999 SCT020 SCT065 07/00 Q1016 W///S6
ENOL 291150Z 34026KT 9999 FEW014CB SCT025 05/M01 Q1005 TEMPO 34030G45KT 4000 SHRAGS BKN014CB
ENOL 291220Z 35024G37KT 9999 -SHRA SCT012CB SCT020 03/01 Q1006 RESHRAGS TEMPO 34030G45KT 4000 SHRAGS BKN014CB
ENQA 291150Z AUTO 35041KT 9999NDV FEW023/// 06/00 Q1014 W08/S7
ENQA 291220Z AUTO 01043KT 9999NDV -SHRA SCT031/// 05/01 Q1014 W08/S7
ENQC 291150Z AUTO 33040KT 9999NDV -DZ SCT034/// 06/02 Q1014 W///S7
ENQC 291220Z AUTO 33034KT 9999NDV FEW018/// SCT031/// 07/01 Q1014 W///S7
ENQR 291150Z AUTO 36035G45KT 9999NDV SCT037/// 05/01 Q1018 W///S6
ENQR 291220Z AUTO 35038G51KT 9999NDV BKN027/// 04/01 Q1018 W///S6
ENRA 291150Z 00000KT 9999 FEW005 SCT011 BKN065 00/M00 Q0999
ENRA 291220Z VRB02KT 9999 FEW005 SCT011 BKN017 01/M00 Q1000
ENRO 291150Z 32018KT 9999 2000SE -SHSN BKN016 M01/M02 Q1000
ENRO 291220Z 32020G31KT 9999 4000NW -SHSN SCT016 M01/M03 Q1000
ENRY 291150Z 33017KT CAVOK 09/M04 Q1001
ENRY 291220Z 33014KT 300V010 CAVOK 09/M05 Q1001
ENSB 291150Z 33021KT 9999 VCSH FEW015 SCT025 M05/M11 Q0997 RMK WIND 1400FT 35019G29KT
ENSB 291220Z 33020KT 9999 VCSH FEW015 SCT028 M05/M11 Q0997 RMK WIND 1400FT 35021G34KT
ENSD 291150Z VRB07KT 9999 VCSH FEW015 BKN037 05/M01 Q1012 RESHRA RMK WIND 1138FT 35019G37KT
ENSD 291150Z VRB07KT 9999 VCSH FEW015 BKN037 05/M01 Q1012 RESHRA/RMK WIND 1138FT 35019G37KT
ENSD 291220Z 04005KT 340V090 9999 VCSH FEW015 SCT030 BKN037 04/00 Q1012 RESHRA RMK WIND 1138FT 33015KT
ENSD 291220Z 04005KT 340V090 9999 VCSH FEW015 SCT030 BKN037 04/00 Q1012 RESHRA/RMK WIND 1138FT 33015KT
ENSE 291150Z AUTO 34037G48KT 9999NDV -SHRA FEW034/// SCT076/// 06/00 Q1017 W///S6
ENSE 291220Z AUTO 36038KT 9999NDV FEW026/// SCT044/// BKN066/// 05/01 Q1018 W///S6
ENSF 291150Z AUTO 35039KT 9999NDV FEW025/// SCT036/// 06/M03 Q1018 W///S6
ENSF 291220Z AUTO 35037KT 9999NDV SCT033/// 06/M03 Q1018 W///S7
ENSG 291150Z 23009KT 190V280 9999 FEW018 SCT037 03/M02 Q1007 RMK WIND 3806FT 31029KT
ENSH 291150Z 32009KT 270V360 9999 VCSH SCT015TCU BKN035 02/M03 Q0999 RMK WIND 150FT 29010KT 270V330
ENSK 291150Z 31008KT 9999 VCSH FEW012 SCT020 BKN035 01/M01 Q0999
ENSL 291150Z 35042KT 9999 FEW035 09/03 Q1018 W09/S6
ENSL 291220Z 35040KT 9999 FEW035 09/00 Q1018 W10/S6
ENSO 291150Z 35027G41KT 9999 -SHRA FEW014 SCT030CB 07/02 Q1011
ENSO 291220Z 34021G31KT 9999 FEW015 SCT025TCU 07/03 Q1012
ENST 291150Z 03014G28KT 9999 VCSH FEW012CB BKN025 04/M00 Q1001 RMK WIND 300FT 03012G28KT
ENST 291220Z 03015KT 9999 VCSH FEW012CB BKN025 03/M01 Q1002 RMK WIND 300FT 04014KT
ENTC 291150Z 04004KT 350V070 5000 -SHSNRA FEW008 SCT021 BKN030 M00/M01 Q0996 TEMPO 0800 SHSN VV006 RMK WIND 2600FT 32026KT
ENTC 291220Z VRB03KT 1600 -SNRA VV013 M00/M01 Q0996 TEMPO 0800 SHSN VV006 RMK WIND 2600FT 32021KT
ENTO 291150Z 33014KT 310V010 CAVOK 09/M04 Q1001
ENTO 291220Z 33016G31KT CAVOK 09/M04 Q1002
ENUG 291150Z AUTO VRB13G27KT 9999NDV BKN033/// 01/M03 Q0990 W08/S5
ENUG 291220Z AUTO 31024KT 9999NDV -SHRA FEW008/// SCT014/// BKN045/// 01/M01 Q0990 W08/S5
ENVA 291150Z 31021KT 9999 VCSH FEW010 SCT023TCU BKN038 03/01 Q1004 RESNRA TEMPO 3000 SHRASN BKN012 RMK WIND 670FT 32034G46KT
ENVA 291220Z 32014KT 9999 VCSH FEW008 SCT026TCU BKN061 03/01 Q1005 TEMPO 30020G30KT 3000 SHRASN BKN012 RMK WIND 670FT 33022KT
ENVD 291150Z 27007KT 9999 FEW012 M01/M04 Q0991
ENWV 291150Z AUTO 34021G35KT 300V040 9999NDV SCT027/// 12/11 Q1016 W///S/
ENWV 291220Z AUTO 34021G36KT 300V020 9999NDV FEW070/// 12/11 Q1017 W///S6
ENZV 291150Z 34019G29KT 9999 FEW024 SCT086 07/01 Q1011 TEMPO SHRA
ENZV 291220Z 34020KT 9999 VCSH FEW025CB SCT040 08/01 Q1011 TEMPO SHRA
EPBY 291200Z 33022G33KT 9999 FEW018 SCT044 08/03 Q0986
EPBY 291230Z 33021G33KT 9999 FEW035 SCT042 08/01 Q0987
EPGD 291200Z 34025G35KT 310V010 9999 FEW033 07/00 Q0985
EPGD 291230Z 32023G39KT 8000 -SHRA FEW018 SCT024CB BKN030 06/02 Q0986
EPKK 291200Z 27025G36KT 9999 FEW015 BKN020 07/04 Q0984
EPKK 291230Z 26024KT 9999 -SHRA FEW015 SCT021CB BKN028 06/03 Q0984
EPKT 291200Z 27019G29KT 7000 SHRA FEW010 BKN012 BKN015CB 05/03 Q0984
EPKT 291230Z 27019KT 6000 -RA FEW003 BKN008 06/04 Q0984 RESHRA
EPLB 291200Z 26019KT 9999 SCT025 BKN036 08/05 Q0976
EPLB 291230Z 28022G34KT 9999 -RA SCT025 BKN037 07/04 Q0977
EPLL 291200Z 29020G34KT 5000 -SHRA BR SCT008 BKN011CB 05/04 Q0979
EPLL 291230Z 30017G27KT 270V330 5000 -SHRA BR BKN006 BKN010CB 05/04 Q0981
EPMO 291200Z 28015KT 9999 -RA BKN010 OVC013 06/06 Q0976 RERA
EPMO 291230Z 33018KT 8000 -RA SCT016 BKN021 OVC024 07/06 Q0978
EPPO 291200Z 33016KT 9999 SCT028 08/03 Q0989
EPPO 291230Z 32015KT 9999 SCT028 09/04 Q0990
EPRA 291200Z 28018G30KT 9999 BKN022 07/04 Q0978
EPRA 291230Z 28015G26KT 6000 RA SCT014 BKN020 OVC034 06/04 Q0978
EPRZ 291200Z 27017KT 9999 FEW020CB 05/03 Q0981 RETSRA
EPRZ 291230Z 25014KT 9999 SCT040 06/04 Q0981
EPSC 291200Z 32018KT 9999 FEW027 SCT031 BKN042 08/03 Q0994
EPSC 291230Z 32018G28KT 290V350 9999 SCT031 08/02 Q0995
EPSY 291200Z 35016KT 9999 -RA SCT012 BKN021 OVC034 06/04 Q0977 RESHRA
EPSY 291230Z 33013KT 9999 BKN012 OVC019 06/04 Q0979
EPWA 291200Z 28014KT 250V310 9999 -RA BKN011 06/05 Q0976 BECMG 34017KT
EPWA 291230Z 29011KT 250V310 9999 -RA BKN009 06/05 Q0977 TEMPO BKN010
EPWR 291200Z 32026KT 9999 -SHRA FEW007 SCT011CB BKN017 07/06 Q0989
EPWR 291230Z 33025KT 9999 FEW015 08/04 Q0991
EPZG 291200Z 30014G25KT 250V340 9999 SCT020CB BKN034 09/05 Q0993
EPZG 291230Z 30017G28KT 250V330 9999 FEW018CB SCT026 BKN038 09/05 Q0994
ESCF 291150Z AUTO 32018KT 9999 FEW052/// BKN072/// 06/M03 Q0992
ESCF 291220Z AUTO 32017KT 9999 SCT058/// BKN074/// BKN100/// 06/M04 Q0992
ESDF 291150Z 33016KT 290V360 9999 FEW040 06/M01 Q0992
ESDF 291220Z 33016G33KT 300V360 9999 FEW042 07/M01 Q0992
ESGG 291150Z 32015G26KT CAVOK 06/M03 Q0998
ESGG 291220Z 33017G27KT CAVOK 07/M03 Q0999
ESGJ 291150Z 32018KT 9999 SCT032 05/M02 Q0994
ESGJ 291220Z 32021G34KT 9999 SCT032 05/M03 Q0995
ESGR 291150Z AUTO 34017G28KT 9999 BKN046/// 07/M03 Q0995
ESGR 291220Z AUTO 34018G32KT 9999 BKN049/// 07/M04 Q0996
ESIB 291150Z AUTO 34019KT 9999 FEW056/// 07/M01 Q0998
ESIB 291220Z AUTO 35017G27KT 9999 FEW056/// 08/M01 Q0998
ESKM 291150Z AUTO 34019KT 9999 NCD 05/M04 Q0994
ESKM 291220Z AUTO 33023KT 9999 NCD 06/M04 Q0995
ESKN 291150Z 34022G34KT 9999 -DZ BKN040 05/M03 Q0989
ESKN 291220Z 34020G33KT 9999 FEW031 BKN045 05/M02 Q0989
ESMK 291150Z AUTO /////KT 9999 FEW038/// SCT049/// 07/01 Q0995
ESMK 291220Z AUTO /////KT 9999 FEW040/// 07/01 Q0996
ESMQ 291150Z 33023KT 9999 FEW046 07/M02 Q0990
ESMQ 291220Z 34023G33KT 9999 FEW047 07/M03 Q0991
ESMS 291150Z 33022KT 9999 SCT030 07/01 Q0997
ESMS 291220Z 33022KT 9999 FEW034 08/01 Q0997
ESMT 291150Z 35020KT 330V030 9999 FEW039 07/M00 Q0998
ESMT 291220Z 33021KT CAVOK 07/M00 Q0998
ESMX 291150Z 32019G30KT 9999 SCT041 06/M02 Q0993
ESMX 291220Z 32019KT 9999 BKN042 06/M03 Q0993
ESND 291150Z AUTO 34015KT 9999 BKN038/// 04/M04 Q0995
ESND 291220Z AUTO 34013KT 9999 FEW039/// 04/M03 Q0996
ESNG 291150Z AUTO 32006KT 9999 FEW037/// 01/M05 Q0993
ESNG 291220Z 34007KT 280V010 9999 FEW037 00/M05 Q0993
ESNK 291150Z AUTO 33018KT 9999 NCD 04/M04 Q0992
ESNK 291220Z AUTO 33017KT 9999 NCD 04/M04 Q0993
ESNL 291150Z AUTO 33014KT 9999 NCD 02/M06 Q0992
ESNL 291220Z AUTO 34013KT 9999 NCD 02/M05 Q0993
ESNN 291150Z 33018G29KT CAVOK 04/M04 Q0992 R16/09//95
ESNN 291220Z 32019KT CAVOK 04/M05 Q0993 R16/09//95
ESNO 291150Z 34014KT 300V010 CAVOK 02/M05 Q0990
ESNO 291220Z 34013G26KT 310V010 CAVOK 02/M05 Q0991
ESNQ 291150Z AUTO 32003KT 9999 NCD M01/M05 Q0992
ESNQ 291220Z 34007KT CAVOK M01/M04 Q0993
ESNS 291150Z 34012KT CAVOK 02/M03 Q0990
ESNS 291220Z 34013G26KT CAVOK 02/M03 Q0991
ESNU 291150Z 34017KT CAVOK 02/M03 Q0989 R14/19//60
ESNU 291220Z 34017G29KT CAVOK 02/M03 Q0990 R14/19//60
ESNV 291150Z AUTO 33006KT 270V020 9999 NCD 02/M06 Q0994
ESNV 291220Z AUTO 33007KT 280V020 9999 NCD 02/M06 Q0994
ESNX 291150Z AUTO 33010KT 9999 NCD M01/M06 Q0992
ESNX 291220Z AUTO 32009KT 9999 NCD M01/M06 Q0993
ESNZ 291150Z 33014G24KT 9999 BKN032 03/M02 Q0995
ESNZ 291220Z 32014KT 9999 BKN032 03/M02 Q0995
ESOE 291150Z 33016G27KT CAVOK 06/M03 Q0993
ESOE 291220Z 32017G29KT CAVOK 07/M03 Q0993
ESOK 291150Z AUTO 33015G28KT 290V010 9999 FEW050/// 07/M03 Q0996
ESOK 291220Z AUTO 34014G26KT 300V010 9999 NCD 07/M03 Q0997
ESOW 291150Z 34019G29KT 9999 FEW048 05/M05 Q0990
ESOW 291220Z 34018KT CAVOK 05/M05 Q0991
ESPA 291150Z 34011KT CAVOK 01/M03 Q0991
ESPA 291220Z 34010KT CAVOK 00/M03 Q0991
ESPE 291150Z AUTO 34007KT 310V020 9999 NCD 01/M05 Q0993
ESPE 291220Z AUTO 34008KT 310V010 9999 NCD 01/M05 Q0993
ESSA 291150Z 33018G29KT 9999 -RASN BKN019TCU 02/00 Q0987 TEMPO 3000 SHSNRA BKN020TCU
ESSA 291220Z 32017KT 6000 -RASN VV018 02/00 Q0988 TEMPO 3000 SHSNRA BKN020TCU
ESSB 291150Z 32021KT 9999 SCT027 BKN049 04/M02 Q0987
ESSB 291220Z 32020G32KT 9999 FEW025 SCT034 BKN044 03/M01 Q0988
ESSD 291150Z AUTO 33018KT 9999 NCD 04/M05 Q0993
ESSD 291220Z AUTO 34018G29KT 9999 NCD 05/M05 Q0993
ESSL 291150Z 33019KT 9999 SCT049 06/M03 Q0991
ESSL 291220Z AUTO 33021KT 9999 OVC055/// 06/M03 Q0992
ESSP 291150Z AUTO 33016KT 9999 OVC048/// 06/M03 Q0990
ESSP 291220Z 32016KT 9999 BKN049 06/M03 Q0991
ESST 291150Z AUTO 33021G32KT 9999 NCD 07/M02 Q0997
ESST 291220Z AUTO 33021G34KT 9999 NCD 07/M02 Q0997
ESSV 291150Z 33026KT 9999 BKN028 05/M00 Q0986
ESSV 291220Z 33027G37KT 9999 BKN029 05/M01 Q0986
ESTA 291150Z 33024KT 9999 SCT037 07/00 Q0998
ESTA 291220Z 33023KT CAVOK 08/M00 Q0998
ESTL 291150Z AUTO 32020KT 9999NDV FEW034/// 07/00 Q0997
ESTL 291220Z AUTO 33020KT 9999NDV FEW038/// 07/00 Q0998
ESUD 291150Z AUTO 33010KT 9999 NCD 02/M06 Q0994
ESUD 291220Z AUTO 32011KT 9999 NCD 02/M05 Q0994
ESUP 291150Z AUTO 34005KT 310V010 9999 NCD ///// Q0992
ESUP 291220Z AUTO 33004KT 310V020 9999 NCD ///// Q0993
ESUT 291150Z AUTO 30006KT 250V330 9999 OVC029/// 01/M05 Q0996
ESUT 291220Z AUTO 30005KT 260V340 9999 OVC028/// 01/M05 Q0996
ETAD 291156Z 32009KT 9999 FEW039 10/03 A2999 RMK AO2A SLPNO ALSTG ESTMD 60000 70008 52020 TSNO $
ETAD 291244Z 33016G25KT 9999 -RA FEW044 10/02 A3001 RMK AO2A DZB42E44RAB44 SLPNO ALSTG ESTMD TSNO $
ETAR 291156Z 33013G17KT 9999 BKN039 12/05 A2995 RMK AO2A SLP147 60004 70008 T01150054 10129 20108 51026 $
ETEB 291158Z AUTO 31021G31KT 9999 CLR 10/01 A2981 RMK AO2 PK WND 31034/14 SLP112 60027 70044 T01000006 10102 20089 52030 $
ETGG 291220Z 35022KT 9999 FEW040 12/01 Q1005 BLU+
ETHA 291220Z AUTO 27027G38KT //// // ////// 08/07 Q1011 ///
ETHB 291220Z AUTO 31017KT //// // ////// 11/05 Q1009 ///
ETHC 291220Z AUTO 30013G24KT 9999 // ////// 10/03 Q1006 ///
ETHE 291220Z AUTO 31019G31KT //// // ////// 11/02 Q1012 ///
ETHF 291220Z 30014G29KT 9999 VCSH FEW025 SCT035TCU 10/02 Q1010 BLU+
ETHL 291220Z AUTO 28012KT 4200 // ////// 08/07 Q1012 ///
ETHN 291205Z 31027G38KT 9999 FEW036 BKN240 10/M00 Q1010 BLU+
ETHN 291220Z 31023G34KT 9999 FEW036 BKN240 10/00 Q1011 BLU+
ETHS 291220Z 36018G32KT 9999 VCSH FEW035CB SCT040 11/01 Q1005 BLACKBLU+
ETHS 291238Z 36021G40KT 9999 VCSH FEW035CB SCT040 10/00 Q1006 BLACKBLU+
ETIC 291156Z AUTO 30022G28KT 9999 FEW031 SCT070 09/02 A2970 RMK AO2 PK WND 30037/32 RAB27E39DZB39E43 SLP066 P0000 60016 70036 T00870018 10100 20074 52034 $
ETIC 291234Z AUTO 30020G27KT 9999 -RA FEW034 FEW055 08/02 A2972 RMK AO2 RAB34 SLP073 $
ETIH 291156Z AUTO 31018G27KT 9999 FEW046 SCT060 10/03 A2974 RMK AO2 PK WND 27032/28 SLP079 60023 70048 T01010034 10105 20084 52039 $
ETIK 291158Z AUTO 30017G36KT 9999 CLR 11/01 A2984 RMK AO2 PK WND 30036/51 SLP109 60024 70035 T01110008 10113 20092 52033 $
ETML 291220Z AUTO 32037G48KT //// // ////// 10/03 Q1001 ///
ETMN 291220Z 34022G34KT 9999 VCSH SCT035 12/03 Q1008 BLU+
ETNH 291220Z 33016KT 9999 FEW040 11/01 Q1006 BLU+
ETNL 291150Z 33018KT 9999 FEW025 08/04 Q1000 BLU+
ETNL 291220Z 32019G29KT 9999 FEW023CB 09/04 Q1000 BLU+
ETNN 291220Z 34010KT 9999 BKN030 11/05 Q1016 BLU
ETNS 291220Z AUTO 33016KT //// // ////// 11/00 Q1006 ///
ETNT 291157Z 34023KT 4000 -SHRA FEW022 BKN037TCU 11/02 Q1010 GRN
ETNT 291220Z 34018G29KT 9000 -SHRA FEW021 BKN034TCU 11/04 Q1010 BLU
ETNT 291230Z 33024G35KT 9999 FEW021 SCT034 11/03 Q1010 BLU+
ETNW 291220Z AUTO 32021KT //// // ////// 11/03 Q1008 ///
ETOU 291156Z AUTO 32018G27KT 9999 FEW042 SCT055 12/04 A2993 RMK AO2 PK WND 36028/13 RAB05E26 SLP138 P0000 60002 70010 T01200035 10134 20100 52027 $
ETSA 291220Z AUTO 28022KT 3100 // ////// 08/06 Q1011 ///
ETSB 291220Z AUTO 31019G29KT 9999 // ////// 09/00 Q1014 ///
ETSH 291220Z 31013G27KT 6000 SHRA BKN023CB BKN038 08/05 Q1000 WHT
ETSH 291231Z 33016G28KT 4000 SHRA SCT012 BKN020CB 07/05 Q1002 GRN
ETSI 291220Z AUTO 32021G31KT 9999 // ////// 11/00 Q1009 ///
ETSL 291220Z AUTO 28011KT 3900 // ////// 08/07 Q1011 ///
ETSN 291220Z 30016G27KT 9999 FEW035 SCT250 11/01 Q1009 BLU+
ETWM 291220Z AUTO 33007KT 9999 // ////// 10/05 Q1013 ///
EVLA 291150Z AUTO 34009KT 300V040 9999 BKN021 BKN045 BKN120 07/04 Q0980
EVLA 291150Z AUTO 34009KT 300V040 9999 BKN021/// BKN045/// BKN120/// 07/04 Q0980
EVLA 291220Z AUTO 35010G21KT 320V020 8000 -RA SCT016 BKN020 OVC025 05/03 Q0981
EVLA 291220Z AUTO 35010G21KT 320V020 8000 -RA SCT016/// BKN020/// OVC025/// 05/03 Q0981
EVRA 291150Z 32005KT 280V360 9999 SCT013CB BKN023 BKN031 07/05 Q0977 R36/290195 NOSIG
EVRA 291220Z 32005KT 260V350 9999 SCT023CB BKN031 BKN036 07/05 Q0977 R36/290195 NOSIG
EVVA 291150Z AUTO 34017KT CAVOK 07/03 Q0979
EVVA 291220Z AUTO 34016G26KT 9999 SCT027 BKN033 BKN039 07/03 Q0980
EYKA 291150Z 35010KT 9999 -SHRA BKN008CB OVC013 06/04 Q0974
EYKA 291220Z 36010KT 310V030 9999 -SHRA SCT008CB BKN012 OVC017 06/04 Q0975
EYPA 291150Z 36010KT 9999 BKN039 07/03 Q0980
EYPA 291220Z 34012G22KT 280V020 9999 VCSH SCT019CB SCT073 06/02 Q0981
EYSA 291150Z 35013KT 9999 SCT015 BKN024 06/04 Q0977 WHT TEMPO SCT013 BKN023 GRN
EYSA 291220Z 34013KT 9000 BKN015 BKN030 06/04 Q0977 WHT TEMPO SCT013 BKN023 GRN
EYVI 291150Z 04009KT 9000 -SHRA BKN013CB OVC022 05/05 Q0972 NOSIG
EYVI 291220Z 02011KT 9999 -RA SCT004 OVC019 05/05 Q0973 NOSIG
FABL 291200Z 03011KT 9999 BKN030 25/05 Q1024 NOSIG
FACT 291200Z 21014KT CAVOK 24/14 Q1014 NOSIG
FAEL 291200Z 07009KT CAVOK 26/15 Q1015
FAGG 291200Z 17007KT 140V220 CAVOK 21/14 Q1015
FAGM 291200Z 34005KT 9999 BKN025 20/09 Q1028
FAJB 291200Z AUTO 34002KT //// // ////// 19/08 Q1027
FAKM 291200Z 35008KT CAVOK 27/06 Q1021
FAKN 291200Z AUTO 04004KT //// // ////// 17/06 Q1027
FAKN 291200Z AUTO 04004KT //// 17/06 Q1027
FALA 291200Z 04010KT 360V080 9999 BKN030 20/08 Q1027 NOSIG
FALE 291200Z 05024G34KT CAVOK 23/11 Q1019 NOSIG
FALW 291200Z AUTO 22011KT //// // ////// 31/M01 Q1011
FAMM 291200Z 03012KT 9999 SCT030 23/09 Q1025 NOSIG
FAOB 291200Z AUTO 17011KT //// // ////// 23/14 Q1016
FAOR 291200Z 35012KT 9999 BKN033 17/08 Q1028 NOSIG
FAOR 291230Z 34011KT 310V030 9999 BKN035 17/07 Q1028 NOSIG
FAPE 291200Z 09009KT CAVOK 24/14 Q1013 NOSIG
FAPN 291200Z AUTO 36005KT //// // ////// 23/08 Q1024
FAPN 291200Z AUTO 36005KT //// 23/08 Q1024
FAPP 291200Z 04008KT 9999 BKN032 17/07 Q1027 NOSIG
FASI 291200Z AUTO 02005KT //// // ////// 17/08 Q1031
FAUP 291200Z 36011KT CAVOK 32/08 Q1016 NOSIG
FAUT 291200Z 05005KT 9999 FEW040 29/07 Q1018
FAVV 291200Z AUTO 01008KT //// // ////// 21/09 Q1026
FBFT 291200Z 09013KT 050V120 9999 BKN015 17/10 Q1025
FBKE 291200Z 11008KT 080V140 9999 BKN015 16/15 Q1022
FBMN 291200Z 08013KT 9999 SCT025 BKN070 22/12 Q1021
FBSK 291200Z 02010KT 340V060 9999 SCT025 22/07 Q1025 NOSIG
FBSP 291200Z 13008KT 9999 OVC020 18/12 Q1026
FCBB 291200Z 30005KT 9999 BKN020 FEW030CB 30/22 Q1009 NOSIG
FCPP 291200Z 21008KT 170V250 9999 SCT015 SCT026 28/22 Q1010 NOSIG
FDJR 291200Z AUTO 34008KT //// // ////// M00/M14 Q1026
FDMV 291200Z AUTO 33004KT //// // ////// 24/10 Q1031
FDSK 291200Z 35006KT 9999 SCT045 23/08 Q1025 NOSIG
FDUS 291200Z AUTO 11007KT //// // ////// 19/12 Q1025
FEFF 291200Z VRB02KT 9999 SCT023 FEW040CB 30/24 Q1008 NOSIG
FGBT 291200Z 26006KT 9999 SCT010 BKN100 27/26 Q1009
FGSL 291200Z 36004KT 9999 FEW010 29/24 Q1011 NOSIG
FHAW 291150Z 14012KT 9999 VCSH FEW010 SCT013 BKN035 25/20 Q1014 GRN
FIMP 291200Z 35007KT 1000NW -SHRA FEW006 FEW012CB SCT013 BKN045 25/22 Q1016
FJDG 291155Z 05005KT 9999 FEW020 SCT050 BKN080 28/25 A2985 RMK SLP105 60006 8/870 T02820252 10301 20282 55003
FKKD 291200Z VRB04KT 9999 BKN016 FEW020CB 32/25 Q1009 NOSIG
FKKN 291200Z 36004KT 2500 HZ NSC 28/16 Q1015
FKKR 291200Z 28006KT 2300 HZ NSC 34/15 Q1009 NOSIG
FKYS 291200Z 07004KT 020V140 8000 BKN016 28/21 Q1014 NOSIG
FMCH 291200Z 24005KT 9999 FEW020 30/26 Q1014 NOSIG
FMCZ 291200Z 10006KT 070V140 9999 SCT023TCU 30/23 Q1012 NOSIG
FMCZ 291230Z 09004KT 040V130 9999 SCT023 30/23 Q1012 NOSIG
FMEE 291200Z 02005KT 9999 SCT040 29/20 Q1015 NOSIG
FMEE 291230Z 02005KT 9999 SCT040 SCT043 27/20 Q1015 NOSIG
FMEP 291200Z AUTO 17007KT 140V200 9999 SCT044 BKN070 27/19 Q1015 NOSIG
FMEP 291230Z AUTO 18007KT 9999 FEW046 BKN072 26/19 Q1016 NOSIG
FMMI 291200Z 12007KT 080V170 9999 BKN020TCU 25/16 Q1019 NOSIG
FMMI 291230Z 11013KT 9999 BKN020TCU 25/15 Q1020 NOSIG
FMMT 291200Z 18012KT 9999 SCT017 28/23 Q1015 NOSIG
FMNM 291200Z 34008KT 9999 FEW023 31/24 Q1011 NOSIG
FMNN 291200Z 28006KT 9999 FEW020 BKN233 30/23 Q1011
FMSD 291200Z 12011KT 9999 VCSH SCT016 BKN033 20/16 Q1023
FNBC 291200Z 32009KT 8000 -DZ BKN013 25/// Q1011
FNBG 291200Z 29012KT 9999 SCT015 BKN100 28/21 Q1010
FNCA 291200Z 25008KT 9999 FEW016 BKN025 28/23 Q1010
FNDU 291200Z 00000KT 9999 BKN024 23/// Q1013
FNGI 291200Z 04010KT 9999 FEW008 SCT020 32/15 Q1013
FNHU 291200Z 05008KT 6000 -TSRA SCT011 FEW060CB BKN070 20/17 Q1019
FNKU 291200Z 09010KT 9999 RA SCT014 OVC060 19/18 Q1019
FNLU 291200Z 28007KT 9999 SCT022 BKN080 28/22 Q1011 NOSIG
FNMA 291200Z 28006KT 7000 SCT009 FEW012CB OVC045 23/20 Q1018
FNMO 291200Z 27011KT 9999 SCT020 25/17 Q1016
FNSA 291200Z 18008KT 9999 SCT020 BKN130 26/19 Q1019
FNSO 291200Z 22008KT 9999 SCT020 BKN090 ///// Q1011
FNUB 291200Z 13012KT 9999 FEW020 28/// Q1020
FNUG 291200Z 27008KT 9999 SCT017 BKN057 23/20 Q1012
FOGM 291200Z /////KT 9999 SCT015 BKN030 29/24 Q////
FOGO 291200Z 02006KT 9999 SCT010 BKN030 26/21 Q////
FOGR 291200Z 28004KT 9999 SCT013TCU BKN038 31/25 Q////
FOOB 291200Z /////KT 9999 BKN013 OVC100 25/22 Q1010
FOOG 291200Z 34004KT 9999 SCT011 31/26 Q1010
FOOK 291200Z 00000KT 9999 BKN010TCU 27/21 Q1011
FOOL 291200Z VRB03KT 9999 SCT013 SCT032 30/23 Q1010 NOSIG
FOOL 291230Z 23006KT 9999 SCT013 29/24 Q1009 NOSIG
FOON 291200Z 07004KT 8000 -RA BKN010 24/21 Q1012
FOOR 291200Z /////KT 8000 -RA SCT003 BKN006 23/22 Q////
FOOT 291200Z 36008KT 9999 SCT011 OVC026 29/24 Q1011
FPST 291200Z 12008KT 9999 FEW020CB SCT040 29/24 Q1011 NOSIG
FQBR 291200Z 17013KT 9999 SCT017 SCT030 BKN070 25/18 Q1021
FQCH 291200Z 18011KT 9999 BKN007 OVC015 18/15 Q1025
FQLC 291200Z 09012KT 9999 BKN017 24/13 Q1021
FQMA 291200Z 09010KT 9999 SCT020 25/09 Q1025 NOSIG
FQNP 291200Z 19012KT 9999 SCT010 BKN020 SCT100 28/18 Q1016 RMK TX/283 TM/220
FQNP 291200Z 19013KT 9999 FEW010 BKN020 SCT/// 28/19 Q1015
FQPB 291200Z 17016KT 9999 FEW020 BKN100 28/21 Q1014
FQTT 291200Z 14012KT 9999 BKN020 BKN090 23/17 Q1020
FQVL 291200Z 14013KT 9999 BKN020 24/18 Q1023
FSIA 291200Z 18003KT 9999 BKN015 27/25 Q1010 RESHRA NOSIG
FSPP 291200Z 17003KT //// //// 29/24 Q1011
FTTA 291200Z 26004KT 4000 HZ NSC 33/20 Q1012
FTTJ 291200Z 07014KT 040V100 8000 NSC 38/05 Q1008 NOSIG
FVBU 291200Z 10017KT 9999 -RA BKN016 OVC090 14/10 Q1026 TEMPO 9000
FVFA 291200Z 08010KT 9999 -RA BKN010 BKN080 16/14 Q1022 BECMG BKN012
FVHA 291200Z 14009KT 9999 BKN025 BKN090 20/12 Q1025 NOSIG
FVKB 291200Z 26001KT 9999 SCT025 BKN090 26/17 Q1018
FVMV 291200Z 15009KT 9999 OVC010 14/11 Q1026 REDZ
FVWN 291200Z 09001KT 9999 BKN007 OVC080 15/14 Q1021
FWCL 291200Z 13011KT 9999 FEW008 BKN015 BKN080 22/16 Q1021 NOSIG
FWKI 291200Z 12015KT 5000 -SHRA FEW025CB BKN028 BKN080 21/17 Q1021 BECMG 3000
FWKI 291200Z 12015KT 5000 -SHRA FEW025CB BKN028 BKN080 21/17 Q1021 NOSIG
FXMM 291200Z 33006KT 9999 BKN035 FEW040 20/07 Q1027 NOSIG
FZAA 291200Z 28012KT 7000 BKN022 FEW030CB 31/22 Q1009 NOSIG
GABS 291200Z 09012KT 8000 NSC 35/03 Q1013 NOSIG
GABS 291230Z 09008KT 8000 NSC 35/02 Q1013 NOSIG
GAMB 291200Z 12012KT 5000 DU NSC 35/01 Q1013
GANR 291200Z 08008KT CAVOK 38/02 Q1013
GBYD 291200Z 28011KT 9999 SCT012 33/26 Q1010
GCFV 291200Z 05008KT 9999 FEW020 24/19 Q1018
GCFV 291230Z 06008KT 9999 FEW020 24/19 Q1018
GCGM 291200Z 22004KT 160V280 CAVOK 24/19 Q1020 RMK R09/VRB02KT ARP/25003KT 170V300
GCGM 291230Z 22004KT 160V260 CAVOK 25/19 Q1020 RMK R09/VRB01KT ARP/VRB02KT
GCHI 291200Z 36010KT CAVOK 25/20 Q1020
GCHI 291230Z 36011KT CAVOK 25/21 Q1019
GCLA 291200Z 02009KT 350V060 CAVOK 25/20 Q1020
GCLA 291230Z 01008KT 330V060 CAVOK 26/20 Q1020
GCLP 291200Z 03016KT 9999 FEW025 25/19 Q1019 NOSIG
GCLP 291230Z 04017KT 9999 FEW025 25/19 Q1018 NOSIG
GCRR 291200Z 09014KT 9999 FEW030 23/20 Q1018
GCRR 291230Z 09015KT 9999 FEW030 23/20 Q1018
GCTS 291200Z 10008KT 080V140 CAVOK 28/18 Q1019 NOSIG
GCTS 291230Z 11010KT 070V140 CAVOK 29/18 Q1018 NOSIG
GCXO 291200Z 12004KT 070V160 CAVOK 28/06 Q1022 NOSIG
GCXO 291230Z 11004KT 080V190 CAVOK 26/06 Q1021 NOSIG
GEML 291200Z 04004KT 360V120 9999 FEW015 22/17 Q1020
GEML 291230Z 03005KT 350V090 9999 FEW015 22/17 Q1019
GGOV 291200Z 25010KT 9999 BKN014 32/27 Q1011 NOSIG
GLRB 291200Z 22005KT 9999 BKN020 30/25 Q1011 NOSIG
GLRB 291230Z 00000KT 9999 BKN020 30/25 Q1011 NOSIG
GMAD 291200Z 25005KT 180V310 CAVOK 28/06 Q1017 NOSIG
GMAD 291230Z 23006KT 160V290 9999 NSC 29/08 Q1017 NOSIG
GMAG 291200Z 18008KT CAVOK 30/M04 Q1016 NOSIG
GMAT 291200Z 02004KT CAVOK 26/12 Q1018 NOSIG
GMFF 291200Z 03005KT 340V070 CAVOK 28/05 Q1019 NOSIG
GMFK 291200Z 13007KT 080V160 CAVOK 25/M10 Q1024 NOSIG
GMFM 291200Z 33005KT CAVOK 26/04 Q1019 BECMG FEW023
GMFO 291200Z 01004KT 320V070 9999 FEW020 24/11 Q1020 NOSIG
GMMB 291200Z 34004KT 280V040 5000 NSC 25/15 Q1019 NOSIG
GMMC 291200Z 32010KT 4000 BR NSC 22/17 Q1017
GMMD 291200Z VRB02KT CAVOK 27/04 Q1018 NOSIG
GMME 291200Z 35005KT 300V040 5000 FEW006 SCT016 20/15 Q1018 BECMG 4000 BR
GMME 291230Z 35006KT 320V020 5000 FEW006 SCT016 20/16 Q1017 BECMG 4000 BR
GMMH 291200Z 04009KT CAVOK 27/06 Q1015 NOSIG
GMMI 291200Z 30006KT 240V340 8000 NSC 28/14 Q1017 NOSIG
GMML 291200Z 06009KT 9999 SCT017 27/14 Q1017 NOSIG
GMMN 291200Z 35005KT 300V040 CAVOK 25/15 Q1019 NOSIG
GMMN 291230Z 01007KT 330V070 9999 NSC 26/16 Q1018 NOSIG
GMMW 291200Z 04004KT 330V090 8000 FEW020 21/11 Q1020 NOSIG
GMMX 291200Z 32004KT 270V010 CAVOK 29/M03 Q1018 NOSIG
GMMX 291230Z 33004KT 280V030 9999 FEW030 SCT200 30/M04 Q1017 NOSIG
GMMZ 291200Z 00000KT 9999 FEW040 22/M06 Q1024 NOSIG
GMTA 291200Z 34008KT 9999 FEW020 23/17 Q1020 NOSIG
GMTN 291200Z 08011KT CAVOK 23/14 Q1020 NOSIG
GMTT 291200Z 10015KT CAVOK 27/10 Q1018 NOSIG
GMTT 291230Z 10013KT 070V130 CAVOK 27/10 Q1018 NOSIG
GOGG 291200Z 22004KT 9999 BKN020 34/27 Q1010
GOGK 291200Z 20004KT 9999 BKN016 33/27 Q1010
GOGS 291200Z 26006KT 9999 SCT015 33/26 Q1011
GOOD 291200Z 00000KT CAVOK 39/24 Q1010
GOOG 291200Z 32002KT CAVOK 39/16 Q////
GOOK 291200Z 00000KT 9999 FEW013 35/27 Q1011
GOOY 291200Z 03007KT 350V050 CAVOK 32/21 Q1010 NOSIG
GOOY 291230Z 02008KT 340V040 CAVOK 33/22 Q1010 NOSIG
GOSM 291200Z 14004KT CAVOK 38/12 Q1010
GOSP 291200Z 08002KT CAVOK 39/09 Q1011
GOSS 291200Z 08006KT CAVOK 40/17 Q1010
GOTK 291200Z 32006KT 9999 BKN015 33/24 Q1011
GOTT 291200Z 18006KT 150V250 9999 SCT018 34/25 Q1011
GQNI 291200Z 08010T 8000 NSC 40/04 Q////
GQNO 291200Z 09010KT 060V120 8000 NSC 38/01 Q1011 NOSIG
GQNO 291230Z 09010KT 8000 NSC 39/01 Q1010 NOSIG
GQPA 291200Z 00000KT 9999 36/03 Q1012
GQPP 291200Z 02007KT 6000 NSC 31/04 Q1013 NOSIG
GQPP 291200Z 03009KT 6000 NSC 31/02 Q1013 NOSIG
GQPZ 291200Z 10012KT CAVOK 32/00 Q1016 RMK VENT ESTIME
GVAC 291200Z 05013KT 8000 NSC 32/20 Q1014 NOSIG
GVBA 291200Z 03018KT 9000 NSC 31/20 Q1013 NOSIG
GVNP 291200Z 05017KT CAVOK 33/18 Q1013 NOSIG
GVSV 291200Z 06024KT CAVOK 33/10 Q1014 NOSIG
HAAB 291200Z 09016KT 9999 BKN025 23/09 Q1024
HEAR 291200Z 34005KT CAVOK 27/10 Q1012 NOSIG
HEAT 291200Z 28009KT CAVOK 26/10 Q1016 NOSIG
HEAX 291200Z 27013KT 9999 SCT020 26/12 Q1011 NOSIG
HEBA 291200Z 28017KT 6000 SCT020 25/12 Q1012 NOSIG
HEBL 291200Z 34009KT CAVOK 31/05 Q1012 NOSIG
HECA 291200Z 24014KT CAVOK 28/09 Q1013
HECA 291200Z 24014KT CAVOK 28/09 Q1013 NOSIG
HECA 291230Z 27012KT CAVOK 28/08 Q1012 NOSIG
HEGN 291200Z 02011KT CAVOK 29/09 Q1011 NOSIG
HEIS 291200Z 28012KT CAVOK 28/09 Q1012
HELX 291200Z 24004KT CAVOK 30/10 Q1011 NOSIG
HEMM 291200Z 27020KT 2000 SA BKN020 26/13 Q1012 TEMPO 4000
HEPS 291200Z 23012KT 9999 FEW025 26/13 Q1012 NOSIG
HESC 291200Z 00000KT CAVOK 24/M03 Q1019 NOSIG
HESG 291200Z 32013KT CAVOK 28/07 Q1014 NOSIG
HESH 291200Z 06008KT CAVOK 28/13 Q1010 NOSIG
HESN 291200Z 02008KT CAVOK 30/04 Q1012 NOSIG
HETR 291200Z 31018KT CAVOK 27/12 Q1012
HKEL 291200Z 07012KT 9999 FEW023CB BKN290 23/09 Q1022
HKEL 291230Z 07011KT 9999 FEW023CB BKN290 23/09 Q1021
HKJK 291200Z 05013KT 9999 SCT027 SCT080 25/12 Q1019 NOSIG
HKJK 291230Z 03009KT 9999 FEW027CB SCT028 25/13 Q1019 NOSIG
HKML 291200Z 16010KT 9999 FEW025 30/24 Q1011
HKMO 291200Z 14009KT 9999 FEW025 29/24 Q1011 NOSIG
HLLM 291150Z 30008KT 26V340 9999 BKN025 24/12 Q1020
HRYR 291200Z 35004KT 9999 FEW023CB BKN025 23/16 Q1017 NOSIG
HSSS 291200Z 34012KT CAVOK 38/10 Q1008 NOSIG
HSSS 291230Z 34013KT CAVOK 38/10 Q1008 NOSIG
HTBU 291200Z 00000KT 9999 FEW022 FEW02400CB BKN090 25/18 Q////
HTDA 291200Z 11015KT 9999 SCT026 32/24 Q1012 NOSIG
HTDO 291200Z 10015KT 9999 BKN030 30/15 Q1015 NOSIG
HTIR 291200Z 12012KT 9999 SCT023 FEW024CB 29/11 Q1019
HTKA 291200Z 21008KT 9999 SCT022 FEW023CB BKN100 24/20 Q1016
HTKJ 291200Z 12025KT 9999 FEW038CB SCT040 Q1013 NOSIG
HTMG 291200Z 00000KT 9999 SCT026 33/18 Q1015
HTMT 291200Z 06010KT 9999 FEW025 31/21 Q1012
HTMU 291200Z 29010KT 9999 FEW025 FEW026CB BKN280 28/17 Q1014
HTMW 291200Z 27012KT 9999 FEW024 FEW025CB BKN110 27/21 Q1013 NOSIG
HTSO 291200Z 09018KT 9999 BKN026 30/12 Q1017
HTSU 291200Z 04008KT 9999 BKN021 FEW023CB 23/15 Q1018
HTTB 291200Z 12013KT 9999 SCT030 FEW031CB 31/13 Q1014
HTZA 291200Z 15013KT 9999 BKN024 32/24 Q1011 NOSIG
HUEN 291200Z 18011KT 9999 FEW024TCU FEW026CB 27/20 Q1014 NOSIG
HUEN 291230Z 17012KT 9999 FEW024TCU FEW026CB 27/20 Q1014 NOSIG
K04V 291154Z AUTO 31016KT 10SM CLR 00/M05 A3019 RMK AO2
K04V 291212Z AUTO 31015KT 10SM CLR 00/M05 A3019 RMK AO2
K04V 291230Z AUTO 31015KT 10SM CLR 00/M06 A3018 RMK AO2
K04W 291154Z AUTO 16006KT 10SM BKN055 OVC075 M01/M02 A2969 RMK AO2
K04W 291214Z AUTO 17007KT 10SM OVC055 M01/M03 A2969 RMK AO2
K04W 291234Z AUTO 17008KT 10SM BKN055 OVC070 M01/M02 A2968 RMK AO2
K05U 291155Z AUTO 20005KT 10SM CLR 01/M05 A3015 RMK A01
K05U 291215Z AUTO 21006KT 10SM CLR 01/M05 A3015 RMK A01
K05U 291235Z AUTO 20006KT 10SM CLR 01/M05 A3015 RMK A01
K06D 291155Z AUTO 32015G22KT 10SM OVC065 05/01 A2956 RMK AO2
K06D 291215Z AUTO 32015KT 10SM OVC065 05/01 A2957 RMK AO2
K06D 291235Z AUTO 31016KT 10SM OVC065 05/01 A2958 RMK AO2
K0A9 291155Z AUTO 27005KT 5SM BR OVC013 03/02 A2975 RMK A01
K0A9 291215Z AUTO 28007KT 6SM BR OVC016 03/02 A2975 RMK A01
K0A9 291235Z AUTO 25005KT 7SM OVC016 03/02 A2975 RMK A01
K0CO 291153Z AUTO OVC001 M06/M12 A3025 RMK AO2 PWINO
K0CO 291212Z AUTO OVC001 M06/M12 A3024 RMK AO2 PWINO
K0CO 291235Z AUTO OVC001 M06/M12 A3024 RMK AO2 PWINO
K0E0 291155Z AUTO 00000KT 10SM CLR M03/M05 A3016 RMK AO2 T10281054 10000 21041
K0E0 291215Z AUTO 00000KT 10SM CLR M05/M07 A3016 RMK AO2 T10461066
K0E0 291235Z AUTO 02003KT 10SM CLR M05/M07 A3016 RMK AO2 T10501069
K0F2 291155Z AUTO 00000KT 10SM CLR 02/M05 A2997 RMK AO2 T00221052 10022 21003
K0F2 291215Z AUTO 21003KT 10SM CLR 04/M06 A2997 RMK AO2 T00351063
K0F2 291235Z AUTO 23007KT 10SM CLR 06/M07 A2996 RMK AO2 T00581072
K0J4 291158Z AUTO 31004KT 10SM CLR 03/02 A2996 RMK AO2 SLP143 70001 T00280017 10056 20028 53005 $
K0R0 291155Z AUTO 00000KT 10SM CLR M01/ A3009 RMK AO2 PWINO
K0R0 291215Z AUTO 00000KT 9SM CLR M01/ A3009 RMK AO2 PWINO
K0R0 291235Z AUTO 00000KT 10SM CLR M00/ A3009 RMK AO2 PWINO
K0R4 291155Z AUTO A3008 RMK AO2 PWINO TSNO
K0R4 291215Z AUTO A3009 RMK AO2 PWINO TSNO
K0R4 291235Z AUTO A3009 RMK AO2 PWINO TSNO
K0S9 291155Z AUTO 00000KT 2 1/2SM BR BKN002 BKN030 01/01 A3000 RMK AO2 VIS 1V5
K0S9 291215Z AUTO 00000KT 1 1/4SM BR OVC001 01/01 A3000 RMK AO2
K0S9 291235Z AUTO 00000KT 1/4SM FG BKN001 BKN018 OVC033 01/01 A3000 RMK AO2
K0V4 291155Z AUTO 13004KT 7SM OVC003 17/17 A2957 RMK AO1 60002 70013 T01670166 10167 20163
K0V4 291215Z AUTO 14003KT 7SM OVC003 17/17 A2957 RMK AO1 T01670166
K0V4 291235Z AUTO 15003KT 7SM OVC003 17/17 A2957 RMK AO1 T01680167
K0VG 291155Z AUTO 34006KT 10SM BKN016 OVC022 02/00 A2983 RMK AO2
K0VG 291215Z AUTO 36004KT 10SM BKN016 OVC022 02/00 A2983 RMK AO2
K0VG 291235Z AUTO 33003KT 10SM BKN018 OVC032 02/00 A2983 RMK AO2
K11R 291155Z AUTO 00000KT 10SM CLR 02/01 A3012 RMK AO2 T00160010 10035 20014
K11R 291215Z AUTO 00000KT 10SM CLR 02/00 A3012 RMK AO2 T00180003
K11R 291235Z AUTO 00000KT 10SM CLR 02/01 A3012 RMK AO2 T00180009
K12N 291154Z AUTO VRB03KT 16/14 A2977 RMK AO1 SLP079 T01560139 10167 20150 58009
K14Y 291152Z AUTO 12009KT 10SM OVC075 00/M03 A2961 RMK AO2
K14Y 291212Z AUTO 13006KT 10SM SCT065 00/M03 A2959 RMK AO2
K14Y 291232Z AUTO 13008KT 10SM CLR 00/M03 A2959 RMK AO2
K17J 291155Z AUTO 34005KT 10SM CLR 05/02 A2989 RMK AO2 T00490024 10084 20048
K17J 291215Z AUTO 33005KT 10SM CLR 05/02 A2989 RMK AO2 T00490023
K17J 291235Z AUTO 33006KT 10SM CLR 05/02 A2989 RMK AO2 T00520020
K18A 291155Z AUTO 25005KT 10SM CLR 04/03 A2966 RMK AO2 T00380030 10091 20038
K18A 291215Z AUTO 26005KT 10SM CLR 04/03 A2966 RMK AO2 T00390031
K18A 291235Z AUTO 26004KT 10SM CLR 04/03 A2965 RMK AO2 T00420031
K18H 291155Z AUTO 35012G20KT 320V030 9SM 19/09 A3002 RMK A01
K18H 291215Z AUTO 36013G21KT 9SM 19/09 A3003 RMK A01
K18H 291235Z AUTO 36009G19KT 8SM 19/09 A3003 RMK A01
K19S 291155Z AUTO 27010KT 10SM CLR 04/00 A2991 RMK AO2 T00411001 10059 20032
K19S 291215Z AUTO 27011KT 10SM CLR 04/00 A2991 RMK AO2 T00391003
K19S 291235Z AUTO 27011KT 10SM CLR 04/M01 A2991 RMK AO2 T00361005
K1A5 291145Z AUTO 32005KT 280V360 10SM OVC028 04/00 A2969 RMK AO2 P0004 T00370000
K1A5 291205Z AUTO 35004KT 10SM OVC030 04/00 A2969 RMK AO2 P0001 T00361004
K1A5 291225Z AUTO 31004KT 10SM OVC030 04/00 A2969 RMK AO2 P0002 T00351005
K1A6 291155Z AUTO 04003KT 10SM UP OVC015 02/00 A2985 RMK AO2 70088 T00170002 10035 20017
K1A6 291215Z AUTO 34003KT 7SM -RA BKN017 OVC023 01/01 A2985 RMK AO2 T00130006
K1A6 291235Z AUTO 33005KT 7SM -DZ SCT017 BKN025 OVC032 02/01 A2985 RMK AO2 T00150005
K1A9 291155Z AUTO 28005KT 10SM SCT035 02/01 A2993 RMK AO2 70036 T00200010 10050 20020
K1A9 291215Z AUTO 28005KT 10SM CLR 02/01 A2994 RMK AO2 T00180010
K1A9 291235Z AUTO 28004KT 10SM CLR 02/01 A2994 RMK AO2 T00200013
K1AM 291158Z AUTO 34011G18KT 10SM -DZ FEW019 BKN027 OVC060 05/02 A3009 RMK AO2 RAE1058DZB1058 SLP144 T00510024 10172 20051 52036 $
K1AN 291156Z AUTO 31011KT 10SM BKN044 BKN085 08/05 A2956 RMK AO2 RAE18SHRAB18E45 SLP037 70008 T00760048 10098 20074 53007 $
K1AW 291158Z AUTO 28012KT 10SM CLR 06/M03 A2989 RMK AO2 SLP114 T00611026 10086 20060 57012 $
K1BM 291158Z AUTO 01013KT 10SM -SHRA OVC038 05/02 A3006 RMK AO2 RAB03E05DZB05E31SHRAB31 SLP188 T00500019 10142 20050 52027 $
K1BN 291156Z AUTO 31010KT 10SM -SHRA FEW044 BKN055 08/05 A2961 RMK AO2 DZE06SHRAB06 SLP039 60002 70002 T00750045 10106 20075 51007 $
K1BW 291158Z AUTO 28018KT 10SM CLR 09/M02 A2989 RMK AO2 SLP092 T00861023 10089 20030 57014 $
K1CM 291158Z AUTO 34016G21KT 10SM -RA OVC039 05/03 A3005 RMK AO2 RAB29E31DZB31E50RAB50 SLP176 T00470026 10144 20047 52023 $
K1CN 291156Z AUTO 30014KT 10SM -DZ BKN039 BKN095 07/05 A2963 RMK AO2 RAE30DZB30 SLP047 60002 70002 T00730048 10101 20073 52007 $
K1CW 291158Z AUTO 26011KT 10SM CLR 08/M02 A2989 RMK AO2 SLP103 T00761018 10078 20035 56015 $
K1DM 291158Z AUTO 33025G33KT 10SM -SHRA OVC027 07/02 A3000 RMK AO2 PK WND 30033/47 SHRAE1058RAB1058E1058RAB35E37SHRAB37 CIG 027V035 SLP171 T00650020 10137 20065 52031 $
K1DN 291156Z AUTO 31014G19KT 10SM -SHRA BKN050 07/03 A2963 RMK AO2 RAE27DZB27E37SHRAB37 SLP049 60002 70002 T00720033 10098 20071 51009 $
K1DW 291158Z AUTO 28015KT 10SM CLR 09/M02 A2990 RMK AO2 SLP096 T00881023 10102 20051 56015 $
K1EM 291158Z AUTO 33009KT 5SM -SHRA FEW039 BKN120 06/03 A3002 RMK AO2 RAB1058E1059SHRAB1059 SLP177 T00630031 10145 20055 52029 $
K1EN 291156Z AUTO 30017KT 10SM BKN042 07/04 A2962 RMK AO2 DZE38 SLP050 60001 70001 T00720035 10104 20071 51009 $
K1FN 291156Z AUTO 31019G28KT 10SM -SHRA BKN040 07/03 A2955 RMK AO2 PK WND 32028/48 DZE24SHRAB24E39SHRAB40 SLP053 60002 70002 T00710034 10105 20071 50011 $
K1FW 291158Z AUTO 30012KT 10SM CLR 04/M02 A2986 RMK AO2 SLP100 T00441018 10059 20015 57017 $
K1GM 291158Z AUTO 01016KT 7SM -RA OVC011 03/02 A3010 RMK AO2 RAB04E06DZB06E34RAB34 CIG 011V019 PRESRR SLP201 P0001 T00320023 10115 20032 52025 $
K1GN 291156Z AUTO 33017G26KT 10SM FEW043 FEW055 BKN090 07/02 A2963 RMK AO2 PK WND 34026/44 SHRAE06SHRAB17E36 SLP054 60001 70001 T00700021 10102 20070 50009 $
K1H2 291155Z AUTO 26003KT 10SM CLR 00/M02 A2997 RMK AO2 T10031021 10026 21006
K1H2 291215Z AUTO 26003KT 10SM CLR 00/M02 A2997 RMK AO2 T10021023
K1H2 291235Z AUTO 00000KT 10SM CLR M01/M02 A2997 RMK AO2 T10121025
K1HM 291158Z AUTO 34020KT 3SM -RA BKN005 OVC048 03/02 A3012 RMK AO2 PK WND 35026/09 SLP204 P0002 60002 70002 T00340019 10113 20034 52033 $
K1HN 291156Z AUTO 32012KT 10SM FEW039 BKN070 BKN120 08/03 A2967 RMK AO2 SLP062 P0001 60001 70001 T00800030 10120 20075 51011 PWINO $
K1IM 291158Z AUTO 36016G21KT 9SM -RA BKN019 OVC055 05/04 A3012 RMK AO2 CIG 019V025 SLP214 P0001 T00510039 10140 20051 52032 $
K1IN 291156Z AUTO 32014KT 10SM BKN120 06/01 A2966 RMK AO2 PK WND 32027/1056 SLP060 60001 70001 T00630009 10095 20062 53011 $
K1IW 291158Z AUTO 26007KT 10SM CLR 04/M01 A2985 RMK AO2 SLP106 T00371015 10066 20018 55009 $
K1J0 291158Z AUTO 00000KT 10SM CLR 04/03 A2992 RMK AO2 SLP119 70004 T00440033 10083 20044 51008 TSNO $
K1JM 291158Z AUTO 35018KT 4SM -RA BKN004 03/02 A3010 RMK AO2 PK WND 35029/17 SLP210 P0002 T00300024 10098 20030 52032 $
K1JN 291156Z AUTO 33012KT 10SM BKN120 07/01 A2964 RMK AO2 SLP051 T00660009 10106 20066 53013 $
K1K1 291155Z AUTO 21003KT 10SM CLR M01/M06 A2987 RMK AO2 T10091065 10019 21009
K1K1 291215Z AUTO 21003KT 10SM CLR M01/M06 A2986 RMK AO2 T10081062
K1K1 291235Z AUTO 00000KT 10SM CLR M01/M06 A2987 RMK AO2 T10071060
K1KM 291158Z AUTO 35018G25KT 10SM BKN080 08/01 A3000 RMK AO2 PK WND 36027/03 PRESRR SLP158 T00750009 10141 20072 53029 $
K1KN 291156Z AUTO 32014KT 10SM OVC120 06/00 A2965 RMK AO2 PK WND 33026/03 SHRAE02RAB02E03 SLP055 T00640002 10110 20064 53013 $
K1KW 291158Z AUTO 27016KT 10SM CLR 07/M01 A2984 RMK AO2 SLP094 T00661013 10078 20036 56016 $
K1LM 291158Z AUTO 34027G33KT 10SM OVC032 06/01 A3000 RMK AO2 SLP166 T00620005 10161 20047 52020 $
K1LN 291156Z AUTO 32015KT 10SM BKN120 07/00 A2966 RMK AO2 SLP053 T00650002 10108 20064 52017 $
K1LW 291158Z AUTO 28019KT 10SM CLR M M RMK AO2 SLPNO $
K1M4 291156Z AUTO 34007KT 10SM OVC031 03/M01 A2996 RMK AO2 SLP169 T00281006 10039 20028 53002
K1M5 291155Z AUTO 32003KT 10SM OVC027 03/M00 A2992 RMK A01
K1M5 291215Z AUTO 32003KT 10SM OVC027 03/M01 A2992 RMK A01
K1M5 291235Z AUTO 31006KT 10SM BKN027 OVC033 03/M01 A2992 RMK A01
K1MM 291158Z AUTO 33018G25KT 10SM -DZ OVC038 06/02 A3001 RMK AO2 RAB41E43DZB43 SLP173 T00600020 10116 20035 52025 $
K1MN 291156Z AUTO 32014KT 10SM BKN130 BKN190 07/01 A2965 RMK AO2 SLP054 T00650005 10112 20065 53018 $
K1NM 291158Z AUTO 33013KT 10SM OVC055 08/01 A2996 RMK AO2 SLP154 T00820012 10140 20081 52024 $
K1NN 291156Z AUTO 31011KT 10SM SCT055 BKN140 06/01 A2965 RMK AO2 SLP051 T00600007 10100 20051 53016 $
K1NW 291158Z AUTO 27009KT 10SM CLR 03/M02 A2989 RMK AO2 SLP114 T00251019 10059 20020 57013 $
K1ON 291156Z AUTO 33010KT 10SM SCT037 BKN060 07/01 A2963 RMK AO2 SLP049 T00670008 10100 20058 53015 $
K1OW 291158Z AUTO 28015KT 10SM CLR 08/M03 A2990 RMK AO2 SLP105 T00801033 10080 20041 57012 PWINO $
K1P1 291155Z AUTO 00000KT 2 1/2SM DZ OVC006 11/11 A2992 RMK AO2 P0006 60008 70008 T01110105 10111 20100
K1P1 291215Z AUTO 00000KT 2SM DZ OVC006 11/11 A2991 RMK AO2 T01130106
K1P1 291235Z AUTO 00000KT 1 1/2SM -RA OVC006 12/11 A2991 RMK AO2 P0002 T01150107
K1S5 291155Z AUTO 00000KT 5SM BR CLR 00/00 A3003 RMK AO2 T00001001 10037 21003
K1S5 291215Z AUTO 00000KT 5SM BR CLR 00/00 A3003 RMK AO2 T00011001
K1S5 291235Z AUTO 00000KT 5SM BR CLR 00/M01 A3003 RMK AO2 T10031007
K1V4 291154Z AUTO 11/10 A2987 RMK AO1 SLP115 T01110100 10133 20100 55000
K1V6 291150Z AUTO 29017G21KT 10SM CLR 09/M02 A3001 RMK AO2
K1V6 291210Z AUTO 28014G19KT 10SM CLR 08/M02 A3001 RMK AO2
K1V6 291230Z AUTO 29012G20KT 10SM CLR 08/M02 A3001 RMK AO2
K1YT 291158Z AUTO 00000KT 10SM CLR 02/01 A3000 RMK AO2 SLPNO T00180008 10063 20016 55000 $
K20U 291155Z AUTO 33016KT 10SM -DZ FEW029 SCT034 BKN040 06/05 A2983 RMK AO2
K20U 291215Z AUTO 32014G19KT 10SM -DZ SCT032 BKN043 OVC050 05/05 A2984 RMK AO2
K20U 291235Z AUTO 30011KT 10SM -DZ BKN031 OVC040 05/05 A2984 RMK AO2
K20V 291154Z AUTO 00000KT 10SM CLR M05/M07 A3024 RMK AO2
K20V 291212Z AUTO 00000KT 10SM CLR M06/M08 A3024 RMK AO2
K20V 291230Z AUTO 00000KT 2 1/2SM BR BKN001 M06/M07 A3023 RMK AO2 VIS 1/2V5
K21D 291151Z AUTO 17008KT 10SM OVC070 00/M02 A2974 RMK AO2
K21D 291211Z AUTO 16011G14KT 10SM OVC060 00/M02 A2973 RMK AO2
K21D 291231Z AUTO 16008KT 10SM SCT060 OVC085 00/M02 A2972 RMK AO2
K22N 291155Z AUTO 00000KT 10SM OVC010 16/15 A2974 RMK AO2
K22N 291215Z AUTO 09004KT 10SM -RA OVC010 16/14 A2973 RMK AO2
K22N 291235Z AUTO 00000KT 5SM -RA OVC008 16/14 A2973 RMK AO2
K24A 291145Z AUTO 32009KT 290V350 10SM SCT004 OVC009 01/01 A2967 RMK AO2 T00120012 10038 20012 70178
K24A 291205Z AUTO 33007KT 290V040 10SM SCT004 OVC011 01/01 A2968 RMK AO2 T00110010
K24A 291225Z AUTO 32008KT 10SM OVC011 01/01 A2968 RMK AO2 T00110007
K24J 291155Z AUTO 28008KT 10SM OVC019 09/06 A2982 RMK A01
K24J 291215Z AUTO 27011KT 10SM OVC019 09/06 A2983 RMK A01
K24J 291235Z AUTO 27007G15KT 10SM OVC019 09/06 A2984 RMK A01
K28J 291155Z AUTO 28014G19KT 10SM OVC008 18/18 A2971 RMK AO2 P0001
K28J 291215Z AUTO 29012G24KT 10SM OVC008 16/16 A2973 RMK AO2
K28J 291235Z AUTO 30009KT 10SM OVC008 15/15 A2973 RMK AO2
K2A0 291155Z AUTO 36013KT 10SM OVC024 03/M00 A2986 RMK A01
K2A0 291215Z AUTO 35012KT 10SM OVC026 03/M00 A2986 RMK A01
K2A0 291235Z AUTO 35009G16KT 10SM OVC027 03/M00 A2987 RMK A01
K2C8 291155Z AUTO 29006KT 10SM OVC065 03/03 A2950 RMK AO2
K2C8 291215Z AUTO 29006KT 10SM OVC065 03/03 A2950 RMK AO2
K2C8 291235Z AUTO 28007KT 10SM FEW043 OVC065 03/03 A2951 RMK AO2
K2F5 291155Z AUTO 27007KT 10SM CLR 04/M08 A3008 RMK AO2
K2F5 291215Z AUTO 27008KT 10SM CLR 05/M08 A3008 RMK AO2
K2F5 291235Z AUTO 27007KT 10SM CLR 04/M08 A3008 RMK AO2
K2G4 291145Z AUTO 34006KT 1/2SM OVC001 00/00 A2964 RMK AO1
K2G4 291205Z AUTO 35005KT 1/4SM OVC001 00/00 A2964 RMK AO1
K2G4 291225Z AUTO 36005KT M1/4SM OVC001 00/00 A2962 RMK AO1
K2G9 291155Z AUTO 30004KT 7SM RA OVC005 02/02 A2970 RMK AO2 P0007
K2G9 291215Z AUTO 00000KT 10SM -RA OVC005 02/02 A2969 RMK AO2 P0001
K2G9 291235Z AUTO 34005KT 7SM -RA OVC005 02/02 A2968 RMK AO2 P0004
K2J3 291150Z AUTO 29012G15KT 10SM OVC015 06/03 A2973 RMK AO2 T00580034 10142 20058 60002 70008
K2J3 291210Z AUTO 29008G17KT 10SM OVC015 06/04 A2972 RMK AO2 T00580036
K2J3 291230Z AUTO 30010G15KT 10SM OVC015 06/03 A2973 RMK AO2 T00580030
K2J9 291155Z AUTO 00000KT 10SM CLR 06/03 A2988 RMK AO2
K2J9 291215Z AUTO 00000KT 10SM CLR 06/03 A2988 RMK AO2
K2J9 291235Z AUTO 00000KT 10SM CLR 06/03 A2989 RMK AO2
K2LS 291155Z AUTO 32005KT 10SM CLR 06/03 A3010 RMK AO2
K2LS 291215Z AUTO 34005KT 10SM CLR 06/03 A3009 RMK AO2
K2LS 291235Z AUTO 36004KT 10SM CLR 07/03 A3009 RMK AO2
K2P2 291155Z AUTO 00000KT 10SM CLR M03/M04 A2984 RMK AO2 70007 T10321039 10014 21038
K2P2 291215Z AUTO 00000KT 10SM CLR M03/M04 A2983 RMK AO2 T10351040
K2P2 291235Z AUTO 00000KT 10SM CLR M04/M04 A2983 RMK AO2 T10371042
K2V6 291149Z AUTO 27009KT 10SM CLR 02/M01 A2987 RMK AO2
K2V6 291214Z AUTO 26007KT 10SM CLR 02/M01 A2987 RMK AO2
K2V6 291234Z AUTO 26006KT 10SM CLR 01/M02 A2987 RMK AO2
K2W6 291146Z AUTO 00000KT 10SM BKN005 OVC011 17/17 A2965 RMK AO1
K2W6 291206Z AUTO 08006KT 10SM OVC005 17/16 A2963 RMK AO1
K2W6 291226Z AUTO 08008KT 050V110 10SM OVC005 17/17 A2963 RMK AO1
K2WX 291156Z AUTO 36017KT 10/02 A2966 RMK AO1 SLP043 T01000017 10100 20067 53015
K33V 291155Z AUTO 13007KT 10SM CLR M06/M08 A3017 RMK AO1
K33V 291215Z AUTO 12006KT 10SM CLR M06/M08 A3017 RMK AO1
K33V 291235Z AUTO 13006KT 10SM CLR M06/M08 A3016 RMK AO1
K3AU 291155Z AUTO 00000KT 10SM CLR 00/M06 A2987 RMK AO2
K3AU 291215Z AUTO 00000KT 10SM CLR 00/M06 A2987 RMK AO2
K3AU 291235Z AUTO 00000KT 10SM CLR 00/M05 A2987 RMK AO2
K3D2 291155Z AUTO 00000KT 10SM CLR M01/M04 A2983 RMK AO2 70001 T10131036 10008 21027
K3D2 291215Z AUTO 00000KT 10SM CLR M02/M04 A2983 RMK AO2 T10161037
K3D2 291235Z AUTO 00000KT 10SM CLR M02/M04 A2984 RMK AO2 T10221038
K3F3 291155Z AUTO 00000KT 10SM CLR 00/M02 A3012 RMK AO2 T10051016 10028 21006
K3F3 291215Z AUTO 00000KT 10SM CLR 00/M01 A3012 RMK AO2 T00001015
K3F3 291235Z AUTO 00000KT 10SM CLR 00/M02 A3013 RMK AO2 T10031020
K3I2 291155Z AUTO 00000KT 10SM OVC033 04/02 A2985 RMK AO2 T00350018 10037 20032
K3I2 291215Z AUTO 00000KT 10SM OVC033 04/02 A2985 RMK AO2 T00350016
K3I2 291235Z AUTO 00000KT 10SM OVC037 04/02 A2986 RMK AO2 T00350016
K3J7 291155Z AUTO 26005KT 10SM SCT021 05/03 A2968 RMK AO2
K3J7 291215Z AUTO 26006KT 10SM SCT021 05/03 A2968 RMK AO2
K3J7 291235Z AUTO 25007KT 10SM CLR 05/03 A2968 RMK AO2
K3K3 291155Z AUTO 27005KT 10SM CLR 00/M01 A2993 RMK AO2
K3K3 291215Z AUTO 26006KT 10SM CLR 00/M01 A2993 RMK AO2
K3K3 291235Z AUTO 27005KT 10SM CLR 00/M01 A2993 RMK AO2
K3L4 291155Z AUTO VRB05KT 10SM CLR 08/03 A3011 RMK A01
K3L4 291215Z AUTO 01004KT 10SM CLR 08/04 A3011 RMK A01
K3L4 291235Z AUTO 33004KT 10SM CLR 06/04 A3012 RMK A01
K3LF 291155Z AUTO 00000KT 10SM CLR M05/M05 A2995 RMK AO2 T10461050 11001 21050
K3LF 291215Z AUTO 19003KT 10SM CLR M04/M04 A2995 RMK AO2 T10401045
K3LF 291235Z AUTO 21004KT 7SM CLR M05/M05 A2995 RMK AO2 T10461049
K3N8 291155Z AUTO 21009KT 10SM SCT090 00/M04 A2953 RMK AO2 T00001042 10015 20000
K3N8 291215Z AUTO 20009KT 10SM SCT080 00/M04 A2953 RMK AO2 T00001040
K3N8 291235Z AUTO 20009KT 10SM BKN080 00/M04 A2952 RMK AO2 T00011038
K3R7 291155Z AUTO 00000KT 10SM CLR 02/00 A3008 RMK AO2 T00210002 10058 20021
K3R7 291215Z AUTO 00000KT 10SM CLR 02/00 A3010 RMK AO2 T00200004
K3R7 291235Z AUTO 00000KT 10SM CLR 03/01 A3011 RMK AO2 T00270005
K3S8 291155Z AUTO 00000KT 3/4SM BR OVC003 09/08 A3001 RMK AO2
K3S8 291215Z AUTO 00000KT 1/4SM FG OVC002 08/08 A3001 RMK AO2
K3S8 291235Z AUTO 00000KT 1/4SM FG OVC002 08/08 A3001 RMK AO2
K3T5 291155Z AUTO 00000KT 10SM CLR 02/00 A3011 RMK AO2 T00150003 10037 20012
K3T5 291215Z AUTO 00000KT 10SM CLR 01/00 A3010 RMK AO2 T00130000
K3T5 291235Z AUTO 00000KT 10SM CLR 01/00 A3011 RMK AO2 T00140001
K40B 291216Z AUTO VRB06KT 10/M08 A2994 RMK AO1 SLP143 T01021082 10106 20093 53006 70000
K40J 291155Z AUTO 34009KT 10SM CLR 07/03 A2986 RMK AO2 70004 T00670033 10160 20065
K40J 291215Z AUTO 33010KT 10SM CLR 07/03 A2986 RMK AO2 T00680032
K40J 291235Z AUTO 32006KT 10SM CLR 07/03 A2986 RMK AO2 T00720033
K42J 291155Z AUTO 30011KT 5SM OVC008 14/13 A2974 RMK AO1 TSNO
K42J 291215Z AUTO 31010G18KT 7SM BKN008 BKN026 OVC031 13/13 A2975 RMK AO1 TSNO
K42J 291235Z AUTO 30009KT 10SM BKN010 BKN031 13/13 A2976 RMK AO1 TSNO
K46D 291155Z AUTO 30009KT 10SM SCT045 BKN055 OVC095 08/02 A2959 RMK AO2
K46D 291215Z AUTO 29009KT 10SM SCT042 BKN048 OVC060 08/02 A2959 RMK AO2
K46D 291235Z AUTO 30008KT 10SM -DZ BKN039 OVC049 08/03 A2960 RMK AO2
K46U 291200Z AUTO 00000KT 10SM CLR M01/M03 A3015 RMK A01
K46U 291220Z AUTO 12003KT 10SM CLR M01/M03 A3015 RMK A01
K46U 291240Z AUTO 00000KT 10SM CLR M02/M03 A3015 RMK A01
K49A 291155Z AUTO 33007G15KT 10SM OVC016 03/01 A2980 RMK AO2 LTG DSNT N T00250008 10040 20025
K49A 291215Z AUTO 33007G15KT 290V350 10SM BKN016 OVC021 03/01 A2981 RMK AO2 LTG DSNT N T00250007
K49A 291235Z AUTO 32006G14KT 10SM BKN018 OVC022 02/00 A2981 RMK AO2 LTG DSNT N T00230003
K4A6 291155Z AUTO 35009G15KT 10SM OVC025 03/M02 A2991 RMK AO2
K4A6 291215Z AUTO 34005KT 10SM OVC025 03/M01 A2991 RMK AO2
K4A6 291235Z AUTO 35007KT 320V020 10SM OVC026 04/M02 A2991 RMK AO2
K4A9 291155Z AUTO 35007KT 10SM OVC021 02/M02 A2987 RMK AO2
K4A9 291215Z AUTO 32008KT 10SM OVC023 02/M03 A2987 RMK AO2
K4A9 291235Z AUTO 35012G16KT 10SM OVC023 02/M03 A2988 RMK AO2
K4BM 291154Z AUTO 33007KT 290V360 10SM CLR 00/M13 A3024 RMK AO2 LTG DSNT N AND NW
K4BM 291212Z AUTO 33005G15KT 10SM CLR 00/M13 A3024 RMK AO2
K4BM 291230Z AUTO 30007G15KT 10SM CLR 00/M13 A3024 RMK AO2 LTG DSNT N AND NW
K4I3 291157Z AUTO 29010KT 10SM OVC036 02/02 A2982 RMK AO2
K4I3 291217Z AUTO 29010KT 10SM OVC034 02/02 A2982 RMK AO2
K4I3 291238Z AUTO 29010G14KT 10SM OVC034 02/02 A2981 RMK AO2
K4M9 291155Z AUTO 27004KT 10SM CLR M03/M03 A3002 RMK AO2 PWINO
K4M9 291215Z AUTO 29005KT 10SM CLR M03/M04 A3003 RMK AO2 PWINO
K4M9 291235Z AUTO 29005KT 10SM CLR M04/M04 A3002 RMK AO2 PWINO
K4MR 291158Z AUTO 25009G19KT 10SM CLR 05/M08 A3007 RMK AO2 SLP167 T00501083 10070 20050 56008 $
K4O4 291155Z AUTO 00000KT 10SM CLR M02/M03 A3004 RMK AO2
K4O4 291215Z AUTO 00000KT 10SM CLR M02/M04 A3004 RMK AO2
K4O4 291235Z AUTO 00000KT 10SM CLR M02/M03 A3004 RMK AO2
K4S2 291155Z AUTO 00000KT 1/4SM FG OVC002 04/03 A3002 RMK AO2
K4S2 291215Z AUTO 00000KT 1/4SM FG OVC002 05/04 A3002 RMK AO2
K4S2 291235Z AUTO 00000KT M1/4SM -SN OVC002 04/03 A3003 RMK AO2
K4V0 291155Z AUTO 00000KT 10SM CLR M03/M05 A3015 RMK AO2 T10321051 10002 21046
K4V0 291215Z AUTO 05004KT 10SM CLR M03/M05 A3014 RMK AO2 T10301054
K4V0 291235Z AUTO 03003KT 10SM CLR M04/M06 A3014 RMK AO2 T10441063
K54J 291155Z AUTO 31005KT 10SM CLR 03/02 A2993 RMK AO2 70013 T00280020 10067 20028
K54J 291215Z AUTO 30007KT 10SM CLR 03/02 A2994 RMK AO2 T00270020
K54J 291235Z AUTO 31007KT 10SM CLR 03/02 A2994 RMK AO2 T00300021
K57C 291155Z AUTO 28005KT 10SM OVC046 00/M02 A2987 RMK AO2 T00031024 10014 20003
K57C 291215Z AUTO 28007KT 10SM OVC048 00/M02 A2986 RMK AO2 T00011024
K57C 291235Z AUTO 28004KT 10SM SCT046 00/M02 A2986 RMK AO2 T00001025
K5A6 291155Z AUTO 00000KT 10SM CLR M02/M02 A3003 RMK AO2 T10221022 10000 21022
K5A6 291210Z AUTO 00000KT 10SM CLR M02/M02 A3003 RMK AO2 T10221022
K5A6 291230Z AUTO 00000KT 10SM CLR M02/M02 A3003 RMK AO2 T10221022
K5C1 291155Z AUTO 00000KT 10SM CLR M01/M06 A3013 RMK AO1
K5C1 291215Z AUTO 00000KT 10SM CLR 00/M06 A3013 RMK AO1
K5C1 291235Z AUTO 00000KT 10SM CLR 00/M06 A3013 RMK AO1
K5H4 291155Z AUTO 29011G18KT 10SM SCT038 OVC046 08/06 A2960 RMK AO2
K5H4 291215Z AUTO 31013KT 10SM SCT048 BKN055 OVC075 08/05 A2961 RMK AO2
K5H4 291235Z AUTO 31014KT 10SM SCT055 BKN065 OVC100 08/05 A2962 RMK AO2
K5M9 291155Z AUTO 00000KT 10SM OVC032 02/M02 A2996 RMK AO2 T00171016 10026 20017
K5M9 291215Z AUTO 31003KT 10SM OVC030 02/M02 A2996 RMK AO2 T00171019
K5M9 291235Z AUTO 31003KT 10SM OVC030 02/M02 A2996 RMK AO2 T00171018
K5R8 291155Z AUTO 00000KT 10SM CLR 00/M01 A3011 RMK AO2 T00001008 10026 21003
K5R8 291215Z AUTO 00000KT 10SM CLR 00/M01 A3011 RMK AO2 T00001012
K5R8 291235Z AUTO 00000KT 10SM CLR 00/M01 A3012 RMK AO2 T10021012
K5SM 291154Z AUTO 25004KT 10SM CLR M01/M05 A3031 RMK AO2
K5SM 291211Z AUTO 22005KT 10SM CLR M01/M05 A3031 RMK AO2
K5SM 291234Z AUTO 24004KT 10SM CLR M01/M05 A3031 RMK AO2
K5T9 291155Z AUTO 11004KT 10SM SCT060 02/M02 A3013 RMK A01
K5T9 291215Z AUTO 11004KT 10SM FEW060 02/M02 A3013 RMK A01
K5T9 291235Z AUTO 12003KT 10SM CLR 01/M02 A3013 RMK A01
K66R 291155Z AUTO 00000KT 10SM CLR 01/00 A3014 RMK AO2 T00081002 10031 20001
K66R 291215Z AUTO 00000KT 10SM CLR 01/00 A3014 RMK AO2 T00061005
K66R 291235Z AUTO 00000KT 10SM CLR 01/00 A3014 RMK AO2 T00051005
K6A1 291155Z AUTO 31006KT 10SM 03/00 A2982 RMK AO2 T00280003 10066 20028
K6A1 291215Z AUTO 32008G16KT 10SM 03/00 A2982 RMK AO2 T00330000
K6A1 291235Z AUTO 33008G17KT 10SM 04/00 A2983 RMK AO2 T00420000
K6A2 291155Z AUTO 31008KT 10SM CLR 03/01 A2979 RMK AO2
K6A2 291215Z AUTO 31007KT 10SM CLR 03/01 A2979 RMK AO2
K6A2 291235Z AUTO 30007KT 10SM CLR 03/01 A2980 RMK AO2
K6B0 291155Z AUTO 15006KT 10SM SCT047 SCT060 OVC070 16/11 A2981 RMK AO2 T01600105 10160 20129
K6B0 291215Z AUTO 17004KT 10SM -RA OVC070 15/12 A2981 RMK AO2 T01500115
K6B0 291235Z AUTO 16005KT 10SM DZ BKN040 OVC070 15/12 A2981 RMK AO2 T01450120
K6B9 291155Z AUTO VRB04KT 3SM RA OVC004 07/06 A2978 RMK AO2 P0024
K6B9 291215Z AUTO 01005KT 2 1/2SM RA OVC004 07/06 A2978 RMK AO2
K6B9 291235Z AUTO 35005G12KT 3SM -RA OVC004 07/06 A2978 RMK AO2
K6I2 291150Z AUTO 30008KT 9SM SCT018 OVC025 02/00 A2990 RMK AO2
K6I2 291210Z AUTO 32006KT 9SM FEW016 OVC025 02/00 A2990 RMK AO2
K6I2 291230Z AUTO 00000KT 10SM OVC029 02/00 A2991 RMK AO2
K6L4 291155Z AUTO 00000KT 1 1/2SM BR OVC020 01/01 A2979 RMK AO2
K6L4 291215Z AUTO 33004KT 1 1/2SM BR OVC019 01/01 A2979 RMK AO2
K6L4 291235Z AUTO 00000KT 1/2SM -UP OVC019 01/01 A2979 RMK AO2
K6P9 291150Z AUTO 23008KT 10SM CLR A3004 RMK AO2 6//// 7////
K6P9 291220Z AUTO 23008KT 10SM CLR A3004 RMK AO2
K6P9 291236Z AUTO 22007KT 10SM CLR 04/M10 A3004 RMK AO2
K6R3 291155Z AUTO 00000KT 7SM CLR 00/M01 A3013 RMK AO2 T10011006 10034 21002
K6R3 291215Z AUTO 00000KT 7SM CLR 00/00 A3013 RMK AO2 T10011005
K6R3 291235Z AUTO 00000KT 7SM CLR 00/00 A3013 RMK AO2 T10011005
K6R6 291153Z AUTO 29006KT 05/M07 A3009 RMK AO1 SLP178 T00501067 10078 20050 56005
K6S0 291155Z AUTO 04010KT 10SM BKN085 08/M00 A3001 RMK A01
K6S0 291215Z AUTO 07006G12KT 10SM OVC085 08/M00 A3003 RMK A01
K6S0 291235Z AUTO 05009KT 10SM OVC085 08/00 A3004 RMK A01
K6S2 291155Z AUTO 00000KT 7SM OVC023 A3000 RMK AO2
K6S2 291215Z AUTO 00000KT 7SM OVC023 A3000 RMK AO2
K6S2 291235Z AUTO 00000KT 7SM OVC023 A3000 RMK AO2
K74V 291155Z AUTO 00000KT 10SM CLR M02/M05 A3015 RMK AO2
K74V 291215Z AUTO 28003KT 10SM CLR M02/M05 A3015 RMK AO2
K74V 291235Z AUTO 29003KT 10SM CLR M02/M05 A3015 RMK AO2
K79J 291156Z AUTO 30008KT 10SM CLR 04/02 A2993 RMK AO2 SLP134 70017 T00390022 10067 20039 53004
K7BM 291154Z AUTO 18003KT 10SM CLR 05/M04 A3020 RMK AO2
K7BM 291212Z AUTO 25003KT 10SM CLR 05/M04 A3021 RMK AO2
K7BM 291230Z AUTO 22003KT 10SM CLR 05/M05 A3020 RMK AO2
K7L2 291155Z AUTO 31005KT 10SM 08/04 A2965 RMK AO2
K7L2 291215Z AUTO 34008KT 9SM -RA 08/04 A2965 RMK AO2
K7L2 291235Z AUTO 32009KT 10SM -RA 08/05 A2967 RMK AO2
K7N0 291156Z AUTO 32003KT 10SM CLR 09/03 A3008 RMK AO2 SLP186 T00890028 10106 20089 51012
K7W4 291155Z AUTO 00000KT 7SM OVC006 15/15 A2961 RMK AO1 T01520152 10160 20139
K7W4 291215Z AUTO 00000KT 10SM OVC006 15/15 A2960 RMK AO1 T01520152
K7W4 291235Z AUTO 18006KT 10SM BKN008 OVC012 15/15 A2959 RMK AO1 T01530153
K7W6 291145Z AUTO 21009KT 7SM BKN014 OVC020 21/21 A2965 RMK AO2 T02050205
K7W6 291205Z AUTO 26006KT 10SM DZ SCT013 OVC019 19/19 A2966 RMK AO2 T01910191
K7W6 291225Z AUTO 25004KT 10SM -DZ SCT009 BKN019 OVC060 19/19 A2966 RMK AO2 P0001 T01870187
K82C 291155Z AUTO 00000KT 10SM CLR M05/M05 A2985 RMK AO2 T10481054 11018 21050
K82C 291215Z AUTO 00000KT 10SM CLR M06/M06 A2984 RMK AO2 T10561061
K82C 291235Z AUTO 00000KT 10SM CLR M05/M06 A2984 RMK AO2 T10551060
K82V 291155Z AUTO 10SM CLR 08/M02 A2989 RMK AO2
K82V 291215Z AUTO 10SM CLR 08/M02 A2989 RMK AO2
K82V 291235Z AUTO 10SM CLR 06/M02 A2988 RMK AO2
K8A0 291155Z AUTO 34012G16KT 10SM OVC021 02/01 A2988 RMK AO2
K8A0 291215Z AUTO 34013G19KT 10SM OVC021 02/00 A2989 RMK AO2
K8A0 291235Z AUTO 33010G23KT 10SM OVC023 02/00 A2989 RMK AO2
K8A3 291155Z AUTO 35007KT 320V020 10SM OVC024 01/M02 A2987 RMK A01
K8A3 291215Z AUTO 36006KT 10SM OVC022 01/M02 A2987 RMK A01
K8A3 291235Z AUTO 36007KT 10SM OVC021 01/M02 A2987 RMK A01
K8B0 291155Z AUTO 20004KT 10SM BKN008 10/09 A2995 RMK AO2
K8B0 291215Z AUTO 21005KT 10SM BKN010 11/09 A2997 RMK AO2
K8B0 291235Z AUTO 18003KT 10SM OVC010 11/09 A2996 RMK AO2
K8D3 291156Z AUTO 27006KT 08/M01 A2955 RMK AO1 SLP014 T00781011 10083 20022 58009
K8W2 291155Z AUTO 34004KT 10SM SCT007 BKN013 OVC019 14/13 A2960 RMK AO1 60002 70004 T01350127 10148 20135
K8W2 291215Z AUTO 34006KT 10SM SCT007 OVC013 13/12 A2959 RMK AO1 T01300115
K8W2 291235Z AUTO 00000KT 10SM OVC015 12/11 A2960 RMK AO1 T01220108
K96D 291155Z AUTO 31008KT 10SM CLR A2950 RMK AO2
K96D 291215Z AUTO 31010KT 10SM CLR A2951 RMK AO2
K96D 291235Z AUTO 29009KT 10SM CLR A2951 RMK AO2
K9A5 291155Z AUTO 34008KT 7SM OVC025 01/M05 A2987 RMK AO2 T00131050 10032 20013
K9A5 291215Z AUTO 35008G15KT 7SM OVC025 01/M05 A2988 RMK AO2 T00131048
K9A5 291235Z AUTO 35007G16KT 7SM OVC025 01/M05 A2988 RMK AO2 T00131047
K9D7 291155Z AUTO 32009KT 10SM CLR 03/03 A2957 RMK AO2
K9D7 291215Z AUTO 30008KT 10SM BKN075 02/03 A2958 RMK AO2
K9D7 291235Z AUTO 31008KT 10SM OVC070 04/04 A2959 RMK AO2
K9L2 291158Z AUTO 00000KT 10SM CLR M A2994 RMK AO2 SLPNO 58001 FZRANO$
K9MN 291151Z AUTO 15008KT 130V270 10SM OVC080 M01/M04 A2977 RMK AO1 T10151038 11015 21027
K9MN 291212Z AUTO 14010G17KT 10SM OVC080 M01/M04 A2976 RMK AO1 T10131037
K9MN 291231Z AUTO 15011G17KT 10SM OVC070 M01/M04 A2975 RMK AO1 T10121037
K9V9 291155Z AUTO 00000KT 10SM SCT110 07/00 A2964 RMK AO2 T00701003 10070 20011
K9V9 291215Z AUTO 23003KT 10SM SCT110 06/00 A2964 RMK AO2 T00601002
K9V9 291235Z AUTO 00000KT 10SM CLR 05/00 A2964 RMK AO2 T00501002
KAAA 291155Z AUTO 00000KT 10SM CLR M03/M04 A2994 RMK AO2 T10331037 10023 21033
KAAA 291215Z AUTO 00000KT 10SM CLR M03/M03 A2994 RMK AO2 T10321035
KAAA 291235Z AUTO 00000KT 10SM CLR M03/M03 A2994 RMK AO2 T10321035
KAAF 291153Z AUTO 34009KT 10SM CLR 07/03 A2990 RMK AO2 SLP126 70024 T00670033 10106 20067 51019 $
KAAO 291154Z AUTO 20005KT 10SM CLR 01/M06 A2986 RMK AO2 SLP120 T00061056 10022 21006 56010 TSNO $
KAAT 291155Z AUTO 00000KT 10SM CLR 00/M01 A3006 RMK AO2 SLP158 T00001011 10067 20000 58005
KABE 291151Z 11005KT 10SM OVC008 17/14 A2973 RMK AO2 SLP066 T01670139 10172 20139 58013
KABH 291156Z AUTO 00000KT A3000 RMK AO2 SLPNO 56011 $
KABI 291152Z 21006KT 10SM CLR 06/M12 A3005 RMK AO2 SLP172 T00611117 10072 20017 56008
KABQ 291152Z 00000KT 10SM CLR 05/M03 A3015 RMK AO2 SLP176 T00501033 10083 20033 53000
KABR 291153Z AUTO 20003KT 10SM BKN070 OVC085 04/03 A2960 RMK AO2 RAE1058 SLP035 P0000 60000 T00440033 10044 20033 53006
KABY 291153Z AUTO 29005KT 10SM CLR 05/03 A2987 RMK AO2 SLP114 70020 T00500033 10094 20044 52009
KACB 291155Z AUTO 00000KT 10SM SCT002 BKN037 OVC043 00/00 A2985 RMK AO2 T10051005 10022 21007
KACB 291215Z AUTO 00000KT 10SM BKN039 OVC044 00/00 A2985 RMK AO2 T00000000
KACB 291235Z AUTO 00000KT 10SM SCT033 BKN039 OVC045 00/00 A2986 RMK AO2 T00000000
KACJ 291150Z AUTO 29006KT 10SM SCT024 03/03 A2985 RMK AO2
KACJ 291210Z AUTO 30007KT 10SM BKN024 03/03 A2985 RMK AO2
KACJ 291230Z AUTO 29008KT 10SM OVC024 03/03 A2986 RMK AO2
KACK 291153Z 12010KT 10SM CLR 15/15 A2996 RMK AO2 SLP144 T01500150 10150 20139 56005
KACP 291155Z AUTO 00000KT 10SM CLR M01/M02 A3009 RMK AO2 T10111020 10004 21014
KACP 291215Z AUTO 00000KT 10SM CLR M01/M02 A3008 RMK AO2 T10151024
KACP 291235Z AUTO 00000KT 10SM CLR M01/M02 A3007 RMK AO2 T10151025
KACQ 291152Z AUTO 15005KT 10SM OVC065 00/M03 A2974 RMK AO2
KACQ 291212Z AUTO 15007KT 10SM OVC065 00/M03 A2973 RMK AO2
KACQ 291233Z AUTO 15005KT 10SM BKN065 BKN090 OVC110 00/M03 A2972 RMK AO2
KACT 291151Z 21006KT 10SM CLR 01/M03 A3008 RMK AO2 SLP185 T00061028 10022 20000 56009
KACV 291150Z AUTO 00000KT 2SM BR OVC008 11/11 A2998 RMK AO2 CIG 004V010
KACV 291153Z AUTO 00000KT 2 1/2SM BR OVC008 12/12 A2998 RMK AO2 CIG 004V010 SLP158 60000 T01170117 10122 20111 57005
KACV 291201Z AUTO 00000KT 4SM BR OVC009 12/12 A2998 RMK AO2 CIG 004V010 T01170117
KACV 291227Z AUTO 00000KT 9SM OVC010 12/12 A2997 RMK AO2 T01170117
KACY 291154Z 13009KT 10SM FEW049 SCT055 OVC085 18/17 A2974 RMK AO2 RAB24E50 SLP070 P0001 60001 70001 T01780172 10183 20172 58016 $
KACY 291202Z 14006KT 10SM SCT009 SCT049 OVC085 18/17 A2974
KACY 291202Z 14006KT 10SM SCT009 SCT049 OVC085 18/17 A2974 RMK AO2 T01780172 $
KACY 291211Z 15008KT 10SM BKN007 OVC085 18/17 A2975
KACY 291211Z 15008KT 10SM BKN007 OVC085 18/17 A2975 RMK AO2 T01780172 $
KACY 291239Z 13008KT 9SM -RA SCT007 BKN038 OVC060 18/17 A2974
KACY 291239Z 13008KT 9SM -RA SCT007 BKN038 OVC060 18/17 A2974 RMK AO2 RAB39 P0000 T01830172 $
KADC 291153Z AUTO 17005KT 10SM CLR M01/M04 A2956 RMK AO2
KADC 291214Z AUTO 17006KT 10SM CLR M01/M04 A2955 RMK AO2
KADC 291234Z AUTO 17006KT 10SM CLR M01/M04 A2955 RMK AO2
KADF 291156Z AUTO 00000KT 10SM CLR M06/M07 A3007 RMK AO2 SLP187 T10561072 11028 21056 58001 FZRANO
KADG 291153Z AUTO 00000KT 10SM OVC048 02/M01 A2986 RMK AO2 SLP120 T00171011 10028 20011 53001 $
KADH 291155Z AUTO 23006KT 10SM CLR 07/M10 A2992 RMK AO2
KADH 291215Z AUTO 24003KT 10SM CLR 07/M09 A2992 RMK AO2
KADH 291235Z AUTO 25005KT 10SM CLR 07/M08 A2992 RMK AO2
KADM 291155Z 00000KT 10SM SKC M01/M01 A2996
KADS 291147Z 20004KT 13SM SKC 06/M07 A3002
KADU 291155Z AUTO 17003KT 10SM OVC075 02/M09 A2977 RMK AO2
KADU 291215Z AUTO 19004KT 10SM OVC075 02/M08 A2976 RMK AO2
KADU 291235Z AUTO 00000KT 10SM OVC075 02/M08 A2976 RMK AO2
KADW 291146Z AUTO 13010KT 10SM -RA OVC005 17/17 A2962 RMK AO2 RAE09DZB09E25DZB31E43RAB46 OVC V BKN SLP036
KADW 291156Z AUTO 13006KT 10SM -RA OVC005 17/16 A2962 RMK AO2 RAE09DZB09E25DZB31E43RAB46 SLP036 P0001 60030 70030 T01700163 10175 20162 55024
KADW 291211Z AUTO 10009KT 10SM -RA OVC006 17/16 A2961 RMK AO2 RAE01DZB01E02RAB02 SLP033
KADW 291219Z AUTO 11008G17KT 10SM OVC006 17/16 A2960 RMK AO2 RAE01DZB01E02RAB02E14DZB14E19 SLP029
KADW 291235Z AUTO 10012KT 10SM OVC005 17/16 A2960 RMK AO2 RAE01DZB01E02RAB02E14DZB14E19 SLP029
KAEG 291147Z 00000KT 10SM SKC 00/M05 A3015
KAEJ 291155Z AUTO 30006KT 10SM CLR M02/M05 A3016 RMK AO2 T10231054 10042 21039
KAEJ 291215Z AUTO 36003KT 10SM CLR 00/M05 A3016 RMK AO2 T10021053
KAEJ 291235Z AUTO 25005KT 10SM CLR M04/M07 A3016 RMK AO2 T10371066
KAEL 291153Z AUTO 16007KT 10SM OVC065 00/M02 A2974 RMK AO2
KAEL 291214Z AUTO 17008KT 10SM OVC065 00/M02 A2973 RMK AO2
KAEL 291234Z AUTO 16009KT 10SM OVC065 00/M02 A2972 RMK AO2
KAEX 291153Z 00000KT 10SM CLR 00/M01 A3007 RMK AO2 SLP188 T00001011 10022 21006 50001 $
KAFF 291158Z AUTO 36005KT 10SM CLR 00/M06 A3002 RMK AO2 SLP155 T00001060 10004 21026 57009
KAFJ 291156Z AUTO 34006KT 4SM -RA BR OVC006 03/02 A2979 RMK AO2 UPE1057RAB1057 CIG 004V009 SLP094 P0000 60015 70062 T00280017 10028 20022 58005
KAFK 291155Z AUTO 24008KT 10SM CLR 02/M08 A2978 RMK AO2 T00151083 10032 20015
KAFK 291215Z AUTO 24008KT 10SM CLR 01/M08 A2979 RMK AO2 T00141081
KAFK 291235Z AUTO 24009KT 10SM CLR 02/M08 A2978 RMK AO2 T00171081
KAFN 291152Z AUTO 16008KT 10SM BKN011 BKN044 OVC060 15/14 A2992 RMK AO2 RAE12B37E48 SLP136 P0001 60003 70003 T01500144 10150 20144 55003
KAFN 291206Z AUTO 17005KT 10SM SCT011 BKN050 OVC060 15/14 A2992 RMK AO2 T01500144
KAFN 291238Z AUTO 16005KT 10SM BKN010 BKN041 OVC060 15/14 A2992 RMK AO2 RAB26E32 P0000 T01500144
KAFO 291155Z AUTO 20010KT 10SM CLR M05/M06 A3013 RMK AO2
KAFO 291215Z AUTO 10SM CLR M05/M06 A3013 RMK AO2
KAFO 291235Z AUTO 00000KT 10SM CLR M05/M06 A3013 RMK AO2
KAFP 291145Z AUTO 14004KT 7SM BKN014 BKN050 OVC110 17/15 A2957 RMK AO2 T01650154
KAFP 291205Z AUTO 15003KT 7SM BKN012 BKN017 OVC060 17/16 A2957 RMK AO2 T01660155
KAFP 291225Z AUTO 15003KT 7SM BKN008 OVC012 17/16 A2957 RMK AO2 T01670156
KAFW 291153Z 21005KT 10SM CLR 06/M07 A2999 RMK AO2 SLP160 T00561072 10056 20006 58017
KAGC 291153Z 34006KT 2SM -RA BR OVC006 03/02 A2974 RMK AO2 RAE15B19UPB15E17 CIG 003V009 SLP084 P0003 60033 70094 T00330017 10033 20028 58010
KAGC 291201Z 33008KT 2SM -RA BR OVC004 03/02 A2975 RMK AO2 VIS 1 1/4V4 CIG 003V009 P0000 T00330017
KAGC 291212Z 34007KT 3SM BR OVC004 03/02 A2974 RMK AO2 RAE11 CIG 003V007 P0000 T00280017
KAGC 291224Z 32005KT 2 1/2SM BR OVC004 03/02 A2974 RMK AO2 VIS 1 3/4V4 RAE11 P0000 T00280017
KAGC 291232Z 33006KT 1 1/4SM -RA BR OVC004 03/02 A2974 RMK AO2 VIS 3/4V3 RAE11B29UPB26E29 P0000 T00330017
KAGC 291242Z 33007KT 3SM -RA BR OVC004 03/02 A2974 RMK AO2 RAE11B29UPB26E29 P0000 T00280017
KAGS 291153Z 29013KT 10SM OVC010 08/05 A2970 RMK AO2 SLP054 60000 T00830050 10183 20083 53011
KAHN 291151Z 27008KT 10SM CLR 03/03 A2968 RMK AO2 SLP053 70113 T00330028 10072 20033 58002
KAHQ 291155Z AUTO 20004KT 10SM CLR 03/M09 A2976 RMK AO2 T00251087 10043 20025
KAHQ 291215Z AUTO 00000KT 10SM CLR 02/M09 A2976 RMK AO2 T00201086
KAHQ 291235Z AUTO 18004KT 10SM CLR 02/M07 A2975 RMK AO2 T00171073
KAIA 291153Z AUTO 27011KT 10SM CLR 03/M01 A2978 RMK AO2 SLP083 T00331011 10067 20006 58015
KAIB 291155Z AUTO 12006KT 10SM CLR 01/M05 A3019 RMK AO2
KAIB 291215Z AUTO 12007KT 10SM CLR 01/M05 A3019 RMK AO2
KAIB 291235Z AUTO 10005KT 10SM CLR 00/M06 A3019 RMK AO2
KAIG 291155Z AUTO 21003KT 10SM CLR M05/M05 A2981 RMK AO2 T10461046 11022 21050
KAIG 291215Z AUTO 00000KT 10SM CLR M05/M05 A2981 RMK AO2 T10461046
KAIG 291235Z AUTO 00000KT 10SM CLR M05/M05 A2981 RMK AO2 T10471048
KAIK 291155Z AUTO 26015G20KT 10SM OVC002 07/06 A2969 RMK AO2
KAIK 291215Z AUTO 24015G20KT 10SM OVC004 06/06 A2969 RMK AO2
KAIK 291235Z AUTO 25013G18KT 10SM OVC006 06/05 A2969 RMK AO2
KAIO 291155Z AUTO 20004KT 10SM BKN070 01/M06 A2977 RMK AO2
KAIO 291215Z AUTO 21004KT 10SM FEW075 M00/M06 A2977 RMK AO2
KAIO 291235Z AUTO 21004KT 10SM SCT070 00/M06 A2977 RMK AO2
KAIT 291155Z AUTO 17009G15KT 10SM SCT060 OVC080 M01/M03 A2961 RMK AO2
KAIT 291214Z AUTO 17008KT 10SM OVC080 M01/M03 A2960 RMK AO2
KAIT 291235Z AUTO 16010KT 10SM OVC080 M01/M03 A2959 RMK AO2
KAIZ 291156Z AUTO 15003KT 10SM CLR M05/M06 A2996 RMK AO2 SLP152 T10501056 11044 21050 58008 FZRANO
KAJG 291155Z AUTO 00000KT 10SM OVC036 02/M01 A2995 RMK AO2 7//// T00221011 10025 20017
KAJG 291215Z AUTO 26003KT 10SM OVC036 02/M01 A2995 RMK AO2 T00211011
KAJG 291235Z AUTO 00000KT 10SM OVC038 02/M01 A2996 RMK AO2 T00211013
KAJO 291156Z AUTO 23003KT 1 1/4SM BR OVC002 15/14 A2988 RMK AO2 SLP125 T01500144 10172 20117 53001 TSNO
KAJO 291204Z AUTO 00000KT 3/4SM BR OVC002 15/14 A2988 RMK AO2
KAJO 291229Z AUTO 00000KT 1/2SM FG OVC002 15/14 A2988 RMK AO2
KAJR 291155Z AUTO 33008G17KT 10SM CLR 03/01 A2965 RMK AO2 T00280010 10065 20024
KAJR 291215Z AUTO 32008G15KT 290V350 10SM CLR 03/01 A2965 RMK AO2 T00300008
KAJR 291235Z AUTO 30008G15KT 10SM CLR 03/01 A2966 RMK AO2 T00300008
KAJZ 291155Z AUTO 30003KT 10SM CLR 01/M04 A3017 RMK AO2 T00121044 10060 20005
KAJZ 291215Z AUTO 36003KT 10SM CLR 01/M04 A3017 RMK AO2 T00131041
KAJZ 291235Z AUTO 05004KT 10SM CLR 01/M04 A3017 RMK AO2 T00101041
KAKH 291151Z AUTO 00000KT 6SM BR OVC003 15/14 A2957 RMK AO2 RAB31E51 P0000
KAKH 291154Z AUTO 23003KT 7SM OVC003 15/14 A2957 RMK AO2 RAB31E51 CIG 002V007 SLP009 P0000 60002 70003 T01500144 10161 20150 56006
KAKH 291204Z AUTO 23003KT 9SM BKN005 OVC011 15/14 A2957 RMK AO2 CIG 003V009 T01500144
KAKO 291153Z AUTO 25015KT 10SM CLR 04/M03 A2989 RMK AO2 SLP113 T00391028 10050 20033 57013
KAKQ 291154Z AUTO 18003KT 10SM CLR 18/18 A2960 RMK AO2 RAE23 SLP025 P0000 60077 70077 T01780178 10189 20161 56015
KAKQ 291243Z AUTO 00000KT 10SM FEW006 18/18 A2961
KAKQ 291243Z AUTO 00000KT 10SM FEW006 18/18 A2961 RMK AO2 T01780178
KAKR 291154Z AUTO 31004KT 10SM OVC021 03/01 A2981 RMK AO2 SLP100 T00330006 10033 20022 56005
KALB 291151Z 18006KT 10SM SCT026 BKN049 OVC075 16/14 A2981 RMK AO2 DZE03B40E47RAB26E40 SLP094 P0000 60002 70002 T01560139 10161 20150 58001
KALB 291206Z 16006KT 10SM BKN024 BKN030 OVC070 16/14 A2981
KALB 291206Z 16006KT 10SM BKN024 BKN030 OVC070 16/14 A2981 RMK AO2 VCSH E-SE AND W-N T01560139
KALI 291153Z AUTO 31004KT 10SM CLR 04/M03 A3015 RMK AO2 SLP208 T00391028 10056 20028 53003
KALK 291156Z AUTO 00000KT 10SM CLR 12/M05 A3009 RMK AO2 SLP110 T01171050 10172 20106 55001
KALM 291155Z AUTO 36004KT 10SM CLR 06/M03 A3014 RMK AO2
KALM 291215Z AUTO 01004KT 10SM CLR 05/M03 A3014 RMK AO2
KALM 291235Z AUTO 01003KT 10SM CLR 03/M03 A3015 RMK AO2
KALN 291150Z 00000KT 10SM SKC M04/M04 A2997
KALO 291154Z 15011KT 10SM FEW100 M02/M04 A2981 RMK AO2 SLP104 T10221044 11022 21061 56019
KALS 291152Z AUTO 26004KT 10SM CLR M06/M08 A3017 RMK AO2 SLP195 T10561083 11022 21067 56003
KALW 291153Z AUTO 13003KT 10SM CLR 07/05 A3000 RMK AO2 SLP161 T00670050 10083 20050 53001
KALX 291155Z AUTO 31006KT 10SM OVC028 04/00 A2988 RMK AO2 70038 T00370002 10046 20032
KALX 291215Z AUTO 32006KT 10SM OVC028 04/00 A2988 RMK AO2 T00370001
KALX 291235Z AUTO 31009KT 10SM OVC028 04/00 A2989 RMK AO2 T00370003
KAMA 291153Z 22005KT 10SM CLR 04/M03 A3001 RMK AO2 SLP151 60000 T00391028 10094 20028 56009
KAMG 291149Z AUTO 29013KT 10SM SCT013 08/03 A2976 RMK AO2 $
KAMG 291153Z AUTO 29010G17KT 10SM FEW013 07/03 A2976 RMK AO2 SLP077 T00720033 10189 20072 51013 $
KAMN 291150Z AUTO 32003KT 10SM SCT027 OVC047 02/01 A2986 RMK AO2 T00230014
KAMN 291211Z AUTO 32004KT 10SM BKN027 BKN047 02/01 A2986 RMK AO2 T00160008
KAMN 291231Z AUTO 00000KT 10SM SCT027 OVC047 01/01 A2986 RMK AO2 T00140007
KAMW 291153Z AUTO 14004KT 10SM OVC085 M01/M03 A2979 RMK AO2 SLP093 T10111033 11011 21056 55019
KANB 291153Z AUTO VRB04KT 10SM OVC028 04/M02 A2989 RMK AO2 SLP129 70025 T00391017 10061 20039 51006
KAND 291156Z AUTO 24009KT 10SM OVC011 06/04 A2964 RMK AO2 SLP035 60003 70133 T00560039 10117 20056 50001
KAND 291214Z AUTO 24009KT 10SM OVC009 05/04 A2963 RMK AO2 T00500039
KAND 291226Z AUTO 24007KT 10SM OVC010 06/04 A2963 RMK AO2 T00560039
KAND 291238Z AUTO 24007KT 10SM OVC009 06/04 A2964 RMK AO2 T00560039
KANE 291147Z 16011KT 10SM BKN060 OVC085 00/M03 A2970
KANJ 291155Z AUTO 03003KT 10SM BKN044 01/00 A2981 RMK AO2 SNB10E25 SLP100 P0000 60000 70008 T00110000 10022 20006 51005
KANK 291155Z AUTO 34009KT 10SM CLR 03/M03 A3022 RMK AO1 T00261035 10037 21008
KANK 291215Z AUTO 34007KT 10SM CLR 02/M04 A3022 RMK AO1 T00201038
KANK 291235Z AUTO 33007KT 10SM CLR 03/M04 A3022 RMK AO1 T00271036
KANW 291155Z AUTO 27004KT 10SM CLR 06/02 A2971 RMK AO2 T00610015 10065 20027
KANW 291215Z AUTO 25004KT 10SM CLR 06/02 A2970 RMK AO2 T00620015
KANW 291235Z AUTO 26003KT 10SM CLR 07/02 A2970 RMK AO2 T00650018
KAOH 291153Z AUTO 27003KT 10SM OVC040 02/00 A2986 RMK AO2 SLP119 T00220000 10028 20022 53002
KAOO 291153Z AUTO 00000KT 2 1/2SM +RA BR FEW005 SCT030 OVC038 07/06 A2969 RMK AO2 SLP056 P0014 60059 70118 T00720061 10083 20067 58012
KAOO 291219Z AUTO 00000KT 4SM -RA BR FEW009 BKN032 OVC040 07/06 A2969 RMK AO2 P0005 T00720061
KAOO 291233Z AUTO 29005KT 2 1/2SM RA BR SCT003 BKN031 OVC043 07/06 A2969 RMK AO2 P0009 T00720061
KAOO 291236Z AUTO 29003KT 3SM -RA BR BKN003 BKN031 OVC043 07/06 A2968 RMK AO2 P0009 T00720061
KAPA 291153Z 23009KT 10SM CLR 08/M05 A2999 RMK AO2 SLP133 T00781050 10078 20017 56010 $
KAPC 291154Z AUTO 31003KT 4SM BR OVC003 12/11 A2990 RMK AO2 SLP115 T01170111 10133 20117 58006 $
KAPC 291229Z AUTO 29003KT 2 1/2SM BR OVC002 11/11 A2990 RMK AO2 T01110106 $
KAPC 291240Z AUTO 28004KT 3SM BR OVC002 11/11 A2991 RMK AO2 T01110106 $
KAPF 291153Z 34007KT 2 1/2SM -RA BR SCT015 BKN021 OVC030 22/21 A2974 RMK AO2 RAB46 SLP069 P0000 60000 70168 T02170211 10217 20189 53022 $
KAPF 291211Z 34008KT 7SM SCT011 BKN019 OVC036 21/21 A2974 RMK AO2 RAE1157 P0000 T02110211 $
KAPF 291220Z 34011G17KT 3SM BR BKN010 BKN014 OVC036 21/21 A2976 RMK AO2 RAE1157 P0000 T02110211 $
KAPF 291235Z 33009G19KT 10SM BKN009 BKN014 OVC022 21/ A2976 RMK AO2 RAE1157 CIG 006V011 P0000 T0211 $
KAPG 291158Z AUTO 10005KT 4SM R22/4000FT -RA BR FEW003 OVC075 17/16 A2970 RMK AO2 SLP060 P0011 60044 70044 T01650163 10170 20138 58009 $
KAPG 291208Z AUTO 09005KT 1 7/8SM RA BR FEW003 OVC065 17/16 A2969 RMK AO2 VIS 1 7/8V3 SLP057 $
KAPG 291223Z AUTO 09006KT 2 3/4SM -RA BR OVC070 17/17 A2968 RMK AO2 VIS 1 1/4V2 3/4 SLP054 $
KAPG 291228Z AUTO 09008KT 4SM -RA BR SCT002 OVC065 17/17 A2968 RMK AO2 SLP054 $
KAPG 291238Z AUTO 09008KT 3SM -RA BR BKN002 OVC065 17/17 A2967 RMK AO2 CIG 002V065 BKN V SCT SLP050 $
KAPN 291154Z AUTO 27004KT 10SM CLR M01/M01 A2984 RMK AO2 SLP113 T10061006 10028 21011 53006
KAPS 291155Z AUTO 31004KT 10SM CLR 06/04 A3010 RMK AO2 T00620044 10071 20059
KAPS 291215Z AUTO 00000KT 10SM CLR 06/04 A3009 RMK AO2 T00590038
KAPS 291235Z AUTO 00000KT 10SM CLR 06/04 A3008 RMK AO2 T00610042
KAPY 291155Z AUTO 00000KT 10SM CLR 01/M03 A3015 RMK AO2 T00171031
KAPY 291215Z AUTO 10SM CLR 01/M03 A3015 RMK AO2 T00121035
KAPY 291235Z AUTO 00000KT 10SM CLR 01/M03 A3015 RMK AO2 T00101035
KAQO 291150Z AUTO 00000KT 10SM CLR M01/M05 A3015 RMK AO2
KAQO 291210Z AUTO 00000KT 10SM CLR M01/M06 A3015 RMK AO2
KAQO 291230Z AUTO 00000KT 10SM CLR 00/M05 A3015 RMK AO2
KAQP 291155Z AUTO 17005KT 10SM CLR 03/M04 A2959 RMK AO2
KAQP 291215Z AUTO 17005KT 10SM SCT110 03/M04 A2959 RMK AO2
KAQP 291234Z AUTO 17006KT 10SM SCT110 04/M04 A2958 RMK AO2
KAQV 291156Z AUTO 00000KT 10SM CLR M01/M02 A3007 RMK AO2 SLP185 60000 T10111022 10033 21011 58000 $
KAQW 291152Z AUTO 11009G20KT 6SM -RA FEW025 OVC035 16/13 A2983 RMK AO2 SLP101 P0004 60009 70009 T01560128 10156 20122 58009
KAQW 291214Z AUTO 12013G18KT 090V150 9SM -RA SCT019 BKN026 OVC050 15/13 A2984 RMK AO2 P0002 T01500133
KAQX 291155Z AUTO VRB06G15KT 10SM 11/09 RMK AO2 TSNO
KAQX 291215Z AUTO 28007G13KT 250V310 10SM 10/08 RMK AO2 TSNO
KAQX 291235Z AUTO VRB06G12KT 10SM 09/08 RMK AO2 TSNO
KARA 291153Z 01003KT 10SM CLR 04/00 A3009 RMK AO2 SLP187 T00390000 10061 20033 50003
KARB 291153Z AUTO 00000KT 8SM OVC044 02/01 A2984 RMK AO2 SLP112 T00170011 10022 21017 53000
KARG 291156Z AUTO 30004KT 10SM CLR M03/M04 A3003 RMK AO2 SLP172 T10331044 10017 21033 51002 FZRANO
KARM 291155Z AUTO 00000KT 10SM CLR 02/00 A3014 RMK AO2 T00161001 10040 20015
KARM 291215Z AUTO 00000KT 10SM CLR 02/00 A3014 RMK AO2 T00181001
KARM 291235Z AUTO 00000KT 10SM CLR 02/00 A3014 RMK AO2 T00161001
KARR 291152Z 27006KT 10SM OVC039 01/M02 A2990 RMK AO2 SLP132 70002 T00111022 10022 20011 58003
KART 291153Z AUTO 03004KT 3SM RA BR FEW009 OVC031 06/06 A2984 RMK AO2 P0013
KART 291154Z AUTO 03004KT 3SM RA BR FEW009 OVC031 06/06 A2984 RMK AO2 SLP105 P0014 60027 70038 T00610061 10072 20061 55008
KART 291228Z AUTO 04005KT 2 1/2SM RA BR BKN033 OVC044 06/06 A2982 RMK AO2 P0006 T00610061
KART 291242Z AUTO 04006KT 2 1/2SM -RA BR FEW006 BKN010 OVC032 06/06 A2982 RMK AO2 P0007 T00610061
KARV 291155Z AUTO 20004KT 10SM CLR M03/M05 A2977 RMK AO2 T10351047 11001 21035
KARV 291215Z AUTO 20005KT 10SM CLR M04/M05 A2976 RMK AO2 T10361047
KARV 291235Z AUTO 19006KT 10SM CLR M04/M05 A2976 RMK AO2 T10361047
KARW 291155Z AUTO 26008G16KT 7SM BKN014 OVC018 17/15 A2962 RMK AO2
KARW 291215Z AUTO 26008KT 7SM BKN012 OVC018 17/15 A2962 RMK AO2
KARW 291235Z AUTO 27012G16KT 7SM OVC010 17/15 A2963 RMK AO2
KASD 291153Z AUTO 02003KT 10SM CLR 02/01 A3005 RMK AO2 SLP176 T00220006 10044 20022 53005
KASE 291153Z AUTO 17007KT 10SM CLR M03/M06 A3021 RMK AO2 SLP202 T10331056 10006 21044 55002
KASG 291148Z 00000KT 10SM SKC M02/M06 A2997
KASH 291156Z 00000KT 10SM OVC070 13/13 A2993 RMK AO2 SLP145 T01330133 10133 20122 56005
KASJ 291145Z AUTO 00000KT 10SM CLR 16/16 A2963 RMK AO2 P0001 T01640164
KASJ 291205Z AUTO 00000KT 10SM CLR 17/17 A2962 RMK AO2 T01670167
KASJ 291225Z AUTO 18003KT 7SM CLR 17/17 A2962 RMK AO2 T01660166
KASL 291155Z AUTO 00000KT 10SM CLR M02/M03 A3010 RMK AO1 T10231035 10002 21023
KASL 291215Z AUTO 00000KT 10SM CLR M02/M03 A3009 RMK AO1 T10231035
KASL 291235Z AUTO 00000KT 10SM CLR M02/M03 A3009 RMK AO1 T10231034
KASN 291155Z AUTO 32009KT 10SM OVC029 05/00 A2991 RMK AO2 T00450000 10059 20045
KASN 291215Z AUTO 33010G15KT 10SM OVC029 04/00 A2991 RMK AO2 T00431001
KASN 291235Z AUTO 33008KT 10SM OVC029 04/00 A2992 RMK AO2 T00431005
KAST 291155Z AUTO 12004KT 10SM BKN012 OVC023 12/11 A2997 RMK AO2 SLP148 T01170106 10122 20111 58005
KAST 291203Z AUTO 15003KT 10SM SCT013 OVC025 12/11 A2997
KAST 291203Z AUTO 15003KT 10SM SCT013 OVC025 12/11 A2997 RMK AO2 CIG 012 RWY 08 T01170106
KAST 291235Z AUTO 00000KT 10SM BKN014 OVC023 12/11 A2997
KAST 291235Z AUTO 00000KT 10SM BKN014 OVC023 12/11 A2997 RMK AO2 T01170106
KASW 291155Z AUTO 25004KT 10SM OVC031 01/00 A2987 RMK AO2
KASW 291215Z AUTO 24005KT 10SM SCT031 OVC040 01/00 A2987 RMK AO2
KASW 291235Z AUTO 25005KT 10SM BKN029 OVC040 01/00 A2987 RMK AO2
KASX 291153Z AUTO 18006KT 10SM SCT016 M03/M05 A2976 RMK AO2 SLP090 T10281050 11011 21039 56014
KATL 291152Z 30014G21KT 10SM OVC020 03/01 A2977 RMK AO2 SLP086 70058 T00330006 10056 20033 53004
KATP 291155Z AUTO 34018G26KT 10SM BKN038 17/08 A3001 RMK A01
KATP 291215Z AUTO 33020KT 6SM HZ SCT038 17/08 A3001 RMK A01
KATP 291235Z AUTO 32020G25KT 10SM FEW039 17/08 A3001 RMK A01
KATS 291155Z AUTO 20004KT 10SM CLR 02/M04 A3008 RMK AO2
KATS 291215Z AUTO 00000KT 10SM CLR 02/M04 A3009 RMK AO2
KATS 291235Z AUTO 00000KT 10SM CLR 02/M04 A3009 RMK AO2
KATT 291151Z AUTO 00000KT 10SM CLR 06/M01 A3012 RMK AO2 SLP201 T00561011 10072 20039 55004
KATW 291145Z 00000KT 10SM SKC M03/M03 A2983
KATY 291153Z AUTO 20006KT 10SM FEW055 OVC075 04/M01 A2958 RMK AO2 PRESFR SLP029 T00441006 10044 20017 56017
KAUG 291153Z AUTO 16007KT 6SM BR OVC003 13/13 A2998 RMK AO2 RAE14 SLP155 P0000 60001 70001 T01280128 10133 20128 53002
KAUH 291155Z AUTO 24006KT 10SM CLR 03/M05 A2974 RMK AO2 T00251050 10025 21005
KAUH 291215Z AUTO 24006KT 10SM CLR 02/M05 A2974 RMK AO2 T00221048
KAUH 291235Z AUTO 24006KT 10SM CLR 02/M05 A2974 RMK AO2 T00231047
KAUM 291156Z AUTO 15006KT 10SM SCT075 OVC095 M02/M04 A2975 RMK AO2
KAUM 291215Z AUTO 16005KT 10SM BKN075 OVC085 M02/M04 A2975 RMK AO2
KAUM 291235Z AUTO 16007KT 10SM OVC065 M02/M04 A2974 RMK AO2
KAUN 291155Z AUTO 09003KT 10SM CLR 16/08 A2990 RMK AO1
KAUN 291215Z AUTO 10007KT 10SM CLR 16/08 A2990 RMK AO1
KAUN 291235Z AUTO 10003KT 10SM CLR 16/08 A2990 RMK AO1
KAUO 291156Z AUTO 32010KT 10SM OVC027 03/01 A2987 RMK AO2 SLP138 70035 T00330006 10039 20028 53005
KAUS 291153Z 00000KT 10SM CLR 00/M02 A3012 RMK AO2 SLP205 T00001017 10039 20000 55003 VISNO RWY17R $
KAUW 291154Z AUTO 00000KT 10SM CLR M04/M06 A2981 RMK AO2 SLP114 I1001 I6001 T10441056 11011 21044 56007
KAUW 291236Z AUTO 00000KT 10SM FEW006 M04/M06 A2981 RMK AO2 I1000 T10441056
KAVC 291155Z AUTO 00000KT 1/4SM OVC003 16/16 A2966 RMK AO2 60085 70104 T01580158 10159 20155
KAVC 291215Z AUTO 16003KT 1 1/4SM OVC003 16/16 A2965 RMK AO2 T01580158
KAVC 291235Z AUTO 15004KT 4SM OVC003 16/16 A2965 RMK AO2 T01590159
KAVK 291155Z AUTO 28005KT 10SM CLR 04/M02 A2989 RMK AO2
KAVK 291215Z AUTO 28006KT 10SM CLR 05/M01 A2988 RMK AO2
KAVK 291235Z AUTO 28005KT 10SM CLR 04/M01 A2988 RMK AO2
KAVL 291154Z 34022G28KT 10SM OVC039 04/01 A2967 RMK AO2 PK WND 34029/1143 SLP041 60000 70233 T00390011 10056 20039 55000
KAVP 291154Z 00000KT 10SM SCT017 SCT055 OVC110 17/13 A2969 RMK AO2 RAB30E45 SLP049 P0000 60000 T01670133 10172 20156 58020
KAVP 291205Z VRB04KT 10SM BKN017 OVC110 17/13 A2971
KAVP 291205Z VRB04KT 10SM BKN017 OVC110 17/13 A2971 RMK AO2 T01670133
KAVQ 291155Z AUTO 10009KT 10SM CLR 17/M06 A2991 RMK AO2 T01701056
KAVQ 291215Z AUTO 00000KT 10SM CLR 16/M06 A2991 RMK AO2 T01571056
KAVQ 291235Z AUTO 12009KT 10SM CLR 16/M05 A2991 RMK AO2 T01611055
KAVX 291151Z AUTO 07005KT 1/4SM FG 13/13 A2989 RMK AO2 SLP106 T01330133 10222 20128 58005 $
KAVX 291216Z AUTO 26004KT 1 3/4SM BR 13/13 A2989 RMK AO2 T01330133 $
KAVX 291223Z AUTO 23005KT 10SM 13/11 A2988 RMK AO2 T01330106 $
KAWG 291155Z AUTO 16005KT 10SM FEW120 M03/M03 A2988 RMK AO2
KAWG 291215Z AUTO 16006KT 10SM SCT110 M04/M04 A2988 RMK AO2
KAWG 291235Z AUTO 16005KT 10SM CLR M04/M04 A2989 RMK AO2
KAWM 291153Z AUTO 00000KT 1 3/4SM BR CLR M02/M02 A3001 RMK AO2 VIS 1V5 SLP167 T10221022 11006 21033 53002
KAWM 291202Z AUTO 00000KT 2 1/2SM BR CLR M02/M02 A3002 RMK AO2 T10221022
KAWM 291209Z AUTO 00000KT 6SM BR CLR M02/M02 A3002 RMK AO2 T10171022
KAWO 291156Z AUTO 00000KT 1/4SM FG OVC002 04/04 A2999 RMK AO2 SLP160 T00390039 10067 20033 50001
KAXA 291155Z AUTO 17006KT 10SM BKN065 OVC090 01/M06 A2972 RMK AO2 PWINO
KAXA 291215Z AUTO 17007KT 10SM SCT065 OVC085 01/M05 A2972 RMK AO2 PWINO
KAXA 291235Z AUTO 16007KT 10SM FEW065 OVC080 01/M05 A2971 RMK AO2 PWINO
KAXH 291155Z AUTO 10SM CLR 01/01 A3013 RMK AO2 T00110007 10042 20005
KAXH 291215Z AUTO 10SM CLR 00/00 A3014 RMK AO2 T00010000
KAXH 291235Z AUTO 10SM CLR 00/00 A3013 RMK AO2 T10011003
KAXN 291153Z AUTO 16009KT 10SM CLR 01/M04 A2959 RMK AO2 SLP035 T00061039 10022 20006 57025
KAXS 291155Z AUTO 23005KT 10SM CLR 02/M05 A2997 RMK AO2 T00211049 10056 20020
KAXS 291215Z AUTO 24004KT 10SM CLR 03/M04 A2996 RMK AO2 T00271044
KAXS 291235Z AUTO 24005KT 10SM CLR 03/M04 A2997 RMK AO2 T00281042
KAXV 291151Z AUTO 27004KT 7SM OVC038 02/01 A2988 RMK AO2
KAXV 291211Z AUTO 27004KT 10SM OVC038 02/01 A2988 RMK AO2
KAXV 291231Z AUTO 00000KT 10SM OVC038 02/01 A2988 RMK AO2
KAXX 291155Z AUTO 00000KT 10SM CLR M09/M11 A3020 RMK AO2 T10951110 11010 21096
KAXX 291215Z AUTO 00000KT 10SM CLR M09/M11 A3019 RMK AO2 T10911111
KAXX 291235Z AUTO 00000KT 10SM CLR M09/M10 A3019 RMK AO2 T10911105
KAYS 291155Z AUTO 30009KT 10SM OVC011 09/06 A2976 RMK AO2 T00920057 10182 20092
KAYS 291215Z AUTO 30008KT 10SM OVC013 09/05 A2977 RMK AO2 T00910053
KAYS 291235Z AUTO 29013G17KT 10SM OVC015 09/05 A2978 RMK AO2 T00900046
KAZC 291155Z AUTO 14006KT 10SM CLR 02/M05 A3011 RMK AO2
KAZC 291215Z AUTO 19003KT 10SM CLR 02/M04 A3011 RMK AO2
KAZC 291235Z AUTO 14004KT 10SM CLR 03/M03 A3011 RMK AO2
KAZE 291155Z AUTO 30008G14KT 10SM BKN016 07/02 A2976 RMK AO2 T00710015 10174 20071
KAZE 291215Z AUTO 29009KT 10SM BKN016 07/01 A2976 RMK AO2 T00700013
KAZE 291235Z AUTO 30003G16KT 10SM BKN016 07/01 A2977 RMK AO2 T00700010
KAZO 291153Z 22005KT 3SM -RA BR OVC022 03/01 A2984 RMK AO2 UPB27E28 SLP112 P0001 60004 70008 T00280011 10033 20028 53000
KBAB 291158Z AUTO 00000KT 10SM CLR 12/08 A2984 RMK AO2 SLP107 T01180079 10161 20109 58001 $
KBAD 291156Z AUTO 00000KT 10SM CLR M02/M03 A3007 RMK AO2 SLP187 T10181028 10027 21029 55001
KBAF 291153Z 13003KT 7SM -RA SCT017 SCT041 OVC060 14/14 A2987 RMK AO2 RAB19 SLP114 P0001 60002 70002 T01440144 10156 20139 56002
KBAK 291145Z 29005KT 10SM OVC036 01/M01 A2992
KBAM 291155Z AUTO 24004KT 10SM CLR 01/M03 A3007 RMK AO1
KBAM 291215Z AUTO 22003KT 10SM CLR 01/M04 A3007 RMK AO1
KBAM 291235Z AUTO 00000KT 10SM CLR 00/M05 A3008 RMK AO1
KBAN 291152Z AUTO 00000KT 10SM CLR A3017 RMK AO2 SLPNO 56008 $
KBAX 291154Z AUTO 00000KT 3SM BR OVC018 01/00 A2984 RMK AO2 T00090000
KBAX 291215Z AUTO 00000KT 7SM OVC018 01/00 A2984 RMK AO2 T00100001
KBAX 291235Z AUTO 00000KT 10SM BKN020 OVC047 02/01 A2985 RMK AO2 T00150007
KBAZ 291151Z 29005KT 10SM CLR 03/M03 A3011 RMK AO2 SLP196 T00331033 10050 20028 56005
KBBB 291153Z AUTO 20008KT 10SM CLR 02/M04 A2961 RMK AO2
KBBB 291214Z AUTO 20006KT 10SM CLR 02/M04 A2960 RMK AO2
KBBB 291233Z AUTO 19007KT 10SM CLR 02/M04 A2960 RMK AO2
KBBF 291155Z AUTO 03013KT 10SM CLR 17/M00 A3012 RMK A01
KBBF 291215Z AUTO 04011G17KT 10SM CLR 17/00 A3012 RMK A01
KBBF 291235Z AUTO 03011KT 10SM CLR 17/M00 A3012 RMK A01
KBBG 291151Z 00000KT 10SM SKC M03/M05 A2997
KBBP 291155Z AUTO 00000KT 7SM OVC090 17/17 A2957 RMK AO2
KBBP 291215Z AUTO 16003KT 5SM BR BKN090 17/17 A2957 RMK AO2
KBBP 291235Z AUTO 20004KT 10SM BKN065 OVC080 18/18 A2956 RMK AO2
KBBW 291153Z AUTO A2974 RMK AO2 SLPNO 7//// 56009 PWINO FZRANO $
KBCB 291155Z AUTO 29006KT 10SM OVC015 04/03 A2968 RMK AO2 P0001 60045 70223 T00380031 10117 20038
KBCB 291215Z AUTO 28005KT 10SM OVC015 04/03 A2968 RMK AO2 T00360030
KBCB 291235Z AUTO 27006KT 10SM OVC013 04/03 A2968 RMK AO2 T00370030
KBCE 291153Z AUTO 26008KT 10SM CLR M03/M06 A3021 RMK AO2 SLP161 T10281056 10011 21039 56009
KBCK 291155Z AUTO 00000KT 10SM CLR M09/M09 A2983 RMK AO2 T10861087 11042 21089
KBCK 291215Z AUTO 00000KT 10SM CLR M09/M09 A2982 RMK AO2 T10901092
KBCK 291235Z AUTO 00000KT 10SM CLR M08/M08 A2982 RMK AO2 T10831083
KBCT 291150Z 32010G20KT 10SM OVC005 21/20 A2965
KBDE 291153Z AUTO 17008KT 10SM OVC055 M01/M02 A2948 RMK AO2 SLP000 60000 T10061017 11006 21022 56025 $
KBDG 291155Z AUTO 35003KT 10SM 01/M04 A3020 RMK AO1 T00141042 10057 20014
KBDG 291215Z AUTO 00000KT 10SM 02/M04 A3020 RMK AO1 T00221041
KBDG 291235Z AUTO 00000KT 10SM 03/M04 A3020 RMK AO1 T00271041
KBDH 291154Z AUTO 15006KT 10SM SCT075 02/M04 A2963 RMK AO2
KBDH 291215Z AUTO 16005KT 10SM CLR 02/M04 A2963 RMK AO2
KBDH 291234Z AUTO 15004KT 10SM CLR 02/M03 A2963 RMK AO2
KBDL 291151Z 10004KT 10SM -RA FEW021 BKN050 OVC060 16/15 A2986 RMK AO2 SLP110 P0000 60000 T01610150 10161 20139 58006
KBDN 291155Z AUTO 20003KT 10SM CLR 05/03 A3001 RMK AO2
KBDN 291215Z AUTO 18004KT 10SM CLR 07/04 A3001 RMK AO2
KBDN 291235Z AUTO 19008KT 10SM CLR 07/04 A3001 RMK AO2
KBDR 291147Z 15008KT 3SM -RA BR FEW011 BKN020 OVC032 17/16 A2983
KBDR 291147Z 15008KT 3SM -RA BR FEW011 BKN020 OVC032 17/16 A2983 RMK AO2 P0007
KBDR 291152Z 15007KT 4SM -RA BR FEW007 BKN022 OVC032 17/16 A2983 RMK AO2 SLP101 P0007 60008 70008 T01720156 10189 20172 55006
KBDR 291230Z 12007KT 7SM -RA FEW008 BKN012 OVC026 17/16 A2982
KBDR 291230Z 12007KT 7SM -RA FEW008 BKN012 OVC026 17/16 A2982 RMK AO2 P0001 T01720161
KBDU 291154Z AUTO 24009KT 10SM CLR 12/M03 A2994 RMK AO2
KBDU 291212Z AUTO 25009KT 10SM CLR 12/M03 A2994 RMK AO2
KBDU 291235Z AUTO 25012G19KT 10SM CLR 13/M03 A2993 RMK AO2
KBEA 291155Z AUTO 32005KT 10SM CLR 04/M07 A3014 RMK AO2 T00411070 10063 20032
KBEA 291215Z AUTO 32005KT 10SM CLR 04/M07 A3014 RMK AO2 T00401069
KBEA 291235Z AUTO 30006KT 10SM CLR 04/M07 A3014 RMK AO2 T00371070
KBEC 291155Z AUTO 21003KT 7SM CLR 00/M06 A2986 RMK AO2 T00041065 10025 21002
KBEC 291215Z AUTO 22004KT 10SM CLR 00/M06 A2986 RMK AO2 T00001063
KBEC 291235Z AUTO 23003KT 10SM CLR 00/M06 A2986 RMK AO2 T00001056
KBED 291156Z 14006KT 10SM OVC070 16/13 A2992 RMK AO2 SLP144 T01560128 10156 20122 55002
KBEH 291153Z AUTO 29010KT 10SM BKN026 OVC037 06/01 A2985 RMK AO2 SLP111 60010 70028 T00560006 10056 20028 53001 $
KBEH 291222Z AUTO 28011KT 10SM SCT026 BKN037 OVC065 06/01 A2985 RMK AO2 T00560006 $
KBEH 291239Z AUTO 27011KT 10SM BKN024 BKN031 OVC065 06/01 A2985 RMK AO2 T00560006 $
KBFD 291153Z AUTO 04006KT 5SM RA BR FEW005 OVC042 04/03 A2973 RMK AO2 SLP075 P0014 60064 70151 T00390033 10039 20033 58012
KBFD 291214Z AUTO 05006KT 6SM -RA BR BKN006 OVC044 04/03 A2972 RMK AO2 P0004 T00390033
KBFF 291153Z AUTO 32003KT 10SM CLR 02/M02 A2983 RMK AO2 SLP095 T00171022 10056 20017 56017
KBFI 291153Z 15004KT 1/4SM FG VV002 09/09 A3000 RMK AO2 SLP158 T00940089 10106 20067 53005
KBFI 291230Z 23003KT 3/4SM BR VV002 09/09 A3000 RMK AO2 T00890089
KBFL 291154Z AUTO 33003KT 10SM CLR 16/06 A2985 RMK AO2 SLP104 T01560061 10217 20144 58005
KBFM 291153Z 31009KT 10SM CLR 04/02 A3002 RMK AO2 SLP165 70002 T00440017 10078 20044 53004
KBFW 291150Z AUTO 20008KT 10SM OVC015 M01/M03 A2968 RMK AO2
KBFW 291217Z AUTO 20007KT 10SM BKN015 OVC070 M01/M03 A2968 RMK AO2
KBFW 291242Z AUTO 19004KT 10SM OVC013 M01/M02 A2967 RMK AO2
KBGD 291151Z AUTO 25007KT 10SM CLR 07/M02 A2998 RMK AO2 SLP142 T00671022 10089 20061 56007
KBGE 291155Z AUTO 29007KT 10SM CLR 06/05 A2988 RMK AO2
KBGE 291215Z AUTO 29007KT 10SM CLR 06/05 A2988 RMK AO2
KBGE 291235Z AUTO 30007KT 10SM CLR 06/05 A2989 RMK AO2
KBGF 291155Z AUTO 35010KT 10SM OVC024 02/M02 RMK
KBGF 291215Z AUTO 35008KT 10SM OVC024 02/M02 RMK
KBGF 291235Z AUTO 35009KT 10SM OVC024 02/M02 RMK
KBGM 291148Z 30007KT 2 1/2SM -RA BR FEW009 OVC015 12/11 A2971 RMK AO2 RAB1057 P0004
KBGM 291150Z 31006KT 3/4SM -RA BR FEW001 SCT009 OVC014 11/11 A2971 RMK AO2 RAB1057 P0004
KBGM 291153Z 32005KT 1/2SM -RA FG SCT001 SCT009 OVC014 09/09 A2970 RMK AO2 RAB1057 SLP059 P0005 60022 70034 T00890089 10117 20089 58014
KBGM 291157Z 36004KT 1/4SM -RA FG BKN001 BKN009 OVC014 09/09 A2970 RMK AO2 P0000 T00890089
KBGM 291204Z 36005KT 1/2SM -RA FG BKN003 BKN007 OVC014 09/09 A2969 RMK AO2 P0001 T00890089
KBGM 291208Z 00000KT 1SM -RA BR BKN007 OVC014 09/09 A2970 RMK AO2 P0001 T00940089
KBGM 291221Z 32009KT 1/4SM -RA FG BKN002 OVC007 08/08 A2970 RMK AO2 P0001 T00830083
KBGR 291153Z 17007KT 8SM BKN006 OVC012 14/12 A3000 RMK AO2 SLP159 T01390122 10139 20111 53005
KBHB 291156Z AUTO 17006KT 10SM FEW037 OVC070 13/12 A3003 RMK AO2 SLP174 6//// 7//// T01280117 10128 20122 53002 PNO $
KBHC 291155Z AUTO 28009G14KT 10SM OVC015 07/05 A2975 RMK AO2
KBHC 291215Z AUTO 29010KT 10SM OVC015 07/05 A2975 RMK AO2
KBHC 291235Z AUTO 29011KT 10SM OVC015 07/04 A2976 RMK AO2
KBHK 291151Z AUTO 36014G23KT 10SM FEW029 BKN060 08/03 A2981 RMK AO2 PRESRR SLP098 T00830028 10089 20022 53040
KBHM 291153Z 32009KT 10SM OVC026 04/M01 A2994 RMK AO2 SLP139 70015 T00441006 10056 20044 53004
KBID 291156Z AUTO 14014G19KT 10SM BKN080 18/15 A2990 RMK AO2 SLP128 7//// T01780150 10178 20172 58006
KBIE 291155Z AUTO 00000KT 10SM CLR 00/M08 A2979 RMK AO2 T10031078 10030 21015 401081071
KBIE 291215Z AUTO 00000KT 10SM CLR M01/M07 A2979 RMK AO2 T10091073
KBIE 291235Z AUTO 13003KT 10SM CLR M01/M07 A2979 RMK AO2 T10101073
KBIF 291158Z AUTO 00000KT 10SM CLR 03/M05 A3012 RMK AO2 SLP171 T00261051 10113 20023 55001 $
KBIH 291156Z AUTO 32008KT 10SM CLR 03/M07 A3005 RMK AO2 SLP141 T00331067 10089 20028 58003
KBIJ 291155Z AUTO 30003KT 10SM CLR 05/03 A2988 RMK AO2
KBIJ 291215Z AUTO 28004KT 10SM CLR 05/02 A2989 RMK AO2
KBIJ 291235Z AUTO 29006KT 10SM CLR 06/02 A2989 RMK AO2
KBIL 291153Z 02011KT 10SM FEW095 09/01 A2996 RMK AO2 SLP132 T00890011 10144 20089 53042
KBIS 291152Z AUTO 33015G19KT 10SM -RA OVC060 10/06 A2966 RMK AO2 SLP049 P0000 60000 T01000061 10122 20094 53016 $
KBIV 291153Z AUTO 05003KT 10SM FEW006 OVC031 04/03 A2984 RMK AO2 SLP110 60002 70054 T00440028 10044 20044 51003
KBIV 291214Z AUTO 05004KT 10SM BKN007 OVC032 04/03 A2984 RMK AO2 T00440028
KBIV 291232Z AUTO 08005KT 10SM SCT007 OVC034 04/03 A2984 RMK AO2 T00440028
KBIX 291156Z AUTO 32006KT 10SM CLR 04/02 A3004 RMK AO2 SLP176 70003 T00430017 10071 20043 53012
KBJC 291145Z 24006KT 30SM SCT080 10/M04 A2997
KBJC 291152Z AUTO 26007KT 10SM CLR 10/M03 A2996 RMK AO2
KBJC 291159Z AUTO 27010KT 10SM CLR 10/M03 A2995 RMK AO2
KBJI 291153Z AUTO 18007KT 10SM SCT095 00/M03 A2951 RMK AO2 T00001028 10000 21015
KBJI 291213Z AUTO 19006KT 10SM SCT095 00/M03 A2951 RMK AO2 T00001032
KBJI 291233Z AUTO 19007KT 10SM CLR 00/M03 A2952 RMK AO2 T10021035
KBJJ 291156Z AUTO 32004KT 10SM BKN044 OVC100 02/01 A2982 RMK AO2 SLP105 70010 T00170006 10017 21006 56005
KBKB 291154Z AUTO 00000KT 10SM CLR M01/M01 A3006 RMK AO2 SLP209 T10061011 10028 21006 50000
KBKD 291155Z AUTO 22006KT 10SM CLR 07/M11 A3003 RMK AO2 T00671111 10069 20033
KBKD 291215Z AUTO 22006KT 10SM CLR 07/M11 A3003 RMK AO2 T00701114
KBKD 291235Z AUTO 22007KT 10SM CLR 07/M11 A3003 RMK AO2 T00701114
KBKE 291145Z AUTO 16004KT 1SM BR VV002 M01/M02 A3002 RMK AO2 VIS 3/4V1 1/2 T10061022
KBKE 291153Z AUTO 16004KT 1 1/4SM BR BKN002 M01/M03 A3002 RMK AO2 SLP167 T10111028 10050 21017 56006
KBKE 291159Z AUTO 00000KT 3/4SM BR VV001 M01/M03 A3002 RMK AO2 T10111028
KBKE 291215Z AUTO 15004KT 1/4SM FZFG VV001 M01/M03 A3002 RMK AO2 T10111028
KBKE 291222Z AUTO 18003KT 3/4SM BR VV002 M01/M03 A3002 RMK AO2 T10111028
KBKF 291158Z 20009KT 10SM CLR 05/M04 A2997 RMK AO2A SLP122 T00511040 10052 20034 57010
KBKL 291153Z 14004KT 8SM -RA BKN015 OVC019 04/03 A2981 RMK AO2 SLP098 P0002 60003 70023 T00440028 10044 20033 56005
KBKN 291155Z AUTO 00000KT 10SM CLR 01/M03 A2991 RMK AO2
KBKN 291215Z AUTO 00000KT 10SM FEW045 FEW050 01/M03 A2991 RMK AO2
KBKN 291235Z AUTO 00000KT 10SM CLR 01/M02 A2991 RMK AO2
KBKT 291155Z AUTO 15003KT 1 1/2SM OVC002 16/16 A2960 RMK AO1 60070 70078 T01600160 10160 20155
KBKT 291215Z AUTO 15004KT 1 1/4SM OVC002 16/16 A2960 RMK AO1 T01610161
KBKT 291235Z AUTO 16005KT 3SM OVC002 16/16 A2959 RMK AO1 T01620162
KBKV 291153Z 30016G25KT 10SM OVC028 16/13 A2979 RMK AO2 PK WND 30028/1132 SLP087 60005 70010 T01610128 10200 20161 53025
KBKW 291151Z AUTO 33008KT 3SM -RA BR OVC002 01/00 A2972 RMK AO2 RAB04UPB05E09B22E27 SLP082 P0000 60011 70115 I1000 I6000 T00060000 10022 20006 58003 TSNO
KBKW 291210Z AUTO 33008KT 1 3/4SM -SN BR OVC002 01/M01 A2972
KBKW 291210Z AUTO 33008KT 1 3/4SM -SN BR OVC002 01/M01 A2972 RMK AO2 VIS 1 RWY19 RAE07UPB1158E03SNB07 P0000 T00061006 TSNO
KBKW 291234Z AUTO 33008KT 2SM BR OVC002 01/00 A2973
KBKW 291234Z AUTO 33008KT 2SM BR OVC002 01/00 A2973 RMK AO2 RAE07UPB1158E03SNB07E34 P0000 T00060000 TSNO
KBKX 291156Z AUTO 00000KT 10SM -RA OVC080 04/M02 A2965 RMK AO2 RAB20 SLP064 P0000 6//// 7//// T00391017 10044 20017 55007 TSNO
KBLF 291152Z AUTO 32006KT 3SM BR OVC004 00/M01 A2971 RMK AO2 SLP068 60017 70107 T00001006 10028 20000 50000
KBLF 291214Z AUTO VRB05KT 1 3/4SM -SN BR OVC003 00/M01 A2972 RMK AO2 SNB12 P0000 T00001006
KBLF 291224Z AUTO VRB05KT 3SM -SN BR BKN003 BKN009 OVC014 00/M01 A2973 RMK AO2 SNB12 P0000 T00001011
KBLF 291236Z AUTO 33005KT 7SM SCT004 BKN010 OVC014 00/M01 A2972 RMK AO2 SNB12E27 P0000 T00001011
KBLH 291152Z AUTO 36006KT 10SM CLR 15/M04 A2982 RMK AO2 SLP093 T01501039 10228 20150 55000
KBLI 291153Z AUTO 00000KT 1/4SM R16/6000FT FG VV001 04/04 A2998 RMK AO2 SLP158 T00440044 10072 20039 58003
KBLI 291211Z AUTO 00000KT 1/2SM R16/6000FT FG VV002 04/04 A2998 RMK AO2 T00390039
KBLI 291216Z AUTO 00000KT 1SM R16/6000FT BR VV002 04/04 A2998 RMK AO2 T00390039
KBLI 291222Z AUTO 00000KT 3SM R16/6000FT BR OVC002 04/04 A2998 RMK AO2 T00390039
KBLM 291156Z AUTO 13008KT 10SM OVC007 17/16 A2978 RMK AO2 RAE09B40E53 CIG 005V011 SLP088 P0000 60001 7//// T01670156 10178 20156 56009
KBLU 291152Z AUTO 11003KT 10SM CLR 17/00 A3009 RMK AO2 SLP104 T01670000 10178 20161 58007 TSNO
KBLV 291156Z AUTO 00000KT 10SM CLR M03/M04 A2996 RMK AO2 SLP153 T10261040 10028 21030 55004 $
KBMC 291155Z AUTO 00000KT 10SM CLR 02/M02 A3010 RMK AO1 T00181017 10213 21027
KBMC 291215Z AUTO 32003KT 10SM CLR 02/M01 A3010 RMK AO1 T00231013
KBMC 291235Z AUTO 34003KT 10SM CLR 01/M02 A3010 RMK AO1 T00131019
KBMG 291153Z 27003KT 10SM OVC028 02/M03 A2992 RMK AO2 SLP135 T00171028 10022 20017 50001
KBMI 291156Z 25003KT 10SM CLR M03/M04 A2993 RMK AO2 SLP159 70002 T10281044 10011 21028 58002
KBML 291152Z AUTO 00000KT 6SM BR FEW070 04/04 A2993 RMK AO2 SLP141 T00440044 10061 20028 55001 $
KBMQ 291153Z AUTO 00000KT 10SM CLR 01/M03 A3012 RMK AO2 SLP200 T00111033 10044 20011 55006
KBMT 291155Z AUTO 00000KT 10SM CLR 01/M01 A3013 RMK AO2 T00051006 10055 20005
KBMT 291215Z AUTO 00000KT 10SM CLR 02/00 A3013 RMK AO2 T00160000
KBMT 291235Z AUTO 00000KT 10SM CLR 01/00 A3013 RMK AO2 T00071005
KBNA 291153Z 32009KT 10SM OVC027 04/M02 A2995 RMK AO2 SLP144 T00391017 10039 20039 53003
KBNL 291155Z AUTO 25010G16KT 10SM 11/10 A2965 RMK AO2
KBNL 291215Z AUTO 25010KT 10SM 10/09 A2966 RMK AO2
KBNL 291235Z AUTO 25010G16KT 10SM 10/08 A2966 RMK AO2
KBNO 291153Z AUTO 00000KT 10SM CLR M02/M03 A3002 RMK AO2 SLP159 T10171028 10044 21022 58007 TSNO
KBNW 291155Z AUTO 19004KT 10SM OVC075 01/M06 A2976 RMK AO2
KBNW 291215Z AUTO 18005KT 10SM OVC075 01/M06 A2976 RMK AO2
KBNW 291235Z AUTO 18006KT 10SM SCT060 OVC075 01/M05 A2975 RMK AO2
KBOI 291153Z 12004KT 10SM CLR 07/03 A2999 RMK AO2 SLP147 T00670033 10100 20056 58008
KBOK 291156Z AUTO 00000KT 9SM OVC006 11/11 A2999 RMK AO2 SLP171 P0001 60001 7//// T01110106 10117 20111 58005
KBOS 291154Z 14010KT 10SM OVC090 16/13 A2994 RMK AO2 SLP137 T01560128 10156 20139 55000
KBOW 291145Z 31011KT 10SM OVC013 18/ A2974
KBPC 291155Z AUTO 25009KT 10SM CLR 06/M02 A2997 RMK AO2
KBPC 291215Z AUTO 25009KT 10SM CLR 06/M02 A2997 RMK AO2
KBPC 291235Z AUTO 24007KT 10SM CLR 05/M02 A2997 RMK AO2
KBPG 291155Z AUTO 00000KT 10SM CLR 02/M09 A3011 RMK AO2 T00241093 10051 20020
KBPG 291215Z AUTO 00000KT 10SM CLR 03/M09 A3011 RMK AO2 T00251092
KBPG 291235Z AUTO 00000KT 10SM CLR 02/M09 A3010 RMK AO2 T00211090
KBPI 291153Z AUTO 20003KT 10SM CLR M05/M07 A3011 RMK AO2 SLP167 T10501072 10006 21061 56011
KBPK 291153Z AUTO 00000KT 10SM CLR M03/M04 A2999 RMK AO2 SLP160 T10331039 11006 21039 58002
KBPT 291153Z 10SM CLR 02/00 A3012 RMK AO2 SLP197 T00170000 10056 20011 53002 $
KBQK 291155Z AUTO 29012G20KT 10SM BKN012 OVC023 14/10 A2969 RMK AO2
KBQK 291215Z AUTO 28011G23KT 10SM SCT021 OVC026 13/10 A2970 RMK AO2
KBQK 291235Z AUTO 28016G24KT 10SM OVC028 13/09 A2971 RMK AO2
KBQP 291155Z AUTO 00000KT 10SM CLR M01/M01 A3008 RMK AO2 T10121015 10005 21012
KBQP 291215Z AUTO 00000KT 10SM CLR M02/M02 A3008 RMK AO2 T10161019
KBQP 291235Z AUTO 00000KT 10SM CLR M01/M02 A3009 RMK AO2 T10141016
KBRD 291153Z AUTO 18012KT 10SM BKN065 OVC085 00/M03 A2961 RMK AO2 SLP043 T00001033 10000 21011 56025
KBRL 291153Z AUTO 19005KT 10SM CLR M03/M04 A2989 RMK AO2 SLP129 I6002 T10331044 11022 21044 58010
KBRO 291153Z 32004KT 10SM CLR 10/M01 A3014 RMK AO2 SLP204 T01001011 10106 20094 52001
KBTA 291155Z AUTO 20006KT 10SM CLR 02/M09 A2975 RMK AO2 T00241094 10042 20011
KBTA 291215Z AUTO 20006KT 10SM SCT110 03/M09 A2975 RMK AO2 T00251091
KBTA 291235Z AUTO 19007KT 10SM SCT110 02/M09 A2974 RMK AO2 T00211088
KBTL 291153Z 15003KT 10SM BKN011 OVC015 03/01 A2984 RMK AO2 SLP112 T00280011 10028 20006 53001
KBTL 291200Z 15003KT 10SM OVC008 03/01 A2984 RMK AO2 T00280011
KBTM 291153Z AUTO 14005KT 10SM CLR M03/M04 A3001 RMK AO2 SLP152 T10281044 10006 21033 55000 $
KBTP 291156Z AUTO VRB04KT 6SM -RA OVC004 A2977 RMK AO2 UPE26RAB35 PRESFR SLPNO P0000 60023 70081 58006 FZRANO $
KBTR 291153Z 00000KT 10SM CLR 03/02 A3008 RMK AO2 SLP184 T00330017 10067 20022 51007
KBTV 291154Z 36008KT 5SM -RA BR OVC032 13/11 A2983 RMK AO2 RAB23 SLP102 INTMT SHRA P0000 60000 T01280111 10161 20128 55005
KBUF 291154Z 34006KT 6SM -RA BR FEW046 OVC060 05/04 A2981 RMK AO2 SLP101 P0005 60011 70032 T00500044 10061 20050 58006
KBUR 291153Z 09004KT 1/4SM FG VV001 14/ A2986 RMK AO2 SLP101 T0144 10189 20144 58004 $
KBUR 291219Z 08003KT 3/4SM BR VV001 14/14 A2986 RMK AO2 T01440144 $
KBUR 291227Z 16003KT 1 1/2SM BR OVC001 14/14 A2986 RMK AO2 T01440144 $
KBUR 291239Z 09004KT 3/4SM BR OVC002 14/14 A2986 RMK AO2 T01440144 $
KBUU 291150Z AUTO 28007KT 10SM SCT045 00/M01 A2986 RMK AO2 T00001015 10015 20000
KBUU 291210Z AUTO 28003KT 10SM CLR 00/M02 A2987 RMK AO2 T10021018
KBUU 291230Z AUTO 00000KT 10SM CLR 00/M02 A2987 RMK AO2 T10031018
KBUY 291146Z AUTO VRB03KT 8SM SCT005 OVC015 17/17 A2957 RMK AO2 T01720172
KBUY 291154Z AUTO 00000KT 9SM FEW005 OVC015 17/17 A2957 RMK AO2 SLP007 70009 T01720172 10172 20167 58018
KBVE 291151Z AUTO 35010G19KT 340V040 10SM CLR 11/03 A3005 RMK AO2 SLP176 T01110033 10128 20111 50010
KBVN 291155Z AUTO 29003KT 10SM CLR 03/M04 A2972 RMK AO2 T00251036 10045 21014
KBVN 291215Z AUTO 00000KT 10SM CLR 02/M04 A2971 RMK AO2 T00161036
KBVN 291235Z AUTO 30004KT 10SM CLR 03/M03 A2971 RMK AO2 T00251035
KBVO 291153Z AUTO 00000KT 10SM CLR M03/M05 A2991 RMK AO2 SLP131 I6000 T10331050 11022 21039 56015
KBVS 291155Z AUTO 00000KT M1/4SM FG OVC002 05/05 A2999 RMK A01
KBVS 291215Z AUTO 00000KT M1/4SM FG OVC002 06/06 A2999 RMK A01
KBVS 291235Z AUTO 00000KT 1/4SM FG OVC001 04/04 A2999 RMK A01
KBVU 291155Z AUTO 00000KT 10SM 14/00 A2996 RMK AO2
KBVU 291215Z AUTO 00000KT 10SM 14/01 A2995 RMK AO2
KBVU 291235Z AUTO 00000KT 10SM 16/M00 A2995 RMK AO2
KBVX 291156Z AUTO 32003KT 10SM CLR M03/M03 A3004 RMK AO2 SLP175 T10331033 11006 21033 53001 FZRANO
KBVY 291153Z 15009G17KT 10SM OVC085 15/13 A2994 RMK AO2 SLP133 T01500133 10150 20139 55004
KBWG 291153Z AUTO 31007KT 10SM OVC031 03/00 A2994 RMK AO2 SLP141 T00330000 10039 20033 53001
KBWG 291225Z AUTO 30006KT 8SM FEW013 SCT020 OVC029 03/01 A2994 RMK AO2 RAB10E21 P0000 T00280011
KBWG 291240Z AUTO 32005KT 8SM FEW010 SCT022 OVC031 03/02 A2995 RMK AO2 RAB10E21UPB27E35 P0000 T00280017
KBWI 291154Z 11014G22KT 8SM -RA SCT008 BKN090 OVC110 17/17 A2961 RMK AO2 PK WND 12029/1127 SLP025 P0005 60026 70026 T01670167 10172 20161 58031
KBWI 291218Z 12011KT 10SM -RA BKN007 BKN090 OVC110 17/17 A2963 RMK AO2 P0001 T01670167 $
KBWW 291155Z AUTO 01018KT 10SM OVC110 09/02 A2963 RMK AO2
KBWW 291215Z AUTO 36017G23KT 10SM SCT033 SCT065 OVC110 09/02 A2966 RMK AO2
KBWW 291235Z AUTO 36022G28KT 10SM BKN032 OVC065 08/02 A2967 RMK AO2
KBXK 291155Z AUTO 02003KT 10SM CLR 14/M07 A2985 RMK AO1
KBXK 291215Z AUTO 20003KT 10SM CLR 12/M05 A2987 RMK AO1
KBXK 291235Z AUTO 27005KT 10SM CLR 11/M04 A2986 RMK AO1
KBYG 291153Z AUTO 01014G22KT 10SM CLR 11/M05 A2988 RMK AO2 PRESRR SLP087 T01061050 10172 20078 53013
KBYI 291153Z AUTO 00000KT 10SM CLR 00/M01 A3001 RMK AO2 SLP153 T00001011 10056 20000 58012 TSNO
KBYL 291155Z AUTO 00000KT 10SM OVC021 00/00 A2986 RMK AO1
KBYL 291215Z AUTO 00000KT 10SM OVC021 01/01 A2986 RMK AO1
KBYL 291235Z AUTO 00000KT 10SM OVC019 01/01 A2987 RMK AO1
KBYS 291155Z AUTO 00000KT 10SM CLR 11/M09 A2995 RMK AO2 SLP120 WND DATA ESTMD T01111088 10263 20145 56007
KBYY 291155Z AUTO 00000KT 10SM CLR 02/00 A3013 RMK AO2 T00210000
KBYY 291215Z AUTO 00000KT 10SM CLR 02/00 A3013 RMK AO2 T00220000
KBYY 291235Z AUTO 24003KT 10SM CLR 01/00 A3014 RMK AO2 T00210001
KBZN 291156Z 07003KT 10SM CLR M02/M04 A2999 RMK AO2 SLP161 T10221039 10022 21022 53011
KC07 291154Z AUTO 27007G14KT 10SM CLR M01/M03 A3024 RMK AO2
KC07 291212Z AUTO 27006KT 10SM CLR M01/M03 A3024 RMK AO2
KC07 291230Z AUTO 27007KT 10SM CLR M01/M03 A3023 RMK AO2
KC09 291155Z AUTO 28004KT 10SM OVC040 01/M01 A2991 RMK AO2 T00121013 10022 20012
KC09 291215Z AUTO 00000KT 10SM OVC040 01/M01 A2990 RMK AO2 T00101014
KC09 291235Z AUTO 26003KT 10SM OVC040 00/M02 A2990 RMK AO2 T00041017
KC29 291155Z AUTO 00000KT 10SM CLR M02/M04 A2988 RMK AO1 T10171036 10000 21021
KC29 291215Z AUTO 00000KT 10SM CLR M02/M03 A2988 RMK AO1 T10201035
KC29 291235Z AUTO 00000KT 10SM CLR M02/M04 A2988 RMK AO1 T10211037
KC35 291155Z AUTO 00000KT 7SM CLR M05/M05 A2986 RMK AO2 T10461046 11013 21046
KC35 291215Z AUTO 00000KT 10SM CLR M05/M05 A2987 RMK AO2 T10481048
KC35 291235Z AUTO 00000KT 10SM CLR M05/M05 A2986 RMK AO2 T10501050
KC62 291155Z AUTO 24005KT 10SM OVC043 01/00 A2986 RMK AO2 T00161005
KC62 291215Z AUTO 25006KT 10SM OVC043 01/00 A2986 RMK AO2 T00161006
KC62 291235Z AUTO 25004KT 10SM BKN041 OVC060 01/00 A2986 RMK AO2 T00171005
KC65 291155Z AUTO 25004KT 10SM OVC038 02/M00 A2987 RMK A01
KC65 291215Z AUTO 23004KT 10SM OVC037 02/M00 A2987 RMK A01
KC65 291235Z AUTO 25006KT 10SM BKN033 OVC039 02/M00 A2987 RMK A01
KC75 291155Z AUTO 00000KT 10SM CLR M04/M05 A2992 RMK AO2 T10421050 10015 21042
KC75 291215Z AUTO 00000KT 10SM CLR M04/M05 A2992 RMK AO2 T10381046
KC75 291235Z AUTO 00000KT 10SM CLR M04/M05 A2992 RMK AO2 T10371046
KC83 291155Z AUTO 00000KT 7SM CLR 10/10 A2986 RMK AO2
KC83 291215Z AUTO 00000KT 8SM FEW002 10/10 A2986 RMK AO2
KC83 291235Z AUTO 00000KT 3/4SM BR OVC002 10/10 A2987 RMK AO2
KCAD 291155Z AUTO 00000KT 10SM SCT002 BKN007 OVC050 M02/M02 A2982 RMK AO2 T10271029
KCAD 291215Z AUTO 00000KT 10SM BKN002 BKN007 OVC050 M01/M02 A2982 RMK AO2 T10181020
KCAD 291235Z AUTO 00000KT 1/2SM -SN BKN002 BKN006 OVC045 M01/M01 A2982 RMK AO2 T10161018
KCAE 291156Z 25008KT 10SM BKN010 BKN070 14/13 A2960 RMK AO2 SLP019 T01390128 10189 20139 55004
KCAE 291213Z 26012KT 10SM OVC009 13/12 A2960
KCAE 291213Z 26012KT 10SM OVC009 13/12 A2960 RMK AO2 CIG 007V012 T01330122
KCAG 291153Z AUTO 24004KT 10SM CLR M06/M08 A3016 RMK AO2 SLP224 T10561078 11017 21061 56008
KCAK 291151Z 32005KT 10SM OVC030 03/00 A2981 RMK AO2 SLP102 70011 T00280000 10028 20017 58005 $
KCAK 291233Z 33003KT 10SM OVC028 03/00 A2979
KCAK 291233Z 33003KT 10SM OVC028 03/00 A2979 RMK AO2 T00280000 $
KCAO 291155Z AUTO 26011KT 10SM CLR 04/M03 A3001 RMK AO2 SLP146 T00391028 10067 20028 56010
KCAR 291154Z AUTO 18005KT 10SM OVC005 11/09 A2998 RMK AO2 SLP158 T01060089 10106 20089 53004
KCAV 291155Z AUTO 17009KT 10SM OVC075 01/M05 A2975 RMK AO2 PWINO
KCAV 291215Z AUTO 17008KT 10SM BKN075 OVC090 01/M05 A2974 RMK AO2 PWINO
KCAV 291235Z AUTO 17008KT 10SM BKN075 OVC095 01/M05 A2974 RMK AO2 PWINO
KCBE 291146Z AUTO 34007KT 2 1/2SM BKN007 OVC016 08/08 A2973 RMK AO1
KCBE 291206Z AUTO 03007KT 7SM BKN007 OVC016 08/08 A2971 RMK AO1
KCBE 291226Z AUTO 36004KT 10SM BKN007 OVC012 08/08 A2970 RMK AO1
KCBF 291155Z AUTO 22009KT 10SM CLR 02/M09 A2976 RMK AO2
KCBF 291215Z AUTO 22008KT 10SM CLR 02/M09 A2976 RMK AO2
KCBF 291235Z AUTO 21006KT 10SM CLR 02/M09 A2976 RMK AO2
KCBG 291155Z AUTO 15007KT 10SM OVC070 00/M02 A2969 RMK AO2
KCBG 291215Z AUTO 16008KT 10SM OVC060 00/M02 A2969 RMK AO2
KCBG 291235Z AUTO 15005KT 10SM OVC060 00/M02 A2969 RMK AO2
KCBK 291155Z AUTO 25007KT 10SM CLR 02/01 A2986 RMK AO2
KCBK 291215Z AUTO 24007KT 10SM CLR 02/01 A2985 RMK AO2
KCBK 291235Z AUTO 25007KT 10SM CLR 02/01 A2985 RMK AO2
KCBM 291156Z AUTO 31005KT 10SM CLR 00/00 A3000 RMK AO2 SLP163 T00031001 10033 21002 52004 TSNO $
KCCA 291155Z AUTO 00000KT 10SM CLR M05/M05 A3004 RMK AO2
KCCA 291215Z AUTO 00000KT 10SM CLR M05/M06 A3004 RMK AO2
KCCA 291235Z AUTO 00000KT 10SM CLR M05/M06 A3004 RMK AO2
KCCO 291155Z AUTO 33011G17KT 10SM OVC022 04/01 A2982 RMK AO2 T00390006 10050 20030
KCCO 291215Z AUTO 33013G19KT 300V360 10SM OVC022 04/00 A2982 RMK AO2 T00380000
KCCO 291235Z AUTO 33012G22KT 10SM OVC022 04/00 A2983 RMK AO2 T00370001
KCCR 291153Z AUTO 00000KT 8SM CLR 11/09 A2989 RMK AO2 SLP107 T01110094 10156 20106 58002
KCCU 291153Z AUTO 10SM CLR M02/M05 A3029 RMK AO2
KCCU 291212Z AUTO 10SM CLR M02/M05 A3029 RMK AO2
KCCU 291230Z AUTO 10SM CLR M02/M05 A3029 RMK AO2
KCCY 291155Z AUTO 15008KT 10SM BKN070 OVC080 M02/M03 A2979 RMK AO2
KCCY 291215Z AUTO 15007KT 10SM SCT065 OVC080 M01/M03 A2979 RMK AO2
KCCY 291235Z AUTO 14008KT 10SM OVC080 M01/M03 A2978 RMK AO2
KCDA 291155Z AUTO 14003KT 10SM OVC017 12/10 A2991 RMK AO2 T01210097 10121 20116
KCDA 291215Z AUTO 00000KT 10SM OVC019 12/10 A2991 RMK AO2 T01210097
KCDA 291235Z AUTO 00000KT 10SM RA OVC021 12/10 A2991 RMK AO2 T01210101
KCDC 291153Z AUTO 05003KT 10SM CLR 00/M02 A3011 RMK AO2 SLP169 T00001022 10056 21017 56011
KCDD 291151Z AUTO 16005KT 10SM OVC050 M03/M04 A2962 RMK AO2
KCDD 291216Z AUTO 16004KT 10SM OVC050 M03/M04 A2961 RMK AO2
KCDD 291236Z AUTO 15005KT 10SM OVC050 M03/M04 A2960 RMK AO2
KCDH 291155Z AUTO 00000KT 10SM CLR M03/M05 A3007 RMK AO2
KCDH 291215Z AUTO 00000KT 10SM CLR M03/M05 A3007 RMK AO2
KCDH 291235Z AUTO 00000KT 10SM CLR M03/M05 A3008 RMK AO2
KCDI 291153Z AUTO 00000KT 10SM OVC034 03/01 A2982 RMK AO2 T00250006 10030 20025
KCDI 291205Z AUTO 00000KT 10SM OVC034 03/01 A2981 RMK AO2 T00250005
KCDI 291232Z AUTO 32003KT 10SM OVC032 03/01 A2982 RMK AO2 T00250005
KCDJ 291152Z AUTO 18004KT M02/M04 A2987 RMK AO1 SLP127 T10171039 11017 21044 58022
KCDN 291155Z AUTO 00000KT 10SM BKN016 BKN023 OVC038 17/16 A2958 RMK AO2
KCDN 291215Z AUTO 00000KT 9SM FEW013 BKN019 OVC023 17/16 A2958 RMK AO2
KCDN 291235Z AUTO 22003KT 9SM FEW010 SCT015 BKN021 17/15 A2958 RMK AO2
KCDR 291153Z AUTO 25008KT 10SM CLR 05/M01 A2975 RMK AO2 SLP083 T00501006 10106 20033 58015
KCDS 291153Z AUTO 26007KT 10SM CLR 06/M02 A2998 RMK AO2 SLP148 T00611017 10072 20044 56007
KCDW 291153Z 07003KT 9SM OVC006 16/16 A2978 RMK AO2 SLP088 60000 T01560156 10178 20150 56014
KCEC 291156Z AUTO 00000KT 10SM OVC008 12/11 A2999 RMK AO2 SLP155 T01170111 10117 20111 58007
KCEF 291145Z 14004KT 10SM -RA SCT025 OVC060 17/14 A2986 RMK AO2A SLP117
KCEF 291156Z 13003KT 10SM -RA SCT025 OVC060 17/14 A2986 RMK AO2A SLP117 P0000 60000 T01660139 10167 20151 57004
KCEU 291154Z AUTO VRB03KT 10SM BKN006 OVC013 05/05 A2963 RMK AO2 CIG 004V008 SLP033 60001 70108 T00500050 10122 20050 50001
KCEU 291217Z AUTO 00000KT 10SM SCT005 OVC011 05/05 A2962 RMK AO2 T00500050
KCEU 291224Z AUTO VRB03KT 10SM BKN006 OVC011 05/05 A2963 RMK AO2 CIG 004V009 T00500050
KCEW 291153Z AUTO 32008KT 10SM CLR 03/02 A2996 RMK AO2 SLP145 70095 T00330017 10061 20033 53008
KCEY 291215Z AUTO 31004KT 10SM SCT018 OVC038 03/00 A2997 RMK AO1
KCEZ 291153Z AUTO 05004KT 10SM CLR M02/M06 A3014 RMK AO2 SLP176 T10221061 10028 21028 58003
KCFD 291155Z AUTO 00000KT 10SM CLR 01/M01 A3012 RMK AO2 T00051011 10040 20003
KCFD 291215Z AUTO 23004KT 10SM CLR 01/M02 A3012 RMK AO2 T00141017
KCFD 291235Z AUTO 22003KT 10SM CLR 02/M02 A3012 RMK AO2 T00201023
KCFE 291155Z AUTO 16005KT 10SM BKN060 OVC095 00/M03 A2968 RMK AO2 T00031035 10003 21010
KCFE 291214Z AUTO 15004KT 10SM OVC070 00/M03 A2968 RMK AO2 T00041035
KCFE 291234Z AUTO 15004KT 10SM OVC070 00/M03 A2968 RMK AO2 T00041033
KCFS 291155Z AUTO 00000KT 7SM BKN022 OVC028 03/02 A2983 RMK AO2 T00250018 10040 20012
KCFS 291215Z AUTO 00000KT 10SM OVC022 03/02 A2984 RMK AO2 T00260020
KCFS 291235Z AUTO 00000KT 7SM SCT022 BKN032 BKN046 02/02 A2984 RMK AO2 T00220015
KCFV 291152Z AUTO 18003KT 10SM CLR 00/M04 A2991 RMK AO2 SLP131 T00001044 10000 21022 56015
KCGC 291155Z AUTO 29010G21KT 10SM BKN013 14/11 A2979 RMK AO2
KCGC 291215Z AUTO 30008G15KT 10SM SCT015 13/10 A2980 RMK AO2
KCGC 291235Z AUTO 30010G22KT 10SM SCT017 12/05 A2982 RMK AO2
KCGE 291145Z AUTO 11007KT 4SM BR BKN005 OVC011 18/17 A2967 RMK A01
KCGE 291205Z AUTO 13006KT 5SM BR SCT007 BKN023 OVC055 18/17 A2966 RMK A01
KCGE 291225Z AUTO 10005KT 2SM BR SCT006 BKN013 OVC055 18/17 A2965 RMK A01
KCGF 291145Z 22007KT 10SM -DZ BKN020 OVC030 04/03 A2982
KCGF 291203Z 22007KT 3SM -DZ BKN020 OVC030 04/03 A2982
KCGI 291153Z AUTO 24003KT 10SM CLR M02/M03 A2999 RMK AO2 SLP157 T10171028 10039 21017 58002
KCGS 291145Z AUTO 00000KT 10SM BKN009 BKN016 OVC110 17/16 A2963 RMK AO1 T01720160
KCGS 291205Z AUTO 12005KT 10SM BKN013 BKN019 OVC110 17/16 A2962 RMK AO1 T01700156
KCGS 291225Z AUTO 11004KT 10SM BKN013 BKN018 OVC075 17/16 A2962 RMK AO1 T01680156
KCHA 291153Z 34016G21KT 10SM OVC028 03/M02 A2987 RMK AO2 SLP118 70053 T00331022 10050 20033 53004
KCHK 291155Z AUTO 00000KT 10SM CLR 03/M04 A2990 RMK AO2 T00311037 10080 20029
KCHK 291215Z AUTO 27004KT 10SM CLR 03/M05 A2990 RMK AO2 T00351052
KCHK 291235Z AUTO 00000KT 10SM CLR 03/M04 A2990 RMK AO2 T00281037
KCHO 291153Z 06004KT 4SM -RA OVC010 19/15 A2959 RMK AO2 RAE19B51 SLP015 P0002 60010 70010 T01890150 10189 20156 56020 $
KCHO 291208Z 00000KT 3SM -RA BR OVC008 16/15 A2959 RMK AO2 CIG 004V012 P0000 T01610150 $
KCHO 291221Z 00000KT 1 3/4SM -RA BR OVC006 16/15 A2959 RMK AO2 CIG 003V011 P0001 T01610150 $
KCHO 291229Z 09003KT 3SM BR OVC006 16/16 A2959 RMK AO2 RAE29 CIG 003V008 P0001 T01610156 $
KCHO 291234Z 08003KT 2 1/2SM BR OVC004 16/15 A2958 RMK AO2 RAE29 CIG 003V007 P0001 T01610150 $
KCHS 291156Z 27006KT 10SM FEW025 SCT045 SCT090 18/18 A2960 RMK AO2 SLP021 70006 T01780178 10200 20178 56009 $
KCIC 291155Z AUTO 00000KT 10SM CLR 11/07 A2987 RMK AO1
KCIC 291215Z AUTO 00000KT 10SM CLR 12/07 A2987 RMK AO1
KCIC 291235Z AUTO 00000KT 10SM CLR 11/07 A2987 RMK AO1
KCID 291152Z 15004KT 10SM FEW100 M03/M04 A2985 RMK AO2 SLP117 I6001 T10281044 11028 21061 56017
KCIN 291155Z AUTO 24007KT 10SM OVC075 03/M09 A2975 RMK AO2
KCIN 291215Z AUTO 23006KT 10SM OVC075 03/M09 A2974 RMK AO2
KCIN 291235Z AUTO 24004KT 10SM OVC075 03/M09 A2973 RMK AO2
KCIR 291155Z AUTO 00000KT 10SM CLR 01/M02 A3000 RMK AO2 T00091019 10038 20008
KCIR 291210Z AUTO 00000KT 10SM CLR M01/M02 A3000 RMK AO2 T10081019
KCIR 291235Z AUTO 00000KT 10SM CLR M01/M02 A3000 RMK AO2 T10121023
KCIU 291146Z AUTO 00000KT 10SM BKN003 OVC013 M01/M02 A2982 RMK AO2 UPB06E10B27E32SNB10E27 P0000 FZRANO
KCIU 291156Z AUTO 00000KT 10SM SCT003 OVC011 M02/M02 A2982 RMK AO2 UPB06E10B27E32SNB10E27 SLP128 P0000 60000 T10171017 10000 21022 51001 FZRANO
KCJR 291155Z AUTO 00000KT 5SM -RA SCT017 BKN025 OVC031 16/15 A2962 RMK AO2 P0001 60001 70001 T01550145 10159 20143
KCJR 291215Z AUTO 00000KT 4SM -DZ OVC015 16/15 A2962 RMK AO2 T01550145
KCJR 291235Z AUTO 00000KT 5SM BR OVC013 16/15 A2960 RMK AO2 P0001 T01600151
KCKB 291153Z 31003KT 10SM -RA OVC008 04/02 A2976 RMK AO2 CIG 006V011 SLP078 P0002 60054 70106 T00390017 10039 20033 58007
KCKC 291154Z AUTO 17006KT 10SM OVC013 M03/M06 A2968 RMK AO2
KCKC 291214Z AUTO 17007KT 10SM OVC011 M03/M06 A2967 RMK AO2
KCKC 291233Z AUTO 17006KT 10SM OVC009 M03/M06 A2967 RMK AO2
KCKF 291155Z AUTO 30006KT 10SM CLR 07/03 A2983 RMK AO2 7//// T00680029 10126 20068
KCKF 291215Z AUTO 29005KT 10SM CLR 07/03 A2983 RMK AO2 T00680031
KCKF 291235Z AUTO 29007KT 10SM CLR 07/04 A2984 RMK AO2 T00710036
KCKI 291155Z AUTO 00000KT 7SM CLR 16/15 A2959 RMK AO2
KCKI 291215Z AUTO 00000KT 7SM CLR 16/15 A2959 RMK AO2
KCKI 291235Z AUTO 00000KT 10SM SCT043 BKN090 17/16 A2959 RMK AO2
KCKM 291155Z AUTO 24003KT 9SM M01/M01 A3004 RMK A01 P0001
KCKM 291215Z AUTO 00000KT 7SM M00/M00 A3005 RMK A01
KCKM 291235Z AUTO 00000KT 7SM M01/M01 A3005 RMK A01
KCKN 291154Z AUTO 26003KT 10SM CLR M01/M04 A2954 RMK AO2
KCKN 291214Z AUTO 21003KT 10SM CLR M01/M04 A2953 RMK AO2
KCKN 291235Z AUTO 20003KT 10SM CLR M01/M04 A2954 RMK AO2
KCKP 291155Z AUTO 18004KT 10SM CLR 01/M07 A2971 RMK AO2 T00111070 10020 20003
KCKP 291215Z AUTO 18003KT 10SM CLR 01/M06 A2971 RMK AO2 T00051061
KCKP 291235Z AUTO 16003KT 10SM CLR 00/M06 A2971 RMK AO2 T00021061
KCKV 291152Z AUTO 34005KT 10SM OVC036 03/M02 A2995 RMK AO2 SLP146 T00331017 10039 20033 50002
KCKZ 291155Z AUTO 10005KT 10SM OVC005 15/15 A2975 RMK AO2
KCKZ 291215Z AUTO 08004KT 10SM OVC005 15/15 A2974 RMK AO2
KCKZ 291235Z AUTO 09005KT 10SM OVC005 15/15 A2975 RMK AO2
KCLE 291151Z 23006KT 10SM BKN020 OVC036 03/02 A2984 RMK AO2 SLP111 -RAB1052E47 P0003 60003 70012 T00280022 10033 20017 58000
KCLE 291207Z 23007KT 10SM SCT019 BKN036 OVC060 03/02 A2984 RMK AO2 T00280017
KCLI 291159Z AUTO 00000KT 10SM BKN027 M03/M04 A2986 RMK AO2
KCLI 291219Z AUTO 00000KT 10SM OVC025 M03/M04 A2985 RMK AO2
KCLI 291241Z AUTO 00000KT 10SM SCT023 M03/M04 A2985 RMK AO2
KCLK 291155Z AUTO 10SM CLR 03/M08 A2993 RMK AO2 PNO TSNO
KCLK 291215Z AUTO 10SM CLR 03/M08 A2993 RMK AO2 PNO TSNO
KCLK 291235Z AUTO 10SM CLR 03/M07 A2993 RMK AO2 PNO TSNO
KCLL 291153Z 00000KT 10SM CLR 02/M01 A3011 RMK AO2 SLP196 T00221011 10061 20011 58000
KCLM 291153Z AUTO 32003KT 8SM CLR 05/05 A3000 RMK AO2 SLP161 T00500050 10072 20044 51004
KCLS 291155Z AUTO 19003KT 9SM OVC008 10/10 A3000 RMK AO2
KCLS 291215Z AUTO 19004KT 8SM OVC008 10/10 A3000 RMK AO2
KCLS 291235Z AUTO 18005KT 7SM OVC008 10/10 A3000 RMK AO2
KCLT 291152Z 26005KT 9SM BKN005 OVC010 16/15 A2957 RMK AO2 SLP009 60003 70005 T01560150 10172 20156 56011
KCLT 291208Z 24004KT 7SM OVC004 16/16 A2958 RMK AO2 CIG 003V008 T01560156
KCLT 291236Z 25004KT 9SM SCT004 BKN008 BKN024 16/16 A2957 RMK AO2 T01560156
KCLW 291155Z AUTO 32017G26KT 10SM BKN023 OVC029 17/13 A2979 RMK AO2
KCLW 291215Z AUTO 32017G26KT 10SM BKN023 OVC028 17/13 A2980 RMK AO2
KCLW 291235Z AUTO 32018G29KT 10SM BKN025 OVC031 17/12 A2981 RMK AO2
KCMA 291155Z AUTO 02003KT 4SM BR OVC003 15/13 A2986 RMK AO2 SLP120 T01500133 56008 $
KCMD 291155Z AUTO 35007KT 310V020 10SM OVC028 02/M03 A2993 RMK AO2 70001 T00211029 10035 20021
KCMD 291215Z AUTO 34010KT 10SM OVC028 02/M03 A2994 RMK AO2 T00221029
KCMD 291235Z AUTO 36007KT 10SM OVC028 02/M03 A2994 RMK AO2 T00221027
KCMH 291151Z 33007KT 10SM OVC042 04/01 A2984 RMK AO2 SLP109 70012 T00390011 10039 20033 58002 $
KCMI 291153Z 28005KT 10SM OVC042 01/M03 A2993 RMK AO2 SLP141 T00111028 10028 20011 56001
KCMR 291155Z AUTO 17007KT 10SM CLR 03/M05 A3016 RMK AO2
KCMR 291215Z AUTO 17008KT 10SM CLR 03/M05 A3016 RMK AO2
KCMR 291235Z AUTO 16009KT 10SM -UP FEW032 03/M05 A3016 RMK AO2
KCMX 291153Z AUTO 20009KT 10SM OVC031 M01/M03 A2977 RMK AO2 SLP092 70002 T10061033 10000 21006 56007
KCMY 291155Z AUTO 00000KT 10SM CLR M06/M07 A2985 RMK AO2 T10651071 11045 21068
KCMY 291215Z AUTO 00000KT 10SM CLR M07/M08 A2984 RMK AO2 T10701076
KCMY 291235Z AUTO 00000KT 10SM CLR M07/M08 A2984 RMK AO2 T10741081
KCNB 291154Z AUTO 12003KT 10SM SCT110 05/M02 A2962 RMK AO2 T00501018 10066 20037
KCNB 291215Z AUTO 23008KT 10SM BKN100 08/M03 A2960 RMK AO2 T00801030
KCNB 291234Z AUTO 22009KT 10SM BKN100 08/M03 A2959 RMK AO2 T00801030
KCNC 291155Z AUTO 20008KT 10SM BKN090 OVC120 02/M07 A2981 RMK AO2
KCNC 291215Z AUTO 20008KT 10SM OVC090 02/M07 A2981 RMK AO2
KCNC 291235Z AUTO 20007KT 10SM OVC090 02/M06 A2982 RMK AO2
KCNI 291155Z AUTO 31017G30KT 10SM OVC026 03/01 A2976 RMK AO2
KCNI 291215Z AUTO 30013G24KT 10SM OVC024 03/01 A2977 RMK AO2
KCNI 291235Z AUTO 30015G23KT 10SM SCT018 OVC024 03/00 A2978 RMK AO2
KCNK 291155Z AUTO 24005KT 10SM CLR 02/M07 A2981 RMK AO2 SLP101 T00221067 10039 20006 56014 $
KCNM 291153Z AUTO 31005KT 10SM -SN CLR 01/M03 A3008 RMK AO2 SNB06E31B50 SLP174 P0000 60000 T00061028 10067 20000 56006
KCNO 291153Z AUTO 29003KT 1/2SM FG VV001 15/14 A2989 RMK AO2 SLP115 T01500139 10178 20133 55000 $
KCNO 291226Z AUTO 00000KT 3/4SM BR OVC001 15/14 A2989 RMK AO2 T01500139 $
KCNU 291152Z AUTO 13006KT 10SM CLR M01/M05 A2990 RMK AO2 SLP130 T10111050 11006 21022 56014
KCNW 291155Z 00000KT 10SM SKC M02/M02 A3009
KCNY 291153Z AUTO 00000KT 10SM CLR 01/M07 A3009 RMK AO2 SLP170 T00111067 10089 20011 55004 TSNO
KCOD 291156Z AUTO VRB04G14KT 10SM CLR 12/M03 A2991 RMK AO2 SLP107 T01221028 10156 20117 53004
KCOE 291150Z AUTO 00000KT 3/4SM BR OVC003 02/02 A3002 RMK AO2 FZRANO
KCOE 291156Z AUTO 00000KT 1/2SM FG OVC003 02/02 A3002 RMK AO2 SLP191 T00220017 10033 20000 50000 FZRANO
KCOE 291214Z AUTO 05003KT 1/4SM FG OVC003 02/02 A3002 RMK AO2 FZRANO
KCOF 291158Z AUTO 28011KT 10SM CLR 20/20 A2966 RMK AO2 SLP048 T02030201 10225 20203 53009
KCOF 291233Z AUTO 28017KT 10SM BKN006 20/20 A2967 RMK AO2 BKN V SCT SLP051
KCOM 291155Z AUTO 00000KT 10SM CLR 06/M14 A3008 RMK AO2 T00611140 10070 20010
KCOM 291215Z AUTO 19006KT 10SM CLR 05/M13 A3008 RMK AO2 T00501135
KCOM 291235Z AUTO 22003KT 10SM CLR 06/M13 A3007 RMK AO2 T00571135
KCON 291151Z AUTO 14003KT 5SM BR BKN007 BKN013 OVC060 14/13 A2993 RMK AO2 RAB18E27 SLP134 P0000 60000 T01390133 10139 20133 51002
KCON 291208Z AUTO 00000KT 8SM FEW009 BKN015 OVC026 14/13 A2992
KCON 291208Z AUTO 00000KT 8SM FEW009 BKN015 OVC026 14/13 A2992 RMK AO2 T01390133
KCOQ 291155Z AUTO 16005KT 10SM BKN050 OVC075 M03/M04 A2966 RMK AO2
KCOQ 291215Z AUTO 15005KT 10SM OVC050 M03/M04 A2965 RMK AO2
KCOQ 291235Z AUTO 16006KT 10SM OVC050 M03/M04 A2965 RMK AO2
KCOS 291154Z 35007KT 10SM CLR 04/M04 A3002 RMK AO2 SLP151 T00391044 10044 20011 56008
KCOT 291153Z AUTO 03003KT 10SM CLR 04/M03 A3015 RMK AO2 SLP207 T00441033 10083 20033 53000
KCOU 291154Z 18006KT 10SM CLR M04/M05 A2993 RMK AO2 SLP143 I1000 I6000 T10391050 11028 21039 58010
KCPC 291145Z AUTO 00000KT 10SM BKN085 18/17 A2959 RMK AO2 T01780174
KCPC 291205Z AUTO 00000KT 10SM SCT085 18/18 A2959 RMK AO2 T01820178
KCPC 291225Z AUTO 00000KT 10SM BKN085 18/18 A2958 RMK AO2 T01840179
KCPK 291155Z AUTO 16006KT 7SM BKN015 OVC022 19/18 A2963 RMK AO2 60019 70020 T01890182 10193 20169
KCPK 291215Z AUTO 16006KT 10SM RA SCT007 BKN013 OVC019 19/19 A2964 RMK AO2 T01900185
KCPK 291235Z AUTO 16005KT 10SM -RA SCT010 BKN034 OVC080 19/19 A2963 RMK AO2 T01890185
KCPR 291153Z 21020G29KT 10SM CLR 08/M02 A2990 RMK AO2 PK WND 21029/1148 SLP099 T00781017 10083 20050 56019 $
KCPS 291153Z 20003KT 10SM CLR M03/M04 A2997 RMK AO2 SLP152 I1001 I6001 T10281044 10039 21028 58005
KCPT 291155Z AUTO 20006KT 10SM CLR 03/M05 A3005 RMK AO2
KCPT 291215Z AUTO 20005KT 10SM CLR 03/M05 A3005 RMK AO2
KCPT 291235Z AUTO 21005KT 10SM CLR 03/M05 A3005 RMK AO2
KCPU 291155Z AUTO 11003KT 10SM CLR 13/07 A2989 RMK AO2 T01310065 10165 20130
KCPU 291215Z AUTO 14003KT 10SM CLR 13/07 A2990 RMK AO2 T01290068
KCPU 291235Z AUTO 14003KT 10SM CLR 13/07 A2990 RMK AO2 T01250065
KCPW 291154Z AUTO 22010KT 10SM CLR 00/M08 A3035 RMK AO2
KCPW 291208Z AUTO 22010KT 10SM CLR 00/M08 A3035 RMK AO2
KCPW 291233Z AUTO 22010KT 10SM CLR 00/M08 A3035 RMK AO2
KCQB 291150Z AUTO 18005KT 10SM CLR 02/M05 A2990 RMK AO2 T00181050 10029 20008
KCQB 291210Z AUTO 19006KT 10SM CLR 01/M04 A2989 RMK AO2 T00151044
KCQB 291230Z AUTO 21006KT 10SM CLR 01/M05 A2989 RMK AO2 T00141046
KCQC 291153Z AUTO 30011KT 10SM CLR 01/M05 A3015 RMK AO2 SLP179 T00061050 10044 20006 56003
KCQF 291155Z AUTO 34008G16KT 310V010 10SM CLR 05/00 A3000 RMK AO2
KCQF 291215Z AUTO 34009G18KT 310V010 10SM CLR 05/00 A3001 RMK AO2
KCQF 291235Z AUTO 35007KT 10SM CLR 05/01 A3002 RMK AO2
KCQM 291156Z AUTO 17008KT 131V191 10SM OVC050 M03/M04 A2962 RMK AO2
KCQM 291216Z AUTO 15008KT 10SM OVC060 M03/M04 A2960 RMK AO2
KCQM 291235Z AUTO 15009G14KT 10SM OVC060 M03/M04 A2959 RMK AO2
KCQT 291147Z AUTO 00000KT 2 1/2SM BR OVC005 17/15 A2986 RMK AO2 SLP110 T01720150 10172 20167 58005 $
KCQW 291155Z AUTO 16003KT 1SM BR OVC001 16/15 A2957 RMK AO2
KCQW 291215Z AUTO 16004KT 3/4SM BR OVC001 16/16 A2957 RMK AO2
KCQW 291235Z AUTO 22004KT 2SM BR OVC001 16/16 A2957 RMK AO2
KCQX 291152Z AUTO 13009KT 10SM CLR 14/14 A2998 RMK AO2 SLP153 T01440139 10144 20133 55003
KCRE 291153Z 22005KT 10SM OVC070 21/19 A2959 RMK AO1 SLP020 70068 T02060189 10211 20189 58014
KCRG 291153Z 31014G19KT 10SM OVC013 17/13 A2970 RMK AO2 SLP055 T01720133 10217 20172 53011
KCRP 291151Z 31005KT 10SM FEW020 02/M05 A3015 RMK AO2 SLP209 T00221050 10061 20017 53003
KCRQ 291153Z AUTO 00000KT 4SM BR OVC004 17/17 A2987 RMK AO2 SLP112 T01720167 10178 20167 55000
KCRS 291153Z AUTO 21007KT 10SM CLR 02/M03 A3007 RMK AO2 SLP184 T00171033 10033 20011 58007
KCRW 291154Z 32007KT 10SM FEW004 OVC011 02/01 A2982 RMK AO2 SLP103 60000 70097 I6000 T00220006 10033 20022 51001
KCRW 291233Z 32004KT 2 1/2SM BR BKN009 OVC015 02/01 A2982
KCRW 291233Z 32004KT 2 1/2SM BR BKN009 OVC015 02/01 A2982 RMK AO2 CIG RGD T00220006
KCRX 291155Z AUTO 00000KT 10SM CLR M00/M01 A2999 RMK AO2
KCRX 291215Z AUTO 00000KT 10SM CLR M00/M01 A2999 RMK AO2
KCRX 291235Z AUTO 00000KT 10SM CLR M01/M01 A3000 RMK AO2
KCSG 291151Z AUTO 31009KT 10SM OVC030 05/01 A2985 RMK AO2 SLP107 70024 T00500006 10072 20050 53004
KCSM 291153Z AUTO 27006KT 10SM CLR 06/M03 A2993 RMK AO2 SLP133 T00561033 10061 20039 56007
KCSQ 291155Z AUTO 22006KT 10SM FEW075 FEW100 M00/M07 A2980 RMK AO2
KCSQ 291215Z AUTO 22004KT 10SM BKN080 M00/M07 A2980 RMK AO2
KCSQ 291235Z AUTO 18003KT 10SM OVC075 00/M06 A2980 RMK AO2
KCSV 291153Z AUTO 35007KT 10SM OVC015 M01/M03 A2984 RMK AO2 SLP112 70023 T10061028 10011 21006 58001 PWINO FZRANO $
KCSV 291201Z AUTO 33009G16KT 10SM OVC014 00/M03 A2984 RMK AO2 T00001028 PWINO FZRANO $
KCSV 291234Z AUTO 34006G14KT 10SM OVC015 00/M03 A2985 RMK AO2 T00001033 PWINO FZRANO $
KCTB 291154Z AUTO 34017KT 10SM FEW013 SCT043 OVC049 02/01 A3015 RMK AO2 PK WND 34028/1112
KCTB 291156Z AUTO 34016KT 10SM FEW013 FEW041 OVC049 02/01 A3015 RMK AO2 PK WND 34028/1112 SLP211 60000 T00220011 10083 20022 51015
KCTJ 291155Z AUTO 32013G24KT 260V350 10SM OVC019 02/M01 A2986 RMK AO2 T00201013 10036 20020
KCTJ 291215Z AUTO 33012G18KT 10SM OVC019 02/M01 A2986 RMK AO2 T00201012
KCTJ 291235Z AUTO 33009G18KT 10SM OVC017 02/M01 A2987 RMK AO2 T00171012
KCTY 291155Z AUTO 31010KT 10SM CLR 07/04 A2988 RMK AO2 T00710038 10198 20071 70001
KCTY 291215Z AUTO 31009KT 10SM CLR 07/04 A2989 RMK AO2 T00710040
KCTY 291235Z AUTO 30011G19KT 10SM CLR 07/04 A2989 RMK AO2 T00740041
KCTZ 291145Z AUTO 00000KT 4SM CLR 18/18 A2960 RMK AO2 T01750175
KCTZ 291205Z AUTO 00000KT 3SM 18/18 A2960 RMK AO2 SKY OBSCURED T01760176
KCTZ 291225Z AUTO 00000KT 4SM CLR 18/18 A2960 RMK AO2 T01780178
KCUB 291153Z AUTO 23008G15KT 10SM BKN012 15/12 A2961 RMK AO2 SLP025 T01500122 10189 20150 55004
KCUH 291155Z AUTO 00000KT 10SM CLR M01/M03 A2989 RMK AO2 T10071033 10030 21009
KCUH 291215Z AUTO 00000KT 10SM CLR M01/M03 A2988 RMK AO2 T10121030
KCUH 291235Z AUTO 00000KT 10SM CLR M01/M03 A2989 RMK AO2 T10091031
KCUL 291155Z AUTO 00000KT 10SM OVC037 02/M01 A2996 RMK AO2 T00221013 10032 20021
KCUL 291215Z AUTO 27003KT 10SM OVC039 02/M01 A2997 RMK AO2 T00211009
KCUL 291235Z AUTO 00000KT 10SM OVC039 02/M01 A2997 RMK AO2 T00221007
KCUT 291153Z AUTO VRB06KT 10SM CLR 11/M04 A2978 RMK AO2 SLP053 T01061044 10106 20061 56017
KCVB 291155Z AUTO 31006KT 10SM CLR 02/M03 A3016 RMK AO2 T00201026 10035 20017
KCVB 291215Z AUTO 31006KT 10SM CLR 02/M03 A3016 RMK AO2 T00191026
KCVB 291235Z AUTO 31006KT 10SM CLR 02/M03 A3016 RMK AO2 T00171027
KCVC 291155Z AUTO 31011G21KT 10SM OVC022 05/01 A2974 RMK AO2
KCVC 291215Z AUTO 29013G22KT 10SM OVC024 05/01 A2974 RMK AO2
KCVC 291235Z AUTO 30014G19KT 10SM OVC024 05/00 A2975 RMK AO2
KCVG 291152Z 33010KT 8SM -DZ SCT011 BKN017 OVC023 02/01 A2987 RMK AO2 RAB36E43DZB43 SLP119 P0000 60000 T00220011 10033 20022 50002
KCVG 291152Z COR 33010KT 8SM -DZ SCT011 BKN017 OVC023 02/01 A2987 RMK AO2 RAB36E43DZB43 SLP119 P0000 60000 T00220011 10033 20022 50002
KCVH 291150Z AUTO 13004KT 1/4SM FG OVC001 09/08 A2992 RMK A01
KCVH 291210Z AUTO 13004KT 1 1/4SM BR OVC001 09/08 A2992 RMK A01
KCVH 291230Z AUTO 00000KT 1 1/4SM BR OVC001 09/08 A2991 RMK A01
KCVN 291156Z AUTO 28005KT 10SM 01/M04 A3007 RMK AO2 SLP186 T00061044 10061 20006 56008 FZRANO $
KCVO 291152Z AUTO 24003KT 5SM BR SCT004 OVC014 11/10 A3000 RMK AO2
KCVO 291156Z AUTO 24003KT 4SM BR BKN004 OVC014 11/11 A3000 RMK AO2 SLP160 T01060106 10111 20083 56004
KCVO 291209Z AUTO 00000KT 2SM -RA BR BKN004 OVC014 11/11 A3001 RMK AO2 RAB05 P0000
KCVS 291158Z 27008KT 10SM CLR 04/M06 A3007 RMK AO2A SLP168 T00411062 10057 20039 57009 $
KCVW 291200Z AUTO 29003KT 10SM CLR 06/04 A3010 RMK A01
KCVW 291220Z AUTO 28003KT 10SM CLR 06/04 A3011 RMK A01
KCVW 291240Z AUTO 00000KT 10SM CLR 06/04 A3011 RMK A01
KCVX 291154Z AUTO 00000KT 10SM SCT028 BKN041 OVC049 03/00 A2986 RMK AO2 T00330000
KCVX 291214Z AUTO 00000KT 10SM SCT029 SCT034 BKN040 04/00 A2986 RMK AO2 T00351002
KCVX 291234Z AUTO 00000KT 7SM BKN029 BKN038 BKN043 03/00 A2986 RMK AO2 T00260001
KCWA 291150Z 17004KT 10SM SCT250 M06/M06 A2983
KCWC 291155Z AUTO 24009KT 10SM CLR 08/M08 A2998 RMK AO2 T00761082 10076 20056
KCWC 291215Z AUTO 25006KT 10SM CLR 08/M08 A2998 RMK AO2 T00781077
KCWC 291235Z AUTO 24008KT 10SM CLR 08/M08 A2998 RMK AO2 T00781078
KCWI 291156Z AUTO 00000KT 10SM CLR M04/M06 A2991 RMK AO2 SLP155 T10441056 10006 21056 56009 FZRANO
KCWN 291158Z AUTO 22004KT 10SM CLR 10/M09 A2999 RMK AO2 SLP028 T00981088 10100 20069 57007 $
KCWV 291155Z AUTO 24011G16KT 10SM OVC008 11/09 A2972 RMK AO2 T01100090 10199 20110
KCWV 291215Z AUTO 24009G15KT 10SM OVC008 11/09 A2972 RMK AO2 T01060085
KCWV 291235Z AUTO 26014G17KT 10SM SCT010 OVC015 10/07 A2973 RMK AO2 T01010068
KCXE 291155Z AUTO 12003KT 10SM OVC005 16/16 A2960 RMK AO1 60013 70037 T01620162 10163 20159
KCXE 291215Z AUTO 13003KT 10SM OVC003 16/16 A2959 RMK AO1 T01620162
KCXE 291235Z AUTO 16003KT 7SM OVC003 16/16 A2959 RMK AO1 T01620162
KCXO 291153Z 00000KT 10SM CLR M01/M02 A3011 RMK AO2 SLP196 I1000 I6000 T10111017 10006 21017 50002
KCXP 291155Z AUTO 00000KT 10SM CLR 02/M03 A3010 RMK AO2
KCXP 291215Z AUTO 00000KT 10SM CLR 03/M03 A3010 RMK AO2
KCXP 291235Z AUTO 00000KT 10SM CLR 02/M03 A3010 RMK AO2
KCXU 291155Z AUTO 00000KT 10SM CLR 05/04 A2987 RMK AO1 T00480036 10101 20048
KCXU 291215Z AUTO 00000KT 10SM CLR 05/04 A2987 RMK AO1 T00500040
KCXU 291235Z AUTO 00000KT 10SM CLR 06/04 A2987 RMK AO1 T00560044
KCXY 291156Z 10006KT 10SM OVC010 16/14 A2966 RMK AO2 SLP043 60000 T01610144 10167 20161 58015
KCYS 291153Z 27014KT 10SM CLR 09/M03 A2994 RMK AO2 PK WND 28030/1115 SLP090 T00891033 10094 20078 56013
KCZL 291155Z AUTO 32015G20KT 10SM OVC041 04/M01 A2984 RMK AO2 T00401014 10058 20038
KCZL 291215Z AUTO 33011G18KT 10SM SCT033 OVC039 04/M01 A2985 RMK AO2 T00371013
KCZL 291235Z AUTO 33007KT 10SM SCT026 BKN033 OVC039 04/M01 A2985 RMK AO2 T00371013
KCZT 291155Z AUTO 00000KT 10SM CLR 02/00 A3014 RMK AO2
KCZT 291215Z AUTO 00000KT 10SM CLR 02/M01 A3014 RMK AO2
KCZT 291235Z AUTO 00000KT 10SM CLR 02/M01 A3014 RMK AO2
KCZZ 291152Z AUTO 05005KT 10/M03 A2990 RMK AO1 SLP096 T01001028 10133 20083 55005
KD07 291156Z AUTO 35005KT 08/01 A2965 RMK AO1 SLP044 7//// T00830011 10106 20083 56004 $
KD25 291155Z AUTO 19005KT 10SM SCT013 M04/M04 A2975 RMK AO2 T10421042 11022 21042
KD25 291215Z AUTO 19008KT 10SM SCT011 M04/M04 A2975 RMK AO2 T10401040
KD25 291235Z AUTO 19006KT 10SM BKN011 M04/M04 A2975 RMK AO2 T10381038
KD39 291153Z AUTO 14006KT 10SM SCT070 00/M03 A2962 RMK AO2 T00001035 10004 20000
KD39 291213Z AUTO 15008KT 10SM CLR 00/M04 A2960 RMK AO2 T00001036
KD39 291234Z AUTO 15008KT 10SM CLR 00/M04 A2960 RMK AO2 T10021037
KD50 291155Z AUTO 31016G23KT 10SM BKN050 BKN110 07/M01 A2972 RMK AO2 PWINO
KD50 291215Z AUTO 32022G35KT 10SM SCT050 SCT110 07/M02 A2974 RMK AO2 PWINO
KD50 291235Z AUTO 32019G25KT 10SM FEW048 FEW120 06/M02 A2975 RMK AO2 PWINO
KD55 291155Z AUTO 30013KT 10SM OVC065 04/03 A2952 RMK AO2
KD57 291155Z AUTO 34013G18KT 9SM SCT032 BKN055 OVC075 08/04 A2969 RMK AO2
KD57 291215Z AUTO 34014KT 8SM SCT027 BKN031 OVC050 07/04 A2971 RMK AO2
KD57 291235Z AUTO 33014G19KT 9SM FEW027 BKN032 OVC050 07/04 A2972 RMK AO2
KD60 291155Z AUTO 32012G18KT 10SM BKN110 06/01 A2971 RMK AO2
KD60 291215Z AUTO 32014KT 10SM BKN110 06/01 A2973 RMK AO2
KD60 291235Z AUTO 32014KT 10SM BKN110 06/01 A2973 RMK AO2
KD73 291155Z AUTO 29012G17KT 10SM BKN022 04/00 A2973 RMK AO2 T00420002 10060 20041 70106
KD73 291215Z AUTO 29011G20KT 10SM SCT022 04/00 A2973 RMK AO2 T00410002
KD73 291235Z AUTO 30012G21KT 10SM SCT022 04/00 A2974 RMK AO2 T00430000
KD95 291152Z AUTO 00000KT 10SM SCT016 BKN038 03/02 A2984 RMK AO2 T00280021 10043 20028
KD95 291213Z AUTO 24004KT 10SM BKN038 03/03 A2984 RMK AO2 T00290025
KD95 291232Z AUTO 00000KT 10SM OVC040 03/03 A2984 RMK AO2 T00320027
KDAA 291156Z AUTO 00000KT 3SM BR FEW013 16/15 A2961 RMK AO2 RAB07E17 SLP030 P0000 60000 T01620154 10175 20144 57021 $
KDAA 291201Z AUTO 30003KT 1 3/4SM BR SCT013 16/15 A2961 RMK AO2 VIS 1 3/4V5 SLP030 $
KDAA 291206Z AUTO 00000KT 4SM BR BKN012 16/16 A2961 RMK AO2 SLP030 $
KDAA 291231Z AUTO 00000KT 10SM BKN009 OVC013 17/16 A2961 RMK AO2 SLP030 $
KDAA 291241Z AUTO 00000KT 10SM OVC012 17/16 A2961 RMK AO2 SLP030 $
KDAB 291150Z 25005KT 10SM SCT005 SCT011 BKN070 20/19 A2967
KDAB 291150Z 25005KT 10SM SCT005 SCT011 BKN070 20/19 A2967 RMK AO2 $
KDAB 291153Z 25006KT 10SM SCT005 SCT011 BKN070 20/19 A2967 RMK AO2 SLP047 60000 70008 T02000189 10217 20194 51002 $
KDAB 291205Z 25006KT 10SM BKN005 BKN010 BKN070 20/20 A2968
KDAB 291205Z 25006KT 10SM BKN005 BKN010 BKN070 20/20 A2968 RMK AO2 T02000200 $
KDAG 291150Z AUTO 26006KT 10SM CLR 13/M06 A2991 RMK AO2 SLP109 T01331056 10194 20128 56004 $
KDAL 291153Z 22003KT 10SM CLR 06/M03 A3002 RMK AO2 SLP164 T00611033 10078 20044 58015 $
KDAN 291153Z AUTO VRB04KT 8SM -RA OVC004 16/16 A2958 RMK AO2 RAB24 CIG 003V007 SLP007 P0000 60000 70001 T01610161 10161 20156 56015
KDAN 291221Z AUTO 00000KT 8SM OVC005 16/16 A2957 RMK AO2 RAE1156 CIG 004V008 P0000 T01610161
KDAW 291151Z AUTO 13003KT 6SM BR BKN003 OVC060 13/12 A2995 RMK AO2 SLP139 60000 T01280117 10128 20100 53003
KDAW 291209Z AUTO 13004KT 6SM BR FEW004 SCT050 OVC060 13/12 A2995 RMK AO2 T01330117
KDAY 291156Z 29006KT 10SM OVC034 02/M01 A2988 RMK AO2 SLP123 T00221011 10033 20022 50002
KDBN 291155Z AUTO 31009KT 10SM OVC016 05/02 A2978 RMK AO2
KDBN 291215Z AUTO 31010G17KT 10SM OVC018 05/02 A2978 RMK AO2
KDBN 291235Z AUTO 31011G16KT 10SM OVC018 05/02 A2979 RMK AO2
KDBQ 291153Z AUTO 18004KT 10SM CLR M03/M05 A2986 RMK AO2 SLP124 T10331050 10000 21050 57014
KDBQ 291233Z 19005KT 10SM FEW110 M03/M05 A2986
KDBQ 291233Z 19005KT 10SM FEW110 M03/M05 A2986 RMK AO2 T10331050
KDCA 291152Z 14006KT 10SM BKN010 BKN019 OVC110 18/17 A2963 RMK AO2 RAB04E46 SLP032 P0000 60013 70013 T01830167 10189 20178 56019
KDCM 291155Z AUTO 24006KT 10SM OVC007 14/14 A2959 RMK AO2
KDCM 291215Z AUTO 24003KT 10SM OVC005 13/13 A2959 RMK AO2
KDCU 291153Z AUTO 34011KT 10SM OVC031 03/M02 A2995 RMK AO2 SLP143 T00331017 10044 20033 52004
KDCY 291155Z AUTO 00000KT 10SM OVC035 02/M02 A2994 RMK AO2 T00171021 10026 20016
KDCY 291215Z AUTO 00000KT 10SM BKN029 OVC035 02/M02 A2994 RMK AO2 T00181023
KDCY 291235Z AUTO 30003KT 10SM OVC029 02/M03 A2994 RMK AO2 T00201029
KDDC 291152Z AUTO 27008KT 10SM CLR 04/01 A2988 RMK AO2 SLP118 T00440011 10050 20028 56006
KDDH 291154Z AUTO 15020G28KT 5SM -RA BKN060 OVC100 16/12 A2981 RMK AO2 PK WND 16028/1150 RAE19B49 SLP094 P0000 60000 T01610122 10172 20150 56007
KDEC 291154Z 27004KT 10SM CLR M01/M03 A2994 RMK AO2 SLP144 T10111033 10022 21011 58003
KDED 291155Z AUTO 26005KT 10SM SCT005 OVC011 20/19 A2969 RMK AO2
KDED 291215Z AUTO 27009KT 7SM BKN005 OVC011 20/19 A2969 RMK AO2
KDED 291235Z AUTO 27013G16KT 10SM BKN007 OVC011 20/19 A2970 RMK AO2
KDEH 291155Z AUTO 16007KT 10SM FEW031 SCT040 BKN047 M02/M04 A2981 RMK AO2
KDEH 291215Z AUTO 16007KT 10SM FEW031 FEW039 BKN120 M02/M04 A2980 RMK AO2
KDEH 291235Z AUTO 16009KT 10SM BKN100 OVC120 M02/M04 A2980 RMK AO2
KDEN 291153Z 22012KT 10SM CLR 06/M04 A2995 RMK AO2 SLP112 T00611044 10072 20061 56012
KDEQ 291153Z AUTO 00000KT 10SM CLR M04/M04 A3003 RMK AO2 SLP170 I1000 I6001 T10391039 11028 21044 58006 $
KDET 291153Z 29004KT 10SM OVC047 04/02 A2984 RMK AO2 SLP110 T00390022 10050 20033 55001
KDEW 291147Z AUTO 01003KT 3/4SM BR VV002 M02/M03 A3002 RMK AO2 I1000
KDEW 291148Z AUTO 01003KT 3/4SM BR VV002 M02/M03 A3002 RMK AO2 SLP176 I1000 I6001 T10221028 10006 21022 53000
KDEW 291221Z AUTO 06003KT 1 1/4SM BR SCT002 M01/M01 A3002 RMK AO2 I1000 T10061006
KDEW 291225Z AUTO 00000KT 3SM BR SCT002 M01/M01 A3002 RMK AO2 I1000 T10111011
KDEW 291238Z AUTO 05003KT 1 3/4SM BR CLR M02/M02 A3002 RMK AO2 VIS 1/2V5 I1000 T10171022
KDFI 291153Z AUTO 23004KT 10SM OVC050 03/M01 A2987 RMK AO2 SLP121 T00281006 10033 20028 55001
KDFW 291153Z 20008KT 10SM CLR 04/M04 A2999 RMK AO2 SLP155 T00441039 10061 20022 58016
KDGW 291153Z AUTO 29012G17KT 10SM CLR 10/00 A2986 RMK AO2 SLP082 T01000000 10100 20011 56013 $
KDHN 291153Z AUTO 30010KT 10SM CLR 04/03 A2992 RMK AO2 SLP132 70053 T00390028 10072 20039 53007 $
KDHT 291153Z AUTO 27012KT 10SM CLR 06/M02 A3000 RMK AO2 SLP137 T00611017 10072 20033 56009
KDIJ 291156Z AUTO 03003KT 10SM CLR M01/M03 A3011 RMK AO2 SLP191 6//// 7//// T10111033 10017 21017 56012
KDIK 291156Z AUTO 33017G22KT 10SM BKN049 OVC060 08/04 A2972 RMK AO2 PK WND 33031/1117 RAB24E52 SLP071 P0000 60000 T00780039 10100 20078 53024
KDKB 291155Z AUTO 29003KT 10SM OVC037 00/M03 A2989 RMK AO2 T10021026 10015 21002
KDKB 291215Z AUTO 29004KT 10SM BKN037 00/M03 A2989 RMK AO2 T10051028
KDKB 291235Z AUTO 29004KT 10SM SCT037 M01/M03 A2989 RMK AO2 T10101030
KDKK 291153Z AUTO 09008KT 10SM BKN020 OVC032 04/03 A2982 RMK AO2 RAE28 SLP103 P0001 60006 70049 T00440033 10056 20044 56004
KDKR 291155Z AUTO 00000KT 10SM M02/M03 A3013 RMK AO2
KDKR 291215Z AUTO 00000KT 10SM M02/M03 A3013 RMK AO2
KDKR 291235Z AUTO 00000KT 10SM M02/M03 A3012 RMK AO2
KDKX 291155Z AUTO VRB04KT 9SM BKN015 OVC020 03/01 A2984 RMK A01
KDKX 291215Z AUTO VRB04KT 9SM BKN015 BKN019 OVC039 03/01 A2984 RMK A01
KDKX 291235Z AUTO VRB04KT 10SM FEW014 SCT019 OVC038 03/02 A2984 RMK A01
KDLF 291201Z 06006KT 10SM CLR 02/M03 A3012 RMK AO2A SLP201 T00181031 $
KDLH 291155Z 16008KT 10SM OVC060 M03/M04 A2966 RMK AO2 SLP065 T10331044 11033 21050 56023
KDLL 291155Z AUTO 00000KT 10SM CLR M05/M05 A2986 RMK AO2 T10461055 11022 21046
KDLL 291215Z AUTO 00000KT 10SM CLR M05/M06 A2986 RMK AO2 T10511060
KDLL 291235Z AUTO 19003KT 10SM CLR M04/M05 A2986 RMK AO2 T10451050
KDLN 291153Z AUTO 23009KT 10SM CLR 06/M02 A2998 RMK AO2 SLP125 T00561022 10094 20056 56008
KDLO 291155Z AUTO 00000KT 10SM CLR 09/06 A2986 RMK AO2 T00910055 10151 20090
KDLO 291215Z AUTO 14003KT 10SM CLR 09/05 A2986 RMK AO2 T00900053
KDLO 291235Z AUTO 00000KT 10SM CLR 09/05 A2986 RMK AO2 T00900052
KDLP 291155Z AUTO 36022KT 10SM CLR 11/04 A3002 RMK A01
KDLP 291215Z AUTO 35019G26KT 10SM CLR 11/04 A3004 RMK A01
KDLP 291235Z AUTO 36019KT 10SM CLR 11/04 A3005 RMK A01
KDLS 291153Z AUTO 00000KT 4SM BR CLR 04/03 A3002 RMK AO2 SLP168 T00440033 10078 20039 51006
KDLZ 291157Z AUTO 00000KT 10SM SCT010 OVC039 02/01 A2985 RMK AO2
KDLZ 291216Z AUTO 32005KT 10SM OVC039 02/01 A2984 RMK AO2
KDLZ 291236Z AUTO 00000KT 10SM OVC039 02/00 A2985 RMK AO2
KDMA 291158Z 14010KT 10SM CLR 17/M03 A2993 RMK AO2A SLP098 T01731035 10185 20146 55001 $
KDMH 291154Z AUTO 18/17 A2962 RMK AO1 SLP029 P0006 60021 70021 T01780172 10183 20178 56035
KDMN 291153Z AUTO 34003KT 10SM CLR 03/M04 A3013 RMK AO2 SLP170 T00281044 10083 20028 56002
KDMO 291153Z AUTO 20008KT 10SM CLR M01/M03 A2993 RMK AO2 SLP142 T10111033 11006 21028 56009
KDMW 291145Z AUTO 14006KT 10SM BKN006 OVC012 17/16 A2964 RMK AO2
KDMW 291205Z AUTO 13006KT 10SM BKN008 OVC012 17/16 A2964 RMK AO2
KDMW 291225Z AUTO 14007KT 10SM BKN008 OVC012 17/16 A2964 RMK AO2
KDNA 291155Z AUTO 30004KT 10SM CLR 05/M04 A3013 RMK AO2 PWINO
KDNA 291215Z AUTO 32004KT 10SM CLR 04/M04 A3013 RMK AO2 PWINO
KDNA 291235Z AUTO 31003KT 10SM CLR 05/M04 A3013 RMK AO2 PWINO
KDNL 291153Z AUTO 26007KT 10SM OVC009 07/05 A2969 RMK AO2 SLP052 60004 70007 T00720050 10167 20072 53008
KDNL 291235Z AUTO 25009G19KT 10SM OVC011 07/04 A2969 RMK AO2 T00720044
KDNN 291155Z AUTO 34012G16KT 10SM BKN025 OVC043 03/00 A2985 RMK AO2
KDNN 291215Z AUTO 33009G15KT 10SM SCT027 BKN031 OVC043 03/00 A2986 RMK AO2
KDNN 291235Z AUTO 33010G19KT 10SM BKN027 OVC038 02/00 A2986 RMK AO2
KDNS 291155Z AUTO 18005KT 10SM BKN070 01/M09 A2976 RMK AO2
KDNS 291215Z AUTO 18004KT 10SM SCT070 01/M09 A2976 RMK AO2
KDNS 291235Z AUTO 18005KT 10SM FEW100 01/M09 A2974 RMK AO2
KDNV 291155Z AUTO 27004KT 10SM OVC037 01/M02 A2990 RMK AO2 T00111019 10016 20011
KDNV 291215Z AUTO 28006KT 10SM OVC037 01/M02 A2990 RMK AO2 T00111020
KDNV 291235Z AUTO 28005KT 10SM OVC037 01/M02 A2990 RMK AO2 T00111021
KDOV 291156Z 11008KT 8SM -RA BKN006 OVC040 18/17 A2969 RMK AO2A RAB19 SLP057 P0001 60001 70001 T01800171 10183 20172 57017 $
KDOV 291229Z 11007KT 4SM RA BR BKN006 OVC040 18/18 A2968 RMK AO2A SLP054 $
KDOV 291244Z 12007KT 5SM -RA BR BKN004 BKN015 OVC040 18/18 A2967 RMK AO2A CIG 004V015 BKN V FEW SLP050 $
KDPA 291152Z 29004KT 10SM OVC045 01/M03 A2989 RMK AO2 SLP127 70001 T00111028 10022 20011 58002
KDPL 291145Z AUTO 00000KT 5SM BR BKN070 OVC080 19/18 A2962 RMK AO2
KDPL 291205Z AUTO 00000KT 2 1/2SM BR SCT080 19/18 A2961 RMK AO2 VIS 1/2V5
KDPL 291225Z AUTO 16003KT 4SM BR CLR 19/18 A2960 RMK AO2
KDQH 291155Z AUTO 31008G14KT 290V350 10SM CLR 06/02 A2980 RMK AO2
KDQH 291215Z AUTO 30007KT 10SM CLR 06/02 A2981 RMK AO2
KDQH 291235Z AUTO 30008KT 10SM CLR 06/02 A2981 RMK AO2
KDRA 291155Z AUTO 00000KT 10SM CLR 12/M02 A2998 RMK AO2 SLP118 T01171017 10161 20106 56006
KDRI 291155Z AUTO 00000KT 10SM CLR 00/00 A3011 RMK AO2 T00001005 10035 20000
KDRI 291215Z AUTO 00000KT 10SM CLR 00/M01 A3011 RMK AO2 T00001006
KDRI 291235Z AUTO 00000KT 10SM CLR 00/00 A3012 RMK AO2 T00001005
KDRM 291153Z AUTO 00000KT 10SM SCT011 SCT014 01/00 A2982 RMK AO2 T00131002 10031 20013
KDRM 291213Z AUTO 00000KT 10SM BKN011 01/00 A2983 RMK AO2 T00081005
KDRM 291234Z AUTO 00000KT 10SM SCT011 00/M01 A2983 RMK AO2 T00011007
KDRO 291153Z AUTO 05003KT 10SM CLR M03/M07 A3015 RMK AO2 SLP196 T10331072 10028 21039 55003
KDRT 291153Z AUTO 00000KT 10SM CLR 02/M02 A3012 RMK AO2 SLP193 T00221017 10072 20017 56003
KDSM 291154Z 18004KT 10SM BKN090 OVC120 01/M06 A2980 RMK AO2 SLP099 T00111061 10017 21022 55018
KDSV 291154Z AUTO 32005KT 4SM RA BR BKN010 BKN016 OVC031 06/04 A2982 RMK AO2 SLP109 P0009 60046 70076 T00560044 10072 20050 58002 $
KDSV 291202Z AUTO 33005KT 4SM RA BR BKN009 BKN016 OVC031 06/04 A2982 RMK AO2 P0002 T00560039 $
KDSV 291224Z AUTO 32005KT 4SM RA BR FEW007 SCT012 OVC039 06/04 A2982 RMK AO2 P0006 T00560044 $
KDTA 291155Z AUTO 00000KT 10SM CLR 03/00 A3012 RMK AO1
KDTA 291215Z AUTO 00000KT 10SM CLR 03/00 A3012 RMK AO1
KDTA 291235Z AUTO 00000KT 10SM CLR 01/M01 A3011 RMK AO1
KDTL 291153Z AUTO 17007KT 10SM CLR 01/M03 A2954 RMK AO2
KDTL 291214Z AUTO 17004KT 10SM CLR 01/M03 A2955 RMK AO2
KDTL 291233Z AUTO 19007KT 10SM CLR 02/M02 A2954 RMK AO2
KDTN 291153Z A3008 RMK AO2 SLPNO 54000 $
KDTN 291153Z COR 0000 10SM CLR -01/-01 A3007
KDTN 291219Z COR 0000 10SM CLR -01/-02 A3008
KDTO 291153Z 20006KT 10SM CLR 03/M05 A2999 RMK AO2 SLP155 T00331050 10033 21011 58019
KDTS 291153Z AUTO 32011G17KT 10SM CLR 07/02 A2995 RMK AO2 SLP142 70005 T00720017 10100 20072 53008
KDTW 291153Z 27004KT 9SM OVC040 03/02 A2986 RMK AO2 SLP115 T00330017 10044 20033 55000 $
KDUA 291155Z AUTO 19003KT 10SM 00/M03 A2998 RMK AO2
KDUA 291215Z AUTO 00000KT 10SM 00/M02 A2997 RMK AO2
KDUA 291235Z AUTO 00000KT 10SM 00/M02 A2997 RMK AO2
KDUB 291155Z AUTO 32016KT 10SM CLR 03/M04 A3003 RMK AO2
KDUB 291215Z AUTO 32014KT 10SM CLR 03/M05 A3002 RMK AO2
KDUB 291235Z AUTO 32014KT 10SM CLR 03/M05 A3002 RMK AO2
KDUC 291155Z AUTO 22003KT 10SM CLR 03/M06 A2995 RMK AO2 T00331061 10052 20032
KDUC 291215Z AUTO 24003KT 10SM CLR 03/M06 A2995 RMK AO2 T00291057
KDUC 291235Z AUTO 23003KT 10SM CLR 03/M06 A2995 RMK AO2 T00291056
KDUG 291156Z AUTO 11005KT 10SM CLR 06/M05 A3006 RMK AO2 SLP135 T00611050 10122 20039 55000
KDUH 291154Z AUTO 00000KT 10SM OVC046 04/00 A2986 RMK AO2 T00380000 10050 20038
KDUH 291214Z AUTO 29003KT 10SM OVC046 04/00 A2986 RMK AO2 T00380000
KDUH 291235Z AUTO 26004KT 10SM OVC046 04/00 A2986 RMK AO2 T00380000
KDUJ 291153Z AUTO 32006KT 7SM -RA BKN005 OVC048 04/02 A2971 RMK AO2 SLP070 P0010 60069 70129 T00390022 10039 20033 56016 $
KDUJ 291244Z AUTO 30005KT 2SM -RA BR OVC005 04/03 A2972 RMK AO2 RAE1156B25 P0003 T00390028 $
KDUX 291155Z AUTO 26009KT 10SM CLR 05/M03 A2998 RMK AO2 T00521030 10064 20033
KDUX 291215Z AUTO 26008KT 10SM CLR 05/M03 A2998 RMK AO2 T00511030
KDUX 291235Z AUTO 25008KT 10SM CLR 05/M03 A2998 RMK AO2 T00451028
KDVK 291155Z AUTO 32005KT 10SM OVC030 02/00 A2989 RMK AO2
KDVK 291215Z AUTO 32004KT 10SM OVC030 02/00 A2989 RMK AO2
KDVK 291235Z AUTO 32004KT 10SM OVC028 02/00 A2990 RMK AO2
KDVL 291156Z AUTO 30008KT 10SM OVC070 06/02 A2954 RMK AO2 SLP028 60000 T00610017 10072 20050 53001
KDVN 291152Z AUTO 14004KT 10SM CLR M03/M04 A2991 RMK AO2 SLP133 I6002 T10331039 11028 21061 58010
KDVO 291155Z AUTO 22004KT 3SM BR OVC003 10/10 A2990 RMK AO2
KDVO 291215Z AUTO 23004KT 1 1/2SM BR OVC003 10/10 A2991 RMK AO2
KDVO 291235Z AUTO 23003KT 1/2SM BR OVC002 10/10 A2991 RMK AO2
KDVP 291157Z AUTO 16005KT 10SM CLR 02/M05 A2966 RMK AO2 T00201055 10030 20015
KDVP 291217Z AUTO 16005KT 10SM SCT100 02/M05 A2964 RMK AO2 T00201052
KDVP 291237Z AUTO 19004KT 10SM SCT070 SCT100 03/M05 A2965 RMK AO2 T00251051
KDVT 291153Z AUTO 02006KT 10SM CLR 19/M03 A2987 RMK AO2 SLP094 T01941033 10228 20183 53003
KDWH 291153Z 00000KT 10SM CLR 01/00 A3012 RMK AO2 SLP200 T00110000 10039 20011 53002
KDWU 291156Z AUTO 10SM 03/01 RMK AO2 RAB11E20 SLPNO P0000 60000 70030 T00330011 10039 20033 $
KDWX 291155Z AUTO 00000KT 10SM CLR M03/M05 A3016 RMK AO2 T10321051 10212 21101
KDWX 291215Z AUTO 00000KT 10SM CLR M03/M05 A3016 RMK AO2 T10341053
KDWX 291235Z AUTO 00000KT 10SM CLR M04/M06 A3016 RMK AO2 T10371056
KDXR 291150Z 14012G16KT 10SM -RA OVC009 17/15 A2982 RMK AO2 P0008
KDXR 291153Z 14009G18KT 9SM -RA OVC009 17/15 A2982 RMK AO2 CIG 007V013 SLP096 P0008 60025 70025 T01670150 10172 20156 56014
KDXX 291154Z AUTO 19006KT 10SM CLR 04/M02 A2960 RMK AO2
KDXX 291214Z AUTO 18005KT 10SM CLR 05/M01 A2959 RMK AO2
KDXX 291234Z AUTO 17005KT 10SM CLR 06/M01 A2958 RMK AO2
KDYA 291155Z AUTO 29004KT 10SM 01/00 A3000 RMK AO2 T00121002 10050 20011
KDYA 291215Z AUTO 29004KT 10SM 01/00 A3000 RMK AO2 T00111003
KDYA 291235Z AUTO 28003KT 10SM 01/00 A3001 RMK AO2 T00121002
KDYB 291155Z AUTO 24004KT 10SM SCT012 SCT032 17/16 A2961 RMK AO1
KDYB 291215Z AUTO 22003KT 10SM SCT012 BKN034 17/16 A2961 RMK AO1
KDYB 291235Z AUTO 23003KT 10SM BKN017 BKN022 OVC037 17/16 A2961 RMK AO1
KDYL 291154Z AUTO 00000KT 10SM OVC004 15/ A2974 RMK AO2 SLP069 T0150 10156 20144 56017 TSNO $
KDYR 291156Z AUTO 26004KT 10SM CLR 00/M01 A3001 RMK AO2 SLP178 6//// 7//// T00001006 10044 20000 53003 FZRANO PNO $
KDYS 291156Z AUTO 00000KT 10SM CLR 04/M10 A3004 RMK AO2 SLP172 T00371097 10084 20028 55009 FZRANO $
KDYT 291154Z AUTO 18006KT 10SM OVC075 M01/M03 A2972 RMK AO2
KDYT 291214Z AUTO 19006KT 10SM OVC075 M01/M03 A2971 RMK AO2
KDYT 291233Z AUTO 19008KT 10SM OVC065 M01/M03 A2970 RMK AO2
KDZB 291155Z AUTO 00000KT 10SM CLR 00/M02 A3011 RMK AO2 T10051024 10020 21006
KDZB 291215Z AUTO 00000KT 10SM CLR 00/M02 A3011 RMK AO2 T10051024
KDZB 291235Z AUTO 00000KT 10SM CLR 00/M02 A3011 RMK AO2 T10051025
KE16 291155Z AUTO 00000KT 10SM -RA OVC006 12/09 A2992 RMK AO2
KE16 291215Z AUTO 16003KT 10SM -RA OVC006 12/10 A2992 RMK AO2
KE16 291235Z AUTO 00000KT 7SM -RA OVC006 12/10 A2992 RMK AO2
KE38 291155Z AUTO 00000KT 10SM CLR 03/M09 A3019 RMK AO2 T00281087 10070 20019
KE38 291215Z AUTO 00000KT 10SM CLR 05/M09 A3019 RMK AO2 T00481087
KE38 291235Z AUTO 24007KT 10SM CLR 04/M08 A3019 RMK AO2 T00361085
KE80 291155Z AUTO 00000KT 10SM CLR 02/M03 A3015 RMK AO2 T00231035 10060 20006
KE80 291215Z AUTO 00000KT 10SM CLR 00/M04 A3015 RMK AO2 T00041039
KE80 291235Z AUTO 00000KT 10SM CLR 01/M03 A3015 RMK AO2 T00111035
KEAN 291155Z AUTO 21012G20KT 10SM CLR 12/M02 A2986 RMK AO2 T01211020 10132 20108
KEAN 291215Z AUTO 23015G21KT 10SM CLR 12/M02 A2986 RMK AO2 T01221020
KEAN 291235Z AUTO 22013G24KT 10SM CLR 13/M02 A2986 RMK AO2 T01271023
KEAR 291156Z AUTO 24007KT 10SM CLR 03/M04 A2975 RMK AO2 SLP080 T00281044 10039 20000 58018
KEAT 291155Z AUTO 32004KT 10SM CLR 03/03 A3004 RMK AO2 SLP176 T00330028 10072 20033 51007
KEAU 291156Z 16007KT 10SM CLR M03/M05 A2979 RMK AO2 SLP099 T10281050 11006 21033 58013
KEBA 291155Z AUTO 26007KT 10SM CLR 05/05 A2969 RMK AO2 T00510050 10100 20051
KEBA 291215Z AUTO 26007KT 10SM CLR 05/05 A2969 RMK AO2 T00500048
KEBA 291235Z AUTO 26010KT 10SM CLR 05/05 A2968 RMK AO2 T00520047
KEBG 291155Z AUTO 00000KT 10SM CLR A3016 RMK AO2
KEBG 291215Z AUTO 01003KT 10SM CLR A3016 RMK AO2
KEBG 291235Z AUTO 00000KT 10SM CLR A3016 RMK AO2
KEBS 291155Z AUTO 15006KT 10SM OVC075 01/M06 A2974 RMK AO2
KEBS 291215Z AUTO 16006KT 10SM FEW065 BKN075 OVC100 00/M06 A2973 RMK AO2
KEBS 291235Z AUTO 16007KT 10SM OVC075 01/M05 A2973 RMK AO2
KECG 291154Z 21010KT 5SM -RA BR FEW015 BKN047 OVC055 19/19 A2965 RMK AO2 SLP039 P0004 60054 70054 T01940194 10217 20194 56008
KECP 291153Z 30007KT 10SM CLR 04/03 A2991 RMK AO2 SLP141 70010 T00440028 10089 20044 51009
KECS 291155Z AUTO 00000KT 10SM CLR 01/M02 A2980 RMK AO2
KECS 291215Z AUTO 35005KT 10SM CLR 02/M02 A2980 RMK AO2
KECS 291235Z AUTO 33006KT 10SM CLR 02/M02 A2980 RMK AO2
KEDC 291155Z AUTO 00000KT 10SM CLR 03/M01 A3012 RMK AO2
KEDC 291215Z AUTO 00000KT 10SM CLR 03/00 A3011 RMK AO2
KEDC 291235Z AUTO 00000KT 10SM CLR 03/00 A3011 RMK AO2
KEDE 291145Z AUTO 00000KT 10SM SCT060 BKN070 OVC080 21/19 A2963 RMK AO2 T02050192
KEDE 291205Z AUTO 00000KT 10SM BKN065 OVC075 20/19 A2964 RMK AO2 T02040191
KEDE 291225Z AUTO 16008KT 10SM BKN065 OVC095 20/19 A2964 RMK AO2 T02020187
KEDJ 291150Z AUTO 00000KT 10SM SCT015 OVC034 01/00 A2987 RMK AO1
KEDJ 291210Z AUTO 33005KT 10SM FEW015 OVC034 01/00 A2986 RMK AO1
KEDJ 291230Z AUTO 31004KT 10SM OVC036 01/00 A2987 RMK AO1
KEDN 291155Z AUTO 31003KT 10SM CLR 03/02 A2991 RMK AO2 70007 T00260020 10057 20026
KEDN 291215Z AUTO 32003KT 10SM CLR 03/02 A2991 RMK AO2 T00250018
KEDN 291235Z AUTO 31004KT 10SM CLR 03/02 A2991 RMK AO2 T00250019
KEDU 291200Z AUTO 00000KT 7SM CLR 10/09 A2987 RMK AO1
KEDU 291220Z AUTO 00000KT 3SM CLR 10/09 A2986 RMK AO1
KEDU 291240Z AUTO 00000KT 2SM CLR 09/08 A2987 RMK AO1
KEDW 291158Z AUTO 00000KT 10SM CLR 08/M11 A2992 RMK AO2 SLP117 T00761107 10139 20076 58001
KEED 291156Z AUTO 00000KT 10SM CLR 18/M02 A2985 RMK AO2 SLP083 T01831017 10233 20178 55001 $
KEEN 291156Z AUTO 00000KT 7SM -RA OVC016 14/13 A2990 RMK AO2 SLP144 P0001 60003 70016 T01390128 10150 20133 55001
KEEN 291229Z AUTO 27003KT 8SM -RA SCT016 BKN039 OVC070 14/13 A2990 RMK AO2 P0000
KEEN 291241Z AUTO 09003KT 5SM -RA BR BKN018 BKN039 OVC065 14/13 A2990 RMK AO2 P0000
KEEO 291153Z AUTO 00000KT 10SM CLR M03/M05 A3016 RMK AO2 SLP194 T10281050 10011 21039 56007
KEET 291153Z AUTO 32009KT 10SM OVC032 04/M01 A2992 RMK AO2 SLP133 70020 T00441006 10050 20028 53005
KEFD 291150Z 00000KT 10SM CLR 06/01 A3014
KEFK 291155Z AUTO 25003KT 10SM OVC020 11/09 A2988 RMK AO2 T01050092 10107 20090
KEFK 291215Z AUTO 00000KT 10SM SCT020 OVC070 11/09 A2988 RMK AO2 T01060094
KEFK 291235Z AUTO 16006KT 10SM BKN022 OVC070 12/11 A2987 RMK AO2 T01180106
KEFT 291155Z AUTO 22005KT 10SM CLR M02/M04 A2987 RMK AO2
KEFT 291215Z AUTO 22005KT 10SM CLR M02/M04 A2986 RMK AO2
KEFT 291235Z AUTO 22004KT 10SM CLR M02/M04 A2987 RMK AO2
KEGI 291156Z AUTO 31009KT 10SM CLR 03/02 A2994 RMK AO2 SLP141 70003 T00340018 10066 20034 52008 FZRANO $
KEGV 291155Z AUTO 00000KT 10SM CLR M04/M04 A2977 RMK AO2 T10371040 11012 21038
KEGV 291215Z AUTO 00000KT 10SM CLR M04/M04 A2977 RMK AO2 T10371040
KEGV 291235Z AUTO 19004KT 10SM CLR M04/M04 A2977 RMK AO2 T10401041
KEHA 291155Z AUTO 26013KT 10SM CLR 09/01 A2994 RMK AO2 6//// 7//// T00860012 10088 20074
KEHA 291215Z AUTO 26012KT 10SM CLR 09/01 A2994 RMK AO2 T00860011
KEHA 291235Z AUTO 26012KT 10SM CLR 09/01 A2994 RMK AO2 T00880010
KEHC 291155Z AUTO 01013KT 10SM FEW032 15/03 A3008 RMK A01
KEHC 291215Z AUTO 36013KT 10SM CLR 15/02 A3009 RMK A01
KEHC 291235Z AUTO 02014KT 10SM CLR 15/03 A3009 RMK A01
KEHO 291145Z AUTO 27007KT 10SM BKN005 OVC036 10/09 A2960 RMK AO2 T01000094
KEHO 291205Z AUTO 28006KT 10SM OVC007 10/09 A2960 RMK AO2 T00980092
KEHO 291225Z AUTO 30006KT 10SM OVC009 10/09 A2960 RMK AO2 T00980086
KEHR 291148Z AUTO 36006KT 10SM OVC030 03/M03 A2997 RMK AO2
KEHR 291156Z AUTO 34005KT 10SM OVC030 03/M03 A2997 RMK AO2 SLP161 60000 T00281033 10033 20017 50000
KEHY 291155Z AUTO 24020G29KT 10SM CLR 07/M03 RMK AO2
KEHY 291215Z AUTO 25023G30KT 10SM CLR 07/M03 RMK AO2
KEHY 291235Z AUTO 25021G32KT 10SM CLR 07/M03 RMK AO2
KEIK 291154Z AUTO 18004KT 10SM CLR 03/M02 A2999 RMK AO2 T00311017
KEIK 291218Z AUTO 00000KT 10SM CLR 04/M02 A2999 RMK AO2 T00401020
KEIK 291236Z AUTO 00000KT 10SM CLR 04/M02 A2998 RMK AO2 T00401017
KEIR 291155Z AUTO 03016KT 10SM FEW031 A3008 RMK A01
KEIR 291215Z AUTO 04011G18KT 10SM CLR A3010 RMK A01
KEIR 291235Z AUTO 04010G17KT 10SM CLR A3009 RMK A01
KEKN 291151Z AUTO 30003KT 6SM RA BR OVC009 02/01 A2973 RMK AO2 SLP083 P0004 60049 70115 T00220006 10050 20022 50002 TSNO
KEKN 291216Z AUTO 31004KT 5SM RA BR SCT009 OVC021 02/00 A2973
KEKN 291216Z AUTO 31004KT 5SM RA BR SCT009 OVC021 02/00 A2973 RMK AO2 P0006 T00220000 TSNO
KEKO 291156Z AUTO 09003KT 10SM CLR M02/M05 A3011 RMK AO2 SLP182 T10171050 10050 21022 58004 $
KEKQ 291156Z AUTO 36011KT 10SM OVC031 03/M02 A2990 RMK AO2 SLP153 7//// T00281017 10028 20022 56002
KEKS 291155Z AUTO 18014KT 10SM CLR 06/M02 A3002 RMK AO2
KEKS 291215Z AUTO 18011KT 10SM CLR 05/M01 A3003 RMK AO2
KEKS 291235Z AUTO 18009KT 10SM CLR 05/M02 A3003 RMK AO2
KEKX 291155Z AUTO 31005KT 10SM SCT011 OVC033 02/00 A2992 RMK AO2 P0001 60004 70024 T00150001 10026 20015
KEKX 291215Z AUTO 32004KT 10SM OVC011 01/00 A2992 RMK AO2 T00120001
KEKX 291235Z AUTO 33004KT 10SM BKN012 SCT018 OVC033 01/00 A2992 RMK AO2 T00100000
KEKY 291156Z AUTO 32007G15KT 10SM OVC030 03/M01 A2993 RMK AO2 SLP156 70014 T00331011 10050 20028 51006
KEKY 291242Z AUTO 32010G17KT 10SM OVC028 03/M02 A2994 RMK AO2
KELA 291155Z AUTO 28004KT 10SM CLR 03/01 A3012 RMK AO2 T00320010 10065 20030
KELA 291215Z AUTO 00000KT 10SM CLR 04/02 A3012 RMK AO2 T00350015
KELA 291235Z AUTO 00000KT 10SM CLR 03/01 A3012 RMK AO2 T00340012
KELD 291153Z AUTO 00000KT 10SM CLR M02/M02 A3008 RMK AO2 SLP185 T10171022 10006 21022 53004 $
KELK 291155Z AUTO 31005KT 10SM CLR 07/M01 A2991 RMK AO2 T00681012 10082 20030
KELK 291215Z AUTO 31006KT 10SM CLR 06/M01 A2992 RMK AO2 T00641008
KELK 291235Z AUTO 31005KT 10SM CLR 07/M01 A2992 RMK AO2 T00651010
KELM 291153Z 26004KT 3SM RA BR OVC010 07/06 A2975 RMK AO2 SLP077 P0020 60052 70060 T00720061 10094 20072 58007
KELM 291201Z 00000KT 2 1/2SM RA BR OVC011 07/07 A2975 RMK AO2 P0003 T00720067
KELM 291211Z 08003KT 4SM RA BR OVC011 07/07 A2975 RMK AO2 P0006 T00720067
KELN 291153Z AUTO 01005KT 8SM CLR 01/M01 A3002 RMK AO2 SLP171 T00061011 10044 20000 53003
KELO 291153Z AUTO 18006KT 10SM OVC060 M03/M04 A2964 RMK AO2
KELO 291213Z AUTO 20003KT 10SM SCT026 OVC060 M03/M04 A2963 RMK AO2
KELO 291234Z AUTO 16007KT 10SM OVC060 M03/M04 A2963 RMK AO2
KELP 291151Z 03004KT 10SM CLR 07/M03 A3012 RMK AO2 SLP163 T00721033 10117 20072 56001
KELY 291153Z AUTO 17013KT 10SM CLR M02/M07 A3016 RMK AO2 SLP168 T10221067 10039 21022 56008
KELZ 291156Z AUTO 00000KT 5SM -RA BR OVC003 04/03 A2979 RMK AO2 SLP095 6//// 7//// T00440033 10056 20044 55002 PNO $
KELZ 291237Z AUTO 03010KT 1 1/2SM -RA BR BKN003 OVC009 04/03 A2977 RMK AO2 VIS 1/2V5 T00390028 PNO $
KELZ 291241Z AUTO 02008KT 1/4SM -RA FG BKN003 OVC007 04/02 A2976 RMK AO2 T00390022 PNO $
KEMK 291155Z AUTO 02012KT 10SM CLR 18/05 A3010 RMK A01
KEMK 291215Z AUTO 36011KT 10SM CLR 18/05 A3010 RMK A01
KEMK 291235Z AUTO 36009G15KT 10SM CLR 18/04 A3011 RMK A01
KEMM 291155Z AUTO 00000KT 10SM CLR 00/M03 A3014 RMK AO2
KEMM 291215Z AUTO 32006KT 10SM CLR 01/M02 A3013 RMK AO2
KEMM 291235Z AUTO 27004KT 10SM CLR 00/M02 A3013 RMK AO2
KEMP 291153Z AUTO 19003KT 10SM CLR M02/M07 A2986 RMK AO2 SLP123 T10171072 10006 21022 56010
KEMV 291155Z AUTO 13003KT 7SM OVC003 16/16 A2962 RMK AO2 P0001
KEMV 291215Z AUTO 15003KT 7SM OVC003 16/16 A2961 RMK AO2
KEMV 291235Z AUTO 14003KT 7SM OVC003 16/16 A2961 RMK AO2
KEND 291156Z AUTO 26008KT 6SM HZ CLR 03/M04 A2987 RMK AO2 VIS 1 5/8 RWY17C SLP122 T00251045 10041 20021 55004 $
KENL 291155Z AUTO 25003KT 10SM CLR M01/M02 A2996 RMK AO2 T10061023 10030 21006
KENL 291215Z AUTO 24003KT 10SM CLR M01/M02 A2996 RMK AO2 T10101023
KENL 291235Z AUTO 23003KT 10SM CLR M02/M03 A2996 RMK AO2 T10211031
KENV 291156Z AUTO 00000KT 10SM CLR 04/M02 A3009 RMK AO2 SLP186 T00391017 10078 20033 56007
KENW 291153Z AUTO 27005KT 10SM OVC055 01/M03 A2988 RMK AO2 SLP123 70001 T00111028 10028 20011 50002
KEOD 291158Z AUTO 00000KT 10SM OVC038 03/00 A2995 RMK AO2 SLP148 T00281004 10037 20028 50001
KEOE 291155Z AUTO 24011G17KT 4SM BR OVC003 08/08 A2966 RMK AO2
KEOE 291215Z AUTO 24011KT 7SM OVC003 08/07 A2966 RMK AO2
KEOE 291235Z AUTO 24012G16KT 7SM OVC003 07/07 A2966 RMK AO2
KEOK 291155Z AUTO 21004KT 10SM CLR M04/M04 A2990 RMK AO2
KEOK 291215Z AUTO 20004KT 10SM FEW120 M04/M04 A2989 RMK AO2
KEOK 291235Z AUTO 00000KT 9SM CLR M03/M04 A2989 RMK AO2
KEPH 291153Z AUTO 05004KT 7SM CLR 03/00 A3001 RMK AO2 SLP168 T00280000 10072 20022 51004
KEQA 291155Z AUTO 20003KT 10SM CLR 01/M06 A2986 RMK AO2
KEQA 291215Z AUTO 20003KT 10SM CLR 01/M06 A2986 RMK AO2
KEQA 291235Z AUTO 19003KT 10SM CLR 00/M05 A2986 RMK AO2
KEQY 291148Z AUTO 23004KT 10SM BKN008 BKN013 OVC018 16/16 A2957 RMK AO2 CIG 005V012 $
KEQY 291153Z AUTO 23008KT 10SM BKN008 OVC014 16/16 A2957 RMK AO2 CIG 005V011 SLP016 T01560156 10172 20150 56007 $
KEQY 291200Z AUTO 25007KT 10SM SCT008 OVC014 16/16 A2956 RMK AO2 T01560156 $
KEQY 291208Z AUTO 25008KT 10SM SCT008 OVC016 16/16 A2956 RMK AO2 T01560156 $
KERI 291151Z 22003KT 9SM -RA FEW028 OVC040 04/02 A2979 RMK AO2 RAB28 SLP095 P0000 60000 70047 T00440022 10044 20039 58009
KERI 291208Z 19004KT 5SM -RA BR BKN026 BKN031 OVC039 04/02 A2979 RMK AO2 P0000 T00440022
KERV 291155Z AUTO 34003KT 10SM CLR M02/M04 A3013 RMK AO2 T10181041 10008 21018
KERV 291215Z AUTO 00000KT 10SM CLR M02/M04 A3013 RMK AO2 T10181041
KERV 291235Z AUTO 00000KT 10SM CLR M02/M04 A3013 RMK AO2 T10181040
KERY 291155Z AUTO 00000KT 10SM SCT002 M03/M04 A2982 RMK AO2 70001 T10321037 11006 21032
KERY 291214Z AUTO 22003KT 10SM CLR M04/M04 A2982 RMK AO2 T10371041
KERY 291234Z AUTO 25003KT 10SM CLR M03/M04 A2982 RMK AO2 T10321036
KESC 291156Z AUTO 29003KT 10SM CLR M05/M06 A2984 RMK AO2 SLP131 T10501056 11028 21050 58004 FZRANO
KESF 291153Z AUTO 00000KT 10SM CLR M01/M01 A3007 RMK AO2 SLP183 I1000 I6000 T10061011 10033 21011 50001
KESN 291150Z 11004KT 3SM +RA SCT009 BKN015 18/17 A2971
KEST 291152Z AUTO 18006KT 10SM OVC085 00/M04 A2970 RMK AO2 SLP071 T00001044 10000 21044 58013
KETB 291155Z AUTO 29005KT 10SM CLR 00/M02 A2986 RMK AO2
KETB 291215Z AUTO 29004KT 10SM CLR M01/M02 A2986 RMK AO2
KETB 291235Z AUTO 00000KT 10SM CLR M01/M02 A2986 RMK AO2
KETH 291156Z AUTO 15008KT 10SM CLR 03/M03 A2958 RMK AO2
KETH 291216Z AUTO 16007KT 10SM SCT080 03/M03 A2958 RMK AO2
KETH 291236Z AUTO 19003KT 10SM CLR 03/M02 A2959 RMK AO2
KETN 291155Z AUTO 00000KT 10SM CLR M01/M06 A3004 RMK AO2 T10101057 10050 21030
KETN 291215Z AUTO 00000KT 10SM CLR 00/M07 A3004 RMK AO2 T10001067
KETN 291235Z AUTO 00000KT 10SM CLR 00/M08 A3005 RMK AO2 T10011075
KEUF 291158Z AUTO VRB04KT 10SM CLR 04/03 A2988 RMK AO2 SLP117 70031 T00390028 10061 20039 53008
KEUG 291154Z AUTO 19004KT 4SM BR OVC007 11/11 A3000 RMK AO2 VIS 2 1/2 RNW 34 SLP159 T01110111 10117 20111 58002 $
KEUL 291156Z AUTO 00000KT 9SM CLR 03/01 A3001 RMK AO2 SLP162 7//// T00280011 10072 20017 58005
KEVB 291147Z 26006KT 10SM OVC004 20/18 A2968
KEVM 291156Z AUTO 16006KT 10SM SCT011 OVC048 M03/M03 A2964 RMK AO2
KEVM 291216Z AUTO 18007KT 10SM BKN046 OVC055 M03/M03 A2964 RMK AO2
KEVM 291235Z AUTO 17006KT 10SM SCT046 OVC055 M03/M03 A2963 RMK AO2
KEVU 291155Z AUTO 20006KT 10SM CLR 01/M17 A2979 RMK AO2
KEVU 291215Z AUTO 21004KT 10SM SCT075 01/M17 A2981 RMK AO2
KEVU 291235Z AUTO 20007KT 10SM SCT075 01/M17 A2980 RMK AO2
KEVV 291154Z 29004KT 10SM OVC030 02/M03 A2997 RMK AO2 SLP150 60000 T00221028 10028 20022 50000
KEVV 291210Z 31003KT 10SM OVC029 02/M03 A2997 RMK AO2 T00221028
KEVV 291224Z 30003KT 10SM OVC031 02/M03 A2996 RMK AO2 T00221028
KEVW 291153Z AUTO 19006KT 10SM CLR 01/M02 A3015 RMK AO2 SLP171 T00111017 10044 20000 56009
KEWB 291153Z 12007KT 10SM FEW090 SCT120 16/13 A2993 RMK AO2 SLP133 T01560128 10156 20100 56003
KEWK 291156Z AUTO 23007KT 10SM CLR 01/M07 A2986 RMK AO2 SLP118 6//// 7//// T00061072 10017 21011 56009 FZRANO PNO $
KEWN 291154Z 00000KT 7SM SCT040 BKN047 BKN080 18/18 A2964 RMK AO2 RAE02B38E51 SLP036 P0001 60060 70060 T01780178 10211 20178 58012
KEWN 291207Z 24004KT 3/4SM -RA BR FEW020 BKN047 OVC080 18/18 A2964 RMK AO2 RAB06 P0007 T01780178
KEWN 291214Z 17007KT 1/4SM +RA FG SCT024 BKN037 OVC080 18/18 A2965 RMK AO2 RAB06 P0020 T01780178
KEWN 291223Z 16005KT 1/2SM +RA FG BKN028 BKN039 OVC080 18/18 A2964 RMK AO2 RAB06 P0031 T01780178
KEWN 291227Z 15004KT 3/4SM +RA BR BKN030 OVC039 18/18 A2964 RMK AO2 RAB06 P0035 T01780178
KEWN 291232Z 14003KT 1/2SM +RA FG BKN028 OVC041 18/18 A2964 RMK AO2 RAB06 P0042 T01780178
KEWR 291151Z 14009KT 10SM BKN007 OVC012 18/16 A2977 RMK AO2 RAB20E32 SLP081 P0000 60001 70001 T01780161 10183 20161 56014
KEXX 291200Z AUTO 00000KT 3SM -DZ SCT010 SCT015 OVC021 16/16 A2956 RMK AO2 T01560156
KEXX 291220Z AUTO 00000KT 2SM BR SCT006 BKN012 OVC024 16/16 A2956 RMK AO2 VIS 1 1/4V4 T01560156
KEXX 291240Z AUTO 00000KT 2 1/2SM -RA SCT003 BKN024 OVC039 16/16 A2956 RMK AO2 VIS 1 1/2V4 P0001 T01560156
KEYE 291153Z AUTO 31004KT 10SM OVC031 02/M05 A2990 RMK AO2 SLP131 7//// T00221050 10028 20022 50000 $
KEYW 291153Z 32014KT 10SM CLR 25/21 A2976 RMK AO2 SLP077 60001 70070 T02500211 10261 20228 53025 $
KEZF 291155Z AUTO 00000KT 10SM SCT012 OVC032 16/16 A2960 RMK AO2 60022 70022 T01610161 10172 20156
KEZF 291215Z AUTO 00000KT 10SM SCT012 OVC032 16/16 A2960 RMK AO2 T01620162
KEZF 291235Z AUTO 12003KT 10SM RA SCT012 OVC030 17/17 A2960 RMK AO2 T01650165
KEZM 291155Z AUTO 30007KT 10SM OVC015 06/00 A2981 RMK AO2 T00600000 10126 20058
KEZM 291215Z AUTO 29010KT 10SM OVC015 06/00 A2981 RMK AO2 T00580000
KEZM 291235Z AUTO 30008G14KT 10SM BKN015 06/00 A2982 RMK AO2 T00550000
KEZS 291155Z AUTO 00000KT 10SM SCT018 M02/M03 A2985 RMK AO2 T10171027 10018 21033
KEZS 291215Z AUTO 00000KT 10SM CLR M02/M03 A2985 RMK AO2 T10171028
KEZS 291235Z AUTO 00000KT 10SM CLR M02/M03 A2984 RMK AO2 T10171027
KF00 291155Z AUTO 19007KT 10SM CLR 02/M03 A2999 RMK AO2 T00201028 10021 21010
KF00 291215Z AUTO 19007KT 10SM CLR 02/M03 A2999 RMK AO2 T00221027
KF00 291235Z AUTO 19007KT 10SM CLR 02/M03 A2998 RMK AO2 T00221027
KF05 291155Z AUTO 23006KT 10SM CLR 05/M08 A2996 RMK AO1 T00501083 10161 20000
KF05 291215Z AUTO 23005KT 10SM CLR 05/M08 A2996 RMK AO1 T00471078
KF05 291235Z AUTO 23005KT 10SM CLR 04/M07 A2996 RMK AO1 T00441073
KF17 291155Z AUTO 00000KT 10SM CLR M01/M03 A3010 RMK AO2 T10151026 10008 21017
KF17 291215Z AUTO 00000KT 10SM CLR M02/M03 A3010 RMK AO2 T10191028
KF17 291235Z AUTO 00000KT 10SM CLR M02/M03 A3010 RMK AO2 T10201031
KF44 291155Z AUTO 00000KT 10SM CLR M03/M03 A3006 RMK AO2
KF44 291215Z AUTO 00000KT 10SM CLR M03/M03 A3006 RMK AO2
KF44 291235Z AUTO 00000KT 10SM CLR M03/M03 A3006 RMK AO2
KF46 291155Z AUTO 21008KT 10SM CLR 03/M04 A3002 RMK AO2 T00331041 10056 20022
KF46 291215Z AUTO 22008KT 10SM CLR 03/M04 A3002 RMK AO2 T00311042
KF46 291235Z AUTO 21008KT 10SM CLR 03/M04 A3002 RMK AO2 T00311042
KF70 291155Z AUTO 00000KT 10SM CLR 12/06 A2989 RMK AO1
KF70 291215Z AUTO 00000KT 10SM CLR 12/06 A2990 RMK AO1
KF70 291235Z AUTO 00000KT 10SM CLR 11/06 A2990 RMK AO1
KFAF 291148Z AUTO 15004KT 10SM -RA FEW100 19/18 A2958 RMK AO2 RAE38DZB38E42RAB47 SLP020 $
KFAF 291156Z AUTO 16004KT 10SM SCT100 18/18 A2959 RMK AO2 RAE38DZB38E42RAB47E56 SLP023 $
KFAF 291158Z AUTO 16004KT 10SM SCT100 18/18 A2959 RMK AO2 RAE38DZB38E42RAB47E56 SLP023 P0024 60099 70099 57022 $
KFAM 291156Z AUTO 00000KT 10SM CLR M06/M07 A2997 RMK AO2 SLP158 T10561067 10006 21056 58005 FZRANO
KFAR 291153Z 20007KT 10SM FEW080 BKN110 02/M03 A2954 RMK AO2 SLP013 T00221033 10033 20022 56008
KFAT 291153Z 00000KT 10SM CLR 14/09 A2986 RMK AO2 SLP108 T01390089 10189 20139 56005
KFAY 291153Z 18003KT 2SM BR SCT110 17/17 A2958 RMK AO2 VIS 1 1/2V3 SLP011 70081 T01670167 10183 20167 58016
KFAY 291205Z 00000KT 3SM BR BKN110 17/17 A2957 RMK AO2 T01670167
KFAY 291225Z 13004KT 1 1/2SM BR FEW110 17/17 A2958 RMK AO2 T01670167
KFAY 291236Z 13004KT 3SM BR CLR 17/17 A2958 RMK AO2 T01720172
KFBG 291156Z AUTO 00000KT 3/8SM R27/1200V2200FT FG CLR 16/16 A2958 RMK AO2 SLP018 70068 T01640164 10180 20162 57015 $
KFBG 291232Z AUTO 00000KT 1/2SM R27/2000V4500FT FG CLR 16/16 A2957 RMK AO2 SLP015 $
KFBG 291235Z AUTO 00000KT 3/4SM R27/2000VP6000FT BR CLR 16/16 A2957 RMK AO2 VIS 1/4V7/8 SLP015 $
KFBG 291238Z AUTO 00000KT 1SM R27/4000VP6000FT BR CLR 16/16 A2957 RMK AO2 VIS 3/8V1 SLP015 $
KFBG 291240Z AUTO 00000KT 1 1/8SM R27/6000FT BR CLR 16/16 A2956 RMK AO2 VIS 3/8V1 1/4 SLP012 $
KFBG 291241Z AUTO 00000KT 1 1/4SM BR CLR 16/16 A2956 RMK AO2 VIS 1/2V1 1/2 SLP012 $
KFBG 291242Z AUTO 00000KT 1 1/2SM BR CLR 16/16 A2957 RMK AO2 VIS 1/2V2 SLP015 $
KFBG 291243Z AUTO 00000KT 2SM BR CLR 16/16 A2957 RMK AO2 VIS 5/8V2 3/4 SLP015 $
KFBG 291244Z AUTO 00000KT 2 3/4SM BR CLR 17/17 A2957 RMK AO2 VIS 3/4V4 SLP015 $
KFBL 291154Z AUTO 16009KT 10SM OVC065 00/M03 A2973 RMK AO2
KFBL 291214Z AUTO 17008KT 10SM OVC065 00/M03 A2972 RMK AO2
KFBL 291234Z AUTO 16008KT 10SM SCT065 BKN075 120 00/M03 A2971 RMK AO2
KFBR 291155Z AUTO 24008KT 10SM CLR 05/M01 A3016 RMK AO2 T00451013 10066 20040
KFBR 291215Z AUTO 24010KT 10SM CLR 04/M01 A3016 RMK AO2 T00421015
KFBR 291235Z AUTO 24008KT 10SM CLR 04/M02 A3016 RMK AO2 T00401017
KFCH 291155Z AUTO 00000KT 1 3/4SM HZ 14/11 A2986 RMK A01
KFCH 291215Z AUTO 00000KT 10SM 14/12 A2986 RMK A01
KFCH 291235Z AUTO 00000KT 10SM CLR 13/11 A2986 RMK A01
KFCM 291153Z 16008KT 10SM FEW055 BKN080 OVC090 01/M03 A2970 RMK AO2 SLP067 T00061033 10006 21011 56022
KFCS 291158Z AUTO 32007KT 10SM CLR 03/M05 A2999 RMK AO2 SLP157 T00341054 10048 20013 57007 $
KFDK 291147Z 00000KT 7SM BKN013 BKN021 18/18 A2965
KFDR 291153Z AUTO 24008KT 7SM CLR 05/M06 A2992 RMK AO2 SLP131 T00501061 10050 20039 56010 $
KFDW 291155Z AUTO 23009KT 10SM OVC007 13/12 A2960 RMK AO1
KFDW 291215Z AUTO 25006KT 4SM BR OVC003 12/12 A2960 RMK AO1
KFDW 291235Z AUTO 28009G16KT 3SM BR OVC003 11/11 A2960 RMK AO1
KFDY 291153Z AUTO 25005KT 10SM OVC040 03/00 A2986 RMK AO2 SLP113 60000 T00280000 10039 20028 53002 TSNO
KFEP 291155Z AUTO 23004KT 10SM CLR M04/M05 A2991 RMK AO2 T10411051 10005 21046
KFEP 291215Z AUTO 22003KT 10SM CLR M03/M05 A2991 RMK AO2 T10351049
KFEP 291235Z AUTO 22003KT 10SM CLR M04/M05 A2991 RMK AO2 T10381054
KFET 291155Z AUTO 00000KT 10SM CLR 03/M06 A2976 RMK AO2 T00301065 10045 20026
KFET 291215Z AUTO 00000KT 10SM CLR 03/M06 A2975 RMK AO2 T00281063
KFET 291235Z AUTO 00000KT 10SM CLR 02/M06 A2974 RMK AO2 T00241056
KFEW 291158Z AUTO 29022KT 10SM CLR 10/M03 A2995 RMK AO2 PK WND 29026/53 SLP096 T00991035 10099 20064 57014 $
KFFA 291200Z AUTO 00000KT 7SM -RA SCT029 BKN080 OVC090 20/19 A2965 RMK AO2 T02010190
KFFA 291220Z AUTO 00000KT 7SM -DZ SCT022 BKN070 OVC080 20/19 A2966 RMK AO2 T02000191
KFFA 291240Z AUTO 00000KT 7SM -RA SCT010 BKN020 OVC042 19/19 A2965 RMK AO2 P0001 T01930185
KFFC 291153Z AUTO 30010G16KT 10SM CLR 03/00 A2981 RMK AO2 SLP098 70069 T00330000 10050 20033 53004
KFFC 291222Z AUTO 31011G19KT 10SM BKN027 04/00 A2982 RMK AO2 T00390000
KFFL 291155Z AUTO 17005KT 10SM SCT110 BKN130 OVC150 M03/M05 A2986 RMK AO2 PWINO
KFFL 291215Z AUTO 15004KT 10SM OVC120 M03/M05 A2986 RMK AO2 PWINO
KFFL 291235Z AUTO 15003KT 10SM BKN100 OVC120 M03/M05 A2986 RMK AO2 PWINO
KFFM 291154Z AUTO 18006KT 10SM SCT090 02/M04 A2958 RMK AO2
KFFM 291214Z AUTO 19006KT 10SM SCT090 02/M03 A2958 RMK AO2
KFFM 291234Z AUTO 19006KT 10SM BKN080 02/M03 A2958 RMK AO2
KFFO 291158Z AUTO 30006KT 10SM OVC036 03/M02 A2987 RMK AO2 SLP124 70005 T00291017 10037 20029 50002
KFFT 291153Z AUTO 30005KT 10SM OVC032 03/M01 A2989 RMK AO2 SLP124 T00281006 10033 20028 51001
KFFX 291152Z AUTO 00000KT 10SM CLR 01/00 A2984 RMK AO2 T00120004
KFFX 291212Z AUTO 00000KT 10SM CLR 00/00 A2984 RMK AO2 T00011001
KFFX 291232Z AUTO 00000KT 10SM SCT050 BKN070 01/01 A2984 RMK AO2 T00070007
KFGN 291153Z AUTO 20010KT 10SM BKN043 OVC049 02/M01 A2946 RMK AO2
KFGN 291214Z AUTO 21010G16KT 10SM OVC041 02/M02 A2946 RMK AO2
KFGN 291233Z AUTO 21012G16KT 10SM OVC037 02/M02 A2945 RMK AO2
KFGX 291155Z AUTO 00000KT 10SM OVC036 02/01 A2987 RMK AO2 T00190007 10023 20018
KFGX 291215Z AUTO 30003KT 10SM OVC036 02/01 A2987 RMK AO2 T00200005
KFGX 291235Z AUTO 00000KT 10SM OVC038 02/01 A2988 RMK AO2 T00200006
KFHR 291153Z AUTO 00000KT 9SM CLR 06/06 A2999 RMK AO2 SLP156 T00610061 10072 20050 58002 $
KFHU 291158Z AUTO 00000KT 9SM CLR 10/M05 A3007 RMK AO2 SLP129 T00991049 10141 20099 55001
KFIT 291152Z AUTO 00000KT 8SM OVC006 16/14 A2993 RMK AO2 RAB21E45 CIG 005V009 SLP135 P0000 60000 T01560144 10156 20150 55002
KFKA 291155Z AUTO 17010KT 10SM OVC100 M02/M04 A2978 RMK AO2 T10251045 11025 21046
KFKA 291215Z AUTO 17009KT 10SM OVC090 M02/M04 A2978 RMK AO2 T10221044
KFKA 291234Z AUTO 17010G14KT 10SM OVC080 M02/M04 A2978 RMK AO2 T10221044
KFKL 291147Z AUTO 30005KT 1 3/4SM -RA BR OVC003 02/01 A2978 RMK AO2 UPE07RAB07 P0001 FZRANO
KFKL 291151Z AUTO 29004KT 3SM -RA BR OVC003 02/02 A2978 RMK AO2 UPE07RAB07 P0001 FZRANO
KFKL 291156Z AUTO VRB03KT 5SM -RA BR OVC003 02/02 A2977 RMK AO2 UPE07RAB07 SLP092 P0001 60015 70058 T00220017 10022 20017 58008 FZRANO TSNO
KFKN 291155Z AUTO 16004KT 10SM SCT008 BKN110 18/17 A2962 RMK AO2 60078 70078 T01770172 10180 20170
KFKN 291215Z AUTO 20004KT 10SM BKN008 18/17 A2963 RMK AO2 T01760171
KFKN 291235Z AUTO 16004KT 10SM BKN008 BKN110 18/17 A2962 RMK AO2 T01760171
KFKR 291155Z AUTO 30004KT 10SM OVC043 03/00 A2991 RMK AO2 T00261005 10033 20025
KFKR 291215Z AUTO 32004KT 10SM OVC045 03/00 A2991 RMK AO2 T00251004
KFKR 291235Z AUTO 31004KT 10SM OVC047 03/00 A2991 RMK AO2 T00251005
KFKS 291156Z AUTO 00000KT 10SM SCT036 BKN042 BKN048 01/01 A2984 RMK AO2 T00090009 10051 20008
KFKS 291216Z AUTO 00000KT 10SM BKN038 OVC046 01/01 A2984 RMK AO2 T00110011
KFKS 291236Z AUTO 00000KT 10SM OVC040 01/01 A2984 RMK AO2 T00120012
KFLD 291150Z AUTO 16003KT 10SM BKN022 M01/M04 A2987 RMK AO2
KFLD 291153Z AUTO 17003KT 10SM BKN022 M01/M04 A2987 RMK AO2 SLP122 T10111039 10022 21017 56000
KFLD 291215Z AUTO 21003KT 10SM SCT021 M02/M05 A2986 RMK AO2 T10221050
KFLG 291157Z AUTO 00000KT 10SM CLR M03/M07 A3019 RMK AO2 SLP174 T10281072 10022 21028 55003
KFLL 291153Z 29009G18KT 10SM BKN009 BKN075 21/21 A2966 RMK AO2 SLP042 60024 7//// T02110211 10244 20211 53028 $
KFLO 291153Z 24005KT 10SM BKN090 26/17 A2958 RMK AO2 SLP012 T02610172 10272 20167 58014
KFLP 291156Z AUTO 00000KT 10SM CLR M06/M07 A3001 RMK AO2 SLP169 6//// 7//// T10561067 11022 21056 58003 FZRANO PNO $
KFLY 291155Z AUTO 30007KT 10SM CLR 01/M07 A3004 RMK AO2 T00111072 10039 20006
KFLY 291215Z AUTO 29009KT 10SM CLR 03/M07 A3004 RMK AO2 T00311073
KFLY 291235Z AUTO 29009KT 10SM CLR 05/M08 A3004 RMK AO2 T00451078
KFME 291145Z AUTO 11012G16KT 10SM SCT006 SCT060 OVC100 16/16 A2963 RMK AO1
KFME 291206Z AUTO 00000KT 10SM SCT008 BKN011 OVC100 16/16 A2966 RMK AO1
KFME 291224Z AUTO 13006KT 7SM OVC008 16/16 A2965 RMK AO1
KFMH 291155Z AUTO 11006KT 10SM CLR 15/14 A2996 RMK AO2
KFMH 291215Z AUTO 11007KT 10SM SCT110 15/14 A2996 RMK AO2
KFMH 291235Z AUTO 12007KT 10SM FEW110 15/14 A2995 RMK AO2
KFMM 291155Z AUTO 29005KT 10SM CLR 01/M02 A2992 RMK AO2 T00131020 10032 21005
KFMM 291215Z AUTO 27004KT 10SM CLR 01/M02 A2991 RMK AO2 T00141023
KFMM 291235Z AUTO 28008KT 10SM CLR 01/M02 A2990 RMK AO2 T00101024
KFMN 291153Z AUTO 08006KT 10SM CLR 01/M06 A3012 RMK AO2 SLP181 T00061056 10072 21006 57001
KFMY 291149Z 33008KT 2SM BR BKN008 BKN014 OVC029 20/19 A2974 RMK AO2 RAB23E32 P0000
KFMY 291153Z 33008KT 2SM -RA BR BKN008 BKN014 OVC029 20/19 A2975 RMK AO2 RAB23E32B51 SLP075 P0000 60002 70217 T02000194 10200 20194 53020
KFMY 291207Z 35009KT 6SM BR BKN008 OVC014 20/20 A2975 RMK AO2 RAE03 CIG 005V012 P0000 T02000200
KFNB 291153Z AUTO 19009KT 10SM CLR 01/M09 A2980 RMK AO2 SLP096 T00111094 10033 20000 58021
KFNL 291156Z AUTO 22008KT 10SM CLR 07/M03 A2992 RMK AO2 SLP108 T00671028 10072 20022 56015
KFNT 291153Z 28003KT 10SM SCT015 BKN021 OVC036 02/02 A2985 RMK AO2 RAB00E11 SLP115 P0001 60001 70001 T00220017 10039 20022 53001
KFOA 291155Z AUTO 29005KT 10SM OVC042 02/M02 A2996 RMK AO2 T00201020 10033 20020
KFOA 291215Z AUTO 27004KT 10SM SCT042 01/M02 A2996 RMK AO2 T00121020
KFOA 291235Z AUTO 27004KT 10SM CLR 01/M02 A2997 RMK AO2 T00101018
KFOD 291156Z AUTO 19007KT 10SM OVC080 02/M06 A2974 RMK AO2 SLP111 T00171061 10017 21050 56013 FZRANO
KFOE 291153Z 19006KT 10SM CLR 01/M07 A2984 RMK AO2 SLP112 T00061067 10017 21028 56016
KFOK 291153Z 13008G16KT 10SM OVC055 18/15 A2985 RMK AO2 RAB42E51 SLP107 P0000 60000 T01830150 10183 20178 57012
KFOT 291155Z AUTO 00000KT 7SM OVC008 11/11 A2998 RMK AO1
KFOT 291215Z AUTO 00000KT 10SM OVC008 11/11 A2997 RMK AO1
KFOT 291235Z AUTO 00000KT 6SM OVC008 11/11 A2997 RMK AO1
KFOZ 291152Z AUTO 16007KT 10SM OVC060 M01/M03 A2956 RMK AO2
KFOZ 291212Z AUTO 16007KT 10SM BKN060 OVC090 M01/M03 A2955 RMK AO2
KFOZ 291231Z AUTO 16008KT 10SM BKN070 BKN075 OVC090 M01/M02 A2954 RMK AO2
KFPK 291155Z AUTO 00000KT 5SM -RA BKN011 BKN030 OVC037 03/01 A2983 RMK AO2 P0001 60002 70002 T00250012 10032 20025
KFPK 291214Z AUTO 00000KT 4SM -DZ BKN011 OVC037 03/02 A2983 RMK AO2 T00260015
KFPK 291235Z AUTO 00000KT 5SM BR BKN011 OVC037 03/02 A2983 RMK AO2 T00270015
KFPR 291145Z 30014KT 10SM SCT006 20/20 A2966 RMK AO2 T02000200
KFPR 291153Z 29011KT 10SM BKN006 20/20 A2966 RMK AO2 SLP044 60072 70319 T02000200 10211 20200 53014
KFPR 291216Z 30010KT 10SM SCT006 20/20 A2967 RMK AO2 T02000200
KFQD 291145Z AUTO 34005KT 10SM OVC018 09/08 A2961 RMK AO2 T00860080
KFQD 291205Z AUTO 34005KT 10SM OVC024 09/08 A2962 RMK AO2 T00860079
KFQD 291225Z AUTO 33006KT 10SM OVC030 09/08 A2962 RMK AO2 T00850075
KFRG 291153Z AUTO 12011KT 3SM RA BR BKN046 OVC060 17/16 A2980 RMK AO2 PK WND 13026/1108 SLP089 P0014 60022 70022 T01670161 10183 20161 58006
KFRG 291212Z AUTO 13011KT 8SM -RA SCT005 OVC060 17/16 A2980 RMK AO2 P0000 T01670161
KFRG 291223Z AUTO 13012KT 4SM -RA BR BKN005 OVC060 17/16 A2980 RMK AO2 P0001 T01670161
KFRG 291235Z AUTO 12012KT 2 1/2SM RA BR BKN005 BKN037 OVC055 17/16 A2979 RMK AO2 P0003 T01670161
KFRH 291155Z AUTO 00000KT 10SM OVC036 01/00 A2993 RMK AO1
KFRH 291215Z AUTO 00000KT 10SM SCT012 SCT018 OVC034 01/01 A2993 RMK AO1
KFRH 291235Z AUTO 00000KT 10SM SCT010 OVC034 01/01 A2993 RMK AO1
KFRI 291158Z AUTO 23003KT 10SM CLR M01/M08 A2983 RMK AO2 SLP106 T10101084 10032 21014 57013
KFRM 291156Z AUTO 18008KT 10SM FEW070 OVC090 01/M06 A2971 RMK AO2 SLP076 T00061056 10006 21017 58015 FZRANO
KFRR 291155Z AUTO 00000KT 7SM SCT002 BKN023 OVC028 13/13 A2961 RMK AO1
KFRR 291215Z AUTO 4SM BKN002 BKN019 OVC024 13/13 A2960 RMK AO1 P0001
KFRR 291235Z AUTO 5SM BKN002 OVC024 13/13 A2960 RMK AO1 P0001
KFSD 291156Z 22005KT 10SM FEW055 BKN075 OVC100 06/M03 A2965 RMK AO2 SLP050 T00561028 10056 20039 56019
KFSE 291154Z AUTO 20010G16KT 10SM CLR M01/M06 A2952 RMK AO2
KFSE 291214Z AUTO 20010KT 10SM CLR M01/M05 A2952 RMK AO2
KFSE 291235Z AUTO 21010KT 10SM CLR M01/M05 A2952 RMK AO2
KFSI 291156Z AUTO 25006KT 10SM CLR 04/M05 A2992 RMK AO2 SLP134 T00411051 10046 20017 57015 $
KFSM 291153Z 06004KT 10SM BKN090 M01/M02 A3001 RMK AO2 SLP164 T10061017 10017 21011 56010
KFSO 291155Z AUTO 01005KT 10SM SCT009 OVC014 09/09 A2986 RMK AO2 T00910086 10155 20091
KFSO 291215Z AUTO 36005KT 5SM RA BKN012 OVC017 09/09 A2987 RMK AO2 T00900087
KFSO 291235Z AUTO 35004KT 4SM DZ OVC012 09/09 A2986 RMK AO2 T00900087
KFST 291153Z AUTO 24009KT 10SM CLR 07/M07 A3010 RMK AO2 SLP171 T00671072 10094 20056 55004 $
KFSW 291155Z AUTO 00000KT 10SM SCT120 M04/M04 A2990 RMK AO2
KFSW 291215Z AUTO 18003KT 10SM SCT120 M04/M04 A2989 RMK AO2
KFSW 291235Z AUTO 00000KT 10SM CLR M03/M03 A2989 RMK AO2
KFTG 291153Z AUTO 21011KT 10SM CLR 07/M03 A2997 RMK AO2
KFTG 291214Z AUTO 21013KT 10SM CLR 07/M03 A2996 RMK AO2
KFTG 291233Z AUTO 21012KT 10SM CLR 08/M03 A2995 RMK AO2
KFTK 291156Z 30004KT 10SM OVC025 01/00 A2991 RMK AO2A RAE32 SLP137 P0000 60000 T00141001 10030 20014 53003
KFTK 291207Z 31003KT 10SM SCT027 OVC037 01/00 A2991 RMK AO2A SLP137
KFTN 291155Z AUTO 02003KT 10SM CLR 02/M01 A3014 RMK A01
KFTN 291215Z AUTO 04005KT 10SM CLR 02/M01 A3014 RMK A01
KFTN 291235Z AUTO 04005KT 10SM CLR 02/M01 A3014 RMK A01
KFTW 291153Z 18005KT 10SM CLR 05/M06 A3001 RMK AO2 SLP161 T00501061 10061 20050 58017
KFTY 291153Z 31010KT 10SM OVC024 03/01 A2980 RMK AO2 SLP091 70065 T00330006 10056 20033 53003
KFUL 291153Z AUTO 00000KT 3SM BR OVC006 17/16 A2986 RMK AO2 SLP109 T01720161 10178 20172 58004
KFUL 291218Z AUTO 00000KT 3SM BR OVC007 17/16 A2986 RMK AO2 T01720161
KFVE 291153Z AUTO 16009KT 10SM OVC004 09/08 A2996 RMK AO2 SLP149 T00890078 10089 20061 53007
KFVX 291155Z AUTO 00000KT 7SM OVC003 17/17 A2958 RMK AO2 60005 70006 T01660166 10174 20165
KFVX 291215Z AUTO 14003KT 5SM BR OVC003 17/17 A2958 RMK AO2 T01670167
KFVX 291235Z AUTO 00000KT 7SM OVC003 17/17 A2957 RMK AO2 T01680168
KFWA 291154Z 25005KT 10SM OVC047 02/M01 A2988 RMK AO2 SLP124 T00221011 10028 20022 53000 $
KFWB 291155Z AUTO 00000KT 10SM CLR M01/M03 A2996 RMK AO2
KFWB 291215Z AUTO 00000KT 10SM CLR 00/M02 A2995 RMK AO2
KFWB 291235Z AUTO 10003KT 10SM CLR M01/M02 A2995 RMK AO2
KFWC 291155Z AUTO 00000KT 10SM OVC040 02/M01 A2995 RMK AO1 T00201014 10027 20020
KFWC 291215Z AUTO 00000KT 10SM OVC040 02/M02 A2996 RMK AO1 T00201019
KFWC 291235Z AUTO 00000KT 10SM OVC040 01/M02 A2996 RMK AO1 T00131021
KFWN 291153Z AUTO 05003KT 10SM OVC013 16/14 A2978 RMK AO2 SLP084 60000 T01610139 10167 20106 56009
KFWS 291150Z 19006KT 20SM SKC 04/M07 A3004
KFWZ 291155Z AUTO 32004KT 10SM CLR 08/M08 A3000 RMK AO2
KFWZ 291215Z AUTO 28006KT 10SM CLR 09/M08 A3000 RMK AO2
KFWZ 291235Z AUTO 29010KT 10SM CLR 08/M08 A3000 RMK AO2
KFXE 291153Z 30012G19KT 10SM OVC006 21/21 A2967 RMK AO2 SLP048 60105 70509 T02110211 10233 20206 53028
KFXY 291155Z AUTO 15007KT 10SM OVC070 00/M02 A2974 RMK AO2
KFXY 291215Z AUTO 14006KT 10SM OVC070 00/M02 A2973 RMK AO2
KFXY 291235Z AUTO 16005KT 10SM OVC070 00/M02 A2973 RMK AO2
KFYE 291155Z AUTO 00000KT 10SM BKN038 M01/M01 A2999 RMK A01
KFYE 291215Z AUTO 00000KT 10SM FEW037 M01/M02 A2999 RMK A01
KFYE 291235Z AUTO 00000KT 10SM CLR M01/M02 A2999 RMK A01
KFYG 291215Z AUTO 00000KT 10SM CLR M04/M04 A2996 RMK AO2
KFYG 291235Z AUTO 00000KT 10SM CLR M03/M04 A2996 RMK AO2
KFYJ 291155Z AUTO 13005KT 7SM SCT010 BKN015 OVC080 18/18 A2960 RMK AO2 P0001 60117 70117 T01840184 10185 20169
KFYJ 291215Z AUTO 16003KT 10SM SCT012 BKN080 OVC110 18/18 A2960 RMK AO2 T01820182
KFYJ 291235Z AUTO 15003KT 10SM SCT080 BKN110 18/18 A2961 RMK AO2 T01830183
KFYM 291155Z AUTO 33008G14KT 10SM OVC024 03/M02 A2991 RMK A01
KFYM 291215Z AUTO 33009KT 10SM OVC024 03/M02 A2991 RMK A01
KFYM 291235Z AUTO 33011KT 10SM OVC024 03/M02 A2991 RMK A01
KFYV 291153Z 00000KT 10SM CLR M04/M05 A2997 RMK AO2 SLP155 T10391050 11033 21050 58012
KFZG 291155Z AUTO 30007KT 10SM CLR 06/04 A2982 RMK AO2 T00560035 10130 20056
KFZG 291215Z AUTO 29010G16KT 10SM CLR 06/03 A2983 RMK AO2 T00570033
KFZG 291235Z AUTO 30008G17KT 10SM CLR 06/03 A2983 RMK AO2 T00600031
KFZY 291154Z AUTO 03009KT 5SM RA BR OVC007 07/06 A2980 RMK AO2 SLP093 P0006 60030 70045 T00720061 10089 20072 58009
KFZY 291228Z AUTO 36007KT 2 1/2SM RA BR BKN007 OVC031 07/06 A2980 RMK AO2 P0007 T00720056
KFZY 291240Z AUTO 36009KT 3SM RA BR BKN007 BKN011 OVC025 07/06 A2980 RMK AO2 P0009 T00720056
KGAD 291156Z AUTO 31010G16KT 10SM OVC028 04/M01 RMK AO2 SLPNO P0001 60017 7//// T00391006 10061 20039 $
KGAF 291155Z AUTO 29005KT 10SM FEW070 M00/M02 A2953 RMK AO2 PWINO
KGAF 291215Z AUTO 28004KT 10SM BKN070 M01/M02 A2953 RMK AO2 PWINO
KGAF 291235Z AUTO 25007KT 10SM OVC070 00/M01 A2953 RMK AO2 PWINO
KGAG 291153Z AUTO 24006KT 10SM CLR 02/M02 A2992 RMK AO2 SLP132 T00171017 10044 20017 56005 $
KGAI 291152Z AUTO 13005KT 10SM SCT010 BKN015 OVC080 16/16 A2964 RMK AO2
KGAI 291156Z AUTO 13005KT 10SM BKN010 BKN015 OVC080 16/16 A2964 RMK AO2 CIG 007V014 SLP063 60008 70008 T01610156 10167 20161 56014
KGAI 291204Z AUTO VRB03KT 10SM FEW008 BKN015 OVC020 16/16 A2964 RMK AO2
KGAI 291226Z AUTO 00000KT 10SM FEW016 BKN065 16/16 A2964 RMK AO2
KGAO 291155Z AUTO 32004KT 10SM CLR 04/02 A3007 RMK AO2 T00420020 10063 20040
KGAO 291215Z AUTO 33003KT 10SM CLR 04/02 A3008 RMK AO2 T00430022
KGAO 291235Z AUTO 35005KT 10SM CLR 05/03 A3008 RMK AO2 T00490025
KGBD 291156Z AUTO 23009KT 10SM CLR 01/M03 A2985 RMK AO2 SLP114 T00061028 10028 21017 58008 FZRANO
KGBG 291155Z AUTO 00000KT 10SM CLR M04/M04 A2992 RMK AO2 T10411042 11030 21060
KGBG 291215Z AUTO 14004KT 10SM CLR M03/M04 A2991 RMK AO2 T10341038
KGBG 291235Z AUTO 13003KT 10SM CLR M03/M04 A2991 RMK AO2 T10301037
KGBK 291155Z AUTO 35015KT 10SM BKN045 17/07 A3006 RMK A01
KGBK 291215Z AUTO 35009G15KT 300V030 10SM FEW045 17/06 A3007 RMK A01
KGBK 291235Z AUTO VRB06G19KT 10SM FEW045 17/07 A3007 RMK A01
KGCC 291153Z AUTO 30008KT 10SM CLR 11/M03 A2981 RMK AO2 SLP074 T01061028 10122 20083 53009 $
KGCD 291155Z AUTO 12007KT 3SM HZ CLR 07/03 A3001 RMK AO2 T00660032 10126 20064
KGCD 291215Z AUTO 11008KT 5SM HZ CLR 07/03 A3001 RMK AO2 T00700033
KGCD 291235Z AUTO 11006KT 3SM HZ CLR 07/03 A3001 RMK AO2 T00650031
KGCK 291154Z 27010KT 10SM CLR 04/01 A2988 RMK AO2 SLP115 T00390006 10039 20022 56009
KGCM 291155Z AUTO 16008KT 10SM CLR 00/M03 A2993 RMK AO2
KGCM 291215Z AUTO 18005KT 10SM CLR 01/M03 A2993 RMK AO2
KGCM 291235Z AUTO 19004KT 10SM CLR 01/M04 A2993 RMK AO2
KGCN 291154Z AUTO 00000KT 10SM CLR M03/M08 A3018 RMK AO2 SLP179 T10281083 10017 21028 55006
KGDB 291149Z AUTO 15007KT 7SM CLR 03/M04 A2965 RMK AO2 T00341036
KGDB 291209Z AUTO 14006KT 10SM CLR 03/M04 A2964 RMK AO2 T00301036
KGDB 291230Z AUTO 15006KT 7SM CLR 03/M03 A2964 RMK AO2 T00311033
KGDJ 291155Z AUTO 00000KT 10SM CLR 01/M05 A3005 RMK AO2 T00111047 10026 20000
KGDJ 291215Z AUTO 00000KT 10SM CLR 02/M05 A3005 RMK AO2 T00211051
KGDJ 291235Z AUTO 00000KT 10SM CLR 02/M05 A3004 RMK AO2 T00201050
KGDP 291151Z AUTO 24011KT 10SM CLR 05/M07 A3015 RMK AO2 SLP186 T00501067 10094 20050 56008
KGDV 291156Z AUTO 33015KT 10SM -RA SCT055 OVC070 07/03 A2983 RMK AO2 SLP105 P0000 60000 T00670033 10122 20067 51035
KGED 291152Z AUTO 15006KT 6SM RA BR FEW009 BKN055 OVC100 18/17 A2971 RMK AO2 P0007 $
KGED 291154Z AUTO 14005KT 5SM RA BR FEW009 BKN055 OVC090 18/18 A2971 RMK AO2 SLP059 P0007 60007 70007 T01830178 10189 20172 55007 $
KGEG 291153Z 00000KT 1/2SM R21/1200V2400FT FG BKN001 02/02 A3000 RMK AO2 SLP165 TWR VIS 4+ VIS N-NE 3/4 FG BKN001 T00220022 10044 20017 58000
KGEG 291211Z 00000KT 1 1/4SM R21/3000VP6000FT BR BCFG SCT001 01/01 A3001
KGEG 291211Z 00000KT 1 1/4SM R21/3000VP6000FT BR BCFG SCT001 01/01 A3001 RMK AO2 TWR VIS 4+ VIS SE-SW 1/2 FG SCT001 T00110011
KGEV 291150Z AUTO 00000KT 10SM SCT008 OVC012 03/02 A2964 RMK AO2 60025 70105 T00290020 10095 20029
KGEV 291210Z AUTO 34003KT 10SM OVC014 03/01 A2964 RMK AO2 T00280014
KGEV 291230Z AUTO 00000KT 10SM OVC014 03/02 A2963 RMK AO2 T00270015
KGEZ 291153Z AUTO 29004KT 10SM OVC034 02/M02 A2990 RMK AO2 SLP130 T00221022 10033 20022 50003
KGFA 291149Z AUTO 36015G24KT 5SM -RA OVC018 05/04 A3011 RMK AO2 RAE1059DZB1059E41RAB41 CIG 018V025 SLP208 $
KGFA 291158Z AUTO 35014KT 4SM -RA OVC009 05/04 A3012 RMK AO2 RAE1059DZB1059E41RAB41 CIG 009V024 SLP211 P0001 T00470041 10134 20047 52038 $
KGFA 291208Z AUTO 35017KT 4SM -RA OVC006 04/04 A3012 RMK AO2 SLP211 $
KGFK 291153Z 22003KT 10SM SCT045 M02/M03 A2952 RMK AO2 SLP006 T10171033 10028 21017 55002 $
KGFL 291153Z AUTO 00000KT 4SM -RA BR SCT024 BKN030 OVC037 12/12 A2981 RMK AO2 RAB05 SLP096 P0000 60000 T01220117 10122 20106 56006
KGFL 291200Z AUTO 35003KT 2 1/2SM -RA BR BKN022 BKN031 OVC041 12/12 A2981 RMK AO2 VIS 1 3/4V3 P0001 T01220122
KGFL 291210Z AUTO 00000KT 1 1/4SM -RA BR BKN020 OVC028 12/12 A2981 RMK AO2 P0002 T01220122
KGFL 291241Z AUTO 00000KT 1SM -RA BR OVC014 12/12 A2982 RMK AO2 P0009 T01220122
KGGE 291155Z AUTO 00000KT 7SM SCT013 BKN018 BKN120 18/18 A2960 RMK AO2
KGGE 291215Z AUTO 24003KT 10SM -RA SCT011 BKN024 OVC095 19/18 A2960 RMK AO2
KGGE 291235Z AUTO 00000KT 7SM RA SCT024 BKN075 OVC095 19/18 A2960 RMK AO2
KGGG 291153Z 17004KT 10SM CLR M01/M02 A3007 RMK AO2 SLP186 T10061017 10011 21011 50001 $
KGGI 291155Z AUTO 15006KT 10SM BKN100 M02/M05 A2983 RMK AO2 T10181046 11018 21041
KGGI 291215Z AUTO 14006KT 10SM OVC100 M01/M04 A2984 RMK AO2 T10151045
KGGI 291235Z AUTO 15007KT 10SM OVC100 M01/M04 A2983 RMK AO2 T10111043
KGGP 291155Z AUTO 25006KT 10SM BKN046 OVC055 01/M01 A2990 RMK AO2
KGGP 291215Z AUTO 25006KT 10SM SCT046 OVC055 01/M01 A2990 RMK AO2
KGGP 291235Z AUTO 25006KT 10SM SCT046 OVC055 01/M01 A2990 RMK AO2
KGGW 291153Z AUTO 32019KT 10SM BKN095 OVC120 08/M01 A2988 RMK AO2 PK WND 32026/1142 SLP123 T00831011 10128 20083 51024
KGHB 291155Z AUTO 01015KT 10SM FEW028 BKN036 16/05 A3008 RMK A01
KGHB 291215Z AUTO 35014KT 10SM FEW036 16/05 A3008 RMK A01
KGHB 291235Z AUTO 35014KT 10SM CLR 16/06 A3008 RMK A01
KGHG 291155Z AUTO 17009KT 10SM BKN090 15/15 A2995 RMK AO2
KGHG 291215Z AUTO 15007G13KT 10SM BKN090 15/15 A2995 RMK AO2
KGHG 291235Z AUTO 14008G13KT 10SM FEW005 SCT090 SCT110 15/15 A2994 RMK AO2
KGHW 291154Z AUTO 16007KT 10SM CLR 01/M04 A2960 RMK AO2
KGHW 291213Z AUTO 16008KT 10SM CLR 01/M04 A2959 RMK AO2
KGHW 291233Z AUTO 16007KT 10SM CLR 01/M04 A2958 RMK AO2
KGIC 291155Z AUTO 09003KT 10SM CLR 04/03 A2999 RMK AO1
KGIC 291215Z AUTO 00000KT 10SM CLR 05/03 A2999 RMK AO1
KGIC 291235Z AUTO 00000KT 10SM CLR 01/01 A3000 RMK AO1
KGIF 291153Z AUTO 30011KT 10SM BKN013 OVC021 18/17 A2975 RMK AO2 RAE15 SLP072 P0000 60000 70030 T01830172 10194 20178 53018
KGJT 291153Z 11010KT 10SM CLR 04/M02 A3012 RMK AO2 SLP172 T00441022 10078 20028 55002
KGKJ 291145Z AUTO 00000KT 4SM BR FEW004 OVC017 02/02 A2978 RMK AO2 RAE32UPB32E34 P0001 I1000 T00170017
KGKJ 291153Z AUTO 00000KT 5SM BR FEW002 OVC017 02/02 A2978 RMK AO2 RAE32UPB32E34 SLP094 P0001 60004 70035 I1000 I6000 T00170017 10022 20011 58006
KGKT 291155Z AUTO VRB05KT 2SM BR BKN005 OVC010 03/02 A2982 RMK A01 P0001
KGKT 291215Z AUTO VRB04KT 1 1/4SM BR OVC006 02/02 A2982 RMK A01
KGKT 291235Z AUTO 00000KT 1 3/4SM BR OVC006 02/02 A2982 RMK A01
KGKY 291153Z 00000KT 10SM CLR 01/M04 A3003 RMK AO2 SLP167 T00061039 10017 21011 56014 $
KGLD 291153Z AUTO 26011KT 10SM CLR 06/M01 A2986 RMK AO2 SLP112 T00561006 10056 20039 56008
KGLE 291155Z AUTO 17004KT 7SM CLR M01/M05 A2999 RMK AO2 T10101054 10026 21010
KGLE 291215Z AUTO 00000KT 7SM CLR 00/M06 A2998 RMK AO2 T10051056
KGLE 291235Z AUTO 16003KT 5SM HZ CLR M01/M05 A2998 RMK AO2 T10061055
KGLH 291153Z AUTO 28003KT 10SM CLR 01/M01 A3005 RMK AO2 SLP184 T00111011 10017 21006 53005 $
KGLR 291153Z AUTO 00000KT 10SM SCT041 M03/M04 A2982 RMK AO2 SLP112 70003 I6002 T10281039 11006 21039 53007
KGLS 291152Z 04007KT 10SM CLR 10/02 A3013 RMK AO2 SLP202 T01000017 10122 20100 50005
KGLW 291155Z AUTO 00000KT 10SM OVC027 03/M01 A2992 RMK AO2 T00261007 10029 20026
KGLW 291215Z AUTO 31004KT 7SM RA SCT015 OVC027 02/00 A2992 RMK AO2 T00220000
KGLW 291235Z AUTO 33004KT 7SM DZ SCT013 BKN024 OVC028 02/00 A2993 RMK AO2 T00170001
KGLY 291155Z AUTO 00000KT 10SM CLR M03/M04 A2994 RMK AO2
KGLY 291215Z AUTO 00000KT 10SM CLR M03/M04 A2993 RMK AO2
KGLY 291235Z AUTO 00000KT 10SM CLR M03/M04 A2992 RMK AO2
KGMJ 291155Z AUTO 00000KT 10SM CLR M02/M03 A2994 RMK AO2
KGMJ 291215Z AUTO 00000KT 10SM CLR M02/M03 A2993 RMK AO2
KGMJ 291235Z AUTO 07003KT 10SM CLR M01/M03 A2993 RMK AO2
KGMU 291153Z 28004KT 5SM -RA BR BKN004 OVC009 09/08 A2962 RMK AO2 RAB1059 CIG 002V007 SLP028 P0001 60006 70148 T00940083 10156 20094 52004
KGMU 291204Z 28004KT 9SM SCT006 OVC011 09/08 A2962 RMK AO2 RAE1155 P0000 T00940083
KGMU 291213Z 29003KT 10SM BKN006 OVC011 09/08 A2963 RMK AO2 RAE1155 P0000 T00940078
KGMU 291233Z 35006KT 10SM SCT017 OVC023 09/06 A2962 RMK AO2 RAE1155 P0000 T00940056
KGNA 291156Z AUTO 21013KT 02/M02 A2974 RMK AO1 SLP081 T00171022 10017 21006 56015
KGNB 291150Z AUTO 00000KT 10SM SCT044 M05/M06 A3024 RMK AO2 T10551065 10001 21057
KGNB 291210Z AUTO 00000KT 10SM CLR M05/M06 A3023 RMK AO2 T10521061
KGNB 291230Z AUTO 00000KT 10SM CLR M06/M07 A3023 RMK AO2 T10611070
KGNC 291155Z AUTO 28008KT 10SM CLR 04/M08 A3009 RMK AO2 T00411085 10041 20033
KGNC 291215Z AUTO 28007KT 10SM CLR 04/M08 A3009 RMK AO2 T00421085
KGNC 291235Z AUTO 28007KT 10SM CLR 04/M08 A3009 RMK AO2 T00411085
KGNR 291156Z AUTO 15008KT 11/11 A2995 RMK AO1 SLP147 T01060106 10106 20100 51005
KGNT 291155Z AUTO 31009G15KT 10SM CLR M02/M07 A3020 RMK AO2 T10211070 10022 21030
KGNT 291215Z AUTO 34006KT 10SM CLR M02/M07 A3020 RMK AO2 T10241071
KGNT 291235Z AUTO 33007KT 10SM CLR M04/M08 A3020 RMK AO2 T10371078
KGNV 291149Z 30011KT 10SM OVC012 13/12 A2978 RMK AO2
KGNV 291153Z 30009KT 10SM OVC012 13/12 A2978 RMK AO2 SLP084 60000 T01280117 10200 20128 51021
KGOK 291153Z AUTO 22006KT 10SM CLR 05/M06 A2990 RMK AO2 SLP129 T00501061 10072 20033 56008
KGON 291156Z 13013KT 10SM OVC075 18/14 A2987 RMK AO2 SLP115 T01830144 10183 20178 58002
KGOO 291155Z AUTO 12003KT 10SM CLR 19/05 A2997 RMK AO1
KGOO 291215Z AUTO 11003KT 10SM CLR 19/05 A2997 RMK AO1
KGOO 291235Z AUTO 11003KT 10SM CLR 19/05 A2997 RMK AO1
KGOP 291155Z AUTO 00000KT 10SM CLR 02/M05 A3009 RMK AO2
KGOP 291215Z AUTO 00000KT 10SM CLR 01/M05 A3009 RMK AO2
KGOP 291235Z AUTO 00000KT 10SM CLR 00/M05 A3009 RMK AO2
KGOV 291154Z AUTO 00000KT 1 1/4SM BR SCT001 M04/M05 A2984 RMK AO2 T10401053
KGOV 291215Z AUTO 00000KT 1/4SM FZFG BKN001 M04/M05 A2984 RMK AO2 T10451053
KGOV 291235Z AUTO 00000KT 1 1/4SM BR VV007 M04/M06 A2984 RMK AO2 T10441061
KGPC 291155Z AUTO 00000KT 10SM OVC030 01/M02 A2991 RMK AO2
KGPC 291215Z AUTO 00000KT 10SM OVC030 01/M02 A2992 RMK AO2
KGPC 291235Z AUTO 00000KT 10SM OVC030 01/M02 A2992 RMK AO2
KGPH 291155Z AUTO 00000KT 10SM SCT120 M03/M05 A2989 RMK AO2
KGPH 291215Z AUTO 00000KT 10SM SCT120 M03/M05 A2988 RMK AO2
KGPH 291235Z AUTO 00000KT 10SM CLR M03/M04 A2986 RMK AO2
KGPI 291155Z AUTO 00000KT 9SM FEW110 M03/M03 A3002 RMK AO2 SLP185 I6000 T10281033 11011 21044 51006
KGPI 291229Z AUTO 02015KT 10SM CLR 06/02 A3003
KGPI 291229Z AUTO 02015KT 10SM CLR 06/02 A3003 RMK AO2 WSHFT 1209 T00560017
KGPM 291150Z 19004KT 10SM SKC 03/M05 A3004
KGPT 291153Z 29005KT 10SM CLR 03/02 A3005 RMK AO2 SLP174 T00330017 10061 20033 53009
KGPZ 291156Z AUTO 15010KT 10SM BKN009 OVC060 M02/M03 A2961 RMK AO2 SLP046 60000 T10171033 11017 21028 58024 FZRANO
KGPZ 291207Z AUTO 16011KT 10SM SCT011 OVC065 M02/M03 A2960
KGPZ 291207Z AUTO 16011KT 10SM SCT011 OVC065 M02/M03 A2960 RMK AO2 FZRANO
KGRB 291153Z 00000KT 10SM CLR M03/M03 A2986 RMK AO2 SLP119 I1000 I6000 T10281033 10017 21028 58004
KGRD 291147Z AUTO 24012KT 10SM SCT003 OVC009 07/07 A2966 RMK AO2 CIG 005V011 T00670067
KGRD 291156Z AUTO 25010G17KT 10SM OVC009 07/06 A2966 RMK AO2 CIG 003V011 SLP041 60013 70023 T00670061 10150 20067 50000
KGRD 291237Z AUTO 25008KT 10SM OVC010 06/06 A2966 RMK AO2 T00610056
KGRF 291158Z 17003KT 1/2SM FG VV002 09/09 A2999 RMK AO2A SLP159 T00940094 10096 20063 50001 RVRNO $
KGRF 291213Z 17004KT 3/4SM BR VV002 09/09 A2999 RMK AO2A SLP159 RVRNO $
KGRF 291228Z 17003KT 1SM BR OVC002 09/09 A3000 RMK AO2A SLP163 RVRNO $
KGRF 291233Z 17004KT 1SM BR OVC002 09/09 A3000 RMK AO2A SLP163 RVRNO $
KGRI 291153Z 24009KT 10SM CLR 04/M04 A2975 RMK AO2 SLP085 T00391039 10039 21006 56019
KGRK 291158Z 18003KT 10SM CLR 06/M07 A3007 RMK AO2A SLP184 WND DATA ESTMD T00631068 10084 20012 56007 $
KGRN 291155Z AUTO 23004KT 10SM CLR 05/00 A2973 RMK AO2 T00540000 10105 20029
KGRN 291215Z AUTO 27005KT 10SM CLR 05/00 A2973 RMK AO2 T00501004
KGRN 291235Z AUTO 25003KT 10SM CLR 04/M01 A2972 RMK AO2 T00401008
KGRR 291153Z 03003KT 10SM -RA BKN009 BKN035 OVC047 03/03 A2984 RMK AO2 SLP109 P0000 60001 70006 T00330033 10039 20033 51004
KGRR 291228Z 04004KT 10SM BKN011 OVC017 04/04 A2984
KGRR 291228Z 04004KT 10SM BKN011 OVC017 04/04 A2984 RMK AO2 RAE1156 P0000 T00390039
KGRY 291200Z AUTO 34013G28KT 10SM SCT037 16/06 A3003 RMK A01
KGRY 291220Z AUTO 35014G23KT 10SM CLR 15/06 A3004 RMK A01
KGRY 291235Z AUTO 34016G23KT 10SM CLR 15/06 A3004 RMK A01
KGSB 291156Z AUTO 13005KT 10SM BKN080 BKN100 19/18 A2959 RMK AO2 SLP023 60049 70061 T01870180 10190 20173 58011 $
KGSH 291153Z AUTO 24006KT 10SM SCT026 OVC038 02/M02 A2986 RMK AO2 SLP118 T00221017 10028 20017 55000
KGSO 291154Z 19005KT 7SM BKN008 BKN014 BKN038 16/16 A2956 RMK AO2 SLP004 60007 70007 T01610161 10172 20156 56011
KGSO 291216Z 19005KT 7SM SCT016 BKN060 OVC070 16/16 A2955
KGSO 291216Z 19005KT 7SM SCT016 BKN060 OVC070 16/16 A2955 RMK AO2 RAB01E16 P0000 T01610161
KGSO 291239Z 21004KT 7SM FEW016 BKN024 OVC070 17/17 A2955
KGSO 291239Z 21004KT 7SM FEW016 BKN024 OVC070 17/17 A2955 RMK AO2 RAB01E16 P0000 T01670167
KGSP 291153Z 27006KT 10SM OVC013 09/07 A2962 RMK AO2 SLP025 60009 70147 T00890072 10144 20089 53003
KGTB 291156Z AUTO 03003KT 8SM -RA OVC023 06/05 A2982 RMK AO2 CIG 021V028 SLP101 P0016 60029 70031 T00570047 10067 20057 57011 CHINO RWY03 $
KGTB 291159Z AUTO 04004KT 9SM -RA FEW007 OVC023 06/05 A2982 RMK AO2 CIG 021V028 SLP101 CHINO RWY03 $
KGTF 291153Z 35018G26KT 7SM -RA SCT006 BKN016 OVC026 04/03 A3012 RMK AO2 PK WND 36029/1109 SLP203 P0000 60000 T00390028 10111 20039 53035
KGTF 291204Z 35019G27KT 6SM -RA BR BKN006 BKN016 OVC023 04/03 A3012 RMK AO2 PK WND 35027/1202 CIG 004V009 P0001 T00390028
KGTR 291156Z 31004KT 10SM CLR M01/M02 A3001 RMK AO2 SLP166 T10111022 10028 21011 52003
KGTU 291156Z 23003KT 10SM CLR 02/M02 A3012 RMK AO2 SLP202 T00171022 10050 20011 56006 FZRANO
KGUC 291156Z AUTO 00000KT 10SM CLR M07/M08 A3025 RMK AO2 SLP242 T10671083 10006 21072 55001 FZRANO
KGUL 291155Z AUTO 36007G14KT 330V040 10SM 17/06 A3009 RMK A01
KGUL 291215Z AUTO 01007G17KT 290V050 10SM 17/06 A3009 RMK A01
KGUL 291235Z AUTO 36010G19KT 340V040 10SM 17/07 A3009 RMK A01
KGUP 291153Z AUTO 00000KT 10SM CLR M03/M09 A3018 RMK AO2 SLP176 T10331089 10017 21033 53000
KGUS 291156Z AUTO 26007KT 10SM OVC050 01/M01 A2988 RMK AO2 SLP128 70001 T00141010 10024 20014 50001 $
KGUY 291153Z AUTO 25009KT 10SM CLR 06/00 A2994 RMK AO2 SLP124 T00560000 10072 20044 56006
KGVE 291155Z AUTO 00000KT 10SM BKN013 BKN024 OVC035 15/15 A2959 RMK AO1 60001 70001 T01470147 10150 20133
KGVE 291215Z AUTO 00000KT 10SM OVC009 15/15 A2959 RMK AO1 T01500150
KGVE 291235Z AUTO 00000KT 4SM BR OVC007 15/15 A2959 RMK AO1 T01510151
KGVL 291153Z AUTO 28011G22KT 10SM CLR 03/01 A2970 RMK AO2 SLP056 70067 T00330011 10061 20033 55000
KGVT 291150Z AUTO 00000KT 10SM CLR 02/M03 A3002 RMK AO2
KGVT 291210Z AUTO 16004KT 10SM CLR 02/M02 A3002 RMK AO2
KGVT 291230Z AUTO 15003KT 10SM CLR 01/M02 A3002 RMK AO2
KGWB 291155Z AUTO 23003KT 10SM OVC055 02/M01 A2987 RMK AO2
KGWB 291215Z AUTO 00000KT 10SM OVC055 02/00 A2987 RMK AO2
KGWB 291235Z AUTO 23003KT 10SM SCT030 OVC055 02/00 A2987 RMK AO2
KGWO 291153Z AUTO 00000KT 10SM FEW001 M02/M02 A3004 RMK AO2 SLP175 60000 T10171022 10006 21017 53004 $
KGWR 291155Z AUTO 25006KT 10SM 05/M01 A2957 RMK A01
KGWR 291215Z AUTO 24007KT 10SM 06/M00 A2956 RMK A01
KGWR 291235Z AUTO 23008KT 10SM 06/00 A2957 RMK A01
KGWW 291145Z AUTO 00000KT 1/4SM FG OVC002 17/17 A2961 RMK AO2 T01710171
KGWW 291205Z AUTO 13004KT 1/4SM FG OVC002 17/17 A2961 RMK AO2 T01720172
KGWW 291225Z AUTO 14003KT 1/2SM FG OVC002 18/18 A2960 RMK AO2 T01750175
KGXA 291155Z AUTO 16004KT 10SM CLR 12/M09 A2995 RMK AO2 SLP091 WND DATA ESTMD T01201092 10283 20160 55002
KGXY 291156Z AUTO 28003KT 10SM CLR M02/M04 A2993 RMK AO2 SLP143 T10221039 10011 21033 56013 FZRANO
KGYB 291155Z AUTO 00000KT 10SM CLR 01/00 A3012 RMK AO2 T00071005 10049 20005
KGYB 291215Z AUTO 00000KT 10SM CLR 01/00 A3012 RMK AO2 T00061003
KGYB 291235Z AUTO 00000KT 10SM CLR 01/00 A3012 RMK AO2 T00071004
KGYH 291147Z 25007KT 1SM BR OVC003 08/08 A2963
KGYI 291155Z AUTO 20011KT 10SM CLR 06/M05 A2998 RMK AO2 T00601048 10060 20028
KGYI 291215Z AUTO 20012KT 10SM CLR 07/M06 A2997 RMK AO2 T00671060
KGYI 291235Z AUTO 21012KT 10SM CLR 07/M06 A2997 RMK AO2 T00701062
KGYL 291153Z AUTO 16005KT 10SM OVC065 01/M02 A2968 RMK AO2 T00111025 10011 20000
KGYL 291214Z AUTO 15006KT 10SM OVC080 01/M02 A2966 RMK AO2 T00121025
KGYL 291234Z AUTO 16004KT 10SM OVC080 01/M02 A2966 RMK AO2 T00121025
KGYY 291145Z 27006KT 10SM SCT046 01/M02 A2990
KGZH 291153Z AUTO VRB05KT 10SM CLR 02/01 A2996 RMK AO2 SLP146 7//// T00220006 10050 20022 52006
KGZL 291155Z AUTO 09007KT 10SM CLR 00/M03 A2997 RMK AO2
KGZL 291215Z AUTO 10007KT 10SM CLR 00/M04 A2996 RMK AO2
KGZL 291235Z AUTO 12004KT 10SM CLR 00/M04 A2996 RMK AO2
KGZN 291200Z AUTO 23012KT 10SM FEW033 SCT039 SCT044 08/M15 A3004 RMK AO2
KGZN 291220Z AUTO 23012G17KT 10SM SCT034 SCT041 08/M15 A3004 RMK AO2
KGZN 291240Z AUTO 23009KT 10SM FEW032 FEW040 07/M14 A3005 RMK AO2
KGZS 291155Z AUTO 34006KT 10SM SCT030 OVC037 04/M02 A2994 RMK A01
KGZS 291215Z AUTO 34008KT 10SM OVC036 04/M02 A2994 RMK A01
KGZS 291235Z AUTO 33005KT OVC036 04/M02 A2994 RMK A01
KHAE 291155Z AUTO 19006KT 10SM CLR M03/M05 A2991 RMK AO2
KHAE 291215Z AUTO 19006KT 10SM CLR M03/M05 A2991 RMK AO2
KHAE 291235Z AUTO 18006KT 10SM CLR M03/M05 A2991 RMK AO2
KHAF 291155Z AUTO 34003KT 7SM OVC004 12/11 A2988 RMK AO2
KHAF 291215Z AUTO 36003KT 6SM BR OVC004 12/11 A2988 RMK AO2
KHAF 291235Z AUTO 33003KT 5SM BR OVC004 12/11 A2989 RMK AO2
KHAI 291156Z AUTO 22004KT 10SM SCT030 OVC040 03/01 A2985 RMK AO2 T00280008 10033 20016
KHAI 291215Z AUTO 22003KT 10SM SCT030 OVC040 03/01 A2985 RMK AO2 T00300010
KHAI 291236Z AUTO 00000KT 10SM SCT030 OVC042 03/01 A2985 RMK AO2 T00290010
KHAO 291153Z AUTO 34005KT 10SM OVC035 03/M01 A2990 RMK AO2 SLP129 T00281006 10039 20028 50003
KHBE 291155Z AUTO 30003KT 10SM OVC035 01/00 A2992 RMK AO2
KHBE 291215Z AUTO 29004KT 10SM OVC035 01/00 A2992 RMK AO2
KHBE 291235Z AUTO 30004KT 10SM OVC035 01/00 A2992 RMK AO2
KHBG 291153Z AUTO 30003KT 10SM CLR 02/02 A3005 RMK AO2 SLP177 70004 T00170017 10050 20011 53009
KHBI 291155Z AUTO 00000KT 10SM OVC013 17/16 A2959 RMK AO2 T01670160 10175 20165
KHBI 291215Z AUTO 14003KT 10SM BKN011 OVC050 17/16 A2958 RMK AO2 T01650160
KHBI 291235Z AUTO 17003KT 10SM OVC013 17/16 A2958 RMK AO2 T01660160
KHBR 291153Z AUTO 23008KT 10SM CLR 04/M06 A2994 RMK AO2 SLP139 T00391061 10061 20033 56010
KHBV 291155Z AUTO 00000KT 10SM CLR 05/M05 A3015 RMK AO2 T00501052 10364 20043
KHBV 291215Z AUTO 00000KT 10SM CLR 04/M05 A3015 RMK AO2 T00391050
KHBV 291235Z AUTO 00000KT 10SM CLR 04/M05 A3016 RMK AO2 T00361053
KHCD 291154Z AUTO 15005KT 10SM OVC080 01/M03 A2967 RMK AO2 T00131030 10013 20000
KHCD 291214Z AUTO 16005KT 10SM SCT080 OVC100 01/M03 A2967 RMK AO2 T00131031
KHCD 291234Z AUTO 15005KT 10SM BKN080 BKN100 01/M03 A2966 RMK AO2 T00111030
KHCO 291154Z AUTO 26006KT 10SM BKN023 OVC075 01/M01 A2950 RMK AO2
KHCO 291214Z AUTO 26005KT 10SM SCT025 OVC075 01/M01 A2950 RMK AO2
KHCO 291234Z AUTO 27003KT 10SM OVC075 01/M01 A2950 RMK AO2
KHCR 291155Z AUTO 00000KT 10SM CLR M03/M05 A3015 RMK AO2
KHCR 291215Z AUTO 00000KT 10SM CLR M03/M06 A3015 RMK AO2
KHCR 291235Z AUTO 00000KT 10SM CLR M03/M05 A3015 RMK AO2
KHDC 291155Z AUTO 24003KT 10SM CLR 02/01 A3008 RMK AO2
KHDC 291215Z AUTO 00000KT 10SM CLR 02/01 A3009 RMK AO2
KHDC 291235Z AUTO 00000KT 10SM CLR 02/01 A3008 RMK AO2
KHDE 291155Z AUTO 26007KT 10SM CLR 02/M02 A2977 RMK AO2 T00241025 10037 20007
KHDE 291215Z AUTO 27006KT 10SM CLR 03/M02 A2977 RMK AO2 T00251021
KHDE 291235Z AUTO 27008KT 10SM CLR 03/M02 A2977 RMK AO2 T00301016
KHDN 291156Z AUTO 13008KT 10SM CLR M01/M04 A3017 RMK AO2 SLP204 T10111039 10022 21011 56007 FZRANO
KHDO 291151Z AUTO 02004KT 10SM CLR 01/M07 A3014 RMK AO2 SLP201 T00061067 10022 20000 58003 $
KHEF 291156Z 00000KT 10SM FEW031 OVC060 16/16 A2962 RMK AO2 SLP042 6//// 7//// T01560156 10172 20156 56017 PNO $
KHEF 291215Z 00000KT 7SM BKN018 BKN031 OVC060 16/16 A2962 RMK AO2 PNO $
KHEF 291230Z 00000KT 8SM -RA OVC014 16/16 A2962 RMK AO2 RAB26 PNO $
KHEI 291153Z AUTO 35008KT 10SM OVC110 09/02 A2971 RMK AO2 SLP069 T00890017 10089 20039 53013
KHEQ 291150Z AUTO 29011KT 10SM CLR 08/00 A2986 RMK AO2
KHEQ 291210Z AUTO 28009KT 10SM CLR 07/00 A2985 RMK AO2
KHEQ 291230Z AUTO 28010KT 10SM CLR 07/00 A2985 RMK AO2
KHEY 291158Z AUTO 30005KT 10SM CLR 03/02 A2990 RMK AO2 SLP128 70013 T00300021 10072 20030 52008 $
KHEZ 291156Z AUTO 17003KT 10SM CLR M01/M02 A3008 RMK AO2 SLP191 T10111017 10028 21011 53006 FZRANO
KHFD 291153Z 00000KT 7SM FEW050 FEW060 OVC075 17/15 A2985 RMK AO2 RAB1056E37 SLP109 6//// 7//// T01720150 10172 20139 58006 PNO
KHFF 291156Z AUTO 19005KT 10SM SCT060 BKN100 17/16 A2957 RMK AO2 SLP027 T01680163 10178 20159 57014 $
KHFF 291158Z AUTO 19005KT 10SM FEW006 SCT055 BKN095 17/16 A2957 RMK AO2 SLP027 $
KHFF 291230Z AUTO 15006KT 9SM BKN005 BKN095 17/17 A2956 RMK AO2 CIG 005V095 SLP023 $
KHFF 291240Z AUTO 16005KT 7SM BKN004 BKN100 17/17 A2956 RMK AO2 SLP023 $
KHFJ 291150Z AUTO 13006KT 10SM CLR M01/M07 A2992 RMK AO2
KHFJ 291210Z AUTO 14005KT 10SM CLR M01/M06 A2992 RMK AO2
KHFJ 291230Z AUTO 13006KT 10SM CLR M01/M06 A2991 RMK AO2
KHFY 291155Z AUTO 00000KT 10SM OVC034 03/M01 A2992 RMK AO2 7//// T00331009 10042 20032
KHFY 291215Z AUTO 00000KT 10SM OVC032 04/M02 A2992 RMK AO2 T00351017
KHGR 291150Z 12003KT 10SM FEW020 BKN036 OVC060 16/15 A2963
KHHF 291155Z AUTO 00000KT 10SM CLR 04/M01 A2995 RMK AO2 T00401010 10061 20030
KHHF 291215Z AUTO 00000KT 10SM CLR 04/M01 A2995 RMK AO2 T00431010
KHHF 291235Z AUTO 00000KT 10SM CLR 05/M01 A2995 RMK AO2 T00521009
KHHG 291155Z AUTO 24005KT 10SM OVC046 01/M01 A2988 RMK AO2 T00131006 10020 20013
KHHG 291215Z AUTO 27004KT 10SM OVC046 01/M01 A2988 RMK AO2 T00131007
KHHG 291235Z AUTO 24006KT 10SM OVC046 01/M01 A2988 RMK AO2 T00131007
KHHR 291153Z AUTO 10003KT 3SM BR OVC006 17/16 A2987 RMK AO2 SLP113 T01670156 10172 20167 58005
KHHR 291235Z AUTO 00000KT 2 1/2SM BR OVC005 17/16 A2987 RMK AO2 T01670156
KHHV 291155Z AUTO 02008G16KT 10SM BKN049 19/07 A3009 RMK A01
KHHV 291215Z AUTO 03008KT 10SM BKN048 19/08 A3010 RMK A01
KHHV 291235Z AUTO 01006KT 10SM SCT050 19/07 A3010 RMK A01
KHHW 291155Z AUTO 12003KT 10SM CLR M01/M03 A3000 RMK AO2 T10061030 10024 21006
KHHW 291215Z AUTO 00000KT 10SM CLR 00/M03 A3000 RMK AO2 T10051030
KHHW 291235Z AUTO 11003KT 10SM CLR M01/M03 A2999 RMK AO2 T10061030
KHIB 291153Z AUTO 17006KT 10SM SCT011 OVC055 M03/M04 A2963 RMK AO2 SLP055 T10331044 11033 21044 58011
KHIE 291152Z AUTO 32004KT 10SM OVC070 08/07 A2990 RMK AO2 SLP131 T00780072 10078 20039 55001
KHIF 291158Z AUTO 11013KT 10SM CLR 06/M01 A3009 RMK AO2 SLP166 T00581014 10083 20058 57009
KHII 291150Z AUTO 13005KT 10SM CLR 18/M03 A2985 RMK AO2
KHII 291210Z AUTO 12004KT 10SM CLR 18/M03 A2985 RMK AO2
KHII 291230Z AUTO 11004KT 10SM FEW050 18/M03 A2985 RMK AO2
KHIO 291148Z 00000KT 6SM BR BKN004 OVC009 07/06 A2999 RMK AO2
KHIO 291153Z 00000KT 5SM BR OVC004 07/07 A3000 RMK AO2 SLP156 T00720067 10089 20039 55001
KHIO 291241Z 00000KT 6SM BR OVC005 08/07 A3000 RMK AO2 CIG 002V008 T00780072
KHJH 291155Z AUTO 24004KT 10SM CLR 00/M08 A2977 RMK AO2 T00041076 10026 21018
KHJH 291215Z AUTO 26004KT 10SM CLR 02/M07 A2978 RMK AO2 T00161075
KHJH 291235Z AUTO 26003KT 10SM CLR 00/M07 A2978 RMK AO2 T00011072
KHJO 291153Z AUTO 00000KT 2 1/2SM BR CLR 11/11 A2986 RMK AO2 SLP113 T01060106 10144 20106 56004
KHJO 291206Z AUTO 00000KT 1 1/2SM BR CLR 11/10 A2988 RMK AO2 T01060100
KHJO 291232Z AUTO 00000KT 2SM BR CLR 10/10 A2987 RMK AO2 T01000100
KHKA 291153Z AUTO 30005KT 10SM CLR M01/M02 A3002 RMK AO2 SLP166 T10111017 10039 21011 53003 $
KHKS 291153Z 00000KT 10SM CLR 01/01 A3004 RMK AO2 SLP170 T00060006 10033 20006 51004
KHKY 291153Z 30009KT 10SM OVC005 10/10 A2959 RMK AO2 RAE01 CIG 003V008 SLP006 P0000 60033 70141 T01000100 10133 20100 53000
KHKY 291230Z 30008KT 10SM OVC011 09/08 A2959 RMK AO2 T00940083
KHLB 291155Z AUTO 00000KT 10SM FEW019 BKN026 OVC030 01/01 A2989 RMK A01
KHLB 291215Z AUTO 00000KT 10SM OVC032 01/01 A2989 RMK A01
KHLB 291235Z AUTO 00000KT 10SM OVC033 01/01 A2989 RMK A01
KHLC 291153Z AUTO 27007KT 10SM CLR 03/01 A2983 RMK AO2 SLP106 T00330006 10033 21006 56013
KHLG 291151Z AUTO 31008KT 10SM FEW008 BKN032 OVC042 02/01 A2978 RMK AO2 $
KHLG 291153Z AUTO 30007KT 10SM FEW008 BKN032 OVC042 02/00 A2978 RMK AO2 SLP095 60010 70059 I6000 T00170000 10028 20017 56012 $
KHLG 291212Z AUTO 32007KT 10SM BKN010 OVC032 02/01 A2978 RMK AO2 T00170006 $
KHLG 291227Z AUTO 34010KT 10SM BKN008 BKN012 OVC029 02/01 A2977 RMK AO2 T00170006 $
KHLN 291153Z 32008KT 10SM OVC042 09/03 A3005 RMK AO2 SLP184 T00890028 10094 20011 53025
KHLR 291158Z AUTO 00000KT 10SM CLR 04/M05 A3005 RMK AO2 SLP177 T00391050 10064 20039 57008 $
KHLX 291155Z AUTO 30009KT 7SM OVC003 03/01 A2964 RMK AO2 60051 70249 T00330013 10103 20033
KHLX 291215Z AUTO 30007KT 10SM OVC003 03/01 A2964 RMK AO2 T00310011
KHLX 291235Z AUTO 30009KT 10SM OVC003 03/01 A2965 RMK AO2 T00300010
KHME 291150Z AUTO 22012KT //// // ////// 31/M05 Q1014
KHMN 291158Z AUTO 05003KT 10SM CLR 02/M03 A3015 RMK AO2 SLP183 T00241031 10051 20024 58002 $
KHMP 291155Z AUTO 30005KT 10SM BKN022 03/01 A2979 RMK AO2 T00300006 10061 20030
KHMP 291215Z AUTO 31004KT 10SM BKN024 03/01 A2980 RMK AO2 T00280006
KHMP 291235Z AUTO 32005KT 10SM BKN026 03/01 A2981 RMK AO2 T00280005
KHMZ 291155Z AUTO 31009KT 2SM -SN OVC008 06/05 A2969 RMK AO2 P0011 60042 70109 T00600053 10072 20057
KHMZ 291215Z AUTO 31007KT 5SM -SN OVC012 06/06 A2969 RMK AO2 P0001 T00610055
KHMZ 291235Z AUTO 33008KT 7SM -SN OVC014 06/05 A2967 RMK AO2 P0002 T00620054
KHNB 291156Z AUTO 30003KT 10SM OVC037 02/00 A2995 RMK AO2 SLP145 60000 T00170000 10022 20017 50002 FZRANO
KHND 291156Z AUTO 16008KT 10SM CLR 14/01 A2997 RMK AO2 SLP132 T01440006 10172 20144 58004 $
KHNR 291155Z AUTO 19004KT 10SM CLR M00/M07 A2980 RMK AO2
KHNR 291215Z AUTO 19006KT 10SM CLR 00/M07 A2979 RMK AO2
KHNR 291235Z AUTO 20004KT 10SM CLR M01/M06 A2979 RMK AO2
KHNZ 291145Z AUTO 15005KT 2SM BR OVC003 15/14 A2960 RMK AO2 T01470143
KHNZ 291205Z AUTO 17005KT 1 3/4SM BR OVC003 15/14 A2960 RMK AO2 T01470143
KHNZ 291225Z AUTO 18004KT 1/2SM FG OVC003 15/15 A2959 RMK AO2 T01480145
KHOB 291150Z 25008KT 10SM SKC 05/M09 A3008
KHOE 291155Z AUTO 31014KT 10SM CLR 06/03 A2980 RMK AO2
KHOE 291215Z AUTO 31009KT 10SM CLR 06/03 A2981 RMK AO2
KHOE 291235Z AUTO 31011KT 10SM CLR 07/03 A2981 RMK AO2
KHON 291155Z AUTO 16003KT 10SM -RA OVC080 04/02 A2961 RMK AO2 SLP035 P0001 60001 70001 T00440022 10056 20044 58011 $
KHOP 291158Z 34004KT 10SM OVC038 03/00 A2995 RMK AO2A SLP147 T00281004 58003 $
KHOT 291153Z AUTO 00000KT 10SM CLR M01/M02 A3004 RMK AO2 SLP175 T10111022 10006 21017 56002
KHOU 291153Z 00000KT 10SM CLR 05/01 A3012 RMK AO2 SLP203 T00500011 10089 20039 50000
KHPN 291156Z 13011KT 7SM -RA BKN005 OVC010 17/16 A2979 RMK AO2 SLP086 P0003 60031 70031 T01670156 10172 20156 56020
KHQG 291155Z AUTO 28007KT 10SM CLR 03/M01 A2993 RMK AO2 T00331013 10050 20033
KHQG 291215Z AUTO 29005KT 10SM CLR 03/M01 A2993 RMK AO2 T00331010
KHQG 291235Z AUTO 32004KT 10SM CLR 03/00 A2993 RMK AO2 T00331005
KHQI 291155Z AUTO 36013KT 10SM CLR 16/04 A3008 RMK A01
KHQI 291215Z AUTO 35012G17KT 10SM CLR 17/05 A3008 RMK A01
KHQI 291235Z AUTO 35012KT 10SM CLR 17/05 A3008 RMK A01
KHQM 291153Z AUTO 05004KT 7SM OVC010 12/11 A2998 RMK AO2 SLP157 T01170106 10122 20117 58006
KHQU 291155Z AUTO 32008KT 290V020 10SM OVC016 05/03 A2976 RMK AO2 T00530032 10122 20052 60002 70038
KHQU 291215Z AUTO 32007KT 10SM SCT016 05/03 A2975 RMK AO2 T00470030
KHQU 291235Z AUTO 33007KT 10SM CLR 05/03 A2975 RMK AO2 T00470028
KHQZ 291150Z 16004KT 10SM CLR M01/M03 A3004
KHRI 291149Z AUTO 00000KT 2 1/2SM BR CLR 02/01 A3001 RMK AO2 $
KHRI 291153Z AUTO 00000KT 2 1/2SM BR CLR 02/02 A3001 RMK AO2 SLP162 T00170017 10039 20006 53002 $
KHRI 291200Z AUTO 00000KT 3SM BR CLR 01/01 A3001 RMK AO2 T00110011 $
KHRI 291216Z AUTO 14003KT 2 1/2SM BR CLR 02/02 A3001 RMK AO2 T00220022 $
KHRI 291226Z AUTO 12003KT 3/4SM BR CLR 01/01 A3001 RMK AO2 T00110011 $
KHRJ 291145Z AUTO 00000KT OVC002 17/17 A2959 RMK AO2 T01700166 PWINO
KHRJ 291205Z AUTO 00000KT OVC002 17/17 A2959 RMK AO2 T01670165 PWINO
KHRJ 291225Z AUTO 00000KT OVC002 17/17 A2958 RMK AO2 T01670165 PWINO
KHRL 291152Z 31006KT 10SM CLR 04/00 A3014 RMK AO2 SLP205 T00440000 10094 20044 53002
KHRO 291153Z AUTO 00000KT 10SM CLR M03/M06 A2997 RMK AO2 SLP158 T10331056 10017 21033 58006
KHRT 291156Z AUTO 33007KT 10SM CLR 04/02 A2995 RMK AO2 SLP144 70003 T00440021 10078 20044 51010 $
KHRX 291155Z AUTO 10SM CLR 05/M03 A3004 RMK AO2 T00501030 10062 20037
KHRX 291215Z AUTO 10SM CLR 05/M03 A3004 RMK AO2 T00501030
KHRX 291235Z AUTO 10SM CLR 05/M03 A3004 RMK AO2 T00501031
KHSA 291155Z 00000KT 10SM CLR 02/02 A3007
KHSB 291155Z AUTO 31005KT 10SM OVC038 03/M01 A2998 RMK AO2 7//// T00251015 10032 20023
KHSB 291215Z AUTO 32005KT 10SM OVC038 03/M02 A2998 RMK AO2 T00251025
KHSB 291235Z AUTO 00000KT 10SM OVC040 02/M03 A2998 RMK AO2 T00211026
KHSD 291155Z AUTO 22005KT 10SM CLR 05/M06 A2989 RMK A01
KHSD 291215Z AUTO 22006KT 10SM CLR 05/M06 A2990 RMK A01
KHSD 291235Z AUTO 23006KT 10SM CLR 04/M05 A2990 RMK A01
KHSE 291151Z AUTO 18014G23KT 9SM -RA SCT095 BKN120 22/21 A2966 RMK AO2 PK WND 16030/1117 SLP045 P0003 60010 70010 T02220206 10250 20217 58010 TSNO $
KHSG 291150Z AUTO 00000KT 10SM CLR M01/M05 A2990 RMK AO2 T10071048 10058 21019
KHSG 291210Z AUTO 25005KT 10SM CLR 02/M03 A2990 RMK AO2 T00161034
KHSG 291230Z AUTO 24003KT 10SM CLR 01/M04 A2990 RMK AO2 T00111042
KHSI 291153Z AUTO 23006KT 10SM CLR 02/M04 A2976 RMK AO2 SLP085 T00221044 10028 20006 56017
KHSP 291155Z AUTO 00000KT 3/4SM RA BKN003 BKN018 OVC042 07/07 A2962 RMK AO2 P0007 60035 70065 T00690069 10098 20069
KHSP 291215Z AUTO 00000KT M1/4SM -RA OVC003 06/06 A2963 RMK AO2 T00550055
KHSP 291235Z AUTO 00000KT M1/4SM SN OVC003 05/05 A2962 RMK AO2 T00500050
KHST 291158Z AUTO 29010KT 10SM CLR 21/21 A2969 RMK AO2 SLP057 60017 70117 T02120210 10248 20211 52034
KHSV 291153Z 34012KT 10SM OVC029 04/M01 A2993 RMK AO2 SLP137 T00391011 10050 20039 51005 $
KHTH 291155Z AUTO 15003KT 10SM CLR 07/M01 A3006 RMK A01
KHTH 291215Z AUTO 18004KT 10SM CLR 07/M01 A3006 RMK A01
KHTH 291235Z AUTO 00000KT 10SM CLR 07/M00 A3006 RMK A01
KHTL 291148Z AUTO 00000KT 3/4SM BR VV001 M02/M04 A2984
KHTL 291148Z AUTO 00000KT 3/4SM BR VV001 M02/M04 A2984 RMK AO2
KHTL 291153Z AUTO 00000KT 3/4SM BR VV001 M03/M03 A2984 RMK AO2 SLP116 70003 I1000 I6002 T10331033 10011 21033 50007
KHTL 291157Z AUTO 00000KT 1 1/4SM BR BKN001 M03/M04 A2984
KHTL 291157Z AUTO 00000KT 1 1/4SM BR BKN001 M03/M04 A2984 RMK AO2 T10331039
KHTL 291211Z AUTO 00000KT 3/4SM BR VV001 M03/M04 A2984
KHTL 291211Z AUTO 00000KT 3/4SM BR VV001 M03/M04 A2984 RMK AO2 T10331044
KHTL 291241Z AUTO 08003KT 1 1/4SM BR FEW001 M03/M03 A2984
KHTL 291241Z AUTO 08003KT 1 1/4SM BR FEW001 M03/M03 A2984 RMK AO2 VIS 3/4V2 I1000 T10281033
KHTO 291155Z AUTO 13011G17KT 10SM OVC070 18/15 A2985 RMK AO2 T01770147 10177 20171
KHTO 291215Z AUTO 12010G15KT 10SM SCT032 OVC070 18/15 A2985 RMK AO2 T01760147
KHTO 291235Z AUTO 13010G16KT 10SM -RA BKN029 BKN034 OVC070 18/15 A2985 RMK AO2 T01760149
KHTS 291151Z 31005KT 10SM SCT017 BKN037 OVC060 02/00 A2984 RMK AO2 RAB1056E25 SLP107 P0000 60000 70026 T00220000 10028 20022 58001
KHUA 291158Z AUTO 36007KT 10SM OVC027 03/M02 A2992 RMK AO2 SLP135 T00311017 10042 20031 52005
KHUF 291153Z 29004KT 10SM OVC030 02/M04 A2993 RMK AO2 SLP139 T00221039 10022 20022 58002
KHUL 291153Z AUTO 16006KT 8SM OVC006 12/11 A3000 RMK AO2 SLP160 T01170111 10117 20083 53006
KHUM 291150Z 35006KT 7SM SKC 05/04 A3007
KHUT 291152Z 29003KT 10SM CLR 00/M07 A2986 RMK AO2 SLP111 T00001072 10028 21028 56008
KHVE 291155Z AUTO 25003KT 10SM CLR 02/M05 A3012 RMK AO2
KHVE 291215Z AUTO 00000KT 10SM CLR 00/M07 A3012 RMK AO2
KHVE 291235Z AUTO 00000KT 10SM CLR 00/M06 A3012 RMK AO2
KHVN 291153Z 14009KT 10SM BKN047 OVC055 18/16 A2984 RMK AO2 RAE1056 SLP104 P0000 60000 T01830156 10189 20178 56010
KHVR 291153Z AUTO 33012KT 10SM -RA FEW055 OVC085 05/02 A3007 RMK AO2 RAB10 SLP184 P0000 60003 70003 T00500017 10117 20050 51036
KHVS 291155Z AUTO 16003KT 1/4SM FG OVC002 15/15 A2957 RMK AO2
KHVS 291215Z AUTO 20003KT 1/4SM FG OVC002 15/15 A2958 RMK AO2
KHVS 291235Z AUTO 20003KT 2 1/2SM BR SCT002 OVC014 15/15 A2957 RMK AO2
KHWD 291154Z AUTO 34003KT 9SM OVC006 13/10 A2990 RMK AO2 SLP135 6//// 7//// T01280100 10133 20128 58007 PNO
KHWO 291153Z 30013G21KT 10SM OVC007 23/21 A2969 RMK AO2 SLP052 60001 7//// T02280206 10244 20222 52030 $
KHWV 291151Z AUTO 17007KT 10SM -RA BKN016 OVC031 19/17 A2984 RMK AO2 RAB29 P0001
KHWV 291156Z AUTO 17007KT 10SM -RA BKN016 OVC031 19/17 A2984 RMK AO2 RAB29 SLP103 P0001 60001 70001 T01890167 10200 20183 55006
KHWV 291218Z AUTO VRB06KT 6SM -RA BR SCT016 BKN030 OVC044 19/17 A2982 RMK AO2 P0001 T01890172
KHWV 291240Z AUTO 17010KT 6SM -RA BR BKN015 OVC029 19/17 A2982 RMK AO2 P0002 T01890167
KHWY 291155Z AUTO 00000KT 7SM -RA BKN017 OVC034 16/15 A2962 RMK AO2 T01620145 10170 20156
KHWY 291215Z AUTO 05003KT 5SM DZ OVC012 16/15 A2961 RMK AO2 T01630146
KHWY 291235Z AUTO 03004KT 5SM -DZ OVC012 16/15 A2960 RMK AO2 T01640147
KHXD 291150Z 31006KT 10SM OVC012 18/16 A2963
KHYA 291156Z 13004KT 10SM CLR 16/14 A2995 RMK AO2 SLP143 T01610144 10161 20144 55003
KHYI 291156Z 28004KT 10SM CLR 02/M04 A3013 RMK AO2 SLP201 T00221044 10022 20000 56005 $
KHYR 291153Z AUTO 17009KT 10SM BKN014 OVC095 M02/M05 A2975 RMK AO2 SLP091 T10221050 11017 21028 56014
KHYR 291214Z AUTO 18007KT 10SM SCT014 OVC095 M02/M05 A2974 RMK AO2 T10171050
KHYS 291156Z AUTO 29006KT 10SM CLR 00/M03 A2984 RMK AO2 SLP111 T00001028 10017 21017 56012 FZRANO
KHYW 291155Z AUTO 00000KT 3SM BR SCT110 16/16 A2960 RMK AO2
KHYW 291215Z AUTO 00000KT 4SM BR BKN120 16/16 A2958 RMK AO2
KHYW 291235Z AUTO 00000KT 5SM -RA BKN120 17/17 A2958 RMK AO2
KHYX 291154Z AUTO 26004KT 10SM OVC030 02/01 A2984 RMK AO2
KHYX 291214Z AUTO 27004KT 10SM SCT017 SCT030 02/01 A2984 RMK AO2
KHYX 291233Z AUTO 00000KT 10SM CLR 01/01 A2985 RMK AO2
KHZD 291155Z AUTO 32005KT 10SM OVC040 04/01 A2997 RMK A01
KHZD 291215Z AUTO 33003KT 10SM OVC039 04/01 A2997 RMK A01
KHZD 291235Z AUTO 33003KT 10SM OVC038 04/02 A2997 RMK A01
KHZL 291155Z AUTO 13009G18KT 110V180 10SM -RA BKN004 OVC011 15/13 A2973 RMK AO2 P0001
KHZL 291215Z AUTO 12010G21KT 7SM -RA BKN006 OVC011 15/13 A2970 RMK AO2 PNO
KHZL 291235Z AUTO 13013G20KT 10SM -RA BKN006 BKN018 OVC070 15/13 A2970 RMK AO2 P0002
KHZR 291155Z AUTO 25003KT 10SM CLR 02/01 A3009 RMK AO2 T00240014 10047 20024
KHZR 291215Z AUTO 00000KT 10SM CLR 02/02 A3009 RMK AO2 T00220015
KHZR 291235Z AUTO 00000KT 10SM CLR 02/02 A3008 RMK AO2 T00210015
KHZX 291155Z AUTO 17008KT 10SM OVC065 M01/M03 A2964 RMK AO2
KHZX 291214Z AUTO 17009KT 10SM BKN065 OVC090 M01/M03 A2963 RMK AO2
KHZX 291235Z AUTO 16010KT 10SM SCT065 OVC090 M01/M03 A2963 RMK AO2
KHZY 291153Z AUTO 00000KT 10SM FEW028 BKN046 OVC070 03/02 A2981 RMK AO2 SLP100 70023 T00280017 10033 20028 57006
KI16 291155Z AUTO 3SM BR BKN009 OVC013 02/01 A2981 RMK AO2 T00220012 10041 20022
KI16 291215Z AUTO 3SM BR OVC009 02/01 A2982 RMK AO2 T00200010
KI16 291235Z AUTO 3SM BR BKN007 OVC012 02/01 A2982 RMK AO2 T00200010
KI19 291150Z AUTO 00000KT 10SM OVC034 03/00 A2988 RMK AO2 70001 T00301001 10035 20030
KI19 291211Z AUTO 00000KT 10SM OVC034 03/00 A2988 RMK AO2 T00281004
KI19 291231Z AUTO 00000KT 10SM OVC036 03/00 A2988 RMK AO2 T00281004
KI23 291151Z AUTO 32007KT 10SM OVC035 02/00 A2985 RMK AO1
KI23 291211Z AUTO 31007KT 10SM OVC035 02/00 A2985 RMK AO1
KI23 291232Z AUTO 31006KT 10SM OVC035 02/00 A2985 RMK AO1
KI35 291155Z AUTO 00000KT 4SM BKN012 BKN018 OVC035 01/00 A2982 RMK AO1
KI35 291215Z AUTO 00000KT 4SM BKN012 BKN016 OVC037 01/00 A2982 RMK AO1
KI35 291235Z AUTO 00000KT 2SM OVC012 01/00 A2982 RMK AO1
KI63 291155Z AUTO 18003KT 10SM CLR M06/M06 A2991 RMK AO2 T10581062 11038 21058
KI63 291215Z AUTO 17003KT 10SM CLR M06/M06 A2991 RMK AO2 T10591064
KI63 291235Z AUTO 18003KT 10SM CLR M06/M06 A2991 RMK AO2 T10601065
KI67 291155Z AUTO 00000KT 10SM SCT028 OVC039 02/00 A2990 RMK AO1
KI67 291215Z AUTO 00000KT 10SM OVC039 02/00 A2990 RMK AO1
KI67 291235Z AUTO 00000KT 10SM OVC039 02/00 A2990 RMK AO1
KI68 291155Z AUTO 34004KT 10SM OVC031 02/00 A2988 RMK AO2
KI68 291215Z AUTO 36005KT 10SM OVC033 02/00 A2988 RMK AO2
KI68 291235Z AUTO 31003KT 10SM OVC033 02/00 A2988 RMK AO2
KI69 291156Z AUTO 31004KT 10SM OVC030 03/00 A2988 RMK AO2 70001 T00320002 10035 20031
KI69 291216Z AUTO 30006KT 10SM OVC030 03/00 A2988 RMK AO2 T00310004
KI69 291236Z AUTO 30005KT 10SM OVC030 03/01 A2988 RMK AO2 T00310005
KI75 291155Z AUTO 19009KT 10SM BKN100 BKN120 03/M07 A2979 RMK AO2 T00271071 10030 21015
KI75 291215Z AUTO 19008KT 10SM OVC090 03/M07 A2981 RMK AO2 T00261069
KI75 291235Z AUTO 19008KT 10SM OVC090 03/M07 A2981 RMK AO2 T00251069
KIAB 291156Z AUTO 23004KT 10SM CLR 00/M06 A2986 RMK AO2 SLP121 T10021060 10028 21003 55008
KIAD 291152Z 00000KT 9SM MIFG SCT025 BKN065 16/16 A2962 RMK AO2 SLP030 60001 70001 T01560156 10167 20150 56020
KIAG 291153Z 05003KT 6SM -RA OVC050 06/03 A2982 RMK AO2 SLP105 P0004 60014 70021 T00610028 10067 20056 58004
KIAH 291153Z 24003KT 10SM CLR 02/01 A3013 RMK AO2 SLP202 T00220006 10067 20022 53002
KIBM 291155Z AUTO 27014KT 10SM CLR 08/M02 A2987 RMK AO2 T00791016 10096 20022
KIBM 291215Z AUTO 29016KT 10SM CLR 09/M02 A2987 RMK AO2 T00901018
KIBM 291235Z AUTO 29017KT 10SM CLR 09/M02 A2986 RMK AO2 T00901018
KICL 291155Z AUTO 19004KT 10SM SCT075 SCT120 00/M07 A2982 RMK AO2 PWINO
KICL 291215Z AUTO 19005KT 10SM OVC075 00/M07 A2982 RMK AO2 PWINO
KICL 291235Z AUTO 20006KT 10SM BKN075 M00/M06 A2982 RMK AO2 PWINO
KICR 291153Z AUTO 24007KT 10SM CLR 11/02 A2966 RMK AO2 SLP046 T01110017 10117 20044 58010
KICT 291153Z 22003KT 10SM CLR M01/M06 A2987 RMK AO2 SLP122 T10061056 10028 21017 56008
KIDA 291153Z AUTO 00000KT 8SM CLR M02/M02 A3007 RMK AO2 SLP181 T10171022 10028 21028 58010
KIDI 291155Z AUTO VRB06KT 5SM BR OVC004 04/04 A2979 RMK A01
KIDI 291215Z AUTO 29004KT 2 1/2SM BR OVC005 04/04 A2979 RMK A01
KIDI 291235Z AUTO 06005KT 3SM BR OVC005 04/04 A2974 RMK A01
KIDP 291155Z AUTO 16003KT 10SM CLR 00/M05 A2990 RMK AO2 T10021050 10002 21020
KIDP 291215Z AUTO 16004KT 10SM CLR 00/M05 A2990 RMK AO2 T00031052
KIDP 291235Z AUTO 16005KT 10SM CLR 00/M05 A2990 RMK AO2 T00031050
KIEN 291152Z AUTO 26006KT 10SM CLR 08/00 A2974 RMK AO2 SLP070 T00780000 10094 20033 56020
KIER 291155Z AUTO 00000KT 10SM CLR M02/M02 A3009 RMK AO2 T10221022 10030 21023
KIER 291215Z AUTO 00000KT 10SM CLR M02/M02 A3009 RMK AO2 T10251025
KIER 291235Z AUTO 00000KT 10SM CLR M02/M02 A3009 RMK AO2 T10251025
KIFA 291155Z AUTO 14005KT 10SM OVC090 M01/M03 A2979 RMK AO2 T10061031 11006 21030
KIFA 291215Z AUTO 15004KT 10SM OVC080 00/M03 A2979 RMK AO2 T10051030
KIFA 291235Z AUTO 16006KT 10SM OVC080 00/M03 A2977 RMK AO2 T10021028
KIFP 291155Z AUTO 00000KT 10SM CLR 20/M01 A2984 RMK AO2
KIFP 291215Z AUTO 21005KT 10SM CLR 19/M01 A2985 RMK AO2
KIFP 291235Z AUTO VRB04KT 10SM CLR 18/M01 A2985 RMK AO2
KIGM 291151Z AUTO 00000KT 10SM CLR 10/M03 A2999 RMK AO2 SLP102 T01001033 10150 20094 55006 $
KIGQ 291155Z AUTO 26003KT 10SM CLR M01/M02 A2990 RMK AO2 T10061018 10028 21007
KIGQ 291215Z AUTO 27003KT 10SM CLR M01/M02 A2990 RMK AO2 T10061017
KIGQ 291235Z AUTO 26003KT 10SM CLR M01/M02 A2990 RMK AO2 T10061018
KIGX 291151Z AUTO 00000KT 1SM BR VV002 17/17 A2959 RMK AO2
KIGX 291156Z AUTO 09003KT 3/4SM BR VV002 17/17 A2959 RMK AO2 SLP015 60000 70022 T01670167 10167 20161 56010
KIGX 291203Z AUTO 00000KT 1/2SM FG VV002 17/17 A2959 RMK AO2 T01670167
KIGX 291237Z AUTO 10003KT 1SM BR VV002 17/17 A2958 RMK AO2 T01670167
KIIB 291155Z AUTO 16009KT 10SM SCT100 M03/M04 A2983 RMK AO2 T10301041
KIIB 291215Z AUTO 15008KT 10SM SCT100 M03/M04 A2983 RMK AO2 T10261039
KIIB 291235Z AUTO 15009KT 10SM SCT100 M02/M04 A2982 RMK AO2 T10241037
KIIY 291155Z AUTO 26008KT 10SM CLR 03/02 A2969 RMK AO2 TSNO
KIIY 291215Z AUTO 26008KT 10SM CLR 03/02 A2969 RMK AO2 TSNO
KIIY 291235Z AUTO 27011G16KT 10SM CLR 04/02 A2969 RMK AO2 TSNO
KIJD 291152Z AUTO VRB03KT 10SM OVC080 17/14 A2988 RMK AO2 SLP117 60000 T01720144 10172 20128 58006 $
KIJX 291155Z AUTO 00000KT 10SM CLR M05/M05 A2994 RMK AO2 T10461053 11017 21050
KIJX 291215Z AUTO 00000KT 10SM CLR M04/M04 A2993 RMK AO2 T10361045
KIJX 291235Z AUTO 19004KT 10SM CLR M03/M04 A2993 RMK AO2 T10301042
KIKG 291155Z AUTO 00000KT 10SM CLR 03/00 A3016 RMK AO2 T00271004 10053 20025
KIKG 291215Z AUTO 28003KT 10SM CLR 03/00 A3016 RMK AO2 T00251002
KIKG 291235Z AUTO 29003KT 10SM CLR 03/00 A3016 RMK AO2 T00271004
KIKK 291155Z AUTO 28005KT 10SM OVC050 01/M02 A2992 RMK AO2 T00061018 10022 20004
KIKK 291215Z AUTO 28004KT 10SM OVC050 00/M02 A2992 RMK AO2 T00041020
KIKK 291235Z AUTO 28004KT 10SM BKN050 00/M02 A2992 RMK AO2 T00001021
KIKT 291200Z AUTO 30010G17KT 10SM BKN036 BKN043 15/07 A2999 RMK A01
KIKT 291220Z AUTO VRB06G14KT 10SM BKN035 15/08 A3000 RMK A01
KIKT 291240Z AUTO 30009G21KT 260V330 10SM OVC036 15/07 A3000 RMK A01
KIKV 291155Z AUTO 00000KT 10SM SCT080 OVC090 01/M05 A2982 RMK AO2
KIKV 291215Z AUTO 17004KT 10SM OVC085 01/M04 A2981 RMK AO2
KIKV 291235Z AUTO 15005KT 10SM OVC080 01/M04 A2980 RMK AO2
KIKW 291154Z AUTO 32004KT 10SM SCT050 00/00 A2984 RMK AO2 T00000000 10041 20000
KIKW 291213Z AUTO 32003KT 10SM CLR 00/00 A2985 RMK AO2 T10011001
KIKW 291233Z AUTO 00000KT 10SM CLR 00/00 A2986 RMK AO2 T00000000
KILE 291156Z AUTO 00000KT 10SM CLR 02/M05 A3009 RMK AO2 SLP213 T00171050 10056 20017 56007 FZRANO
KILG 291151Z 09003KT 10SM -RA OVC007 17/17 A2971 RMK AO2 RAB17 SLP061 P0001 60001 70001 T01720167 10178 20156 58016
KILM 291149Z 27003KT 3/4SM R35/4000VP6000FT +RA BR BKN025 BKN030 OVC038 20/19 A2962 RMK AO2 TWR VIS 1 RAB03 TSB1054E24 P0080
KILM 291153Z 23003KT 3/4SM R35/4000VP6000FT +RA BR FEW012 BKN025 OVC032 20/19 A2962 RMK AO2 TWR VIS 1 RAB03 TSB1054E24 SLP030 P0091 60211 70216 T02000194 10222 20200 55004
KILM 291157Z 23006KT 1SM R35/5000VP6000FT +RA BR FEW006 BKN025 OVC032 20/19 A2962 RMK AO2 P0005 T02000194
KILM 291221Z 17003KT 1SM R35/P6000FT -RA BR FEW008 BKN031 OVC040 19/19 A2961 RMK AO2 SFC VIS 3 P0018 T01940189
KILM 291237Z 16003KT 10SM OVC040 19/19 A2960 RMK AO2 RAE37 P0019 T01940189
KILN 291154Z AUTO 34008KT 10SM OVC032 03/00 A2985 RMK AO2 SLP130 70008 T00280000 10028 20022 50001
KIML 291153Z AUTO 29012KT 10SM CLR 06/00 A2983 RMK AO2 SLP108 T00560000 10061 20028 56008
KIMM 291155Z AUTO 30006KT 10SM BKN044 OVC050 19/18 A2974 RMK AO2
KIMM 291215Z AUTO 30007G12KT 10SM FEW022 OVC045 19/19 A2976 RMK AO2
KIMM 291235Z AUTO 31008KT 10SM BKN016 BKN023 OVC045 20/19 A2977 RMK AO2
KIMS 291153Z AUTO 28005KT 10SM SCT013 OVC032 02/00 A2992 RMK AO1
KIMS 291212Z AUTO 29005KT 10SM SCT013 OVC032 02/00 A2992 RMK AO1
KIMS 291233Z AUTO 27005KT 10SM SCT013 OVC032 02/00 A2993 RMK AO1
KIMT 291154Z AUTO 00000KT 10SM CLR M06/M08 A2980 RMK AO2 SLP108 I1000 I6001 T10611083 11033 21067 56009
KIND 291154Z 30004KT 10SM OVC031 02/M04 A2991 RMK AO2 SLP134 60000 T00171039 10022 20017 50001 $
KINF 291155Z AUTO 30005KT 10SM OVC014 15/14 A2977 RMK AO2
KINF 291215Z AUTO 29006KT 10SM OVC014 15/13 A2979 RMK AO2
KINF 291235Z AUTO 29007KT 10SM BKN012 14/13 A2980 RMK AO2
KINJ 291155Z AUTO 16003KT 10SM CLR 02/M04 A3006 RMK AO2 T00161040 10048 20011
KINJ 291215Z AUTO 16004KT 10SM CLR 02/M05 A3005 RMK AO2 T00171048
KINJ 291235Z AUTO 16004KT 10SM CLR 02/M04 A3005 RMK AO2 T00171045
KINK 291153Z AUTO 01005KT 10SM CLR 00/M07 A3009 RMK AO2 SLP181 T00001067 10033 21006 56007 $
KINL 291155Z AUTO 15009G14KT 10SM OVC060 M01/M04 A2953 RMK AO2 SLP018 60000 T10111039 11011 21028 56028
KINS 291158Z AUTO 00000KT 10SM CLR 10/M05 A2998 RMK AO2 SLP118 T01001048 10149 20088 57004 $
KINT 291154Z 33003KT 10SM -RA BKN007 OVC011 14/14 A2957 RMK AO2 RAB15 SLP008 P0008 60010 70010 T01390139 10156 20139 56012 $
KINW 291156Z AUTO 11003KT 10SM CLR 02/M08 A3013 RMK AO2 SLP172 T00221083 10100 20017 53000
KIOB 291155Z AUTO 32003KT 10SM OVC033 02/00 A2988 RMK AO2
KIOB 291215Z AUTO 00000KT 10SM OVC035 02/00 A2988 RMK AO2
KIOB 291235Z AUTO 34003KT 10SM OVC035 02/00 A2988 RMK AO2
KIOW 291152Z AUTO 00000KT 10SM CLR M03/M06 A2989 RMK AO2 SLP130 I6001 T10331056 11028 21050 56015
KIPJ 291155Z AUTO 00000KT 2SM BR BKN004 OVC014 14/14 A2958 RMK AO2 60011 70015 T01350135 10141 20131
KIPJ 291215Z AUTO 00000KT 7SM BKN004 BKN016 OVC070 14/14 A2957 RMK AO2 T01370137
KIPJ 291235Z AUTO 26004KT 10SM BKN004 OVC018 14/14 A2957 RMK AO2 T01400140
KIPL 291153Z AUTO 27004KT 10SM CLR 17/01 A2978 RMK AO2 SLP083 T01670006 10228 20161 55001 $
KIPT 291154Z 26003KT 9SM -RA SCT004 OVC013 12/11 A2967 RMK AO2 SLP046 P0014 60076 70094 T01170111 10133 20111 58008
KIPT 291201Z 25006KT 6SM RA BR BKN004 OVC011 11/11 A2967 RMK AO2 P0002 T01110111
KIPT 291229Z 26012KT 7SM -RA FEW005 OVC010 11/11 A2967 RMK AO2 CIG 007V012 P0007 T01110106
KIRK 291155Z AUTO 20004KT 10SM CLR M02/M03 A2988 RMK AO2 SLP130 I6000 T10221028 11022 21061 58013
KIRS 291154Z AUTO 24004KT 10SM SCT037 OVC046 01/00 A2984 RMK AO2 T00130000 10019 20000
KIRS 291215Z AUTO 00000KT 10SM SCT039 OVC044 02/00 A2984 RMK AO2 T00150000
KIRS 291234Z AUTO 23004KT 10SM OVC039 02/00 A2984 RMK AO2 T00160000
KISM 291156Z 29012KT 9SM BKN005 OVC012 19/19 A2972 RMK AO2 CIG 004V009 SLP066 70004 T01940189 10206 20189 51010
KISM 291221Z 29012KT 10SM SCT005 BKN009 OVC023 18/18 A2974
KISM 291221Z 29012KT 10SM SCT005 BKN009 OVC023 18/18 A2974 RMK AO2 RAB09E20 P0000
KISN 291152Z AUTO 33011KT 10SM OVC100 09/01 A2975 RMK AO2 SLP078 60000 T00890006 10128 20089 53012
KISO 291156Z 15004KT 7SM SCT060 BKN090 19/19 A2962 RMK AO2
KISP 291151Z 13010KT 1 1/2SM RA BR BKN004 BKN019 OVC036 17/17 A2981 RMK AO2 SFC VIS 3 P0016
KISP 291156Z 14009KT 1 1/2SM RA BR BKN004 BKN019 OVC036 17/17 A2982 RMK AO2 SFC VIS 3 SLP096 P0018 60025 70025 T01720167 10183 20167 58012
KISP 291238Z 14007KT 3/4SM R06/4500VP6000FT +RA BR BKN004 BKN010 OVC026 17/17 A2981 RMK AO2 SFC VIS 1 P0018 T01720167
KISQ 291155Z AUTO 00000KT 10SM CLR M04/M07 A2983 RMK AO2 70002 T10421069 11019 21047
KISQ 291215Z AUTO 00000KT 10SM CLR M04/M06 A2983 RMK AO2 T10371065
KISQ 291235Z AUTO 00000KT 10SM CLR M05/M07 A2983 RMK AO2 T10461074
KISW 291154Z AUTO 00000KT 10SM CLR M06/M07 A2985 RMK AO2 SLP123 I6001 T10561072 11022 21056 56007 $
KITH 291156Z 29005KT 3SM +RA BR BKN004 OVC039 07/06 A2977 RMK AO2 SLP082 P0041 60109 70120 T00670061 10072 20061
KITH 291223Z 30007KT 2SM RA BR BKN005 OVC035 06/06 A2977 RMK AO2 P0008
KITR 291153Z AUTO 27011KT 10SM CLR 04/M01 A2990 RMK AO2 SLP114 T00391006 10056 20022 56009
KIWA 291147Z 09004KT 20SM SKC 15/M03 A2989
KIWD 291156Z AUTO 20006G16KT 10SM BKN014 M03/M06 A2976 RMK AO2 SLP095 60002 70006 T10331056 11022 21039 56010 FZRANO
KIWD 291207Z AUTO 20010KT 10SM SCT014 M03/M06 A2975 RMK AO2 FZRANO
KIWI 291153Z AUTO 18005KT 10SM BKN008 OVC031 14/13 A3000 RMK AO2 CIG 006V011 SLP160 60000 T01440128 10144 20139 53001
KIWI 291226Z AUTO 00000KT 10SM SCT009 BKN035 OVC045 14/13 A3001 RMK AO2 T01440133
KIXA 291150Z AUTO 00000KT 1/4SM FG OVC001 16/16 A2961 RMK AO2
KIXA 291210Z AUTO 00000KT 1/2SM FG OVC001 16/16 A2960 RMK AO2
KIXA 291230Z AUTO 15003KT 1/4SM FG OVC001 16/16 A2961 RMK AO2
KIXD 291153Z 17007KT 10SM CLR M02/M06 A2987 RMK AO2 SLP122 T10221061 11011 21033 56018
KIYA 291215Z AUTO 34003KT 10SM CLR 01/01 A3008 RMK AO2
KIYA 291235Z AUTO 24003KT 10SM CLR 02/02 A3010 RMK AO2
KIZA 291155Z AUTO 28003KT 3/4SM BR OVC001 09/09 A2988 RMK AO2
KIZA 291215Z AUTO 00000KT 1/4SM FG OVC001 09/09 A2988 RMK AO2
KIZA 291235Z AUTO 30003KT 1/2SM FG OVC001 08/08 A2989 RMK AO2
KIZG 291154Z AUTO 00000KT 3SM -RA BR OVC005 12/12 A2995 RMK AO2 RAB21 CIG 004V008 SLP145 P0001 60001 70001 T01170117 10128 20106 55000
KIZG 291227Z AUTO 00000KT 3SM -RA BR OVC004 12/12 A2996 RMK AO2 CIG 002V007 P0000 T01170117
KIZG 291231Z AUTO 31003KT 2 1/2SM -RA BR OVC002 12/12 A2996 RMK AO2 CIG 002V005 P0000 T01170117
KJAC 291156Z 02004KT 10SM CLR M05/M07 A3012 RMK AO2 SLP209 T10501067 11011 21050 56012 FZRANO
KJAN 291154Z 00000KT 10SM CLR 01/M01 A3004 RMK AO2 SLP171 T00111006 10039 20006 51004
KJAQ 291155Z AUTO 10008KT 10SM CLR 19/07 A2990 RMK AO1 T01900073 10225 20185
KJAQ 291215Z AUTO 10008KT 10SM CLR 19/07 A2990 RMK AO1 T01900066
KJAQ 291235Z AUTO 10009KT 10SM CLR 19/06 A2990 RMK AO1 T01880063
KJAS 291155Z AUTO 00000KT 10SM CLR M01/M01 A3013 RMK AO2 T10061006
KJAS 291215Z AUTO 00000KT 10SM CLR 00/00 A3013 RMK AO2 T10041004
KJAS 291235Z AUTO 00000KT 10SM CLR 00/00 A3013 RMK AO2 T10041004
KJAU 291155Z AUTO 00000KT 10SM OVC015 02/M00 A2987 RMK A01
KJAU 291215Z AUTO 00000KT 10SM BKN017 OVC023 02/M01 A2987 RMK A01
KJAU 291235Z AUTO 00000G10KT 10SM OVC019 02/M01 A2988 RMK A01
KJAX 291156Z 30009KT 10SM OVC012 16/13 A2971 RMK AO2 SLP061 T01610128 10222 20161 53016 $
KJBR 291153Z AUTO 33005KT 10SM CLR 00/M02 A3002 RMK AO2 SLP167 T00001022 10011 21011 51004
KJCA 291155Z AUTO 29008KT 10SM CLR 03/02 A2968 RMK AO2
KJCA 291215Z AUTO 29008KT 10SM CLR 03/02 A2968 RMK AO2
KJCA 291235Z AUTO 29010KT 10SM CLR 04/02 A2969 RMK AO2
KJCT 291151Z AUTO 26003KT 10SM CLR M02/M08 A3012 RMK AO2 SLP186 T10221078 10011 21022 56011
KJDD 291155Z AUTO 00000KT 10SM CLR M02/M02 A3005 RMK AO2
KJDD 291215Z AUTO 00000KT 10SM CLR M02/M02 A3005 RMK AO2
KJDD 291235Z AUTO 00000KT 10SM CLR M01/M02 A3004 RMK AO2
KJDN 291148Z AUTO 33015KT 06/03 A2993 RMK AO1 PK WND 35032/1103 SLP141 T00610033 10117 20056 53044
KJEF 291153Z 10003KT 10SM CLR M03/M06 A2996 RMK AO2 SLP140 T10331056 11006 21033 58008
KJER 291153Z AUTO 07008KT 10SM CLR 06/02 A3002 RMK AO2 SLP150 T00610022 10072 20044 56012
KJFK 291151Z 13013KT 10SM BKN007 BKN012 OVC085 17/17 A2979 RMK AO2 RAB13E50 TSB08E23 SLP088 P0000 60006 70006 T01670167 10183 20156 56017
KJFX 291155Z AUTO 02006KT 10SM BKN032 04/M01 A2996 RMK AO2 PWINO
KJFX 291215Z AUTO 10SM OVC033 04/M01 A2997 RMK AO2 PWINO
KJFX 291235Z AUTO 02006KT 10SM OVC034 04/M01 A2997 RMK AO2 PWINO
KJFZ 291155Z AUTO 33006KT 1/2SM FG OVC003 00/00 A2974 RMK AO2 70106 T00020000 10020 20002
KJFZ 291215Z AUTO 33006KT 1 3/4SM BR OVC003 00/00 A2974 RMK AO2 VIS 1/2V5 T00020000
KJFZ 291235Z AUTO 33006KT 2 1/2SM BR BKN003 OVC008 00/00 A2974 RMK AO2 T00010000
KJGG 291155Z AUTO 00000KT 7SM SCT030 SCT049 BKN090 19/19 A2961 RMK AO1 P0007
KJGG 291215Z AUTO 16007KT 10SM SCT110 19/19 A2961 RMK AO1
KJGG 291235Z AUTO 18006KT 10SM SCT110 19/19 A2962 RMK AO1 P0001
KJHN 291155Z AUTO 27008KT 10SM CLR 03/M01 A2993 RMK AO2 T00281010 10060 20023
KJHN 291215Z AUTO 28008KT 10SM CLR 02/M01 A2993 RMK AO2 T00211012
KJHN 291235Z AUTO 28007KT 10SM CLR 02/M01 A2992 RMK AO2 T00181013
KJHW 291156Z AUTO 36007KT 9SM UP SCT009 OVC028 03/02 A2978 RMK AO2 RAE45UPB45 SLP101 6//// 7//// T00280022 10028 20022 56002 PNO $
KJHW 291214Z AUTO 02008KT 1 1/2SM -RA BR SCT002 BKN028 OVC033 03/02 A2975 RMK AO2 VIS 1/2V5 UPE1159RAB1159 PRESFR PNO $
KJHW 291217Z AUTO 02007KT 3/4SM -RA BR SCT002 BKN009 OVC028 03/02 A2975 RMK AO2 VIS 1/4V4 UPE1159RAB1159 RVRNO PNO $
KJHW 291225Z AUTO 02006KT 1SM -RA BR BKN002 BKN009 OVC030 03/02 A2977 RMK AO2 UPE1159RAB1159 RVRNO PNO $
KJHW 291228Z AUTO 36005KT 2SM -RA BR BKN002 BKN007 OVC030 03/02 A2977 RMK AO2 UPE1159RAB1159 CIG 001V006 PNO $
KJHW 291235Z AUTO 01004KT 6SM -RA BR OVC005 03/02 A2978 RMK AO2 UPE1159RAB1159 CIG 001V010 PRESRR PNO $
KJKA 291155Z AUTO 31005KT 10SM CLR 04/01 A3000 RMK AO2 T00430005 10071 20041
KJKA 291215Z AUTO 31004KT 10SM CLR 04/00 A3002 RMK AO2 T00430003
KJKA 291235Z AUTO 32006KT 10SM CLR 05/00 A3003 RMK AO2 T00460001
KJKJ 291154Z AUTO 18005KT 10SM SCT090 02/M04 A2955 RMK AO2
KJKJ 291213Z AUTO 20004KT 10SM SCT080 02/M04 A2956 RMK AO2
KJKJ 291234Z AUTO 18006KT 10SM SCT080 02/M04 A2955 RMK AO2
KJKL 291153Z AUTO 00000KT 9SM OVC021 01/00 A2984 RMK AO2 SLP110 60003 70043 T00110000 10022 20006 57002
KJLN 291153Z 16008KT 10SM CLR M01/M05 A2992 RMK AO2 SLP137 T10061050 10006 21017 58014
KJLN 291153Z COR 17008KT 10SM CLR M01/M05 A2992 RMK AO2 SLP137 T10061050 10006 21017 58014
KJMR 291158Z AUTO 18008KT 10SM SCT070 BKN085 00/M03 A2970 RMK AO2
KJMR 291218Z AUTO 18006KT 10SM BKN060 BKN080 00/M02 A2970 RMK AO2
KJMR 291238Z AUTO 17006KT 10SM OVC060 00/M02 A2968 RMK AO2
KJMS 291156Z AUTO 29007KT 10SM SCT050 BKN075 OVC090 09/02 A2955 RMK AO2 SLP014 T00890022 10094 20028 53001
KJNX 291150Z AUTO 00000KT 1/4SM FG OVC002 16/16 A2959 RMK AO2 LTG DSNT SE
KJNX 291210Z AUTO 00000KT 1SM BR OVC002 17/17 A2959 RMK AO2
KJNX 291230Z AUTO 00000KT 1/4SM FG OVC002 17/17 A2959 RMK AO2
KJOT 291155Z AUTO 00000KT 10SM OVC040 03/M01 A2991 RMK AO2 T00251012 10032 20025
KJOT 291215Z AUTO 00000KT 10SM OVC040 03/M01 A2991 RMK AO2 T00251011
KJOT 291235Z AUTO 27004KT 10SM OVC040 02/M01 A2991 RMK AO2 T00241010
KJQF 291150Z 26003KT 5SM -RA BR BKN009 OVC014 16/16 A2959
KJRB 291155Z 13005KT 10SM OVC007 17/16 RMK AO2 61000 76000 10190 20170 PWINO FZRANO RVRNO
KJRB 291156Z AUTO VRB06G16KT 10SM OVC007 17/16 RMK AO2 RAB22E42 CIG 006V011 SLPNO P0000 60001 70017 T01720161 10189 20167 $
KJRB 291215Z 14008KT 10SM OVC009 17/16 RMK AO2 PWINO FZRANO RVRNO
KJRB 291235Z VRB06KT 10SM OVC011 17/16 RMK AO2 PWINO FZRANO RVRNO
KJRB 291238Z AUTO 10007KT 060V130 10SM OVC011 17/16 RMK AO2 CIG 008V014 $
KJSL 291200Z AUTO 35007G20KT 290V040 10SM BKN042 A3002 RMK A01
KJSL 291220Z AUTO 35008G18KT 260V020 10SM BKN042 A3003 RMK A01
KJSL 291240Z AUTO 36009G16KT 280V040 9SM BKN040 A3002 RMK A01
KJSO 291155Z AUTO 21004KT 10SM CLR 04/M05 A3009 RMK AO2 T00441054
KJSO 291215Z AUTO 22004KT 10SM CLR 03/M05 A3009 RMK AO2 T00391051
KJSO 291235Z AUTO 20004KT 10SM CLR 04/M05 A3009 RMK AO2 T00441053
KJST 291154Z AUTO 32007KT 2 1/2SM -RA BR OVC003 04/03 A2969 RMK AO2 SLP066 P0005 60052 70100 T00390033 10044 20033 56010
KJST 291201Z AUTO 32006KT 4SM RA BR OVC003 04/03 A2970 RMK AO2 P0001 T00390033
KJST 291226Z AUTO 32006KT 1 3/4SM RA BR OVC004 04/03 A2969 RMK AO2 P0006 T00390033
KJST 291238Z AUTO 34005KT 3SM -RA BR OVC004 04/03 A2968 RMK AO2 P0007 T00390033
KJSV 291155Z AUTO 06005KT 10SM CLR M01/M04 A3000 RMK AO2
KJSV 291215Z AUTO 06005KT 10SM CLR M01/M04 A2999 RMK AO2
KJSV 291235Z AUTO 07006KT 10SM CLR M01/M04 A2998 RMK AO2
KJTC 291155Z AUTO 20006KT 10SM CLR M01/M08 A3020 RMK AO2
KJTC 291215Z AUTO 22007KT 10SM CLR M00/M08 A3020 RMK AO2
KJTC 291235Z AUTO 19008KT 10SM CLR M00/M08 A3020 RMK AO2
KJVL 291145Z 00000KT 10SM BKN042 M01/M03 A2988 RMK FIRST
KJVW 291155Z AUTO 00000KT 7SM M00/M01 A3005 RMK AO2
KJVW 291215Z AUTO 00000KT 7SM M00/M01 A3005 RMK AO2
KJVW 291235Z AUTO 00000KT 5SM BR M00/M00 A3006 RMK AO2
KJWG 291155Z AUTO 25006KT 10SM CLR 05/M02 A2991 RMK AO2 T00521025 10073 20047
KJWG 291215Z AUTO 26004KT 10SM CLR 04/M02 A2991 RMK AO2 T00371020
KJWG 291235Z AUTO 26003KT 10SM CLR 05/M02 A2991 RMK AO2 T00461020
KJWN 291155Z AUTO 30006KT 10SM OVC028 03/M01 A2993 RMK A01
KJWN 291215Z AUTO 32006KT 10SM OVC028 03/M01 A2993 RMK A01
KJWN 291235Z AUTO 32005G10KT 10SM BKN028 OVC036 03/M01 A2993 RMK A01
KJWY 291155Z AUTO 22004KT 10SM CLR 05/M07 A3005 RMK AO2 T00521071 10052 20018
KJWY 291215Z AUTO 23003KT 10SM CLR 06/M06 A3004 RMK AO2 T00551064
KJWY 291235Z AUTO 22006KT 10SM CLR 06/M06 A3004 RMK AO2 T00581059
KJXI 291155Z AUTO 16003KT 10SM CLR M01/M02 A3006 RMK AO2 T10061017 10005 21011
KJXI 291215Z AUTO 17003KT 10SM CLR M01/M02 A3006 RMK AO2 T10081020
KJXI 291235Z AUTO 00000KT 10SM CLR 00/M02 A3006 RMK AO2 T00001020
KJXN 291156Z 00000KT 10SM BKN019 BKN027 OVC043 02/00 A2985 RMK AO2 SLP115 T00220000 10028 20022 53004
KJYG 291155Z AUTO 17007KT 10SM OVC090 02/M06 A2970 RMK AO2
KJYG 291215Z AUTO 17007KT 10SM BKN100 01/M05 A2969 RMK AO2
KJYG 291235Z AUTO 16009KT 10SM SCT100 01/M06 A2968 RMK AO2
KJYL 291155Z AUTO 30012G17KT 10SM BKN010 OVC014 10/09 A2969 RMK AO2 T01020089 10190 20102
KJYL 291215Z AUTO 28007KT 10SM BKN010 OVC014 10/08 A2970 RMK AO2 T00960080
KJYL 291235Z AUTO 29009KT 10SM OVC012 09/07 A2970 RMK AO2 T00900070
KJYM 291155Z AUTO 25003KT 10SM OVC035 01/00 A2983 RMK AO2
KJYM 291215Z AUTO 24003KT 10SM BKN035 OVC045 01/00 A2983 RMK AO2
KJYM 291235Z AUTO 00000KT 10SM SCT037 OVC045 01/00 A2984 RMK AO2
KJYO 291155Z AUTO 00000KT 10SM OVC010 16/16 A2963 RMK AO2
KJYO 291215Z AUTO 00000KT 10SM BKN012 OVC019 16/16 A2963 RMK AO2
KJYO 291235Z AUTO 00000KT 10SM OVC014 16/16 A2963 RMK AO2
KJYR 291155Z AUTO 00000KT 10SM CLR M01/M05 A2977 RMK AO2
KJYR 291215Z AUTO 00000KT 10SM CLR 00/M05 A2976 RMK AO2
KJYR 291240Z AUTO 21006KT 10SM CLR 00/M05 A2975 RMK AO2
KJZI 291155Z AUTO 27006KT 10SM OVC090 19/18 A2959 RMK AO2
KJZI 291215Z AUTO 27003KT 10SM FEW090 19/18 A2960 RMK AO2
KJZI 291235Z AUTO 27006G11KT 10SM FEW009 FEW049 19/18 A2960 RMK AO2
KJZP 291155Z AUTO 33015G25KT 10SM UP OVC013 02/00 A2978 RMK AO2 6//// 7//// T00150002 10030 20015 PNO
KJZP 291215Z AUTO 32016G24KT 10SM OVC015 01/00 A2978 RMK AO2 T00140000 PNO
KJZP 291235Z AUTO 32016G26KT 10SM OVC015 02/00 A2978 RMK AO2 T00150000 PNO
KK88 291155Z AUTO RMK AO1 6//// 7////
KK88 291215Z AUTO RMK AO1 PNO
KK88 291235Z AUTO RMK AO1 PNO
KKLS 291156Z AUTO 00000KT 10SM OVC011 12/10 A3000 RMK AO2 SLP162 T01170100 10117 20111 58007
KKY8 291155Z AUTO 32005KT 10SM FEW013 OVC038 02/00 A2995 RMK AO1
KKY8 291215Z AUTO 33004KT 10SM OVC038 02/00 A2995 RMK AO1
KKY8 291235Z AUTO 32005KT 10SM OVC038 02/00 A2995 RMK AO1
KL18 291155Z AUTO 00000KT 1SM BR OVC003 14/14 A2989 RMK AO2
KL18 291215Z AUTO 00000KT 3/4SM BR OVC003 14/14 A2989 RMK AO2
KL18 291235Z AUTO 00000KT 1 1/4SM BR OVC003 14/14 A2989 RMK AO2
KL35 291155Z AUTO 00000KT 10SM CLR 00/M08 A3017 RMK AO2
KL35 291215Z AUTO 00000KT 10SM CLR 00/M08 A3017 RMK AO2
KL35 291235Z AUTO 00000KT 10SM CLR 00/M08 A3017 RMK AO2
KLAA 291153Z AUTO 23010KT 10SM CLR 04/M02 A2993 RMK AO2 SLP122 T00391022 10044 21006 56009
KLAF 291154Z 29004KT 10SM OVC050 01/M02 A2992 RMK AO2 SLP135 T00111017 10017 20011 53001
KLAL 291150Z 31014G22KT 10SM BKN008 OVC033 18/18 A2975
KLAM 291155Z AUTO 00000KT 10SM SCT100 06/M04 A3017 RMK AO2 T00551045 10081 20050
KLAM 291215Z AUTO 00000KT 10SM BKN100 05/M04 A3017 RMK AO2 T00451045
KLAM 291235Z AUTO 00000KT 10SM BKN100 04/M04 A3018 RMK AO2 T00401045
KLAN 291153Z 00000KT 10SM OVC037 03/02 A2985 RMK AO2 SLP115 60000 T00330017 10039 20033 53003
KLAR 291153Z AUTO 19010KT 10SM CLR 00/M04 A3003 RMK AO2 SLP139 T00001039 10017 21033 56013
KLAS 291156Z 20004KT 10SM CLR 17/01 A2994 RMK AO2 SLP120 T01670006 10206 20167 57003
KLAW 291153Z AUTO 26003KT 10SM CLR 03/M03 A2995 RMK AO2 SLP144 T00281033 10028 20000 56013 PWINO $
KLAX 291153Z 00000KT 3SM BR OVC007 17/16 A2987 RMK AO2 SLP112 VIS SW-NW 1 1/4 T01670156 10167 20161 58005
KLBB 291153Z 28009KT 10SM CLR 02/M04 A3004 RMK AO2 SLP164 T00171044 10044 20017 57008
KLBE 291145Z 30003KT 4SM -RA BKN006 BKN010 OVC017 03/03 A2978
KLBF 291153Z AUTO 32007KT 10SM CLR 00/M02 A2980 RMK AO2 SLP102 T00001017 10000 21033 55005
KLBO 291155Z AUTO 00000KT 10SM CLR M02/M05 A2995 RMK AO2
KLBO 291215Z AUTO 20007KT 10SM CLR M02/M05 A2994 RMK AO2
KLBO 291235Z AUTO 21006KT 10SM CLR M01/M05 A2994 RMK AO2
KLBT 291154Z AUTO 14003KT 1/4SM FG VV003 16/16 A2958 RMK AO2 SLP014 70037 T01560156 10183 20150 58012
KLBT 291206Z AUTO 13003KT 1 1/4SM BR FEW003 16/16 A2958 RMK AO2 T01610161
KLBT 291210Z AUTO 00000KT 3SM BR FEW003 16/16 A2958 RMK AO2 T01610161
KLBX 291153Z AUTO 00000KT 10SM CLR 01/M01 A3013 RMK AO2 SLP202 T00061006 10044 20006 50002 $
KLCG 291155Z AUTO 20006KT 10SM CLR 04/M04 A2969 RMK AO2 T00371040 10044 21002
KLCG 291215Z AUTO 20007KT 10SM SCT120 04/M04 A2968 RMK AO2 T00351042
KLCG 291235Z AUTO 20008KT 10SM SCT120 04/M04 A2967 RMK AO2 T00351045
KLCH 291153Z 00000KT 10SM CLR 03/01 A3010 RMK AO2 SLP200 T00330011 10078 20022 55001 $
KLCI 291156Z AUTO 00000KT 2 1/2SM -RA BR BKN008 OVC017 14/13 A2993 RMK AO2 VIS 2V4 RAB34 SLP155 P0000 60000 T01440133 10144 20128 55002
KLCI 291203Z AUTO 00000KT 3SM -RA BR SCT008 BKN019 OVC047 14/13 A2993 RMK AO2 P0000
KLCI 291234Z AUTO 06004KT 8SM -RA BKN011 BKN016 OVC049 13/13 A2993 RMK AO2 P0000
KLCK 291155Z AUTO 33009KT 10SM OVC043 03/01 A2983 RMK AO2 T00310014 PWINO
KLCK 291215Z AUTO 33011KT 10SM OVC043 03/01 A2983 RMK AO2 T00310013 PWINO
KLCK 291235Z AUTO 32007KT 10SM SCT015 OVC043 03/01 A2984 RMK AO2 T00310014 PWINO
KLCQ 291155Z AUTO 30013G17KT 10SM OVC012 10/07 A2978 RMK AO2
KLCQ 291215Z AUTO 33011KT 10SM OVC014 10/07 A2979 RMK AO2
KLCQ 291235Z AUTO 31011G18KT 10SM OVC014 10/06 A2980 RMK AO2
KLDJ 291155Z AUTO 00000KT 10SM OVC007 17/16 A2977 RMK AO2 T01670155 10179 20160
KLDJ 291215Z AUTO 00000KT 10SM OVC009 17/16 A2977 RMK AO2 T01690155
KLDJ 291235Z AUTO 16007KT 10SM SCT008 OVC013 17/16 A2977 RMK AO2 T01700156
KLDM 291155Z AUTO 00000KT 10SM SCT026 BKN037 OVC043 03/02 A2984 RMK AO2 60004 70037 T00250017 10029 20016
KLDM 291215Z AUTO 00000KT 10SM BKN033 OVC039 03/02 A2984 RMK AO2 T00250015
KLDM 291235Z AUTO 00000KT 10SM BKN026 OVC032 03/02 A2984 RMK AO2 T00270016
KLEB 291153Z VRB03KT 5SM -RA BR BKN020 BKN037 OVC070 14/13 A2987 RMK AO2 RAE17B37 SLP111 P0002 60003 70003 T01390133 10150 20122 55002
KLEB 291213Z 00000KT 8SM -RA FEW022 BKN043 OVC070 14/13 A2987 RMK AO2 P0000 T01440133
KLEB 291228Z 00000KT 9SM -RA SCT022 BKN028 OVC043 14/13 A2987 RMK AO2 P0000 T01440133
KLEB 291235Z VRB03KT 10SM SCT024 BKN033 OVC043 15/13 A2987 RMK AO2 RAE29 P0000 T01500133
KLEE 291153Z 29014G20KT 10SM OVC011 18/17 A2973 RMK AO2 SLP067 60000 70010 T01830172 10217 20183 53014
KLEW 291156Z AUTO 16005KT 10SM -RA OVC004 13/13 A2997 RMK AO2 RAB23 SLP166 P0000 60000 T01330133 10133 20111 55001
KLEX 291154Z 31004KT 10SM OVC028 03/M01 A2988 RMK AO2 SLP123 70004 T00281006 10028 20028 58000 $
KLFI 291156Z AUTO 21010KT 8SM FEW016 FEW100 20/19 A2962 RMK AO2 PK WND 18026/20 RAE26RAB30E43 SLP037 P0001 60052 70052 T01950190 10197 20183 56023 VISNO RWY26 CHINO RWY26 $
KLFK 291153Z AUTO 00000KT 10SM CLR M01/M02 A3011 RMK AO2 SLP198 I6001 T10111017 10011 21017 53003
KLFT 291153Z 00000KT 10SM CLR 06/01 A3008 RMK AO2 SLP185 T00560006 10072 20039 50001
KLGA 291151Z 15010KT 10SM BKN011 OVC016 17/16 A2978 RMK AO2 RAE10 SLP083 P0001 60010 70010 T01720161 10183 20161 57005
KLGB 291153Z AUTO 06004KT 3SM BR OVC005 18/16 A2987 RMK AO2 SLP113 T01780156 10178 20167 58004
KLGB 291211Z AUTO 04003KT 2 1/2SM BR OVC005 18/16 A2987 RMK AO2 T01780156
KLGB 291227Z AUTO 07003KT 3SM BR OVC005 18/16 A2986 RMK AO2 T01780156
KLGC 291155Z AUTO 33009G17KT 10SM OVC027 05/00 A2985 RMK AO2 T00480000 10058 20045
KLGC 291215Z AUTO 33008KT 10SM OVC027 05/00 A2985 RMK AO2 T00480003
KLGC 291235Z AUTO 33008KT 10SM OVC023 05/00 A2985 RMK AO2 T00480003
KLGD 291156Z AUTO 30003KT 10SM CLR 05/03 A3000 RMK AO2 SLP295 T00500033 10139 20022 55003
KLGU 291151Z AUTO 00000KT 10SM CLR 01/M02 A3010 RMK AO2 SLP180 T00061022 10050 21017 58007 $
KLHB 291155Z AUTO 00000KT 10SM CLR 00/00 A3012 RMK AO2 T10031003 10014 21007
KLHB 291230Z AUTO 00000KT 10SM CLR 00/M01 A3012 RMK AO2 T10031006
KLHM 291155Z AUTO 05004KT 10SM CLR 08/07 A2985 RMK AO1
KLHM 291215Z AUTO 00000KT 10SM CLR 08/07 A2985 RMK AO1
KLHM 291235Z AUTO 05004KT 10SM CLR 08/07 A2985 RMK AO1
KLHQ 291153Z AUTO 31006KT 10SM OVC041 03/01 A2983 RMK AO2 SLP107 70010 T00280011 10028 20000 58003
KLHW 291156Z AUTO 28013G19KT 10SM OVC015 13/09 A2967 RMK AO2 SLP050 T01270093 10179 20127 53011 $
KLHW 291206Z AUTO 25013G20KT 10SM OVC013 13/09 A2968 RMK AO2 SLP053 $
KLHW 291226Z AUTO 29012KT 10SM BKN009 OVC013 12/09 A2969 RMK AO2 CIG 009V013 SLP057 $
KLHX 291153Z AUTO 26009KT 10SM CLR 03/M02 A2996 RMK AO2 SLP127 T00331022 10067 20022 56010 TSNO
KLHZ 291200Z AUTO 00000KT M1/4SM FG OVC001 15/15 A2962 RMK AO2
KLHZ 291220Z AUTO 00000KT M1/4SM FG OVC001 15/15 A2962 RMK AO2
KLHZ 291240Z AUTO 00000KT M1/4SM FG OVC001 15/15 A2961 RMK AO2
KLIC 291155Z AUTO 36005KT 10SM CLR 00/M04 A2996 RMK AO2 SLP133 T00001039 10028 21011 56011
KLIT 291153Z 23004KT 10SM CLR M02/M03 A3005 RMK AO2 SLP180 T10171028 10011 21017 50003
KLJF 291153Z AUTO 16003KT 10SM SCT070 BKN095 02/M03 A2966 RMK AO2 TSNO
KLJF 291213Z AUTO 16004KT 10SM SCT095 02/M03 A2965 RMK AO2 TSNO
KLJF 291233Z AUTO 16003KT 10SM BKN085 02/M03 A2964 RMK AO2 TSNO
KLKR 291155Z AUTO 23007KT 10SM BKN008 OVC017 16/16 A2958 RMK AO2
KLKR 291215Z AUTO 25006KT 9SM SCT008 OVC017 16/16 A2958 RMK AO2
KLKR 291235Z AUTO 23010KT 7SM SCT008 BKN017 OVC070 15/15 A2957 RMK AO2
KLKU 291155Z AUTO 00000KT 7SM -RA OVC007 15/14 A2965 RMK AO2 T01490144 10160 20149 60005 70005
KLKU 291215Z AUTO 10003KT 10SM OVC005 15/15 A2963 RMK AO2 T01490145
KLKU 291235Z AUTO 00000KT 10SM OVC005 15/15 A2963 RMK AO2 T01500147
KLKV 291156Z AUTO 30011G18KT 10SM CLR M02/M04 A3007 RMK AO2 SLP176 6//// 7//// T10221039 10028 21022 56007 FZRANO PNO $
KLLJ 291155Z AUTO 00000KT 10SM CLR M02/M04 A3006 RMK AO2 SLP177 T10221039 10039 21022 56008
KLLQ 291153Z AUTO 28003KT 10SM CLR M01/M02 A3006 RMK AO2 SLP181 T10061022 10033 21006 53005
KLMO 291155Z AUTO 00000KT 10SM CLR 03/M02 A2995 RMK AO2 T00321020
KLMT 291153Z AUTO 00000KT 9SM CLR 00/M01 A3004 RMK AO2 SLP152 T00001006 10056 21006 56006
KLNA 291155Z AUTO 29011G15KT 10SM OVC007 21/21 A2965 RMK AO2 T02110205 10225 20211
KLNA 291215Z AUTO 29009G16KT 10SM OVC007 21/20 A2967 RMK AO2 T02110203
KLNA 291235Z AUTO 29009KT 10SM BKN009 OVC013 21/20 A2968 RMK AO2 T02120202
KLNC 291155Z AUTO 00000KT 10SM CLR 04/M07 A3004 RMK AO2 T00361070 10036 20000
KLNC 291215Z AUTO 23003KT 10SM CLR 04/M07 A3004 RMK AO2 T00421075
KLNC 291235Z AUTO 00000KT 10SM CLR 04/M07 A3004 RMK AO2 T00411073
KLND 291153Z AUTO 29004KT 10SM CLR 04/M02 A2993 RMK AO2 SLP113 T00391022 10083 20011 57012
KLNK 291154Z 18004KT 10SM CLR M01/M08 A2980 RMK AO2 SLP100 T10061083 10044 21011 55015
KLNL 291155Z AUTO 00000KT 10SM CLR M04/M04 A2978 RMK AO2 70001 T10401045 11014 21040
KLNL 291215Z AUTO 00000KT 10SM CLR M04/M05 A2978 RMK AO2 T10411047
KLNL 291235Z AUTO 00000KT 10SM CLR M04/M05 A2977 RMK AO2 T10411046
KLNN 291155Z AUTO 7SM OVC024 03/03 A2982 RMK AO1 P0001 60001 70013 T00280027 10028 20017
KLNN 291215Z AUTO 7SM OVC024 03/03 A2981 RMK AO1 T00290029
KLNN 291235Z AUTO 3SM OVC022 03/03 A2981 RMK AO1 T00300030
KLNP 291155Z AUTO 35009KT 4SM -SN OVC005 00/00 A2976 RMK AO2
KLNP 291215Z AUTO 34004KT 2 1/2SM -SN OVC005 00/00 A2977 RMK AO2 VIS 1V5
KLNP 291235Z AUTO 33005KT 1 1/4SM -SN OVC003 00/00 A2977 RMK AO2
KLNR 291156Z AUTO 00000KT 10SM CLR M05/M06 A2989 RMK AO2 SLP125 I1000 I6000 T10501056 11022 21061 55006
KLNS 291153Z 13008KT 10SM -RA BKN008 OVC075 17/16 A2967 RMK AO2 CIG 006V011 SLP044 P0004 60007 70007 T01670161 10167 20139 58021
KLOL 291153Z AUTO 00000KT 10SM CLR 01/M04 A3004 RMK AO2 SLP161 T00061039 10061 20000 58008 TSNO
KLOM 291155Z AUTO 09006KT 10SM OVC007 15/15 A2974 RMK AO1
KLOM 291215Z AUTO 11005KT 10SM OVC007 15/15 A2974 RMK AO1
KLOM 291235Z AUTO 11005KT 10SM OVC007 15/15 A2975 RMK AO1
KLOR 291158Z AUTO 30005KT 10SM CLR 03/02 A2990 RMK AO2 SLP109 70009 T00300020 10061 20030 52006 $
KLOT 291155Z AUTO 29006KT 10SM OVC038 01/M02 A2990 RMK AO2 T00101022 10023 20010
KLOT 291215Z AUTO 29005KT 10SM SCT038 00/M02 A2990 RMK AO2 T00021025
KLOT 291235Z AUTO 30004KT 10SM CLR 00/M03 A2990 RMK AO2 T00001026
KLOU 291153Z 30006KT 10SM OVC033 03/M01 A2993 RMK AO2 SLP137 T00331011 10044 20033 51003
KLOZ 291153Z AUTO 01004KT 10SM OVC028 02/M01 A2985 RMK AO2 SLP115 70029 T00171011 10022 20011 58003
KLOZ 291203Z AUTO 00000KT 10SM OVC030 02/M01 A2985 RMK AO2 T00171011
KLPC 291156Z AUTO 32003KT 3SM BR OVC003 12/11 A2989 RMK AO2 SLP127 T01170111 10122 20117 55005
KLPR 291153Z AUTO 28006KT 10SM OVC026 03/M01 A2983 RMK AO2 SLP108 70010 T00331006 10033 20006 56004
KLQK 291155Z AUTO 20004KT 10SM OVC003 07/07 A2962 RMK AO2 T00650065 10138 20065
KLQK 291215Z AUTO 00000KT 10SM OVC005 07/07 A2962 RMK AO2 T00650065
KLQK 291235Z AUTO 21004KT 4SM BR OVC003 06/06 A2961 RMK AO2 T00610061
KLRD 291156Z AUTO 00000KT 10SM CLR 06/M02 A3015 RMK AO2 SLP222 T00561022 10089 20050 53001
KLRF 291156Z AUTO 00000KT 10SM CLR M04/M05 A3003 RMK AO2 SLP175 T10391053 11008 21042 50004
KLRJ 291155Z AUTO 18006KT 10SM BKN110 02/M06 A2969 RMK AO2
KLRJ 291215Z AUTO 18005KT 10SM OVC110 02/M06 A2969 RMK AO2
KLRJ 291235Z AUTO 19003KT 10SM BKN080 OVC100 03/M06 A2968 RMK AO2
KLRO 291155Z AUTO 26004KT 10SM BKN090 20/18 A2959 RMK AO2
KLRO 291215Z AUTO 00000KT 10SM BKN090 19/18 A2960 RMK AO2
KLRO 291235Z AUTO 27004KT 10SM FEW010 BKN090 19/18 A2960 RMK AO2
KLRU 291155Z AUTO 00000KT 10SM CLR 03/M03 A3014 RMK AO2 T00271035 10086 20024
KLRU 291215Z AUTO 28003KT 10SM CLR 02/M04 A3014 RMK AO2 T00231036
KLRU 291235Z AUTO 00000KT 10SM CLR 02/M04 A3014 RMK AO2 T00201037
KLRY 291155Z AUTO 17004KT 10SM CLR M02/M05 A2992 RMK AO2
KLRY 291215Z AUTO 15004KT 10SM CLR M02/M05 A2992 RMK AO2
KLRY 291235Z AUTO 16005KT 10SM CLR M01/M05 A2990 RMK AO2
KLSE 291153Z 15003KT 10SM CLR M01/M04 A2984 RMK AO2 SLP114 T10061039 10011 21011 56013 $
KLSF 291156Z AUTO 28006KT 10SM BKN034 04/02 A2986 RMK AO2 SLP117 70017 T00360015 10045 20028 50006 $
KLSV 291158Z 16001KT 7SM SKC 12/M04 A2996 RMK SLP130 WND DATA ESTMD ALSTG/SLP ESTMD $
KLTS 291156Z AUTO 00000KT 10SM CLR 02/M07 A2994 RMK AO2 SLP144 T00171069 10038 20007 57010 $
KLUA 291155Z AUTO 05003KT 7SM -DZ OVC027 14/14 A2960 RMK AO2
KLUA 291215Z AUTO 00000KT 10SM OVC027 14/14 A2959 RMK AO2
KLUA 291235Z AUTO 00000KT 5SM BR SCT001 OVC023 14/14 A2958 RMK AO2
KLUD 291155Z AUTO 23007KT 10SM CLR 07/M11 A2997 RMK AO2 T00721115 10075 20060
KLUD 291215Z AUTO 23007KT 10SM CLR 07/M11 A2997 RMK AO2 T00701111
KLUD 291235Z AUTO 23007KT 10SM CLR 07/M11 A2997 RMK AO2 T00671108 PNO
KLUF 291158Z AUTO 35004KT 10SM CLR 14/03 A2985 RMK AO2 SLP099 T01430025 10197 20143 53001 $
KLUK 291153Z 34007KT 10SM OVC034 04/01 A2990 RMK AO2 SLP127 T00390011 10044 20039 50001
KLUL 291155Z AUTO 00000KT 10SM CLR 00/00 A3004 RMK AO2 T00020002
KLUL 291215Z AUTO 00000KT 10SM CLR 00/00 A3005 RMK AO2 T00020002
KLUL 291235Z AUTO 00000KT 10SM CLR 00/00 A3005 RMK AO2 T00020002
KLUM 291155Z AUTO 10004KT 10SM CLR M03/M04 A2979 RMK AO2 T10351043 11020 21037
KLUM 291215Z AUTO 12004KT 10SM SCT095 M04/M04 A2978 RMK AO2 T10361043
KLUM 291235Z AUTO 11005KT 10SM OVC085 M03/M04 A2977 RMK AO2 T10271036
KLUX 291155Z AUTO 24010G15KT 3SM BR OVC002 07/07 A2964 RMK AO2
KLUX 291215Z AUTO 27007KT 7SM OVC002 07/07 A2963 RMK AO2
KLUX 291235Z AUTO 27007KT 7SM OVC002 07/07 A2964 RMK AO2
KLVJ 291153Z AUTO 00000KT 10SM CLR 04/01 A3013 RMK AO2 SLP203 T00390006 10072 20033 50000
KLVK 291153Z AUTO 00000KT 3SM BR OVC004 11/11 A2989 RMK AO2 SLP118 T01110106 10144 20106 58003
KLVK 291200Z AUTO 00000KT 2 1/2SM BR OVC004 11/11 A2989 RMK AO2 T01110111
KLVL 291155Z AUTO 16003KT 3/4SM OVC002 16/16 A2961 RMK AO1 60056 70071 T01610156 10163 20155
KLVL 291215Z AUTO 00000KT 3/4SM OVC002 16/16 A2960 RMK AO1 T01620157
KLVL 291235Z AUTO 18003KT 1 1/2SM OVC002 16/16 A2960 RMK AO1 T01630158
KLVM 291153Z AUTO 25011KT 10SM BKN085 09/00 A2997 RMK AO2 SLP123 6//// 7//// T00940000 10161 20067 $
KLVN 291151Z AUTO 16006KT 10SM M01/M03 A2972 RMK AO2
KLVN 291211Z AUTO 16005KT 10SM BKN060 OVC080 M01/M03 A2971 RMK AO2
KLVN 291231Z AUTO 16004KT 10SM M01/M03 A2970 RMK AO2
KLVS 291153Z AUTO 31003KT 10SM CLR 02/M05 A3011 RMK AO2 SLP157 T00221050 10039 21017 55005
KLWA 291157Z AUTO 29006KT 10SM OVC028 06/02 A2983 RMK AO2 T00610015 10062 20032
KLWA 291216Z AUTO 30008KT 10SM OVC026 06/01 A2984 RMK AO2 T00610014
KLWA 291237Z AUTO 29006KT 10SM OVC026 06/01 A2984 RMK AO2 T00610014
KLWB 291155Z AUTO 26003KT 4SM BR BKN007 OVC011 02/02 A2969 RMK AO2 P0001 60050 70154 T00220015 10060 20022
KLWB 291215Z AUTO 00000KT 2SM BR OVC005 02/02 A2969 RMK AO2 T00220017
KLWB 291235Z AUTO 23004KT 7SM BKN005 OVC008 02/02 A2969 RMK AO2 T00230019
KLWC 291152Z AUTO 08004KT 10SM CLR M04/M06 A2987 RMK AO2 SLP121 T10391061 11028 21050 56016
KLWD 291153Z AUTO 19008KT 10SM BKN110 00/M06 A2980 RMK AO2 SLP101 T00001061 10006 21017 58022 $
KLWM 291154Z 00000KT 10SM OVC070 16/13 A2995 RMK AO2 SLP142 T01610133 10161 20139 55005
KLWS 291156Z AUTO 00000KT 9SM CLR 06/04 A3001 RMK AO2 SLP167 T00560044 10078 20039 53001
KLWT 291154Z AUTO 33012G17KT 10SM OVC034 06/02 A3001 RMK AO2 SLP156 T00610022 10122 20056 53023
KLWT 291240Z AUTO 34009KT 10SM -RA BKN018 OVC032 05/02 A3004 RMK AO2 RAB1158 P0000 T00500022
KLWV 291153Z AUTO 25005KT 10SM OVC036 02/M02 A2995 RMK AO2 SLP145 T00221017 10028 20017 58002
KLXL 291151Z AUTO 15006KT 10SM OVC065 00/M05 A2963 RMK AO2
KLXL 291211Z AUTO 14007KT 10SM BKN065 OVC085 00/M05 A2961 RMK AO2
KLXL 291232Z AUTO 14007KT 10SM BKN075 OVC085 00/M05 A2961 RMK AO2
KLXN 291155Z AUTO 30008KT 10SM CLR 00/M03 A2979 RMK AO2 T00001031 10006 21017
KLXN 291215Z AUTO 30006KT 10SM CLR 00/M03 A2978 RMK AO2 T00011029
KLXN 291235Z AUTO 30006KT 10SM CLR 00/M03 A2978 RMK AO2 T00001032
KLXT 291153Z AUTO 19009KT 10SM CLR 02/M08 A2988 RMK AO2 SLP122 T00171078 10022 21006 56017
KLXV 291153Z AUTO 03009KT 10SM CLR M03/M07 A3022 RMK AO2 SLP168 T10331072 11028 21056 55005
KLXY 291155Z AUTO 21003KT 10SM CLR 02/M04 A3007 RMK AO2 T00171045 10056 20002
KLXY 291215Z AUTO 00000KT 10SM CLR 02/M05 A3007 RMK AO2 T00211050
KLXY 291235Z AUTO 17003KT 10SM CLR 01/M04 A3007 RMK AO2 T00141042
KLYH 291154Z 16006KT 6SM BR OVC002 16/15 A2957 RMK AO2 RAB02E12 SLP006 P0000 60001 70003 T01560150 10156 20150 56020
KLYH 291203Z 15008KT 2SM BR OVC002 16/15 A2957
KLYH 291203Z 15008KT 2SM BR OVC002 16/15 A2957 RMK AO2 T01560150
KLYV 291159Z AUTO 17005KT 10SM SCT090 SCT110 00/M06 A2967 RMK AO2
KLYV 291219Z AUTO 18003KT 10SM SCT070 BKN090 OVC110 01/M05 A2967 RMK AO2
KLYV 291238Z AUTO 18003KT 10SM -RA OVC070 01/M05 A2966 RMK AO2
KLZU 291156Z 28010G19KT 250V320 10SM OVC021 04/00 A2973 RMK AO2 SLP069 6//// 7//// T00390000 10050 20039 $
KLZZ 291155Z AUTO 27004KT 10SM CLR 05/M07 A3007 RMK AO2 T00451073 10045 20017
KLZZ 291215Z AUTO 26005KT 10SM CLR 05/M07 A3007 RMK AO2 T00451073
KLZZ 291235Z AUTO 26004KT 10SM CLR 05/M08 A3008 RMK AO2 T00451076
KM04 291155Z AUTO 00000KT 10SM FEW036 00/M01 A3001 RMK A01
KM04 291215Z AUTO 00000KT 10SM CLR M01/M01 A3002 RMK A01
KM04 291235Z AUTO 00000KT 10SM CLR M00/M01 A3002 RMK A01
KM08 291155Z AUTO 00000KT 8SM OVC038 M02/M02 A2999 RMK A01
KM08 291215Z AUTO 00000KT 7SM FEW039 M02/M02 A2999 RMK A01
KM08 291235Z AUTO 00000KT 10SM CLR M02/M02 A3000 RMK A01
KM21 291155Z AUTO 00000KT M1/4SM +SN BKN022 OVC034 02/00 A2996 RMK AO2 T00160004 10030 20015
KM21 291215Z AUTO 32004KT 4SM -SN OVC032 02/M02 A2996 RMK AO2 T00151016
KM21 291235Z AUTO 33004KT 1/2SM -SN OVC034 02/M01 A2996 RMK AO2 VIS M1/4V5 T00151015
KM25 291155Z AUTO 31004KT 10SM OVC038 02/00 A2999 RMK AO2
KM25 291215Z AUTO 32004KT 10SM OVC038 02/00 A2999 RMK AO2
KM25 291235Z AUTO 32004KT 10SM OVC038 02/00 A2999 RMK AO2
KM30 291155Z AUTO 32004KT 10SM OVC037 03/M03 A2999 RMK AO2 T00251035 10038 20025
KM30 291215Z AUTO 33003KT 10SM OVC037 02/M04 A2999 RMK AO2 T00221036
KM30 291235Z AUTO 00000KT 10SM OVC037 02/M03 A2999 RMK AO2 T00211035
KM33 291155Z AUTO 10SM OVC027 03/M00 A2995 RMK A01
KM33 291215Z AUTO 10SM OVC027 03/M00 A2995 RMK A01
KM33 291235Z AUTO 10SM OVC028 04/M00 A2996 RMK A01
KM40 291155Z AUTO 00000KT 10SM SCT039 M01/M01 A3002 RMK AO2
KM40 291215Z AUTO 00000KT 9SM CLR M01/M01 A3002 RMK AO2
KM40 291235Z AUTO 00000KT 8SM CLR M01/M01 A3002 RMK AO2
KM63 291158Z AUTO 08007KT 8SM CLR 09/M05 A3012 RMK AO2 SLP161 WND DATA ESTMD T00911047 10115 20056
KM75 291155Z AUTO 30014KT 10SM FEW055 BKN070 OVC085 08/01 A2996 RMK A01
KM75 291215Z AUTO 31017G24KT 10SM BKN060 OVC070 08/00 A2998 RMK A01
KM75 291235Z AUTO 31016G27KT 10SM BKN065 OVC075 07/00 A2999 RMK A01
KM91 291155Z AUTO 32004KT 10SM BKN028 OVC032 03/M01 A2992 RMK A01
KM91 291215Z AUTO 31005KT 10SM OVC032 03/M01 A2992 RMK A01
KM91 291235Z AUTO 32006KT 10SM OVC032 03/M02 A2993 RMK A01
KMAE 291153Z AUTO 00000KT 10SM CLR 12/09 A2986 RMK AO2 SLP110 T01220089 10150 20106 58003
KMAF 291153Z 26004KT 10SM CLR 04/M06 A3008 RMK AO2 SLP171 T00391061 10072 20033 56008
KMAI 291153Z AUTO 30006KT 10SM CLR 04/02 A2989 RMK AO2 SLP123 70001 T00440022 10089 20044 51011
KMAN 291155Z AUTO 00000KT 10SM 02/02 A3000 RMK A01
KMAN 291215Z AUTO 00000KT 10SM 02/02 A3000 RMK A01
KMAN 291235Z AUTO 00000KT 10SM 02/02 A3000 RMK A01
KMAO 291155Z AUTO 20003KT 7SM BKN110 17/16 A2958 RMK AO2
KMAO 291215Z AUTO 00000KT 7SM OVC110 17/17 A2958 RMK AO2
KMAO 291235Z AUTO 20003KT 7SM BKN110 17/16 A2958 RMK AO2
KMAW 291215Z AUTO 00000KT 10SM CLR 00/M01 A3002 RMK AO2
KMAW 291235Z AUTO 00000KT 10SM CLR 00/M02 A3002 RMK AO2
KMBG 291152Z AUTO 00000KT 10SM FEW120 08/04 A2961 RMK AO2 SLP033 60000 T00780039 10106 20061 53004
KMBL 291156Z AUTO 00000KT 10SM FEW027 BKN035 OVC055 02/01 A2984 RMK AO2 RAE1059 SLP130 P0000 60000 70022 T00220011 10028 20022 53001 FZRANO
KMBL 291209Z AUTO 00000KT 10SM -RA SCT020 BKN025 OVC050 02/02 A2985 RMK AO2 RAB08 P0000 FZRANO
KMBL 291242Z AUTO 13003KT 10SM UP FEW020 OVC043 02/02 A2985 RMK AO2 RAB08E41UPB41 P0000 FZRANO
KMBO 291155Z AUTO 00000KT 2 1/2SM BR CLR 00/M01 A3004 RMK AO2 VIS 1 1/2V5
KMBO 291215Z AUTO 00000KT 7SM CLR 00/00 A3005 RMK AO2
KMBO 291235Z AUTO 00000KT 5SM BR CLR M01/M01 A3005 RMK AO2
KMBS 291153Z 32006KT 10SM CLR 02/01 A2985 RMK AO2 SLP114 T00170011 10044 20017 53000
KMBY 291155Z AUTO 17005KT 10SM CLR M01/M05 A2991 RMK AO2
KMBY 291215Z AUTO 18007KT 10SM CLR M01/M04 A2990 RMK AO2
KMBY 291235Z AUTO 18007KT 10SM CLR 00/M04 A2990 RMK AO2
KMCB 291153Z AUTO 00000KT 10SM CLR 02/00 A3004 RMK AO2 SLP174 T00170000 10044 20017 50003
KMCC 291155Z AUTO 12004KT 10SM CLR 14/09 A2987 RMK AO2
KMCC 291215Z AUTO 14004KT 10SM CLR 13/09 A2987 RMK AO2
KMCC 291235Z AUTO 16004KT 10SM CLR 13/09 A2987 RMK AO2
KMCD 291155Z AUTO 32006KT 10SM CLR 01/00 A2982 RMK AO2 70007 T00060000 10016 20004
KMCD 291214Z AUTO 31005KT 10SM CLR 01/00 A2983 RMK AO2 T00080001
KMCD 291235Z AUTO 33004KT 10SM CLR 01/00 A2984 RMK AO2 T00070000
KMCE 291153Z AUTO 00000KT 8SM CLR 12/07 A2985 RMK AO2 SLP106 T01170072 10161 20111 55003
KMCF 291158Z AUTO 34015G26KT 10SM OVC020 18/18 A2978 RMK AO2 PK WND 35028/39 SLP088 60005 70014 52024 VISNO RWY22 $
KMCI 291153Z 18008KT 10SM CLR M02/M07 A2986 RMK AO2 SLP116 T10221067 11011 21033 56018
KMCJ 291155Z AUTO 00000KT 10SM CLR 09/M06 A3010 RMK A01
KMCJ 291215Z AUTO 00000KT 10SM CLR 09/M05 A3011 RMK A01
KMCJ 291235Z AUTO 00000KT 10SM CLR 08/M02 A3011 RMK A01
KMCK 291153Z AUTO 26009KT 10SM CLR 02/M01 A2981 RMK AO2 SLP102 T00171006 10028 21006 56013
KMCN 291150Z 30008KT 10SM SCT021 04/02 A2979
KMCN 291150Z 30008KT 10SM SCT021 04/02 A2979 RMK AO2
KMCN 291153Z 31008KT 10SM FEW021 04/02 A2979 RMK AO2 SLP085 70044 T00390017 10089 20039 50005
KMCO 291153Z 27009KT 9SM FEW005 SCT010 OVC100 19/19 A2971 RMK AO2 SLP058 70015 T01890189 10200 20183 53011
KMCO 291216Z 28016G23KT 10SM -RA SCT008 BKN013 OVC100 19/19 A2972 RMK AO2 RAB14 P0000 T01890189
KMCW 291153Z AUTO 16009KT 10SM OVC070 M02/M04 A2977 RMK AO2 SLP089 T10171039 11017 21044 56015
KMCX 291155Z AUTO 26005KT 10SM OVC050 01/M01 A2990 RMK AO2 T00101010 10020 20010
KMCX 291215Z AUTO 25004KT 10SM OVC050 01/M01 A2990 RMK AO2 T00101011
KMCX 291235Z AUTO 26004KT 10SM OVC060 01/M01 A2990 RMK AO2 T00091010
KMDD 291155Z AUTO 00000KT 10SM CLR 06/M05 A3009 RMK AO2 T00551046 10081 20041
KMDD 291215Z AUTO 26003KT 10SM CLR 05/M05 A3009 RMK AO2 T00541054
KMDD 291235Z AUTO 26004KT 10SM CLR 05/M06 A3009 RMK AO2 T00531062
KMDH 291152Z 30003KT 10SM CLR M01/M02 A2998 RMK AO2 SLP156 T10061022 10033 21006 56002
KMDQ 291155Z AUTO 34011KT 10SM OVC027 03/M01 A2992 RMK AO2
KMDQ 291215Z AUTO 31010KT 10SM OVC027 03/M01 A2993 RMK AO2
KMDQ 291235Z AUTO 34014G19KT 10SM OVC027 03/M02 A2993 RMK AO2
KMDS 291155Z AUTO 25009KT 10SM -RA SCT065 OVC070 04/M02 A2964 RMK AO2
KMDS 291215Z AUTO 25010G15KT 10SM -RA FEW055 OVC065 04/M01 A2965 RMK AO2
KMDS 291235Z AUTO 24007KT 10SM -RA FEW028 SCT050 OVC065 04/00 A2963 RMK AO2
KMDT 291156Z 10004KT 10SM OVC011 16/16 A2965 RMK AO2 RAB23E53 SLP041 P0000 60002 70002 T01610156 10161 20150 56017 $
KMDW 291153Z 29005KT 10SM FEW045 FEW250 01/M03 A2989 RMK AO2 SLP131 70001 T00111028 10039 20011 56000
KMDZ 291155Z AUTO 17004KT 10SM CLR M06/M07 A2979 RMK AO2 T10601067 11015 21060
KMDZ 291215Z AUTO 16004KT 10SM CLR M06/M06 A2979 RMK AO2 T10561065
KMDZ 291235Z AUTO 16004KT 10SM CLR M06/M06 A2979 RMK AO2 T10571065
KMEB 291145Z AUTO 00000KT 1/4SM FG SCT007 BKN110 16/16 A2959 RMK AO2 T01560156
KMEB 291152Z AUTO 22003KT M1/4SM FG BKN007 BKN110 16/16 A2959 RMK AO2 SLP017 70003 T01610156 10172 20156 57015
KMEB 291216Z AUTO 00000KT 1/4SM FG SCT006 BKN100 BKN120 15/15 A2958 RMK AO2 T01500150
KMEB 291237Z AUTO 18003KT 1SM BR FEW006 SCT090 16/16 A2957 RMK AO2 T01610161
KMEH 291156Z AUTO 00000KT 9SM CLR M02/M03 A3000 RMK AO2 SLP167 I1001 I6001 T10171028 10033 21017 56006
KMEI 291158Z 00000KT 10SM CLR 00/M01 A3003 RMK AO2 SLP168 T00001006 10033 20000 53006
KMEM 291154Z 00000KT 10SM CLR 01/M01 A3001 RMK AO2 SLP162 T00061011 10022 20000 53002
KMER 291155Z AUTO 00000KT 8SM CLR 09/08 A2985 RMK AO1
KMER 291215Z AUTO 00000KT 7SM CLR 10/08 A2986 RMK AO1
KMER 291235Z AUTO 00000KT 8SM CLR 09/07 A2986 RMK AO1
KMEV 291155Z AUTO 00000KT 10SM CLR 00/M04 A3009 RMK AO2
KMEV 291215Z AUTO 00000KT 10SM CLR M01/M06 A3009 RMK AO2
KMEV 291235Z AUTO 00000KT 10SM CLR M02/M05 A3009 RMK AO2
KMEZ 291155Z AUTO 00000KT 10SM CLR M02/M03 A3002 RMK AO2
KMEZ 291215Z AUTO 00000KT 10SM CLR M02/M02 A3002 RMK AO2
KMEZ 291235Z AUTO 00000KT 10SM CLR M02/M02 A3002 RMK AO2
KMFD 291152Z 29007KT 10SM OVC042 02/01 A2982 RMK AO2 SLP108 70010 T00170011 10017 21006 58004
KMFE 291153Z 36003KT 10SM CLR 08/00 A3015 RMK AO2 SLP209 T00780000 10100 20067 55000
KMFI 291154Z AUTO 00000KT 10SM CLR M06/M07 A2981 RMK AO2 SLP111 I6001 T10561072 11028 21056 56008 TSNO
KMFR 291153Z AUTO 00000KT 10SM CLR 07/06 A2997 RMK AO2 SLP143 T00720056 10128 20072 56003
KMFV 291155Z AUTO 13007KT 7SM RA SCT031 BKN045 OVC050 19/19 A2963 RMK AO2 P0014 60035 70035 T01910185 10195 20186
KMFV 291215Z AUTO 17011G14KT 4SM +RA SCT007 BKN019 OVC075 19/19 A2965 RMK AO2 P0010 T01920187
KMFV 291235Z AUTO 16011G18KT 3SM RA BKN005 OVC015 20/19 A2964 RMK AO2 P0027 T01950191
KMGC 291155Z AUTO 23004KT 10SM OVC032 03/M01 A2987 RMK AO2
KMGC 291215Z AUTO 21005KT 10SM OVC032 02/00 A2988 RMK AO2
KMGC 291235Z AUTO 21005KT 10SM OVC030 02/00 A2988 RMK AO2
KMGE 291156Z 30015G19KT 10SM OVC018 03/00 A2977 RMK AO2A SLP087 70071 T00331005 10052 20033 53002 $
KMGE 291226Z 31013G21KT 7SM OVC020 03/M01 A2978 RMK AO2A $
KMGG 291153Z AUTO 16007KT 10SM OVC075 01/M02 A2967 RMK AO2 T00061019
KMGG 291214Z AUTO 16007KT 10SM OVC075 01/M02 A2967 RMK AO2 T00071020
KMGG 291233Z AUTO 17006KT 10SM OVC075 01/M02 A2967 RMK AO2 T00071020
KMGJ 291147Z AUTO 04003KT 10SM BKN020 OVC033 15/14 A2979 RMK AO2 T01500139
KMGJ 291154Z AUTO 00000KT 10SM BKN020 OVC037 15/14 A2979 RMK AO2 SLP086 60003 70003 T01500139 10161 20111 56009
KMGJ 291235Z AUTO 35004KT 10SM -RA OVC014 15/14 A2978 RMK AO2 RAB1157E12B35 P0001 T01500144
KMGM 291153Z 30009KT 10SM CLR 04/00 A2994 RMK AO2 SLP139 70032 T00390000 10061 20039 53007
KMGN 291156Z AUTO 00000KT 10SM BKN037 00/M01 A2983 RMK AO2 T10061013
KMGN 291216Z AUTO 05003KT 10SM OVC039 00/M01 A2984 RMK AO2 T10061014
KMGN 291235Z AUTO 05003KT 10SM BKN035 OVC041 00/M01 A2984 RMK AO2 T10051011
KMGR 291155Z AUTO 29007KT 10SM CLR 06/03 A2985 RMK AO2
KMGR 291215Z AUTO 29005KT 10SM 06/03 A2985 RMK AO2
KMGR 291235Z AUTO 29005KT 10SM 06/03 A2985 RMK AO2
KMGW 291153Z 34005KT 10SM OVC005 03/02 A2975 RMK AO2 RAE51UPB51E53 CIG 003V008 SLP080 P0006 60059 70112 T00330022 10033 20028 58015
KMGY 291153Z AUTO 30006KT 10SM OVC032 03/M03 A2986 RMK AO2 SLP119 70001 T00281033 10033 20028 50002
KMHE 291153Z AUTO 17005KT 10SM -RA OVC080 06/01 A2964 RMK AO2 RAB03 PRESFR SLP043 P0000 60000 T00610006 10067 20056 56009
KMHK 291152Z 00000KT 10SM CLR M03/M07 A2985 RMK AO2 SLP116 T10331067 11017 21050 56013
KMHL 291155Z AUTO 00000KT 10SM CLR M02/M03 A2993 RMK AO2
KMHL 291215Z AUTO 00000KT 10SM CLR M01/M02 A2991 RMK AO2
KMHL 291235Z AUTO 00000KT 10SM CLR 00/M02 A2991 RMK AO2
KMHR 291155Z 00000KT 10SM SKC 10/07 A2985
KMHS 291156Z AUTO 06003KT 10SM CLR 06/02 A3000 RMK AO2 SLP161 T00560017 10089 20056 58007 $
KMHT 291153Z 12004KT 10SM OVC065 14/14 A2991 RMK AO2 SLP142 60001 70001 T01440139 10144 20139 55004 $
KMHV 291200Z AUTO 00000KT 10SM CLR 12/M08 A2995 RMK A01
KMHV 291220Z AUTO 00000KT 10SM CLR 12/M07 A2995 RMK A01
KMHV 291240Z AUTO 31003KT 10SM CLR 12/M07 A2995 RMK A01
KMIA 291153Z 30011G18KT 10SM BKN006 22/21 A2968 RMK AO2 SLP052 60012 70232 T02170211 10256 20217 53029 $
KMIB 291156Z AUTO 33010KT 10SM FEW060 SCT075 OVC130 08/02 A2962 RMK AO2 SLP043 60000 T00760021 10111 20076 53016
KMIC 291153Z 14009KT 10SM BKN070 OVC085 M01/M04 A2970 RMK AO2 SLP067 T10061044 10000 21017 56022
KMIE 291153Z 31005KT 10SM OVC037 03/M02 A2989 RMK AO2 SLP124 T00281017 10033 20028 53003
KMIV 291154Z AUTO 10006KT 8SM -RA BKN009 BKN065 OVC080 18/18 A2972 RMK AO2 RAB07E18B42 CIG 007V018 SLP061 P0000 60000 T01830178 10183 20167 58015 TSNO
KMIV 291203Z AUTO 11008KT 9SM -RA SCT009 OVC075 18/18 A2972 RMK AO2 P0000 T01830178 TSNO
KMIV 291243Z AUTO 12004KT 6SM -RA BR BKN008 BKN050 OVC070 18/18 A2971 RMK AO2 P0004 T01830183 TSNO
KMIW 291153Z AUTO 14008KT 10SM OVC100 M02/M04 A2980 RMK AO2 SLP102 T10171039 11017 21056 55019
KMJQ 291154Z AUTO 18007KT 10SM BKN085 01/M06 A2968 RMK AO2
KMJQ 291215Z AUTO 18006KT 10SM OVC085 01/M06 A2968 RMK AO2
KMJQ 291235Z AUTO 19007KT 10SM SCT075 01/M06 A2967 RMK AO2
KMJX 291156Z AUTO 13007KT 10SM 17/16 A2976 RMK AO2 RAB13E25 SLP084 P0000 60000 T01670161 10172 20156 58014 $
KMKC 291154Z 19005KT 10SM CLR 01/M07 A2987 RMK AO2 SLP120 T00111072 10022 20000 56018
KMKE 291152Z 28005KT 10SM BKN065 BKN210 02/M02 A2987 RMK AO2 SLP121 T00221022 10033 20022 55001
KMKG 291155Z 06004KT 10SM BKN050 BKN070 03/02 A2985 RMK AO2 SLP112 70036 T00330017 10050 20033 50002
KMKJ 291155Z AUTO 28006KT 10SM OVC007 03/01 A2972 RMK AO2 60006 70054 T00250008 10063 20025
KMKJ 291215Z AUTO 29006KT 10SM OVC007 03/01 A2972 RMK AO2 T00250008
KMKJ 291235Z AUTO 28005KT 10SM OVC007 03/00 A2972 RMK AO2 T00250004
KMKL 291153Z 26006KT 10SM CLR 01/00 A2999 RMK AO2 SLP158 T00110000 10044 20006 53002
KMKN 291155Z AUTO 24009KT 10SM CLR 07/M12 A3007 RMK AO2 T00721117 10083 20050
KMKN 291215Z AUTO 24009KT 10SM CLR 07/M11 A3006 RMK AO2 T00691115
KMKN 291235Z AUTO 24012G16KT 10SM CLR 07/M12 A3005 RMK AO2 T00691117
KMKO 291153Z AUTO 16006KT 10SM CLR 00/M02 A2997 RMK AO2 SLP149 T00001022 10000 21017 56017
KMKS 291155Z AUTO 00000KT 10SM CLR 17/16 A2960 RMK AO2
KMKS 291215Z AUTO 00000KT 7SM CLR 17/16 A2960 RMK AO2
KMKS 291235Z AUTO 24004KT 7SM SCT035 17/17 A2959 RMK AO2
KMKT 291156Z AUTO 16011KT 10SM OVC065 00/M04 A2970 RMK AO2 SLP072 T00001039 10000 21011 58020 FZRANO
KMKY 291155Z 02004KT 10SM 19/19 A2974 RMK AO2 SLP297 10190 20190 PWINO FZRANO RVRNO
KMKY 291156Z AUTO 02004KT 10SM 19/19 A2974 RMK AO2 SLP071 60010 70241 T01940189 10194 20189 51022 $
KMKY 291215Z 34006KT 3 1/2SM 20/19 A2976 RMK AO2 SLP298 P0001 PWINO FZRANO RVRNO
KMKY 291235Z 33008KT 10SM 21/20 A2977 RMK AO2 SLP298 P0002 PWINO FZRANO RVRNO
KMLB 291153Z 29009KT 10SM CLR 21/19 A2967 RMK AO2 SLP047 70072 T02060194 10228 20206 53010
KMLB 291216Z 29010KT 10SM SCT007 21/19 A2968 RMK AO2 T02060194
KMLB 291226Z 28012KT 10SM BKN007 21/19 A2968 RMK AO2 T02110194
KMLB 291234Z 29017G22KT 10SM OVC004 21/19 A2968 RMK AO2 T02060194
KMLC 291153Z AUTO 18003KT 10SM FEW070 SCT090 BKN110 04/M06 A2995 RMK AO2 SLP144 T00441061 10050 21011 56021
KMLE 291155Z AUTO 00000KT 10SM CLR 03/M08 A2978 RMK AO2 T00311083 10035 20012
KMLE 291215Z AUTO 00000KT 10SM SCT110 02/M06 A2978 RMK AO2 T00221063
KMLE 291235Z AUTO 00000KT 10SM CLR 02/M06 A2977 RMK AO2 T00221060
KMLF 291152Z AUTO 23007KT 10SM CLR 01/M03 A3011 RMK AO2 SLP176 T00061033 10050 21017 56009 $
KMLI 291152Z 10004KT 10SM CLR M04/M07 A2990 RMK AO2 SLP131 I6001 T10441067 11017 21050 58010
KMLJ 291155Z AUTO 30012KT 10SM OVC019 07/04 A2974 RMK AO2
KMLJ 291216Z AUTO 30011G15KT 10SM OVC019 07/03 A2975 RMK AO2
KMLJ 291234Z AUTO 30011G17KT 10SM OVC021 07/03 A2976 RMK AO2
KMLP 291153Z AUTO 34004KT 10SM CLR 05/M01 A3002 RMK AO2 SLP102 T00501011 10067 20039 56003 TSNO $
KMLS 291153Z AUTO 36016G26KT 10SM BKN070 OVC100 09/02 A2988 RMK AO2 PK WND 01028/1138 SLP112 T00940022 10133 20083 53057
KMLT 291153Z AUTO VRB04KT 2 1/2SM BR OVC003 12/12 A3000 RMK AO2 SLP165 60000 T01170117 10117 20106 52005 TSNO
KMLT 291215Z AUTO VRB05KT 3SM BR OVC003 12/12 A3000 RMK AO2 T01170117 TSNO
KMLU 291153Z 00000KT 10SM CLR 01/00 A3009 RMK AO2 SLP187 6//// 7//// I1001 I6001 T00060000 10033 20006 53004 PNO $
KMMH 291155Z AUTO 00000KT 10SM CLR M01/M08 A3021 RMK AO2 T10071082 10062 21014
KMMH 291215Z AUTO 34003KT 10SM CLR 00/M08 A3021 RMK AO2 T10051078
KMMH 291235Z AUTO 00000KT 10SM CLR M03/M08 A3021 RMK AO2 T10271077
KMMI 291155Z AUTO 32010KT 10SM BKN023 OVC035 02/M02 A2985 RMK
KMMI 291215Z AUTO 33006KT 10SM SCT025 BKN035 OVC048 02/M02 A2985 RMK
KMMI 291235Z AUTO 33007KT 10SM BKN029 OVC038 02/M02 A2986 RMK
KMMK 291153Z AUTO 14003KT 9SM -RA SCT021 BKN029 OVC046 16/15 A2985 RMK AO2 SLP108 P0002 60006 70006 T01610150 10172 20128 55007
KMMK 291209Z AUTO 00000KT 9SM -RA SCT021 SCT028 OVC055 16/15 A2985 RMK AO2 P0000 T01610150
KMML 291156Z AUTO 20011KT 10SM SCT070 06/M06 A2963 RMK AO2 SLP045 T00611056 10061 20039 56017
KMMT 291158Z 24013G17KT 10SM BKN010 BKN015 BKN150 16/15 A2958 RMK AO2A BKN010 V SCT SLP018 T01600153 10175 20147 56011 $
KMMU 291145Z 00000KT 7SM OVC009 15/14 A2978
KMMV 291153Z AUTO 30004KT 7SM OVC003 09/09 A3000 RMK AO2 SLP159 T00940089 10111 20078 51003
KMNE 291155Z AUTO 00000KT 10SM CLR M01/M01 A3008 RMK AO2 T10101015 10010 21011
KMNE 291215Z AUTO 00000KT 10SM CLR M01/M02 A3008 RMK AO2 T10121018
KMNE 291235Z AUTO 00000KT 10SM CLR M01/M02 A3009 RMK AO2 T10111016
KMNH 291154Z AUTO 23009KT 10SM CLR 03/M07 A3005 RMK AO2
KMNH 291213Z AUTO 23009KT 10SM CLR 03/M07 A3005 RMK AO2
KMNH 291231Z AUTO 23008KT 10SM CLR 00/M07 A3004 RMK AO2
KMNI 291155Z 10SM BKN015 BKN036 17/09 A2959 RMK AO2
KMNI 291215Z 10SM BKN013 BKN020 OVC036 17/11 A2959 RMK AO2
KMNI 291235Z 10SM BKN011 OVC018 18/11 A2959 RMK AO2
KMNM 291156Z AUTO 00000KT 10SM CLR M05/M06 A2986 RMK AO2 SLP133 T10501056 11011 21050 55001 FZRANO $
KMNN 291153Z AUTO 31005KT 10SM OVC039 03/01 A2986 RMK AO2 SLP119 70008 T00280006 10033 20028 53001
KMNV 291155Z AUTO 34010KT 310V020 10SM FEW020 BKN036 OVC041 02/01 A2982 RMK A01
KMNV 291215Z AUTO 35005G11KT 10SM FEW020 OVC034 03/00 A2983 RMK A01
KMNV 291235Z AUTO 34009KT 10SM FEW019 FEW024 OVC034 03/00 A2983 RMK A01
KMNZ 291155Z AUTO 23008KT 10SM CLR 05/M08 A3007 RMK AO2 T00501085 10054 20016
KMNZ 291215Z AUTO 23008KT 10SM CLR 05/M09 A3007 RMK AO2 T00501086
KMNZ 291235Z AUTO 23007KT 10SM CLR 05/M08 A3007 RMK AO2 T00471080
KMOB 291156Z 33007KT 10SM CLR 03/01 A3001 RMK AO2 SLP163 70005 T00330006 10061 20033 53004 $
KMOD 291153Z AUTO 00000KT 8SM CLR 13/11 A2985 RMK AO2 SLP106 T01330111 10167 20122 56003 $
KMOP 291153Z AUTO 00000KT 10SM OVC050 01/00 A2984 RMK AO2 T00120001 10039 20005
KMOP 291214Z AUTO 00000KT 10SM OVC050 02/00 A2984 RMK AO2 T00160003
KMOP 291233Z AUTO 00000KT 10SM OVC050 02/01 A2985 RMK AO2 T00170005
KMOR 291155Z AUTO 34008G13KT 2 1/2SM BR OVC012 02/02 A2979 RMK A01
KMOR 291215Z AUTO 35006G11KT 2SM BR BKN010 OVC014 02/01 A2979 RMK A01
KMOR 291235Z AUTO 34006KT 6SM BR BKN010 OVC015 02/01 A2980 RMK A01
KMOT 291154Z 31011KT 10SM SCT050 BKN065 OVC075 08/03 A2963 RMK AO2 SLP040 60000 T00830033 10117 20083 53016
KMOX 291159Z AUTO 16008KT 10SM CLR 01/M04 A2958 RMK AO2
KMOX 291216Z AUTO 17009KT 10SM CLR 02/M04 A2957 RMK AO2
KMOX 291235Z AUTO 18008KT 10SM CLR 02/M04 A2956 RMK AO2
KMPO 291149Z AUTO 12008KT 2SM BR OVC002 12/12 A2975 RMK AO2
KMPO 291153Z AUTO 12012KT 2SM BR OVC002 12/12 A2975 RMK AO2 SLP074 60000 T01220122 10128 20117 55012
KMPO 291200Z AUTO 12011KT 1SM BR VV002 12/12 A2975 RMK AO2 T01220122
KMPO 291214Z AUTO 12009KT 1/2SM FG VV002 12/12 A2975 RMK AO2 T01220122
KMPO 291221Z AUTO 12010KT 1/4SM FG VV001 12/12 A2975 RMK AO2 T01220122
KMPV 291151Z AUTO 17009KT 10SM OVC012 13/13 A2990 RMK AO2 SLP127 T01330128 10133 20100 55006
KMPV 291234Z AUTO 15008KT 4SM -RA BR SCT014 BKN030 OVC060 13/13 A2989 RMK AO2 RAB10 P0002 T01280128
KMPZ 291155Z 7SM CLR M05/M05 A2989 RMK AO2 T10461046 11037 21052
KMPZ 291215Z 7SM CLR M04/M04 A2989 RMK AO2 T10421042
KMPZ 291235Z 7SM CLR M05/M05 A2989 RMK AO2 T10481048
KMQB 291155Z AUTO 16003KT 10SM CLR M06/M06 A2993 RMK AO2 T10631065 11036 21065
KMQB 291215Z AUTO 17003KT 10SM CLR M05/M06 A2993 RMK AO2 T10541056
KMQB 291235Z AUTO 17003KT 10SM CLR M05/M05 A2993 RMK AO2 T10501052
KMQE 291156Z AUTO 14013KT 14/12 A2993 RMK AO1 SLP146 T01440117 10144 20133 53002
KMQJ 291155Z AUTO 29003KT 10SM OVC030 01/M02 A2990 RMK AO1
KMQJ 291215Z AUTO 26003KT 10SM OVC032 01/M01 A2990 RMK AO1
KMQJ 291235Z AUTO 00000KT 10SM OVC032 01/M01 A2990 RMK AO1
KMQS 291155Z AUTO 11006KT 3SM -RA BKN001 OVC006 16/16 A2973 RMK AO2 P0008
KMQS 291215Z AUTO 11007KT 1 3/4SM -RA OVC001 16/16 A2973 RMK AO2
KMQS 291235Z AUTO 10008KT 1 3/4SM -RA OVC001 16/16 A2972 RMK AO2
KMQY 291156Z 34013KT 10SM OVC027 04/M02 A2995 RMK AO2 SLP115 T00391017 10039 20039 53001
KMRB 291153Z 00000KT 6SM -RA BR BKN001 OVC021 13/13 A2962 RMK AO2 RAE29B50 SLP027 P0001 60004 70012 T01330128 10144 20133 58012
KMRB 291200Z 36003KT 8SM BKN002 BKN021 OVC027 13/13 A2962 RMK AO2 RAE1159 CIG 001V005 P0000 T01330128
KMRB 291225Z 00000KT 4SM RA BR SCT003 OVC013 13/12 A2962 RMK AO2 RAE1159B12 P0001 T01280122
KMRB 291240Z 01004KT 4SM -RA BR BKN006 OVC013 13/12 A2961 RMK AO2 RAE1159B12 CIG 005V009 P0001 T01280122
KMRC 291155Z AUTO 33003KT 10SM OVC036 03/M02 A2993 RMK A01
KMRC 291215Z AUTO 00000KT 10SM OVC037 03/M02 A2994 RMK A01
KMRC 291235Z AUTO 00000KT 10SM OVC037 03/M02 A2994 RMK A01
KMRF 291156Z AUTO 02006KT 10SM CLR M01/M09 A3016 RMK AO2 SLP200 7//// T10111094 10006 21028 56007 FZRANO
KMRH 291158Z AUTO 28003KT 10SM FEW020 SCT027 BKN045 20/19 A2963 RMK AO2 RAE28 SLP035 P0020 60049 70049 T02000189 10239 20200 56008 TSNO
KMRJ 291155Z AUTO 18003KT 10SM CLR M02/M02 A2986 RMK AO2
KMRJ 291215Z AUTO 17003KT 10SM CLR M03/M03 A2986 RMK AO2
KMRJ 291235Z AUTO 14003KT 10SM CLR M03/M03 A2985 RMK AO2
KMRN 291145Z AUTO 32005KT 10SM OVC019 09/08 A2964 RMK AO2 T00910075
KMRN 291205Z AUTO 00000KT 10SM SCT013 OVC020 09/07 A2964 RMK AO2 T00880074
KMRN 291225Z AUTO 00000KT 10SM BKN015 OVC022 09/07 A2964 RMK AO2 T00860068
KMRT 291154Z AUTO 33006KT 10SM OVC039 03/00 A2985 RMK AO2 70004 T00250001 10030 20025
KMRT 291214Z AUTO 34004KT 10SM OVC039 03/00 A2985 RMK AO2 T00250000
KMRT 291233Z AUTO 34005KT 10SM OVC039 03/00 A2985 RMK AO2 T00250002
KMRY 291154Z AUTO 02003KT 4SM BR OVC002 11/11 A2991 RMK AO2 SLP141 T01110106 10117 20106 56004
KMSL 291153Z AUTO 33005KT 10SM OVC040 04/M02 A2997 RMK AO2 SLP151 T00441022 10050 20039 55000
KMSN 291153Z 00000KT 10SM FEW045 BKN180 BKN220 M02/M04 A2987 RMK AO2 SLP125 T10221039 10006 21022 56005
KMSO 291146Z AUTO VRB03KT 1 1/4SM BR FEW002 M02/M03 A3001 RMK AO2 T10221028
KMSO 291148Z AUTO 04003KT 3SM BR FEW002 M02/M03 A3001 RMK AO2
KMSO 291153Z AUTO 00000KT 9SM FEW002 M02/M02 A3001 RMK AO2 SLP175 T10171022 10028 21028 53002
KMSP 291153Z 15007KT 10SM BKN060 OVC080 00/M03 A2972 RMK AO2 SLP074 T00001028 10000 21017 56022
KMSS 291153Z AUTO 02003KT 10SM -RA OVC013 08/07 A2986 RMK AO2 SLP113 P0007 60009 70009 T00780072 10100 20078 58007
KMSS 291224Z AUTO 10003KT 6SM RA BR OVC009 08/08 A2986 RMK AO2 CIG 007V011 P0004 T00780078
KMSV 291156Z AUTO 12007KT 10SM OVC008 13/12 A2980 RMK AO2 SLP093 60000 T01330122 10139 20117 56006
KMSV 291223Z AUTO 10011KT 10SM OVC004 13/13 A2979 RMK AO2
KMSY 291153Z 26004KT 10SM CLR 04/04 A3008 RMK AO2 SLP188 T00440039 10106 20044 53013
KMTC 291158Z 00000KT 10SM OVC047 04/03 A2982 RMK AO2A SLP107 T00420031 10050 20041 55000
KMTH 291153Z AUTO 31014G21KT 10SM CLR A2974 RMK AO2 SLP072 60001 70086 52037 $
KMTJ 291153Z AUTO 15005KT 10SM CLR M01/M05 A3019 RMK AO2 SLP195 T10061050 10056 21006 55003
KMTN 291145Z 09010KT 5SM RA SCT008 BKN060 OVC090 17/17 A2969
KMTN 291200Z 08011G16KT 2SM +RA BKN010 OVC030 17/17 A2967
KMTO 291153Z AUTO 30007KT 10SM OVC040 01/M02 A2993 RMK AO2 SLP141 T00061017 10022 20006 56001
KMTP 291154Z AUTO VRB05KT 18/15 A2989 RMK AO1 SLP120 T01780150 10178 20172 58006
KMTV 291155Z AUTO 34004KT 10SM BKN005 BKN027 OVC060 13/12 A2961 RMK AO2 60015 70016 T01280123 10146 20128
KMTV 291215Z AUTO 02004KT 7SM -RA SCT005 BKN023 OVC070 13/12 A2960 RMK AO2 P0005 T01250118
KMTV 291235Z AUTO 34007KT 10SM -RA SCT005 SCT008 OVC023 11/10 A2962 RMK AO2 P0006 T01130097
KMTW 291156Z AUTO 30004KT 10SM CLR M02/M03 A2986 RMK AO2 SLP136 T10221028 10028 21022 58001 FZRANO
KMUI 291155Z AUTO 03005KT 6SM -RA BR OVC007 15/15 A2967 RMK AO2 DZE05RAB55 SLP049
KMUI 291158Z AUTO 04004KT 6SM -RA BR OVC007 15/15 A2967 RMK AO2 DZE05RAB55 SLP049 P0000 60004 70004 T01500150 10150 20143 55017
KMUI 291206Z AUTO 00000KT 7SM OVC007 15/15 A2968 RMK AO2 RAE06 SLP053
KMUO 291158Z AUTO 00000KT 10SM CLR 04/03 A3000 RMK AO2 SLP156 T00370027 10053 20025 57007 $
KMUT 291155Z AUTO 00000KT 1/4SM FZFG OVC001 M05/M06 A2990 RMK AO2
KMUT 291215Z AUTO 00000KT 3SM BR BKN002 M05/M06 A2990 RMK AO2
KMUT 291235Z AUTO 00000KT 4SM BR SCT003 BKN110 M04/M05 A2990 RMK AO2
KMVE 291152Z AUTO 21005KT 10SM CLR 03/M05 A2962 RMK AO2
KMVE 291211Z AUTO 21005KT 10SM CLR 03/M05 A2961 RMK AO2
KMVE 291232Z AUTO 20007KT 10SM SCT120 03/M04 A2959 RMK AO2
KMVH 291155Z AUTO 34007KT 10SM OVC035 07/M00 A3000 RMK AO2
KMVH 291215Z AUTO 35012KT 10SM BKN030 OVC035 07/00 A3001 RMK AO2
KMVH 291235Z AUTO 36016KT 6SM -UP SCT020 BKN026 OVC031 05/02 A3004 RMK AO2
KMVN 291156Z AUTO 00000KT 10SM M01/M03 A2997 RMK AO2 SLP153 T10111028 10028 21011 56002 FZRANO $
KMVY 291153Z 13008KT 10SM OVC110 16/14 A2994 RMK AO2 SLP139 T01560139 10156 20144 55003
KMWA 291148Z 00000KT 10SM OVC041 00/00 A2999
KMWC 291155Z AUTO 29007KT 10SM CLR 00/M03 A2986 RMK AO2
KMWC 291215Z AUTO 31006KT 10SM CLR 00/M04 A2987 RMK AO2
KMWC 291235Z AUTO 29003KT 10SM CLR 00/M04 A2988 RMK AO2
KMWH 291152Z AUTO 01007KT 6SM BR CLR 01/00 A3002 RMK AO2 SNE1054 SLP221 P0000 60000 T00110000 10039 20011 51002
KMWK 291145Z AUTO 31006KT 10SM BKN014 OVC026 10/08 A2962 RMK AO2 T01020078
KMWL 291153Z AUTO 00000KT 10SM CLR 01/M07 A3002 RMK AO2 SLP164 T00111072 10017 21006 56012 $
KMWN 291147Z 19029KT 0SM -RA FG VV000 04/04 RMK RAB35 60000 10044 20014
KMWO 291155Z AUTO 30004KT 10SM OVC038 03/M01 A2989 RMK AO2 T00291010 10037 20029
KMWO 291215Z AUTO 33004KT 10SM OVC038 03/M01 A2990 RMK AO2 T00291015
KMWO 291235Z AUTO 29004KT 10SM OVC038 03/M01 A2990 RMK AO2 T00291014
KMXF 291156Z AUTO 29006KT 10SM CLR 03/02 A2992 RMK AO2 SLP135 70031 T00310015 10053 20031 53007
KMXO 291155Z AUTO 16004KT 10SM SCT120 M03/M04 A2987 RMK AO2
KMXO 291215Z AUTO 15004KT 10SM BKN110 M03/M04 A2987 RMK AO2
KMXO 291235Z AUTO 00000KT 10SM SCT100 BKN120 M03/M04 A2987 RMK AO2
KMYF 291153Z AUTO 18003KT 5SM HZ OVC007 19/15 A2989 RMK AO2 SLP115 T01890150 10189 20183 53002
KMYJ 291155Z AUTO 00000KT 10SM CLR M05/M06 A2993 RMK AO2
KMYJ 291215Z AUTO 00000KT 10SM CLR M06/M06 A2993 RMK AO2
KMYJ 291235Z AUTO 00000KT 10SM CLR M05/M05 A2992 RMK AO2
KMYL 291151Z AUTO 00000KT 10SM CLR 00/M02 A3004 RMK AO2 SLP164 T00001017 10022 21006 56009 TSNO $
KMYP 291155Z AUTO 24027G31KT 10SM CLR M04/M05 A3036 RMK AO2
KMYP 291213Z AUTO 25029KT 10SM CLR M03/M05 A3036 RMK AO2
KMYP 291230Z AUTO 25030G34KT 10SM CLR M03/M05 A3036 RMK AO2
KMYR 291156Z 24003KT 10SM SCT024 OVC075 21/19 A2960 RMK AO2 SLP023 60000 70093 T02110194 10211 20194 58016
KMYR 291222Z 28004KT 10SM -RA SCT018 BKN025 OVC120 21/19 A2959 RMK AO2 RAB12 P0000
KMYV 291153Z AUTO 00000KT 10SM CLR 11/08 A2986 RMK AO2 SLP116 T01060083 10150 20106 58002
KMYZ 291155Z AUTO 21007KT 10SM CLR 00/M08 A2980 RMK AO2
KMYZ 291215Z AUTO 20007KT 10SM CLR 00/M08 A2979 RMK AO2
KMYZ 291235Z AUTO 00000KT 10SM CLR 00/M08 A2981 RMK AO2
KMZG 291155Z AUTO 02012G19KT 10SM CLR 17/02 A3011 RMK A01
KMZG 291215Z AUTO 01014KT 10SM CLR 17/02 A3011 RMK A01
KMZG 291235Z AUTO 01013KT 10SM CLR 17/02 A3012 RMK A01
KMZH 291156Z AUTO 19006KT 152V212 10SM OVC050 M02/M03 A2966 RMK AO2
KMZH 291215Z AUTO 18005KT 10SM OVC050 M02/M03 A2965 RMK AO2
KMZH 291235Z AUTO 19005KT 10SM OVC060 M01/M03 A2965 RMK AO2
KMZZ 291216Z AUTO 27005KT 10SM OVC045 01/M01 A2990 RMK AO2
KMZZ 291236Z AUTO 27005KT 10SM OVC045 01/M01 A2990 RMK AO2
KN03 291155Z AUTO 00000KT 2SM UP BKN009 OVC015 07/07 A2976 RMK AO2
KN03 291215Z AUTO 03005KT 10SM RA BKN014 OVC023 07/07 A2975 RMK AO2
KN03 291235Z AUTO 00000KT 5SM +RA SCT010 BKN016 OVC023 07/06 A2976 RMK AO2
KN38 291155Z AUTO 02012G18KT 2SM +RA BKN006 OVC009 05/05 A2972 RMK AO2
KN38 291215Z AUTO 34006G12KT 2SM RA BKN006 OVC010 05/05 A2974 RMK AO2
KN38 291235Z AUTO 01010G15KT 3/4SM RA OVC007 05/04 A2974 RMK AO2
KN60 291152Z AUTO 29013KT 08/04 A2964 RMK AO1 SLP046 P0001 60001 70001 T00780044 10111 20078 51008
KNAK 291154Z AUTO 10014KT 6SM -RA BR FEW008 SCT085 OVC110 18/18 A2964 RMK AO2 SLP039 P0014 60029 70029 T01830183 10194 20183 58020
KNAK 291235Z AUTO 10013KT 2 1/2SM RA BR SCT009 BKN019 OVC110 18/18 A2963
KNAK 291235Z AUTO 10013KT 2 1/2SM RA BR SCT009 BKN019 OVC110 18/18 A2963 RMK AO2 P0007 T01830183
KNAK 291244Z AUTO 10015KT 1 3/4SM +RA BR SCT011 BKN048 OVC110 18/18 A2962
KNAK 291244Z AUTO 10015KT 1 3/4SM +RA BR SCT011 BKN048 OVC110 18/18 A2962 RMK AO2 P0012 T01830183
KNBC 291156Z AUTO 10SM OVC015 17/16 A2963 RMK AO2 SLP033 T01720156 10217 20172 55003 $
KNBC 291219Z AUTO 10SM OVC013 17/16 A2963 RMK AO2 CIG 008V017 T01670156 $
KNBC 291237Z AUTO 10SM BKN009 BKN013 OVC028 16/14 A2964 RMK AO2 T01560144 $
KNBG 291155Z AUTO 23004KT CLR 03/03 A3007 RMK AO2 SLP182 6//// 7//// T00280028 10083 20028 53011 PNO $
KNCA 291151Z AUTO 30006KT 6SM -RA BR FEW045 SCT055 OVC075 19/19 A2961 RMK AO2 RAE12B31 TSB29B30E45 P0004
KNCA 291156Z AUTO VRB04KT 10SM -RA FEW031 SCT048 OVC070 19/19 A2962 RMK AO2 RAE12B31 TSB29B30E45 SLP032 P0004 60063 70064 T01940194 10233 20189 55000
KNCA 291207Z AUTO 12005KT 7SM -RA FEW005 BKN028 OVC075 19/19 A2962 RMK AO2 P0001 T01940194
KNCA 291221Z AUTO 00000KT 6SM -RA BR BKN005 OVC028 19/19 A2962 RMK AO2 P0003 T01940194
KNCA 291231Z AUTO 17004KT 4SM RA BR BKN006 BKN010 OVC026 19/19 A2962 RMK AO2 P0006 T01940194
KNCA 291241Z AUTO 00000KT 1 3/4SM +RA BR BKN006 BKN022 OVC039 19/19 A2961 RMK AO2 P0015 T01940194
KNCA 291244Z AUTO 22003KT 1 1/4SM +RA BR SCT006 BKN023 OVC039 19/19 A2961 RMK AO2 P0019 T01940194
KNDZ 291156Z AUTO 32007KT 10SM CLR 04/00 A2996 RMK AO2 SLP135 70011 T00440000 10078 20044 53007 $
KNEL 291200Z AUTO 12009KT 10SM BKN010 OVC070 17/16 A2975
KNEL 291200Z AUTO 12009KT 10SM BKN010 OVC070 17/16 A2975 RMK AO2 CIG 007V015 PNO $
KNEL 291206Z AUTO 13010KT 10SM BKN010 OVC070 17/16 A2975 RMK AO2 SLP073 6//// 7//// T01670161 10167 20156 58010 PNO $
KNEW 291153Z AUTO 34013KT 10SM CLR 10/03 A3007 RMK AO2 SLP174 T01000033 10106 20094 50006
KNFE 291156Z AUTO 16007KT 10SM OVC070 21/19 A2963 RMK AO2 RAE41 SLP036 P0004 60064 70065 T02060189 10217 20194 58013
KNFE 291210Z AUTO 17009KT 10SM FEW009 BKN015 OVC070 21/19 A2964 RMK AO2 T02110189
KNFE 291234Z AUTO 16008KT 6SM -RA BR SCT007 BKN014 OVC047 21/19 A2964 RMK AO2 RAB13 P0001 T02060189
KNFE 291242Z AUTO 15009KT 6SM -RA BR FEW009 BKN049 OVC080 21/19 A2963 RMK AO2 RAB13 P0002 T02060189
KNFG 291157Z AUTO 07006KT 4SM BR OVC006 16/16 A2987 RMK AO2 SLP115 T01610156 10178 20161 55000
KNFL 291156Z AUTO 32004KT 8SM CLR 03/M03 A3004 RMK AO2 SLP142 T00281033 10094 20028 56005 $
KNFW 291152Z 13003KT 10SM CLR 06/M07 A3002 RMK AO2 SLP148 T00561072 10061 20033 58017 $
KNGP 291156Z AUTO 35006KT 10SM CLR 11/04 A3014 RMK AO2 SLP205 T01110039 10144 20111 53004
KNGU 291159Z 17006KT 10SM SCT015 BKN026 OVC090 20/18 A2964 RMK AO2 RAE31 SLP035 P0002 60040 70041 T02000183 10200 20178 56016 $
KNGU 291235Z 17005KT 10SM SCT011 BKN080 20/18 A2963 RMK AO2 T02000183 $
KNHK 291152Z 11014G22KT 3SM RA BR SCT006 OVC050 18/18 A2962 RMK AO2 SLP032 P0027 60067 70067 T01830178 10189 20178 58024 VISNO RY24 $
KNHK 291158Z 10014G29KT 1 3/4SM +RA BR SCT005 BKN015 OVC046 18/18 A2962 RMK AO2 PK WND 10029/1153 CIG 009 RY24 P0004 T01830178 VISNO RY24 $
KNHK 291158Z COR 10014G29KT 1 3/4SM +RA BR SCT005 BKN015 OVC045 18/18 A2962 RMK AO2 PK WND 10029/1153 P0004 T01830178 VISNO RY24 $
KNHK 291213Z 11014G23KT 1 1/4SM RA BR SCT005 BKN040 OVC090 18/18 A2961 RMK AO2 PK WND 10029/1153 P0010 T01830178 VISNO RY24 $
KNHK 291219Z 12011G17KT 4SM -RA BR SCT005 OVC030 18/18 A2961 RMK AO2 PK WND 10029/1153 P0011 T01780178 VISNO RY24 $
KNID 291156Z AUTO 23004KT 10SM CLR 10/M08 A2993 RMK AO2 SLP125 T01001083 10156 20100 55002
KNIP 291153Z 28016G22KT 10SM OVC010 17/14 A2971 RMK AO2 SLP055 T01670144 10222 20167 53013 $
KNJK 291156Z AUTO 28005KT 10SM CLR 16/M02 A2980 RMK AO2 SLP105 T01611022 10233 20156 55001 $
KNJM 291157Z AUTO 28004KT 10SM -RA FEW019 SCT043 OVC090 19/19 A2963 RMK AO2 RAB21 SLP038 P0000 60092 70093 T01940194 10239 20189 56017 $
KNKT 291154Z 00000KT 7SM FEW025 SCT090 BKN110 19/19 A2965 RMK SLP035 60090 70094 T01890189 10233 20189 55011
KNKX 291155Z 08004KT 5SM HZ OVC006 19/16 A2988 RMK AO2 SLP112 T01890161 10206 20189 53002 $
KNKX 291155Z COR 08004KT 5SM BR OVC006 19/16 A2988 RMK AO2 SLP112 T01890161 10206 20189 53002 $
KNLC 291156Z AUTO 27003KT 10SM CLR A2986 RMK AO2 SLPNO 57003 $
KNMM 291156Z AUTO 31005KT 10SM CLR 01/M01 A3001 RMK AO2 SLP176 T00111011 10033 20011 53003 $
KNOG 291156Z AUTO 31005KT 10SM CLR 04/M03 A3015 RMK AO2 SLP192 T00441028 10083 20039 53002 $
KNOW 291155Z AUTO 27003KT 10SM CLR 08/07 A3000 RMK AO2 T00780069 10091 20074
KNOW 291215Z AUTO 26006KT 10SM CLR 08/07 A3000 RMK AO2 T00810071
KNOW 291235Z AUTO 24004KT 10SM CLR 08/07 A3000 RMK AO2 T00800070
KNOZ 291159Z AUTO 03005KT 10SM CLR 19/M05 A2980 RMK AO2 SLP039 T01941050 10217 20172 55003
KNPA 291156Z AUTO 34008KT CLR 05/01 A2997 RMK AO2 SLP151 7//// T00500011 10078 20050 53007 $
KNQA 291150Z 33004KT 2SM BR SKC M02/M02 A3001
KNQA 291225Z 00000KT 10SM SKC M01/M01 A3001
KNQI 291156Z AUTO 30003KT 10SM CLR 03/M03 A3015 RMK AO2 SLP207 T00331028 10083 20028 53005
KNQX 291153Z 31013KT 10SM FEW024 SCT220 24/23 A2975 RMK AO2 SLP074 60000 70010 T02440228 10256 20228 53019 $
KNRB 291152Z AUTO 27011G21KT 10SM OVC013 17/14 A2968 RMK AO2 SLP049 T01720144 53010 $
KNRB 291214Z AUTO 29015G23KT 10SM OVC015 16/13 A2970 RMK AO2 T01610133 $
KNRB 291226Z AUTO 29010G21KT 10SM OVC014 16/13 A2970 RMK AO2 T01560128 $
KNRS 291156Z AUTO 00000KT 10SM OVC011 18/15 A2989 RMK AO2 SLP120 T01830150 10183 20178 53001 $
KNSE 291156Z AUTO 32008KT 10SM CLR 03/02 A2996 RMK AO2 SLP135 70005 T00330022 10067 20033 53007 $
KNSI 291157Z AUTO 29010KT 2SM BR OVC002 13/ A2987 RMK AO2 SLP109 T0133 10133 20128 55003 PWINO $
KNSI 291207Z AUTO 30010KT 1 1/2SM BR OVC002 13/ A2987 RMK AO2 T0133 PWINO $
KNSI 291239Z AUTO 29010KT 2 1/2SM BR OVC002 13/ A2987 RMK AO2 T0133 PWINO $
KNTD 291156Z AUTO 36003KT 4SM BR OVC008 16/14 A2987 RMK AO2 CIG 005V010 SLP116 T01610139 55005 PWINO $
KNTU 291156Z 15006KT 3SM -RA BR BKN050 BKN070 OVC090 19/17 A2963 RMK AO2 SLP036 P0059 60070 70070 T01890172 10206 20189 56014 $
KNTU 291216Z 18007KT 10SM FEW009 BKN015 OVC070 19/17 A2963 RMK AO2 RAE01 P0000 T01890172 $
KNTU 291239Z 17009KT 5SM -RA BR BKN008 BKN014 OVC050 19/17 A2963 RMK AO2 RAE01B27 P0000 T01890172 $
KNUI 291153Z AUTO 08008KT 4SM +RA BR FEW006 OVC032 18/18 A2962 RMK AO2 SLP028 P0023 60043 70043 T01830183 10194 20178 58024
KNUI 291219Z AUTO 09009KT 10SM -RA BKN006 BKN030 OVC100 18/18 A2961
KNUI 291219Z AUTO 09009KT 10SM -RA BKN006 BKN030 OVC100 18/18 A2961 RMK AO2 P0003 T01830183
KNUI 291228Z AUTO 09010KT 10SM -RA SCT007 BKN020 OVC100 18/18 A2961
KNUI 291228Z AUTO 09010KT 10SM -RA SCT007 BKN020 OVC100 18/18 A2961 RMK AO2 P0003 T01830178
KNUQ 291156Z 03003KT 7SM OVC008 13/12 A2991 RMK AO2 SLP129 T01330122 10139 20133 58008
KNUW 291156Z 18003KT 9SM BCFG FEW003 05/03 A3002 RMK AO2 SLP166 T00500028 10089 20044 58001 $
KNXP 291156Z AUTO 00000KT 10SM CLR 14/M07 A2998 RMK AO2 SLP120 T01391072 10200 20139 55004 $
KNY0 291156Z AUTO 16009KT 10SM BKN019 OVC040 14/13 A2978 RMK AO2
KNY0 291215Z AUTO 16008KT 10SM BKN019 BKN040 OVC048 14/13 A2979 RMK AO2
KNYC 291151Z VRB04KT 8SM OVC008 17/16 A2980 RMK AO2 RAE45 CIG 007V011 SLP083 P0002 60009 70009 T01670161 10183 20156 56018 $
KNYG 291156Z VRB03KT 10SM BKN012 OVC080 18/17 A2962 RMK AO2 SLP029 60014 70014 T01830172 10183 20178 56022
KNYL 291157Z AUTO 03004KT 10SM CLR 20/M01 A2979 RMK AO2 SLP084 T02001006 10228 20189 55002 $
KO22 291155Z AUTO 10SM CLR 12/08 A2994 RMK AO1
KO22 291215Z AUTO 10SM CLR 11/08 A2994 RMK AO1
KO22 291235Z AUTO 10SM CLR 10/08 A2994 RMK AO1
KO69 291155Z AUTO 00000KT 1/2SM FG OVC003 11/11 A2990 RMK A01
KO69 291215Z AUTO 00000KT 1/2SM BR OVC003 11/11 A2990 RMK A01
KO69 291235Z AUTO 00000KT 1/2SM FG OVC003 10/10 A2990 RMK A01
KO86 291155Z AUTO 00000KT 10SM 05/03 A3001 RMK AO1
KO86 291215Z AUTO 00000KT 10SM 05/03 A3001 RMK AO1
KO86 291235Z AUTO 00000KT 10SM 04/02 A3001 RMK AO1
KOAJ 291146Z AUTO VRB03KT 5SM RA BR BKN028 OVC038 19/18 A2964 RMK AO2 TSB30E45RAE17B33 P0004
KOAJ 291156Z AUTO 20004KT 4SM +RA BR FEW017 BKN028 OVC035 19/18 A2963 RMK AO2 TSB30E45RAE17B33 SLP037 P0009 60055 70057 T01890183 10211 20189 55013
KOAK 291153Z 20005KT 9SM OVC006 12/12 A2990 RMK AO2 SLP126 T01220122 10128 20117 58007 PNO
KOBE 291155Z AUTO 31007G14KT 10SM BKN004 18/18 A2969 RMK AO2
KOBE 291215Z AUTO 30009KT 10SM OVC004 18/18 A2970 RMK AO2
KOBE 291235Z AUTO 29011KT 10SM OVC004 18/18 A2971 RMK AO2
KOCF 291151Z 30012G18KT 2 1/2SM -RA BR BKN006 OVC010 16/15 A2975 RMK AO2 VIS 1 3/4V5 RAB47 SLP077 P0000 60000 70001 T01610150 10200 20161 51017
KOCF 291158Z 30010KT 5SM -RA BR OVC006 16/15 A2976 RMK AO2 P0000
KOCH 291156Z AUTO 00000KT 10SM CLR M04/M05 A3010 RMK AO2 SLP201 T10391050 11011 21039 56002 FZRANO
KOCQ 291155Z AUTO 00000KT 10SM CLR M05/M05 A2985 RMK AO1 T10471052 11006 21058
KOCQ 291215Z AUTO 00000KT 10SM CLR M05/M06 A2986 RMK AO1 T10531059
KOCQ 291235Z AUTO 00000KT 10SM CLR M05/M06 A2986 RMK AO1 T10531059
KOCW 291145Z AUTO 21004KT 10SM -DZ SCT048 BKN070 OVC085 19/18 A2963 RMK AO2 T01910182
KOCW 291205Z AUTO 15004KT 10SM SCT055 BKN070 OVC095 19/18 A2961 RMK AO2 T01910180
KOCW 291225Z AUTO 19003KT 10SM SCT060 BKN075 OVC095 19/18 A2962 RMK AO2 T01920175
KODO 291153Z AUTO 25004KT 10SM CLR 04/M08 A3009 RMK AO2 SLP176 T00391083 10067 20039 56007
KODX 291153Z AUTO 32004KT 10SM CLR M03/M05 A2972 RMK AO2 SLP083 T10331050 11006 21044 56014
KOEB 291154Z AUTO 00000KT 10SM OVC017 01/00 A2985 RMK AO2 T00050000 10015 21010
KOEB 291214Z AUTO 22003KT 10SM SCT013 BKN019 OVC036 01/00 A2984 RMK AO2 T00110001
KOEB 291234Z AUTO 21003KT 10SM BKN013 OVC036 01/00 A2985 RMK AO2 T00140001
KOEO 291155Z AUTO 13007KT 10SM OVC070 M01/M03 A2976 RMK AO2 T10111035 11011 21021
KOEO 291215Z AUTO 15007KT 10SM OVC060 M01/M03 A2975 RMK AO2 T10101035
KOEO 291235Z AUTO 15007KT 10SM BKN060 OVC080 M01/M03 A2975 RMK AO2 T10101034
KOFF 291156Z AUTO 00000KT 10SM FEW170 M02/M05 A2977 RMK AO2 SLP095 T10201047 10005 21032 56018 $
KOFK 291156Z AUTO 18003KT 10SM CLR 02/M03 A2970 RMK AO2 SLP068 T00171028 10017 21017 58019
KOFP 291154Z AUTO VRB03KT 10SM BKN007 OVC012 17/17 A2961 RMK AO2 CIG 004V008 SLP027 60060 70060 T01670167 10172 20161 56029
KOFP 291218Z AUTO 00000KT 1 3/4SM -RA BR BKN006 OVC010 17/17 A2961 RMK AO2 RAB15 CIG 004V009 P0000 T01670167
KOFP 291234Z AUTO 00000KT 2 1/2SM BR OVC006 17/17 A2961 RMK AO2 RAB15E33 CIG 004V010 P0000 T01720167
KOFP 291244Z AUTO 00000KT 3SM BR OVC006 17/17 A2960 RMK AO2 RAB15E33 CIG 004V008 P0000 T01670167
KOGA 291155Z AUTO 24007KT 10SM CLR 02/00 A2983 RMK AO2 T00151001 10027 20010
KOGA 291215Z AUTO 26007KT 10SM CLR 01/00 A2982 RMK AO2 T00121003
KOGA 291235Z AUTO 26003KT 10SM CLR 01/M01 A2981 RMK AO2 T00051010
KOGB 291153Z AUTO 27008KT 10SM BKN010 OVC034 15/13 A2960 RMK AO2 SLP022 T01500133 10172 20144 55008
KOGD 291153Z AUTO 17007KT 10SM CLR 05/M01 A3009 RMK AO2 SLP168 T00501006 10067 20050 57008
KOGS 291155Z AUTO 00000KT 4SM RA SCT004 BKN010 OVC015 07/06 A2985 RMK AO2 T00670061 10087 20067
KOGS 291215Z AUTO 00000KT 3SM RA SCT004 OVC010 07/06 A2985 RMK AO2 T00670061
KOGS 291235Z AUTO 00000KT 2SM RA SCT004 OVC010 07/06 A2984 RMK AO2 T00680062
KOJA 291155Z AUTO 30006KT 10SM CLR 06/M03 A2992 RMK AO2
KOJA 291215Z AUTO 29007KT 10SM CLR 07/M02 A2992 RMK AO2
KOJA 291235Z AUTO 30004KT 10SM CLR 06/M01 A2992 RMK AO2
KOJC 291153Z 17005KT 10SM CLR M02/M08 A2987 RMK AO2 PK WND 33042/1135 SLP121 T10221078 11006 21022 57018
KOKB 291152Z AUTO 00000KT 4SM BR OVC006 18/17 A2987 RMK AO2 SLP113 T01780167 10189 20172 55000
KOKC 291152Z 23007KT 10SM CLR 04/M07 A2990 RMK AO2 SLP128 T00391067 10061 20011 56011 $
KOKK 291156Z AUTO 26007KT 10SM OVC049 02/M02 A2990 RMK AO2 SLP133 T00171017 10022 20017 52001 FZRANO
KOKM 291155Z AUTO 13004KT 10SM CLR 00/M05 A2993 RMK AO2 T00031049 10008 21017
KOKM 291215Z AUTO 15004KT 10SM CLR 00/M05 A2992 RMK AO2 T00031048
KOKM 291235Z AUTO 00000KT 10SM CLR 00/M04 A2991 RMK AO2 T00031044
KOKV 291155Z AUTO 32003KT 10SM RA BKN011 OVC020 11/10 A2963 RMK AO2
KOKV 291215Z AUTO 34005KT 10SM -RA OVC011 11/10 A2963 RMK AO2 P0001
KOKV 291235Z AUTO 33004KT 4SM RA OVC011 10/10 A2962 RMK AO2 P0002
KOKZ 291155Z AUTO 29007G14KT 250V310 10SM OVC016 05/03 A2973 RMK AO2 T00520025 10100 20051
KOKZ 291215Z AUTO 29008KT 10SM OVC016 05/02 A2974 RMK AO2 T00530024
KOKZ 291235Z AUTO 28008G16KT 250V320 10SM OVC016 06/02 A2974 RMK AO2 T00550024
KOLE 291155Z AUTO 06010KT 5SM RA OVC003 02/02 A2976 RMK AO2
KOLE 291215Z AUTO 06013G16KT 5SM RA OVC003 01/01 A2974 RMK AO2
KOLE 291235Z AUTO 04007KT 3SM RA OVC003 01/01 A2975 RMK AO2
KOLF 291153Z AUTO 32011KT 10SM OVC100 09/M01 A2986 RMK AO2 SLP114 60000 T00941006 10128 20083 53029
KOLG 291155Z AUTO 16006KT 10SM OVC080 M02/M04 A2972 RMK AO1
KOLG 291215Z AUTO 17006KT 10SM OVC070 M02/M04 A2971 RMK AO1
KOLG 291235Z AUTO 16009KT 10SM OVC070 M02/M04 A2970 RMK AO1
KOLM 291154Z AUTO 00000KT 1/4SM FG VV002 09/09 A3000 RMK AO2 SLP157 T00890089 10089 20039 55002
KOLS 291154Z AUTO 00000KT 10SM CLR 09/M04 A3001 RMK AO2 SLP111 T00941039 10139 20094 55001 TSNO
KOLU 291156Z AUTO 00000KT 10SM CLR M03/M06 A2975 RMK AO2 SLP089 T10281056 10006 21039 56015 FZRANO
KOLV 291150Z 00000KT 10SM SKC A2999
KOLY 291155Z AUTO 26003KT 10SM OVC042 01/M02 A2996 RMK AO2 T00111023 10025 20011
KOLY 291215Z AUTO 27003KT 10SM SCT042 01/M02 A2996 RMK AO2 T00071020
KOLY 291235Z AUTO 27003KT 10SM CLR 00/M02 A2996 RMK AO2 T00021019
KOLZ 291155Z AUTO 15010KT 10SM SCT110 OVC170 M03/M03 A2983 RMK AO2
KOLZ 291215Z AUTO 15009KT 10SM OVC160 M02/M03 A2982 RMK AO2
KOLZ 291235Z AUTO 15010KT 10SM FEW095 FEW110 OVC160 M02/M03 A2982 RMK AO2
KOMA 291152Z 14007KT 10SM FEW080 BKN130 BKN250 01/M07 A2977 RMK AO2 SLP088 T00061067 10022 21006 56019
KOMH 291155Z AUTO 09006KT 10SM DZ BKN012 BKN017 OVC029 15/14 A2960 RMK AO2
KOMH 291215Z AUTO 11005KT 10SM BKN010 OVC022 15/14 A2960 RMK AO2
KOMH 291235Z AUTO 00000KT 10SM RA OVC008 15/14 A2960 RMK AO2
KOMK 291153Z AUTO 34011KT 10SM CLR 05/03 A3005 RMK AO2 SLP179 T00500033 10072 20044 51002
KOMN 291150Z 26006KT 7SM SCT005 SCT070 19/19 A2967
KOMN 291200Z 26006KT 7SM BKN009 BKN070 19/19 A2967
KONA 291152Z AUTO 15005KT 10SM CLR M01/M03 A2982 RMK AO2
KONA 291212Z AUTO 15004KT 10SM BKN110 M01/M03 A2982 RMK AO2
KONA 291231Z AUTO 14004KT 10SM SCT070 OVC100 M01/M03 A2981 RMK AO2
KONL 291155Z AUTO 26005KT 10SM CLR 04/00 A2969 RMK AO2 T00381005 10040 20007
KONL 291215Z AUTO 27004KT 10SM SCT100 SCT120 04/00 A2969 RMK AO2 T00371005
KONL 291235Z AUTO 00000KT 10SM CLR 04/00 A2969 RMK AO2 T00401001
KONM 291155Z AUTO 02006KT 10SM CLR 03/M03 A3014 RMK AO2 T00271034 10068 20025
KONM 291215Z AUTO 36006KT 10SM CLR 03/M03 A3013 RMK AO2 T00311032
KONM 291235Z AUTO 01006KT 10SM CLR 03/M03 A3013 RMK AO2 T00311035
KONO 291153Z AUTO 27003KT 7SM CLR 02/01 A3002 RMK AO2 SLP170 T00220011 10061 20022 58006 TSNO
KONP 291155Z AUTO 00000KT 10SM OVC023 11/11 A3002 RMK AO2
KONP 291215Z AUTO 00000KT 10SM OVC023 11/11 A3002 RMK AO2
KONP 291235Z AUTO 00000KT 10SM OVC025 11/11 A3002 RMK AO2
KONT 291153Z 00000KT 5SM HZ CLR 15/12 A2987 RMK AO2 SLP102 T01500122 10189 20144 57000 $
KONT 291153Z COR 00000KT 2SM HZ CLR 15/12 A2987 RMK AO2 SLP102 T01500122 10189 20144 57000 $
KONT 291218Z 00000KT 1SM R26L/P6000FT BR CLR 13/12 A2987 RMK AO2 T01330122 $
KONT 291243Z 00000KT 1SM R26L/4500VP6000FT BR VV001 13/12 A2987 RMK AO2 T01330122 $
KONX 291155Z AUTO 18003KT 10SM RA SCT009 SCT013 OVC050 19/18 A2966 RMK AO2 P0027 60046 70046 T01860180 10275 20047
KONX 291215Z AUTO 00000KT 10SM DZ SCT012 BKN018 OVC050 19/18 A2966 RMK AO2 T01860181
KONX 291235Z AUTO 17003KT 7SM SCT010 BKN014 OVC048 19/18 A2966 RMK AO2 T01870182
KONZ 291153Z AUTO 28004KT 10SM OVC045 03/01 A2985 RMK AO2 T00320012 10042 20026
KONZ 291212Z AUTO 30004KT 10SM OVC045 03/01 A2984 RMK AO2 T00330014
KONZ 291232Z AUTO 30006KT 10SM OVC043 04/01 A2984 RMK AO2 T00350013
KOOA 291155Z AUTO 16006KT 10SM CLR M03/M04 A2985 RMK AO2 T10271043 11026 21055
KOOA 291215Z AUTO 16006KT 10SM BKN110 M02/M04 A2985 RMK AO2 T10241042
KOOA 291235Z AUTO 17007KT 10SM OVC100 M02/M04 A2985 RMK AO2 T10181039
KOPF 291153Z 30016G20KT 10SM OVC007 22/21 A2968 RMK AO2 CIG 005V010 SLP050 60017 70264 T02170211 10244 20211 53027
KOPL 291200Z AUTO 00000KT 02/01 A3008 RMK AO2 T00160010 PWINO
KOPL 291220Z AUTO 00000KT 02/01 A3009 RMK AO2 T00150008 PWINO
KOPL 291230Z AUTO 36003KT 01/01 A3009 RMK AO2 T00130006 PWINO
KOPN 291155Z AUTO 32009KT 10SM CLR 02/00 A2980 RMK AO2
KOPN 291215Z AUTO 32011G17KT 10SM CLR 02/M01 A2981 RMK AO2
KOPN 291235Z AUTO 31010G14KT 10SM CLR 03/M01 A2982 RMK AO2
KOQT 291153Z AUTO VRB03KT 10SM BKN043 OVC050 03/00 A2985 RMK AO2 SLP117 70077 T00330000 10056 20028 53002
KORB 291153Z AUTO 16008KT 10SM OVC060 M03/M05 A2957 RMK AO2
KORB 291213Z AUTO 15008KT 120V190 10SM OVC060 M03/M05 A2956 RMK AO2
KORB 291233Z AUTO 15010G15KT 10SM OVC060 M03/M05 A2954 RMK AO2
KORC 291155Z AUTO 18005KT 10SM SCT110 02/M06 A2968 RMK AO2
KORC 291215Z AUTO 19006KT 10SM BKN110 02/M05 A2967 RMK AO2
KORC 291235Z AUTO 18006KT 10SM SCT100 03/M05 A2967 RMK AO2
KORD 291151Z 30007KT 10SM FEW049 FEW250 02/M03 A2988 RMK AO2 SLP125 T00171033 10033 20011 56003 $
KORE 291152Z AUTO 16005KT 10SM SCT020 BKN028 OVC060 15/14 A2989 RMK AO2 SLP123 60000 T01500144 10150 20139 55003 TSNO $
KORE 291200Z AUTO 15005KT 9SM SCT020 SCT031 OVC055 16/14 A2989 RMK AO2 T01560144 TSNO $
KORE 291234Z AUTO 14003KT 10SM BKN017 BKN030 OVC060 15/15 A2989 RMK AO2 RAB18E30 P0000 T01500150 TSNO $
KORF 291151Z 17009KT 10SM -RA FEW027 BKN075 OVC095 20/19 A2962 RMK AO2 SLP030 P0023 60052 70052 T02000189 10200 20178 56019
KORF 291225Z 18008KT 10SM FEW013 BKN027 OVC080 20/19 A2963
KORF 291225Z 18008KT 10SM FEW013 BKN027 OVC080 20/19 A2963 RMK AO2 RAE1152 P0000 T02000189
KORF 291238Z 17009KT 10SM -RA FEW014 SCT028 OVC080 20/19 A2962
KORF 291238Z 17009KT 10SM -RA FEW014 SCT028 OVC080 20/19 A2962 RMK AO2 RAE1152B26 P0001 T02000189
KORG 291155Z AUTO 00000KT 10SM CLR 01/01 A3014 RMK AO2 T00090009 10055 20009
KORG 291215Z AUTO 00000KT 10SM CLR 01/01 A3014 RMK AO2 T00050005
KORG 291235Z AUTO 00000KT 10SM CLR 01/01 A3013 RMK AO2 T00050005
KORH 291154Z 13008KT 1 1/2SM BR OVC002 14/13 A2991 RMK AO2 SFC VIS 3 SLP132 T01390128 10139 20122 58002
KORL 291153Z 27010KT 10SM BKN007 BKN013 OVC050 20/20 A2970 RMK CIG004V010
KORL 291212Z 28014KT 10SM BKN007 OVC016 19/18 A2971 RMK CIG005V010
KORL 291221Z 28014G21KT 10SM FEW007 SCT010 OVC019 19/18 A2972
KORS 291155Z AUTO 00000KT 1/4SM -RA VV002 07/07 A2999 RMK AO2
KORS 291215Z AUTO 00000KT 1/4SM -RA VV002 07/07 A2999 RMK AO2
KORS 291235Z AUTO 00000KT 1/4SM -RA VV002 07/07 A3000 RMK AO2
KOSA 291155Z AUTO 00000KT 10SM CLR M02/M03 A3007 RMK AO1 T10191030 11002 21025
KOSA 291215Z AUTO 00000KT 10SM CLR M02/M03 A3007 RMK AO1 T10181029
KOSA 291235Z AUTO 14003KT 10SM CLR M02/M03 A3007 RMK AO1 T10181031
KOSC 291154Z AUTO 29004KT 10SM CLR M01/M02 A2984 RMK AO2 T10121019 10035 21019
KOSC 291214Z AUTO 00000KT 10SM CLR M01/M01 A2984 RMK AO2 T10071013
KOSC 291234Z AUTO 00000KT 10SM CLR M02/M02 A2985 RMK AO2 T10171024
KOSH 291153Z 00000KT 10SM CLR M02/M04 A2985 RMK AO2 SLP120 T10171039 10028 21017 57005
KOSU 291153Z 31006KT 10SM FEW014 OVC041 03/02 A2984 RMK AO2 SLP111 70008 T00330017 10033 20028 58001
KOTG 291156Z AUTO 17005KT 10SM CLR 02/M07 A2967 RMK AO2 SLP064 T00171067 10022 20011 58016 FZRANO
KOTH 291156Z 00000KT 6SM BR FEW003 OVC023 12/12 A3002 RMK AO2 SLP164 T01220117 10128 20122 58007
KOTM 291153Z AUTO 18008KT 10SM FEW110 M02/M05 A2984 RMK AO2 SLP114 I6000 T10171050 11017 21061 58017
KOUN 291155Z AUTO 23004KT 10SM CLR 04/M06 A2992 RMK AO2
KOUN 291215Z AUTO 23005KT 10SM CLR 04/M05 A2991 RMK AO2
KOUN 291235Z AUTO 23004KT 10SM CLR 03/M05 A2992 RMK AO2
KOVE 291153Z AUTO 00000KT 10SM CLR 14/11 A2987 RMK AO2 SLP116 T01390106 10194 20122 58001
KOVL 291153Z AUTO 16008KT 10SM CLR 01/M03 A2964 RMK AO2
KOVL 291213Z AUTO 16008KT 10SM CLR 01/M04 A2963 RMK AO2
KOVL 291232Z AUTO 16007KT 10SM CLR 01/M04 A2963 RMK AO2
KOVS 291153Z AUTO 00000KT 10SM CLR M04/M06 A2988 RMK AO2 SLP127 I6000 T10391056 10011 21056 56009
KOWA 291154Z AUTO 16012KT 10SM OVC065 M01/M03 A2973 RMK AO2
KOWA 291214Z AUTO 16012G15KT 10SM OVC065 M01/M03 A2973 RMK AO2
KOWA 291234Z AUTO 16011KT 10SM BKN065 BKN075 BKN110 M01/M03 A2971 RMK AO2
KOWB 291156Z 31006KT 7SM BKN012 OVC032 03/00 A2996 RMK AO2 RAE29 SLP159 P0000 60000 T00280000 10044 20022 50003
KOWD 291153Z VRB04KT 10SM OVC085 17/14 A2993 RMK AO2 SLP135 T01670139 10167 20139 53001
KOWI 291155Z AUTO 17008KT 10SM CLR M02/M06 A2987 RMK AO2
KOWI 291215Z AUTO 17007KT 10SM CLR M02/M06 A2986 RMK AO2
KOWI 291235Z AUTO 18006KT 10SM CLR M02/M06 A2986 RMK AO2
KOWP 291155Z AUTO 17006KT 10SM CLR 05/M07 A2990 RMK AO2 T00511073 10055 20030
KOWP 291215Z AUTO 17004KT 10SM CLR 05/M07 A2990 RMK AO2 T00461068
KOWP 291235Z AUTO 17004KT 10SM CLR 04/M06 A2990 RMK AO2 T00411065
KOWX 291155Z AUTO 24004KT 10SM SCT036 OVC043 02/01 A2989 RMK AO1
KOWX 291215Z AUTO 25004KT 7SM OVC043 02/01 A2989 RMK AO1
KOWX 291235Z AUTO 25004KT 7SM OVC043 02/01 A2988 RMK AO1
KOXB 291153Z AUTO 6SM RA BR BKN032 BKN045 OVC095 19/19 A2970 RMK AO2 RAB1054 SLP057 P0007 60007 70007 T01890189 10194 20183 56017
KOXC 291151Z 15010G18KT 2SM -RA BR OVC006 16/15 A2985 RMK AO2 CIG 004V010 SLP119 P0014 60021 70021 T01560150 10161 20150 56010
KOXI 291155Z AUTO 26008KT 10SM OVC039 02/00 A2988 RMK AO1
KOXI 291215Z AUTO 26007KT 10SM OVC041 02/00 A2988 RMK AO1
KOXI 291235Z AUTO 26006KT 10SM OVC043 02/00 A2989 RMK AO1
KOXR 291151Z AUTO 00000KT 5SM BR OVC005 15/14 A2986 RMK AO2 SLP112 T01500139 10150 20144 55005
KOXV 291155Z AUTO 17007KT 10SM OVC095 01/M06 A2980 RMK AO2
KOXV 291215Z AUTO 17006KT 10SM OVC095 01/M06 A2981 RMK AO2
KOXV 291235Z AUTO 17008KT 10SM OVC100 01/M06 A2981 RMK AO2
KOZA 291155Z AUTO 00000KT 10SM CLR M02/M08 A3014 RMK AO2
KOZA 291215Z AUTO 00000KT 10SM CLR M02/M08 A3014 RMK AO2
KOZA 291235Z AUTO 00000KT 10SM CLR M02/M08 A3014 RMK AO2
KOZR 291147Z AUTO 30005KT 10SM CLR 03/01 A2991 RMK AO2 SLP132
KOZR 291156Z AUTO 29007KT 10SM CLR 03/01 A2991 RMK AO2 SLP132 70020 T00320009 10066 20031 52008
KOZS 291155Z AUTO 15005KT 10SM CLR M03/M05 A2994 RMK AO2
KOZS 291215Z AUTO 17004KT 10SM CLR M03/M05 A2994 RMK AO2
KOZS 291235Z AUTO 20005KT 10SM CLR M01/M05 A2994 RMK AO2
KOZW 291155Z AUTO 24003KT 7SM BKN013 OVC035 03/02 A2984 RMK AO2 T00260022 10035 20026
KOZW 291215Z AUTO 24003KT 7SM OVC011 03/02 A2984 RMK AO2 T00260022
KOZW 291235Z AUTO 25003KT 7SM OVC011 03/02 A2985 RMK AO2 T00280023
KP28 291156Z AUTO 33004KT M01/M07 A2987 RMK AO1 SLP123 T10111072 10033 21017 56006
KP53 291156Z AUTO 19006KT M01/M02 A2982 RMK AO1 SLP104 60002 70013 T10111022 10011 21011 58004
KP58 291151Z AUTO 23004KT 03/02 A2981 RMK AO1 SLP102 60001 70001 T00280022 10044 20028 53003
KP60 291156Z AUTO 00000KT M04/ A3012 RMK AO1 SLP194 T1044 11028 21044 56015 $
KP68 291153Z AUTO 21006KT 01/M05 A3013 RMK AO1 SLP155 T00111050 10039 20011 55007
KP69 291152Z AUTO 00000KT 05/04 A3006 RMK AO1 SLP184 7//// T00500044 10056 20044 55000 $
KP92 291153Z AUTO 36004KT 06/02 A3006 RMK AO1 SLP178 T00560022 10094 20056 58001
KPAE 291153Z AUTO 00000KT 4SM R16R/3000VP6000FT BR FEW003 07/07 A2999 RMK AO2 SLP155 T00720072 10106 20067 58001
KPAE 291212Z AUTO 00000KT 1 3/4SM R16R/2600VP6000FT BR CLR 07/07 A2999 RMK AO2 VIS 3/4V5 T00670067
KPAE 291228Z AUTO 00000KT 1/2SM R16R/2200VP6000FT FG VV004 07/07 A2999 RMK AO2 T00720072
KPAE 291236Z AUTO 00000KT 1/4SM R16R/P6000FT FG VV003 06/06 A2999 RMK AO2 T00610061
KPAH 291153Z 34003KT 10SM OVC035 03/M03 A2998 RMK AO2 SLP153 T00331028 10039 20028 50002
KPAM 291156Z AUTO 34009G15KT 10SM CLR 06/03 A2991 RMK AO2 SLP132 70007 T00620025 10107 20060 51010 $
KPAN 291155Z AUTO 07003KT 10SM CLR 11/M06 A3012 RMK AO2
KPAN 291215Z AUTO 08005KT 10SM CLR 12/M06 A3012 RMK AO2
KPAN 291235Z AUTO 08004KT 10SM 12/M06 A3012 RMK AO2
KPBF 291153Z AUTO 00000KT 10SM CLR M02/M03 A3005 RMK AO2 SLP178 T10221033 10017 21022 50002
KPBG 291151Z AUTO 01010KT 10SM BKN010 OVC017 10/08 A2985 RMK AO2 RAB00E25 CIG 008V014 P0001
KPBG 291153Z AUTO 01011KT 10SM -RA BKN010 OVC017 10/08 A2985 RMK AO2 RAB00E25B53 CIG 008V014 SLP109 P0001 60001 70001 T01000083 10150 20100 53004
KPBH 291155Z AUTO 20006KT 10SM OVC012 M03/M04 A2977 RMK AO2 T10301045 11016 21030
KPBH 291215Z AUTO 19007KT 10SM OVC012 M03/M04 A2977 RMK AO2 T10301042
KPBH 291235Z AUTO 22006KT 10SM OVC012 M03/M04 A2976 RMK AO2 T10311045
KPBI 291153Z 29014KT 10SM BKN008 OVC028 21/21 A2965 RMK AO2 SLP040 60084 70671 T02110211 10228 20211 53024 $
KPBI 291224Z 29012KT 10SM BKN010 BKN028 BKN200 21/21 A2967 RMK AO2 T02110206 $
KPBX 291155Z AUTO 33004KT 7SM BKN005 OVC010 01/01 A2981 RMK AO2 T00050005 10021 20003
KPBX 291215Z AUTO 31006KT 5SM BR BKN005 OVC010 01/01 A2982 RMK AO2 T00050005
KPBX 291235Z AUTO 32006KT 5SM -SN OVC007 01/01 A2983 RMK AO2 T00050005
KPCD 291155Z AUTO 00000KT 10SM CLR M02/M04 A2999 RMK AO2 T10231038 10030 21025 PWINO
KPCD 291215Z AUTO 00000KT 10SM CLR M02/M04 A2998 RMK AO2 T10241040 PWINO
KPCD 291235Z AUTO 21003KT 10SM CLR M03/M04 A2999 RMK AO2 T10271041 PWINO
KPCM 291155Z AUTO 29012G19KT 10SM BKN010 BKN014 OVC028 19/18 A2978 RMK AO2
KPCM 291215Z AUTO 30016G23KT 10SM BKN014 BKN018 OVC028 19/16 A2979 RMK AO2
KPCM 291235Z AUTO 31020G25KT 10SM SCT014 OVC020 18/16 A2980 RMK AO2
KPCZ 291155Z AUTO 00000KT 10SM BKN020 M02/M03 A2986 RMK AO2 T10211032 10021 21028
KPCZ 291215Z AUTO 00000KT 10SM SCT020 M02/M03 A2986 RMK AO2 T10241035
KPCZ 291235Z AUTO 00000KT 10SM CLR M03/M03 A2986 RMK AO2 T10261035
KPDC 291155Z AUTO 10003KT 10SM BKN110 M01/M04 A2986 RMK AO2 T10101042 10010 21028
KPDC 291215Z AUTO 10003KT 10SM SCT110 M01/M04 A2986 RMK AO2 T10131044
KPDC 291235Z AUTO 09005KT 10SM SCT100 M01/M05 A2986 RMK AO2 T10141046
KPDK 291153Z 31014G22KT 10SM OVC023 03/M01 A2976 RMK AO2 SLP087 70070 T00331006 10050 20033 53003
KPDT 291153Z AUTO 12005KT 3SM CLR 03/03 A2999 RMK AO2 SLP152 T00330033 10072 20022 55001
KPDT 291204Z AUTO 12003KT 2 1/2SM CLR 04/03 A2999 RMK AO2 T00390033
KPDT 291215Z AUTO 11004KT 3SM CLR 04/03 A2999 RMK AO2 T00390033
KPDX 291153Z 10004KT 3/4SM R10R/5500VP6000FT BR OVC004 09/09 A3000 RMK AO2 SLP158 T00940094 10128 20094 58001
KPDX 291215Z 10005KT 1SM R10R/3000V6000FT BR VV002 09/09 A3000
KPDX 291215Z 10005KT 1SM R10R/3000V6000FT BR VV002 09/09 A3000 RMK AO2 T00940094
KPDX 291221Z 10005KT 2SM R10R/3000VP6000FT BR OVC002 09/09 A3000
KPDX 291221Z 10005KT 2SM R10R/3000VP6000FT BR OVC002 09/09 A3000 RMK AO2 T00940094
KPEA 291155Z AUTO 15006KT 10SM SCT095 00/M06 A2983 RMK AO2 T10011056 11001 21048
KPEA 291215Z AUTO 15004KT 10SM BKN095 00/M06 A2984 RMK AO2 T00001057
KPEA 291235Z AUTO 15004KT 10SM SCT095 00/M05 A2984 RMK AO2 T00001051
KPEO 291153Z AUTO 33004KT 6SM -RA BR OVC008 06/04 A2979 RMK AO2 CIG 005V011 SLP093 P0006 60047 70082 T00610044 10072 20056 56008
KPEQ 291155Z AUTO 21003KT 10SM CLR 00/M04 A3011 RMK AO2 T00021044 10040 20001
KPEQ 291215Z AUTO 00000KT 10SM CLR 01/M05 A3011 RMK AO2 T00051047
KPEQ 291235Z AUTO 23003KT 10SM CLR 01/M04 A3011 RMK AO2 T00061045
KPEX 291153Z AUTO 16010KT 10SM SCT080 01/M03 A2964 RMK AO2 T00121030 10013 20005
KPEX 291213Z AUTO 17007G15KT 10SM CLR 01/M03 A2963 RMK AO2 T00121031
KPEX 291233Z AUTO 16009KT 10SM CLR 01/M03 A2963 RMK AO2 T00101031
KPEZ 291155Z AUTO 00000KT 10SM CLR 00/M03 A3016 RMK AO2 T00031026 10034 21002
KPEZ 291215Z AUTO 00000KT 10SM CLR 00/M03 A3016 RMK AO2 T00041028
KPEZ 291235Z AUTO 00000KT 10SM CLR 00/M03 A3015 RMK AO2 T10021028
KPGA 291153Z AUTO 00000KT 10SM CLR 09/M03 A3008 RMK AO2 SLP148 T00891033 10122 20083 56003 TSNO
KPGD 291151Z 33012G20KT 10SM OVC009 20/19 A2976 RMK AO2 CIG 007V016
KPGD 291153Z 33011G20KT 10SM OVC009 20/19 A2976 RMK AO2 CIG 007V011 SLP078 70122 T02000189 10200 20183 52010
KPGD 291210Z 33012G20KT 10SM BKN011 BKN026 OVC030 20/19 A2977 RMK AO2 T02000189
KPGD 291212Z 34012G20KT 10SM BKN008 BKN011 OVC030 20/19 A2977 RMK AO2 T02000189
KPGV 291155Z AUTO 16003KT 10SM SCT006 BKN060 BKN070 19/19 A2966 RMK AO2
KPGV 291215Z AUTO 00000KT 10SM SCT005 SCT060 SCT070 19/19 A2965 RMK AO2
KPGV 291235Z AUTO 00000KT 7SM CLR 19/18 A2964 RMK AO2
KPHD 291153Z AUTO 33004KT 10SM OVC030 03/00 A2983 RMK AO2 SLP106 70009 T00330000 10033 20028 56006
KPHD 291210Z AUTO 34003KT 10SM OVC029 03/01 A2981 RMK AO2 T00330006
KPHF 291154Z 18007KT 9SM -RA SCT010 OVC100 19/18 A2962 RMK AO2 SLP028 P0008 60071 70071 T01890178 10200 20183 56025
KPHF 291202Z 18005KT 10SM BKN009 OVC100 19/18 A2961 RMK AO2 RAE02 P0000 T01890178
KPHF 291241Z 18007KT 10SM OVC110 19/18 A2961 RMK AO2 RAE02 P0000 T01890178
KPHL 291154Z 09006KT 10SM OVC008 17/16 A2972 RMK AO2 SLP062 T01720156 10178 20172 56021 $
KPHL 291215Z 12008KT 7SM -RA OVC008 17/16 A2973 RMK AO2 RAB07 P0000 T01720156 $
KPHN 291155Z AUTO 00000KT 10SM OVC044 04/02 A2984 RMK AO2
KPHN 291215Z AUTO 00000KT 10SM OVC042 04/02 A2984 RMK AO2
KPHN 291236Z AUTO 00000KT 10SM OVC042 05/02 A2984 RMK AO2
KPHP 291155Z AUTO 27006KT 10SM CLR 04/01 A2965 RMK AO2 SLP045 T00440006 10067 20039 56019
KPHT 291155Z AUTO 00000KT 10SM OVC037 03/01 A2996 RMK A01
KPHT 291215Z AUTO 00000KT 10SM OVC037 03/01 A2996 RMK A01
KPHT 291235Z AUTO 00000KT 10SM OVC036 03/01 A2996 RMK A01
KPHX 291151Z 11006KT 10SM CLR 20/00 A2985 RMK AO2 SLP093 T02000000 10233 20194 53003
KPIA 291154Z 00000KT 10SM CLR M04/M05 A2993 RMK AO2 SLP143 I1000 I6000 T10391050 10011 21039 57005
KPIB 291156Z AUTO 27003KT 10SM CLR 00/M01 A3004 RMK AO2 SLP176 70007 T00001006 10039 20000 51007 FZRANO
KPIE 291153Z 31021G27KT 10SM BKN024 OVC031 19/15 A2978 RMK AO2 PK WND 32031/1122 SLP086 60006 70017 T01890150 10211 20183 53020
KPIH 291153Z AUTO VRB03KT 10SM CLR M01/M02 A3006 RMK AO2 SLP173 T10061017 10033 21017 56008 $
KPIL 291153Z AUTO 32006KT 10SM CLR 09/M01 A3012 RMK AO2 SLP200 T00891011 10106 20089 53001
KPIM 291155Z AUTO 32011G21KT 290V360 10SM OVC026 05/00 A2983 RMK AO2 T00460000 10059 20041 PWINO
KPIM 291215Z AUTO 33009G24KT 10SM OVC026 05/00 A2983 RMK AO2 T00450000 PWINO
KPIM 291235Z AUTO 34010G17KT 310V010 10SM OVC026 05/00 A2984 RMK AO2 T00450000 PWINO
KPIR 291153Z AUTO 26009KT 10SM CLR 06/00 A2963 RMK AO2 SLP040 T00610000 10078 20050 55008
KPIT 291151Z 33008KT 8SM OVC005 03/02 A2977 RMK AO2 DZE31 SLP096 P0000 60016 70057 T00280022 10033 20028 58008
KPKB 291153Z VRB04KT 10SM OVC029 02/01 A2983 RMK AO2 SLP107 60000 70048 T00220011 10033 20022 58009 $
KPKD 291153Z AUTO 17010KT 10SM CLR 00/M03 A2954 RMK AO2 SLP020 60000 T00001028 10006 21011 58027
KPKV 291155Z AUTO 00000KT 10SM CLR 03/M02 A3014 RMK AO2 T00311021 10067 20028
KPKV 291215Z AUTO 00000KT 10SM CLR 03/M02 A3014 RMK AO2 T00321020
KPKV 291235Z AUTO 04005KT 10SM CLR 04/M02 A3013 RMK AO2 T00351021
KPLN 291154Z AUTO 00000KT 10SM CLR M02/M02 A2984 RMK AO2 SLP112 60002 70020 I1000 I6000 T10171022 10022 21017 53001
KPLN 291211Z AUTO 18003KT 10SM FEW008 FEW036 M02/M02 A2984 RMK AO2 T10171022
KPLR 291155Z AUTO 34008KT 10SM OVC029 04/M01 A2991 RMK A01
KPLR 291215Z AUTO 34007KT 10SM OVC028 04/M00 A2992 RMK A01
KPLR 291235Z AUTO 33013G21KT 10SM OVC029 04/M02 A2993 RMK A01
KPLU 291155Z AUTO 00000KT 1/4SM -DZ OVC002 09/09 A3000 RMK AO2
KPLU 291215Z AUTO 00000KT M1/4SM -DZ OVC002 09/09 A3000 RMK AO2 VIS M1/4V5
KPLU 291235Z AUTO 00000KT M1/4SM -DZ OVC002 09/09 A3000 RMK AO2 VIS M1/4V5
KPMD 291153Z AUTO 18004KT 10SM CLR 09/M03 A2994 RMK AO2 SLP118 T00941033 10156 20094 58003 $
KPMP 291153Z 30014KT 9SM OVC007 22/22 A2966 RMK AO2 SLP044 60086 70565 T02170217 10244 20217 53029
KPMU 291155Z AUTO 00000KT M02/M03 A3004 RMK AO2 6//// 7//// T10221027 PWINO
KPMU 291215Z AUTO 00000KT 2 1/2SM BR OVC001 M03/M03 A3004 RMK AO2 VIS 1 1/4V5 T10261031
KPMU 291235Z AUTO 00000KT 4SM BR BKN001 M03/M03 A3005 RMK AO2 T10261031
KPMV 291155Z AUTO 22007KT 10SM CLR 02/M08 A2977 RMK AO2 T00181083 10034 20015
KPMV 291215Z AUTO 22006KT 10SM CLR 02/M08 A2977 RMK AO2 T00171083
KPMV 291235Z AUTO 21005KT 10SM SCT120 02/M08 A2977 RMK AO2 T00191081
KPNA 291155Z AUTO 31003KT 10SM CLR M06/M06 A3011 RMK AO2
KPNA 291215Z AUTO 29003KT 10SM CLR M06/M06 A3011 RMK AO2
KPNA 291235Z AUTO 28004KT 10SM CLR M05/M06 A3010 RMK AO2
KPNC 291153Z AUTO 00000KT 10SM CLR 01/M04 A2988 RMK AO2 SLP122 T00111044 10067 20011 56007
KPNE 291147Z AUTO 07006KT 10SM OVC010 17/15 A2974 RMK AO2 CIG 006V012 T01670150
KPNE 291154Z AUTO 07006KT 10SM OVC010 17/15 A2974 RMK AO2 CIG 008V012 SLP070 T01720150 10172 20156 58022
KPNE 291205Z AUTO 09005KT 10SM OVC009 17/15 A2975 RMK AO2 CIG 007V013 T01720150
KPNM 291154Z AUTO 15006KT 10SM OVC060 00/M03 A2968 RMK AO2
KPNM 291215Z AUTO 15006KT 10SM BKN070 OVC080 00/M03 A2967 RMK AO2
KPNM 291234Z AUTO 14006KT 10SM OVC070 00/M03 A2967 RMK AO2
KPNS 291153Z 32011KT 10SM CLR 06/01 A2998 RMK AO2 SLP154 70003 T00560011 10083 20056 53009
KPNT 291155Z AUTO 26003KT 10SM CLR M02/M02 A2993 RMK AO2 T10231025 10020 21023
KPNT 291215Z AUTO 25004KT 10SM CLR M02/M02 A2993 RMK AO2 T10241025
KPNT 291235Z AUTO 26003KT 10SM CLR M03/M03 A2993 RMK AO2 T10311033
KPOB 291146Z AUTO 00000KT 2 1/4SM BR SCT013 16/16 A2958 RMK AO2 VIS 2 1/4V9 VIS 1 3/4 RWY05 SLP019 $
KPOB 291151Z AUTO 00000KT 1 1/4SM BR SCT013 SCT110 16/16 A2958 RMK AO2 VIS 1 1/4V5 VIS 5/8 RWY05 SLP019 $
KPOB 291156Z AUTO 00000KT 1SM R23/3000VP6000FT BR SCT013 16/16 A2958 RMK AO2 VIS 7/8V1 3/4 SLP019 70027 T01610158 10183 20159 57015 $
KPOB 291201Z AUTO 00000KT 1 1/2SM BR FEW013 16/16 A2957 RMK AO2 VIS 7/8V1 5/8 VIS 3/8 RWY05 SLP015 $
KPOB 291206Z AUTO 16003KT 3SM BR FEW013 16/16 A2957 RMK AO2 VIS 5/8 RWY05 SLP015 $
KPOB 291212Z AUTO 17003KT 9SM FEW007 16/16 A2957 RMK AO2 SLP015 $
KPOE 291158Z AUTO 00000KT 10SM CLR 00/M01 A3007 RMK AO2 SLP186 T00001007 10045 20000 58009
KPOF 291153Z AUTO 00000KT 10SM CLR M03/M04 A3001 RMK AO2 SLP169 I1000 I6000 T10281044 10022 21033 53002
KPOU 291153Z 10004KT 3SM BR FEW021 OVC029 16/14 A2978 RMK AO2 RAE08 SLP081 P0001 60002 70002 T01560139 10172 20144 58010
KPOV 291157Z AUTO 27005KT 10SM BKN015 BKN020 OVC028 02/00 A2980 RMK AO2 T00170001
KPOV 291217Z AUTO 28004KT 10SM SCT013 OVC022 02/00 A2980 RMK AO2 T00180001
KPOV 291236Z AUTO 27004KT 10SM SCT015 BKN043 OVC100 02/00 A2980 RMK AO2 T00200003
KPOY 291155Z AUTO 34013G23KT 10SM CLR 05/M03 A2990 RMK AO2
KPOY 291215Z AUTO 36010KT 10SM CLR 03/M02 A2992 RMK AO2
KPOY 291235Z AUTO 32012KT 10SM CLR 05/M02 A2994 RMK AO2
KPPA 291150Z AUTO 27008KT 10SM CLR 05/M02 A2999 RMK AO2 T00481020 10056 20040
KPPA 291210Z AUTO 27008KT 10SM CLR 05/M02 A2999 RMK AO2 T00501020
KPPA 291230Z AUTO 26009KT 10SM CLR 05/M02 A2999 RMK AO2 T00501019
KPPF 291152Z AUTO 16004KT 10SM CLR 01/M06 A2991 RMK AO2 SLP132 T00111056 10017 21033 56015 $
KPPO 291155Z AUTO 26006KT 10SM BKN037 BKN070 OVC100 02/M01 A2988 RMK AO2 T00221013 10025 20020
KPPO 291215Z AUTO 26006KT 10SM BKN040 BKN075 OVC100 02/M01 A2988 RMK AO2 T00221012
KPPO 291235Z AUTO 27008KT 10SM BKN037 OVC045 02/M01 A2988 RMK AO2 T00221013
KPPQ 291155Z AUTO 00000KT 10SM CLR M03/M04 A2994 RMK AO2 T10341037 11013 21041
KPPQ 291215Z AUTO 00000KT 10SM CLR M03/M04 A2993 RMK AO2 T10351040
KPPQ 291235Z AUTO 00000KT 10SM CLR M04/M04 A2993 RMK AO2 T10381044
KPQI 291156Z AUTO 13006KT 10SM SCT004 OVC010 10/09 A2999 RMK AO2 CIG 007V012 SLP202 T01000094 10100 20083 53005
KPQI 291214Z AUTO 14006KT 10SM BKN004 OVC010 10/09 A3000 RMK AO2
KPQL 291153Z AUTO 00000KT 10SM CLR 03/01 A3003 RMK AO2 SLP172 T00330011 10067 20033 53008
KPQN 291154Z AUTO 21006KT 10SM SCT075 BKN090 04/M06 A2964 RMK AO2
KPQN 291214Z AUTO 22006KT 10SM SCT065 BKN080 04/M05 A2964 RMK AO2
KPQN 291234Z AUTO 23005KT 10SM SCT080 04/M04 A2965 RMK AO2
KPRB 291153Z AUTO 00000KT 1/4SM FG VV001 09/09 A2989 RMK AO2 SLP116 T00940094 10144 20094 56008 TSNO
KPRC 291153Z AUTO 21004KT 10SM CLR 06/M04 A3009 RMK AO2 SLP134 T00561044 10111 20050 55001
KPRG 291155Z AUTO 28004KT 10SM OVC035 01/M01 A2993 RMK AO2 T00131013 10019 20013
KPRG 291215Z AUTO 29004KT 10SM OVC037 01/M01 A2994 RMK AO2 T00131011
KPRG 291235Z AUTO 29004KT 10SM OVC037 01/M01 A2994 RMK AO2 T00131012
KPRN 291156Z AUTO VRB06KT 10SM CLR 03/01 A2992 RMK AO2 SLP134 70035 T00280006 10056 20028 52006
KPRO 291155Z AUTO 18003KT 10SM OVC080 02/M05 A2977 RMK AO2 T00151050 10015 21045
KPRO 291215Z AUTO 18003KT 10SM OVC080 02/M05 A2976 RMK AO2 T00191052
KPRO 291235Z AUTO 16003KT 10SM SCT080 OVC085 03/M06 A2977 RMK AO2 T00251059
KPRS 291155Z AUTO 00000KT 10SM CLR 07/M08 A3015 RMK AO2 T00661082 10117 20065
KPRS 291215Z AUTO 00000KT 10SM CLR 06/M08 A3015 RMK AO2 T00611084
KPRS 291235Z AUTO 02003KT 10SM CLR 07/M08 A3015 RMK AO2 T00651076
KPRX 291156Z AUTO 13005KT CLR M01/M03 A3003 RMK AO2 SLP186 T10111033 10017 21017 58011 PWINO FZRANO $
KPSC 291153Z 35003KT CLR 01/01 A3004 RMK AO2 SLP172 T00110006 10044 20011 53003 RVRNO
KPSC 291219Z 00000KT 10SM FEW005 01/01 A3004 RMK AO2 T00110006
KPSF 291145Z AUTO 16010KT 3SM -RA BR SCT014 BKN032 OVC043 14/13 A2983 RMK AO2 RAE04B28 P0003 T01390128
KPSF 291154Z AUTO 14007G17KT 100V200 5SM -RA BR FEW013 BKN032 OVC043 14/13 A2983 RMK AO2 RAE04B28 SLP086 P0004 60010 70010 T01440128 10150 20139 58007
KPSF 291205Z AUTO 13008KT 7SM -RA FEW012 BKN017 OVC043 14/12 A2983 RMK AO2 P0001 T01440122
KPSF 291215Z AUTO 13009G20KT 6SM -RA BR SCT016 BKN043 OVC060 14/12 A2983 RMK AO2 P0001 T01440122
KPSF 291222Z AUTO 14009KT 5SM -RA BR FEW010 BKN026 OVC055 14/12 A2983 RMK AO2 P0002 T01390122
KPSF 291230Z AUTO 14009KT 2 1/2SM RA BR SCT016 BKN037 OVC050 14/12 A2982 RMK AO2 P0004 T01390122
KPSF 291239Z AUTO 12006KT 3SM -RA BR SCT016 BKN024 OVC048 14/12 A2983 RMK AO2 P0006 T01390122
KPSK 291155Z AUTO 33010KT 10SM OVC009 05/04 A2968 RMK AO2 60030 70084 T00500041 10119 20050
KPSK 291215Z AUTO 32005KT 10SM OVC009 04/04 A2968 RMK AO2 T00420035
KPSK 291235Z AUTO 32008KT 10SM OVC007 04/04 A2969 RMK AO2 T00410035
KPSM 291156Z 11006KT 10SM BKN060 OVC250 14/13 A2994 RMK AO2A SLP141 T01360128 10137 20129 55003 $
KPSN 291155Z AUTO 00000KT 10SM CLR 00/M01 A3010 RMK AO2 T10071012
KPSN 291215Z AUTO 00000KT 10SM CLR 00/00 A3010 RMK AO2 T10031006
KPSN 291235Z AUTO 00000KT 10SM CLR 00/M01 A3009 RMK AO2 T10071012
KPSO 291155Z AUTO 00000KT 10SM CLR M02/M06 A3019 RMK AO2 T10211061 10009 21027
KPSO 291215Z AUTO 00000KT 10SM CLR M02/M07 A3019 RMK AO2 T10211074
KPSO 291235Z AUTO 00000KT 10SM CLR M04/M07 A3019 RMK AO2 T10371069
KPSP 291153Z 33007KT 10SM CLR 22/01 A2982 RMK AO2 SLP095 T02170011 10272 20206 55003
KPSX 291153Z AUTO 30004KT CLR 02/M01 A3014 RMK AO2 SLP205 T00171006 10039 20011 50002 TSNO $
KPTB 291155Z AUTO 00000KT 10SM OVC005 A2961 RMK AO2 60093 70094
KPTB 291215Z AUTO 20004KT 10SM OVC003 A2961 RMK AO2
KPTB 291235Z AUTO 20003KT 10SM OVC005 A2960 RMK AO2
KPTK 291153Z 29005KT 10SM -DZ FEW007 SCT012 OVC018 03/03 A2983 RMK AO2 SLP107 P0000 60000 T00330028 10039 20028 53001 $
KPTK 291219Z 29004KT 10SM FEW008 SCT018 BKN036 03/03 A2983 RMK AO2 DZE02 P0000 T00330028 $
KPTN 291156Z AUTO 02006KT 10SM CLR 06/03 A3008 RMK AO2 SLP186 T00560028 10078 20044 50002
KPTS 291155Z AUTO 17003KT 10SM CLR 00/M03 A2991 RMK AO2 T10011028
KPTS 291215Z AUTO 19004KT 10SM CLR 00/M03 A2990 RMK AO2 T10051033
KPTS 291235Z AUTO 00000KT 10SM CLR 00/M03 A2990 RMK AO2 T10051035
KPTT 291155Z AUTO 28007KT 10SM CLR 02/M02 A2987 RMK AO2 T00161016 10016 21001
KPTT 291215Z AUTO 28007KT 10SM CLR 02/M01 A2986 RMK AO2 T00231011
KPTT 291235Z AUTO 28007KT 10SM CLR 02/M01 A2986 RMK AO2 T00201012
KPTV 291156Z AUTO 14004KT 10SM CLR 13/08 A2986 RMK AO2 SLP120 T01280078 10178 20117 58008
KPTW 291154Z AUTO VRB03KT 10SM OVC007 16/16 A2975 RMK AO2 SLP070 T01560156 10156 20133 56013
KPUB 291153Z 29003KT 10SM CLR M03/M06 A2998 RMK AO2 SLP149 T10281056 10039 21028 56009
KPUC 291153Z AUTO 00000KT 10SM CLR 02/M04 A3012 RMK AO2 SLP185 T00221039 10067 20017 56007
KPUJ 291155Z AUTO 31013G20KT 10SM OVC022 04/03 A2980 RMK AO2
KPUJ 291215Z AUTO 31015KT 10SM OVC020 04/03 A2981 RMK AO2
KPUJ 291235Z AUTO 31012G18KT 10SM BKN018 OVC023 04/03 A2982 RMK AO2
KPUW 291153Z AUTO 00000KT 6SM BR CLR 01/00 A3002 RMK AO2 SLP173 T00110000 10061 20011 53001
KPVB 291155Z AUTO 15004KT 10SM CLR M02/M03 A2987 RMK AO1 T10221031 11001 21032
KPVB 291215Z AUTO 13004KT 10SM CLR M03/M04 A2987 RMK AO1 T10281036
KPVB 291235Z AUTO 13005KT 10SM CLR M03/M03 A2987 RMK AO1 T10301035
KPVC 291156Z AUTO 14009KT 10SM CLR 15/14 A2997 RMK AO2 SLP149 T01500139 10150 20139 55003
KPVD 291151Z 13006KT 10SM SCT095 SCT120 OVC230 17/14 A2991 RMK AO2 SLP130 T01670139 10172 20167 58005
KPVE 291155Z AUTO 31003KT 10SM OVC042 03/01 A2997 RMK A01
KPVE 291215Z AUTO 00000KT 10SM OVC041 03/01 A2997 RMK A01
KPVE 291235Z AUTO 00000KT 10SM OVC041 03/01 A2997 RMK A01
KPVF 291155Z AUTO 10005KT 10SM CLR 20/04 A2996 RMK AO1
KPVF 291215Z AUTO 10006KT 10SM CLR 19/04 A2995 RMK AO1
KPVF 291235Z AUTO 10006KT 10SM CLR 17/04 A2995 RMK AO1
KPVJ 291155Z AUTO 24005KT 10SM CLR 04/M07 A2993 RMK AO2 T00421069 10042 20000
KPVJ 291215Z AUTO 23007KT 10SM CLR 04/M07 A2993 RMK AO2 T00381067
KPVJ 291235Z AUTO 22006KT 10SM CLR 03/M06 A2992 RMK AO2 T00331063
KPVU 291156Z AUTO 00000KT 10SM CLR 02/M01 A3014 RMK AO2 SLP197 7//// T00221011 10061 20011 56006 FZRANO
KPVW 291155Z AUTO 27009KT 10SM CLR 04/M04 A3002 RMK AO2 T00431038 10053 20030
KPVW 291215Z AUTO 28010KT 10SM CLR 05/M04 A3001 RMK AO2 T00491040
KPVW 291235Z AUTO 28010KT 10SM CLR 05/M04 A3001 RMK AO2 T00541042
KPWA 291153Z 22007KT 10SM CLR 05/M05 A2990 RMK AO2 SLP126 T00501050 10072 20050 56011
KPWC 291152Z AUTO 16008KT 10SM BKN070 OVC080 M01/M03 A2962 RMK AO2
KPWC 291213Z AUTO 16008KT 10SM OVC070 M01/M03 A2961 RMK AO2
KPWC 291233Z AUTO 16006KT 10SM BKN060 M02/M03 A2960 RMK AO2
KPWG 291156Z AUTO 20003KT 10SM CLR 01/M05 A3008 RMK AO2 SLP205 T00061050 10022 20006 56009 FZRANO
KPWK 291152Z 27004KT 10SM CLR 02/M02 A2990 RMK AO2 SLP130 70002 T00171022 10033 20017 56003
KPWM 291151Z 15004KT 10SM OVC050 14/13 A2997 RMK AO2 SLP149 60000 T01390128 10139 20133 55000
KPWT 291156Z AUTO 22003KT 1/4SM -RA FG OVC001 08/08 A3000 RMK AO2 SLP176 P0000 60000 7//// T00780078 10078 20033 51003
KPXE 291155Z AUTO 30008KT 10SM CLR 04/01 A2980 RMK AO2 T00370011 10084 20037 70109
KPXE 291215Z AUTO 29009KT 10SM CLR 04/01 A2980 RMK AO2 T00370013
KPXE 291235Z AUTO 29008KT 10SM CLR 04/02 A2981 RMK AO2 T00400015
KPYM 291152Z AUTO 12005KT 10SM OVC090 15/12 A2996 RMK AO2 SLP144 T01500122 10156 20144 53001
KPYX 291155Z AUTO 26007KT 10SM CLR 05/00 A2993 RMK AO2 T00521001 10074 20049
KPYX 291215Z AUTO 26004KT 10SM CLR 05/00 A2992 RMK AO2 T00501001
KPYX 291235Z AUTO 24004KT 10SM CLR 06/00 A2992 RMK AO2 T00560000
KPZQ 291155Z AUTO 24004KT 10SM SCT022 00/M01 A2985 RMK AO2 T10041010 10008 21006
KPZQ 291215Z AUTO 24004KT 10SM SCT019 BKN026 00/M01 A2985 RMK AO2 T10051010
KPZQ 291235Z AUTO 25003KT 10SM SCT019 BKN026 00/M01 A2985 RMK AO2 T10021009
KQBF 291156Z AUTO VRB03KT 6000 HZ CLR 32/00 A2990 RMK AO2 SLPNO WND DATA ESTMD T03240004 10325 20227 58016
KQBL 291156Z AUTO 31003KT 10SM CLR 05/02 A2999 RMK AO2 SLP158 WND DATA ESTMD 70003 T00470023 10080 20047 52011
KQD3 291156Z AUTO 09015G21KT 9999 CLR 32/18 A2990 RMK AO2 SLP091 WND DATA ESTMD T03240184 10334 20305 57018
KQDG 291156Z AUTO 09004KT 8000 M OVC004 16/15 A2936 RMK AO2 PRESFR SLP944 T01550154 10156 20134 57063 PWINO $
KQEJ 291150Z AUTO 22001KT 9999 CLR 09/M03 A3003 RMK A02 TSNO
KQEJ 291200Z AUTO 29001KT 9999 CLR 09/M03 A3003 RMK A02 TSNO
KQEJ 291210Z AUTO 30001KT 9999 CLR 08/M02 A3004 RMK A02 TSNO
KQEJ 291220Z AUTO 12001KT 9999 CLR 07/M02 A3004 RMK A02 TSNO
KQEJ 291230Z AUTO 07001KT 9999 CLR 07/M01 A3005 RMK A02 TSNO
KQEJ 291240Z AUTO 07001KT 9999 CLR 06/M01 A3006 RMK A02 TSNO
KQEL 291150Z AUTO 02001KT 9999 CLR 07/M04 A3015 RMK A02 TSNO
KQEL 291200Z AUTO 00000KT 9999 CLR 07/M04 A3016 RMK A02 TSNO
KQEL 291210Z AUTO 05001KT 9999 CLR 06/M04 A3017 RMK A02 TSNO
KQEL 291220Z AUTO 34001KT 9999 CLR 06/M04 A3017 RMK A02 TSNO
KQEL 291230Z AUTO 32001KT 9999 CLR 05/M04 A3018 RMK A02 TSNO
KQEL 291240Z AUTO 12001KT 9999 CLR 06/M07 A3018 RMK A02 TSNO
KQEN 291150Z AUTO 04001KT M0400 -RA FG CLR 05/05 A2998 RMK A02 TSNO
KQEN 291200Z AUTO 07002KT M0400 -RA FG CLR 05/05 A2999 RMK A02 TSNO
KQEN 291210Z AUTO 03001KT 0400 FG BKN004 OVC020 05/05 A3000 RMK A02 TSNO
KQEN 291220Z AUTO 09001KT 9999 SCT004 OVC016 05/04 A3000 RMK A02 TSNO
KQEN 291230Z AUTO 05002KT M0400 FG FEW001 SCT003 BKN016 05/04 A3001 RMK A02 TSNO
KQEN 291240Z AUTO 09002KT M0400 FG CLR 05/05 A3001 RMK A02 TSNO
KQEP 291150Z AUTO 29005KT 9999 CLR 08/M05 A3012 RMK A02 TSNO
KQEP 291200Z AUTO 29004KT 9999 CLR 08/M05 A3013 RMK A02 TSNO
KQEP 291210Z AUTO 27004KT 9999 CLR 08/M06 A3013 RMK A02 TSNO
KQEP 291220Z AUTO 29003KT 9999 CLR 08/M06 A3014 RMK A02 TSNO
KQEP 291230Z AUTO 30004KT 9999 CLR 08/M06 A3014 RMK A02 TSNO
KQEP 291240Z AUTO 31005KT 9999 CLR 08/M07 A3014 RMK A02 TSNO
KQEQ 291150Z AUTO 18003KT 9999 CLR 05/M08 A3016 RMK A02 TSNO
KQEQ 291200Z AUTO 24003KT 9999 CLR 06/M09 A3017 RMK A02 TSNO
KQEQ 291210Z AUTO 28002KT 9999 CLR 06/M09 A3017 RMK A02 TSNO
KQEQ 291220Z AUTO 32002KT 9999 CLR 05/M09 A3018 RMK A02 TSNO
KQEQ 291230Z AUTO 22002KT 9999 CLR 05/M08 A3019 RMK A02 TSNO
KQEQ 291240Z AUTO 12003KT 9999 CLR 05/M08 A3019 RMK A02 TSNO
KQER 291150Z AUTO 26001KT 9999 CLR 07/M07 A3004 RMK A02 TSNO
KQER 291200Z AUTO 17001KT 9999 CLR 06/M06 A3005 RMK A02 TSNO
KQER 291210Z AUTO 18001KT 9999 CLR 05/M06 A3006 RMK A02 TSNO
KQER 291220Z AUTO 06001KT 9999 CLR 05/M07 A3006 RMK A02 TSNO
KQER 291230Z AUTO 10001KT 9999 CLR 05/M06 A3007 RMK A02 TSNO
KQER 291240Z AUTO 14001KT 9999 CLR 05/M06 A3007 RMK A02 TSNO
KQEV 291150Z AUTO 31004G10KT 9999 CLR 09/M01 A3010 RMK A02 TSNO
KQEV 291200Z AUTO 29004KT 9999 CLR 09/M01 A3010 RMK A02 TSNO
KQEV 291210Z AUTO 32002G13KT 9999 CLR 09/M01 A3011 RMK A02 TSNO
KQEV 291220Z AUTO 31002KT 9999 CLR 09/M02 A3011 RMK A02 TSNO
KQEV 291230Z AUTO 30004G11KT 9999 CLR 09/M02 A3012 RMK A02 TSNO
KQEV 291240Z AUTO 30002G11KT 9999 CLR 09/M02 A3012 RMK A02 TSNO
KQEW 291150Z AUTO 26006KT 9999 CLR 09/M02 A3006 RMK A02 TSNO
KQEW 291200Z AUTO 25005G14KT 9999 CLR 09/M03 A3006 RMK A02 TSNO
KQEW 291210Z AUTO 27004G11KT 9999 CLR 09/M03 A3007 RMK A02 TSNO
KQEW 291220Z AUTO 26003G17KT 9999 CLR 09/M03 A3007 RMK A02 TSNO
KQEW 291230Z AUTO 27005G14KT 9999 CLR 09/M03 A3008 RMK A02 TSNO
KQEW 291240Z AUTO 25005G12KT 9999 CLR 09/M03 A3008 RMK A02 TSNO
KQEX 291150Z AUTO 36008G17KT 9999 CLR 10/M01 A2998 RMK A02 TSNO
KQEX 291200Z AUTO 01005G16KT 9999 CLR 10/M01 A2999 RMK A02 TSNO
KQEX 291210Z AUTO 03006G16KT 9999 CLR 10/M01 A2999 RMK A02 TSNO
KQEX 291220Z AUTO 03007G12KT 9999 CLR 10/M01 A2999 RMK A02 TSNO
KQEX 291230Z AUTO 33008G15KT 9999 CLR 10/M02 A3000 RMK A02 TSNO
KQEX 291240Z AUTO 36008G16KT 9999 CLR 10/M02 A3001 RMK A02 TSNO
KQEY 291150Z AUTO 28005KT 9999 CLR 08/M01 A2982 RMK A02 TSNO
KQEY 291200Z AUTO 28006KT 9999 CLR 08/M01 A2983 RMK A02 TSNO
KQEY 291210Z AUTO 29005KT 9999 CLR 08/M01 A2983 RMK A02 TSNO
KQEY 291220Z AUTO 28003KT 9999 CLR 08/M01 A2984 RMK A02 TSNO
KQEY 291230Z AUTO 28007G11KT 9999 CLR 08/M01 A2984 RMK A02 TSNO
KQEY 291240Z AUTO 27005KT 9999 CLR 08/M01 A2985 RMK A02 TSNO
KQFB 291150Z AUTO 32011G18KT 9999 CLR 12/M02 A3007 RMK A02 TSNO
KQFB 291200Z AUTO 34008G17KT 9999 CLR 11/M01 A3008 RMK A02 TSNO
KQFB 291210Z AUTO 34011G19KT 9999 CLR 11/M01 A3008 RMK A02 TSNO
KQFB 291220Z AUTO 32010G18KT 9999 CLR 11/M02 A3009 RMK A02 TSNO
KQFB 291230Z AUTO 34011G17KT 9999 CLR 10/M02 A3010 RMK A02 TSNO
KQFB 291240Z AUTO 32014G21KT 9999 CLR 10/M02 A3010 RMK A02 TSNO
KQFT 291150Z AUTO 29004G11KT 9999 CLR 09/M09 A3009 RMK A02 TSNO
KQFT 291200Z AUTO 34003G11KT 9999 CLR 09/M09 A3009 RMK A02 TSNO
KQFT 291210Z AUTO 33004KT 9999 CLR 09/M09 A3010 RMK A02 TSNO
KQFT 291220Z AUTO 29005KT 9999 CLR 09/M09 A3011 RMK A02 TSNO
KQFT 291230Z AUTO 33004KT 9999 CLR 08/M09 A3011 RMK A02 TSNO
KQFT 291240Z AUTO 36002KT 9999 CLR 08/M09 A3011 RMK A02 TSNO
KQFU 291150Z AUTO 34003KT 9999 CLR 07/M10 A3016 RMK A02 TSNO
KQFU 291200Z AUTO 36001KT 9999 CLR 07/M10 A3016 RMK A02 TSNO
KQFU 291210Z AUTO 36003KT 9999 CLR 07/M10 A3016 RMK A02 TSNO
KQFU 291220Z AUTO 35001KT 9999 CLR 07/M10 A3017 RMK A02 TSNO
KQFU 291230Z AUTO 35002KT 9999 CLR 07/M10 A3017 RMK A02 TSNO
KQFU 291240Z AUTO 32002KT 9999 CLR 07/M10 A3018 RMK A02 TSNO
KQFV 291150Z AUTO 25002KT 9999 CLR 07/M07 A3010 RMK A02 TSNO
KQFV 291200Z AUTO 26002KT 9999 CLR 07/M07 A3010 RMK A02 TSNO
KQFV 291210Z AUTO 28001KT 9999 CLR 06/M06 A3011 RMK A02 TSNO
KQFV 291220Z AUTO 29002KT 9999 CLR 06/M06 A3012 RMK A02 TSNO
KQFV 291230Z AUTO 27001KT 9999 CLR 06/M06 A3012 RMK A02 TSNO
KQFV 291240Z AUTO 28001KT 9999 CLR 05/M05 A3012 RMK A02 TSNO
KQFW 291150Z AUTO 23002KT 9999 CLR 09/M05 A3008 RMK A02 TSNO
KQFW 291200Z AUTO 21003KT 9999 CLR 09/M05 A3008 RMK A02 TSNO
KQFW 291210Z AUTO 21003KT 9999 CLR 09/M05 A3008 RMK A02 TSNO
KQFW 291220Z AUTO 22001KT 9999 CLR 09/M05 A3009 RMK A02 TSNO
KQFW 291230Z AUTO 15002KT 9999 CLR 08/M05 A3009 RMK A02 TSNO
KQFW 291240Z AUTO 15002KT 9999 CLR 08/M05 A3010 RMK A02 TSNO
KQFX 291150Z AUTO 24003KT 9999 CLR 09/M05 A3008 RMK A02 TSNO
KQFX 291200Z AUTO 19001KT 9999 CLR 09/M05 A3008 RMK A02 TSNO
KQFX 291210Z AUTO 21001KT 9999 CLR 09/M05 A3008 RMK A02 TSNO
KQFX 291220Z AUTO 23001KT 9999 CLR 08/M05 A3009 RMK A02 TSNO
KQFX 291230Z AUTO 27002KT 9999 CLR 08/M05 A3009 RMK A02 TSNO
KQFX 291240Z AUTO 24002KT 9999 CLR 08/M05 A3010 RMK A02 TSNO
KQGE 291156Z AUTO 33004KT 10SM CLR 05/02 A2996 RMK AO2 SLP150 70003 T00460016 10079 20046 52011
KQHY 291156Z AUTO 32004KT 10SM CLR 05/02 A2997 RMK AO2 SLP156 70051 T00450021 10078 20045 52010 $
KQKG 291155Z AUTO 00000KT 10SM CLR 26/16 A2984 RMK AO2 SLP032 WND DATA ESTMD T02550163 10550 20179 57028 $
KQKR 291156Z AUTO 27009KT 3200 HZ CLR 33/13 A2979 RMK AO2 SLPNO WND DATA ESTMD T03250134 10325 20238 57031
KQKT 291158Z AUTO 16005KT 2SM BR OVC003 16/16 A2960 RMK AO2 VIS 2V4 SLPNO 60000 T01620156 10162 20155 58008 $
KQN3 291156Z AUTO 10007G12KT 050V140 6000 HZ CLR 35/04 A2987 RMK AO2 SLP108 WND DATA ESTMD T03490038 10349 20218
KQND 291156Z AUTO 08012G18KT 9999 CLR 37/04 A2984 RMK AO2 SLPNO WND DATA ESTMD T03730041 10376 20254 57030
KQNT 291155Z 28007KT 10SM CLR 15/M07 A2986 RMK SLP085 WND DATA ESTMD 55005
KQRD 291158Z AUTO 32003KT 9SM CLR 04/02 A2996 RMK AO2 SLP150 70004 52010
KQRH 291156Z AUTO 09007G16KT 040V130 9999 CLR 32/22 A2987 RMK AO2 SLP102 WND DATA ESTMD T03150218 10328 20310 57017
KQZF 291155Z AUTO 16004KT 4SM HZ CLR 38/05 A3101 RMK AO2 SLP459 WND DATA ESTMD T03760051 10273 20236 58031 $
KRAC 291153Z AUTO 29005KT 10SM FEW055 01/M03 A2989 RMK AO2 SLP126 70001 T00111028 10028 20011 50001
KRAL 291153Z AUTO 00000KT 6SM BR CLR 14/12 A2988 RMK AO2 SLP104 T01440122 10194 20139 53002
KRAP 291152Z 00000KT 10SM CLR 04/M01 A2968 RMK AO2 SLP057 T00441011 10117 20033 55017
KRAW 291155Z AUTO 00000KT 10SM CLR A2994 RMK AO2
KRAW 291215Z AUTO 00000KT 10SM CLR A2993 RMK AO2
KRAW 291235Z AUTO 00000KT 10SM CLR A2992 RMK AO2
KRBD 291153Z 23006KT 10SM CLR 08/M10 A3001 RMK AO2 SLP161 T00831100 10083 20044 58015 $
KRBG 291153Z AUTO 00000KT 6SM BR OVC009 12/11 A2999 RMK AO2 CIG 006V012 SLP155 T01220111 10133 20122 58002
KRBL 291154Z AUTO 33005KT 10SM CLR 10/06 A2988 RMK AO2 SLP114 T01000056 10133 20100 58003
KRBO 291155Z AUTO 00000KT 10SM CLR 04/M05 A3016 RMK AO2 T00351053 10079 20028
KRBO 291215Z AUTO 00000KT 10SM CLR 04/M05 A3016 RMK AO2 T00371051
KRBO 291235Z AUTO 00000KT 10SM CLR 04/M04 A3017 RMK AO2 T00421045
KRBW 291155Z AUTO 27010G16KT 10SM BKN014 16/14 A2963 RMK AO2
KRBW 291215Z AUTO 28008KT 10SM BKN009 OVC014 15/13 A2963 RMK AO2
KRBW 291235Z AUTO 28008G14KT 10SM OVC011 15/12 A2964 RMK AO2
KRCA 291156Z AUTO 31009KT 10SM OVC150 09/00 A2968 RMK AO2 SLP053 T00941005 10140 20076 55014 $
KRCM 291155Z AUTO 16005KT 10SM CLR M03/M05 A2991 RMK AO2
KRCM 291215Z AUTO 17004KT 10SM CLR M02/M05 A2991 RMK AO2
KRCM 291235Z AUTO 16008KT 10SM CLR M02/M05 A2989 RMK AO2
KRCR 291155Z AUTO 25004KT 10SM BKN039 OVC045 02/00 A2989 RMK AO2
KRCR 291215Z AUTO 25005KT 10SM OVC039 02/00 A2988 RMK AO2
KRCR 291235Z AUTO 26004KT 10SM OVC039 02/00 A2988 RMK AO2
KRCV 291150Z AUTO 26009KT 10SM CLR 00/M07 A3019 RMK AO2 T00001072 10040 21030
KRCV 291210Z AUTO 26011KT 10SM CLR 00/M07 A3019 RMK AO2 T10011071
KRCV 291230Z AUTO 26011KT 10SM CLR M02/M08 A3019 RMK AO2 T10201080
KRCX 291155Z AUTO 16004KT 10SM BKN014 M02/M04 A2980 RMK AO2 T10171042 11005 21017
KRCX 291215Z AUTO 15005KT 10SM SCT014 M02/M04 A2980 RMK AO2 T10211043
KRCX 291235Z AUTO 13003KT 10SM CLR M02/M04 A2979 RMK AO2 T10251043
KRCZ 291200Z AUTO 17003KT 4SM BR OVC002 16/16 A2957 RMK AO2 T01620162
KRCZ 291220Z AUTO 19003KT 4SM BR OVC002 16/16 A2957 RMK AO2 P0001 T01640164
KRCZ 291240Z AUTO 20003KT 4SM BR OVC002 17/17 A2956 RMK AO2 P0001 T01650165
KRDD 291153Z AUTO 00000KT 10SM CLR 10/06 A2987 RMK AO2 SLP111 T01000056 10144 20094 58006
KRDG 291154Z 12007KT 10SM -RA FEW010 SCT047 OVC085 16/16 A2969 RMK AO2 SLP056 P0005 60006 70006 T01610161 10167 20161 58015
KRDG 291205Z 13009KT 2 1/2SM -RA BR FEW011 FEW060 OVC090 16/16 A2969 RMK AO2 P0001 T01610161
KRDK 291155Z AUTO 19005KT 10SM FEW075 FEW130 SCT150 00/M07 A2978 RMK AO2
KRDK 291215Z AUTO 21004KT 10SM FEW070 BKN130 00/M06 A2979 RMK AO2
KRDK 291235Z AUTO 00000KT 10SM FEW070 OVC130 00/M05 A2978 RMK AO2
KRDM 291156Z 16003KT 10SM CLR 03/01 A2999 RMK AO2 SLP148 T00330006 10056 20017 56003
KRDR 291156Z AUTO 30005KT 10SM BKN190 01/M02 A2952 RMK AO2 SLP012 T00101021 10018 21010 53001
KRDU 291151Z 15004KT 1/4SM R23R/P6000FT BR OVC002 17/17 A2960 RMK AO2 SFC VIS 1 1/2 SLP020 70098 T01670167 10167 20156 56018
KRDU 291229Z 14004KT 1 1/2SM BR SCT002 BKN018 17/17 A2959 RMK AO2 SFC VIS 5 T01670167
KREG 291155Z AUTO 00000KT 10SM CLR 04/03 A3008 RMK AO2 60002 70008 T00420029 10051 20029
KREG 291215Z AUTO 00000KT 10SM CLR 03/02 A3008 RMK AO2 T00320024
KREG 291235Z AUTO 00000KT 10SM CLR 03/02 A3008 RMK AO2 T00290021
KREO 291152Z AUTO 08003KT 04/M02 A3000 RMK AO1 SLP143 T00391017 10072 20017 58010
KRFD 291154Z 00000KT 10SM OVC200 M01/M04 A2991 RMK AO2 SLP136 T10061044 10017 21006 58005
KRFI 291155Z AUTO 00000KT 10SM CLR M02/M03 A3009 RMK AO2 T10231030 11004 21023
KRFI 291215Z AUTO 00000KT 10SM CLR M02/M03 A3010 RMK AO2 T10221030
KRFI 291235Z AUTO 00000KT 10SM CLR M02/M03 A3010 RMK AO2 T10211031
KRGA 291155Z AUTO 32003KT 10SM OVC033 02/00 A2987 RMK AO2
KRGA 291215Z AUTO 32003KT 10SM OVC033 02/M00 A2986 RMK AO2
KRGA 291235Z AUTO 31004KT 10SM OVC033 02/00 A2986 RMK AO2
KRGK 291155Z AUTO 15008KT 10SM OVC080 M01/M05 A2976 RMK AO2
KRGK 291215Z AUTO 14006KT 10SM OVC080 M01/M04 A2976 RMK AO2
KRGK 291235Z AUTO 14007KT 10SM OVC070 M01/M04 A2975 RMK AO2
KRHI 291153Z AUTO 20004KT 10SM CLR M04/M05 A2979 RMK AO2 SLP108 70001 T10441050 11011 21050 55008
KRHP 291200Z AUTO 06003KT 10SM OVC022 03/M01 A2974 RMK AO2 T00251006
KRHP 291220Z AUTO 05005KT 10SM BKN024 BKN028 OVC035 02/00 A2974 RMK AO2 T00231005
KRHP 291240Z AUTO 00000KT 10SM OVC024 02/M01 A2974 RMK AO2 T00241009
KRIC 291154Z 16003KT 10SM BKN008 OVC014 17/17 A2960 RMK AO2 SLP027 60062 70062 T01720172 10189 20161 58012
KRID 291155Z AUTO 31007KT 10SM OVC031 01/M03 A2988 RMK AO2
KRID 291215Z AUTO 29007KT 10SM OVC031 01/M02 A2987 RMK AO2
KRID 291235Z AUTO 32006KT 10SM OVC031 01/M02 A2988 RMK AO2
KRIL 291153Z AUTO 18004KT 10SM CLR M01/M04 A3018 RMK AO2 SLP201 T10111039 10033 21011 57002
KRIV 291158Z AUTO 00000KT 7SM CLR 12/12 A2989 RMK AO2 SLP111 T01150115 10143 20099 55001
KRIW 291153Z AUTO 23012KT 10SM CLR 06/M02 A2994 RMK AO2 SLP109 T00561022 10089 20033 57013
KRKD 291156Z AUTO 18008KT 10SM BKN007 OVC038 13/ A3001 RMK AO2 SLP163 60000 T0133 10133 20128 55000
KRKD 291209Z AUTO 14011KT 10SM FEW007 OVC038 14/ A3000 RMK AO2 RAB1157E08 P0000
KRKD 291232Z AUTO 19003KT 10SM BKN007 OVC040 14/13 A3001 RMK AO2 RAB1157E08 P0000
KRKP 291153Z AUTO 33004KT 10SM CLR 06/02 A3014 RMK AO2 SLP208 T00610022 10072 20039 53002
KRKR 291155Z AUTO 19003KT 10SM CLR M03/M03 A3001 RMK AO2
KRKR 291215Z AUTO 00000KT 10SM CLR M02/M03 A3000 RMK AO2
KRKR 291235Z AUTO 00000KT 10SM CLR M02/M02 A3000 RMK AO2
KRKS 291154Z AUTO 25016KT 10SM CLR 04/M03 A3010 RMK AO2 SLP160 T00391028 10067 20028 57006
KRLD 291155Z AUTO 00000KT M1/4SM FG OVC003 01/01 A3003 RMK AO2 T00100010 10049 20010
KRLD 291215Z AUTO 00000KT 1/4SM FG OVC003 01/01 A3004 RMK AO2 T00100010
KRLD 291235Z AUTO 00000KT 1/4SM FG BKN003 OVC006 01/01 A3004 RMK AO2 T00100010
KRME 291153Z VRB04KT 10SM -RA BKN008 OVC012 08/08 A2978 RMK AO2 RAE19B47 CIG 005V011 SLP083 P0000 60023 70024 T00830078 10100 20083 56016
KRMG 291153Z AUTO 32014G20KT 10SM OVC026 03/M01 A2985 RMK AO2 SLP108 70031 T00331006 10050 20033 53006
KRMN 291155Z AUTO 00000KT 10SM BKN011 OVC015 15/15 A2965 RMK AO2 T01540154 10165 20147
KRMN 291215Z AUTO 00000KT 5SM RA BKN011 OVC014 15/15 A2966 RMK AO2 T01530153
KRMN 291235Z AUTO 00000KT 7SM BKN011 OVC031 16/16 A2964 RMK AO2 T01600160
KRMY 291154Z AUTO 19003KT 10SM OVC013 02/00 A2984 RMK AO2 T00180002 10020 20007
KRMY 291213Z AUTO 18003KT 10SM OVC011 02/00 A2984 RMK AO2 T00180000
KRMY 291233Z AUTO 00000KT 10SM OVC011 02/00 A2985 RMK AO2 T00180000
KRND 291156Z AUTO 33004KT 10SM CLR 01/M04 A3013 RMK AO2 VIS 2 3/4 RWY15R VIS 2 3/4 RWY33R SLP205 T00091043 10047 20009 56005
KRNH 291155Z AUTO 16009KT 10SM OVC070 M01/M04 A2974 RMK AO2 T10151040 11015 21033
KRNH 291215Z AUTO 16009KT 10SM OVC070 M01/M04 A2973 RMK AO2 T10131038
KRNH 291235Z AUTO 16010G16KT 10SM OVC060 M01/M04 A2971 RMK AO2 T10121038
KRNM 291153Z AUTO 00000KT M1/4SM FG VV001 10/10 A2990 RMK AO2 SLP111 T01000100 10117 20067 53002 $
KRNO 291155Z 00000KT 10SM CLR 06/01 A3008 RMK AO2 SLP152 T00560006 10122 20050 57005
KRNP 291155Z AUTO 00000KT 10SM OVC033 04/02 A2984 RMK AO2 T00400023 10050 20040
KRNP 291215Z AUTO 00000KT 10SM BKN035 OVC043 04/02 A2984 RMK AO2 T00380024
KRNP 291235Z AUTO 00000KT 10SM OVC040 04/03 A2985 RMK AO2 T00400028
KRNT 291153Z AUTO 00000KT 2 1/2SM BR OVC002 08/08 A3000 RMK AO2 SLP162 T00830083 10094 20078 53004
KRNT 291206Z AUTO 10003KT 1 1/2SM BR OVC002 08/08 A3000 RMK AO2 T00830083
KRNV 291155Z AUTO 29003KT 10SM CLR 00/00 A3004 RMK AO2 T00020002 10020 20000
KRNV 291215Z AUTO 31003KT 10SM CLR 01/01 A3004 RMK AO2 T00050005
KRNV 291235Z AUTO 31004KT 10SM CLR 01/01 A3005 RMK AO2 T00060006
KROA 291154Z 27015G22KT 10SM OVC011 08/07 A2961 RMK AO2 RAE52 SLP024 P0001 60032 70050 T00830072 10139 20083 55010
KROC 291150Z 32004KT 4SM RA BR BKN013 OVC028 06/06 A2982
KROC 291150Z 32004KT 4SM RA BR BKN013 OVC028 06/06 A2982 RMK AO2 P0009
KROC 291154Z 32004KT 4SM RA BR SCT009 BKN013 OVC028 06/06 A2982 RMK AO2 SLP104 P0010 60034 70053 T00610056 10061 20056 56006
KROC 291201Z 31004KT 2SM RA BR SCT009 BKN015 OVC026 06/06 A2982
KROC 291201Z 31004KT 2SM RA BR SCT009 BKN015 OVC026 06/06 A2982 RMK AO2 SFC VIS 5 P0001 T00610056
KROC 291230Z 34004KT 2SM RA BR BKN005 BKN015 OVC029 06/06 A2982
KROC 291230Z 34004KT 2SM RA BR BKN005 BKN015 OVC029 06/06 A2982 RMK AO2 SFC VIS 3 P0006 T00610061
KROG 291158Z AUTO 15006KT 10SM CLR M01/M04 A2995 RMK AO2 SLP151 T10111044 10000 21022 58010 FZRANO $
KROS 291154Z AUTO 15007KT 10SM SCT070 OVC085 M01/M04 A2970 RMK AO2 T10151036 11015 21030
KROS 291214Z AUTO 15005KT 10SM SCT055 OVC085 M01/M03 A2969 RMK AO2 T10131035
KROS 291234Z AUTO 15007KT 10SM SCT055 OVC085 M01/M03 A2969 RMK AO2 T10121035
KROW 291151Z 35003KT 10SM CLR 01/M03 A3008 RMK AO2 SLP170 T00111033 10050 20000 55006
KROX 291154Z AUTO 21009KT 10SM BKN035 01/M03 A2948 RMK AO2
KROX 291214Z AUTO 21008KT 10SM OVC033 01/M03 A2947 RMK AO2
KROX 291234Z AUTO 22007KT 10SM BKN025 OVC030 01/M03 A2947 RMK AO2
KRPD 291155Z AUTO 12007KT 10SM SCT090 M03/M04 A2978 RMK AO2 T10301042 11018 21035
KRPD 291215Z AUTO 13007KT 10SM BKN090 M03/M04 A2977 RMK AO2 T10261040
KRPD 291235Z AUTO 13008KT 10SM BKN080 OVC090 M02/M04 A2976 RMK AO2 T10241037
KRPH 291150Z AUTO 20003KT 10SM 03/ A3001 RMK AO2 T0030 10030 20001
KRPH 291210Z AUTO 20004KT 10SM 03/ A3000 RMK AO2 T0031
KRPH 291230Z AUTO 20005KT 10SM 03/ A3000 RMK AO2 T0031
KRPJ 291155Z AUTO 00000KT 10SM CLR M02/M03 A2991 RMK AO2 T10251035 10013 21025
KRPJ 291215Z AUTO 00000KT 10SM CLR M03/M04 A2991 RMK AO2 T10321040
KRPJ 291235Z AUTO 00000KT 10SM CLR M03/M04 A2991 RMK AO2 T10301036
KRQB 291154Z AUTO 00000KT 10SM OVC047 M01/M01 A2983 RMK AO2 T10061011 10008 21020
KRQB 291215Z AUTO 00000KT 10SM OVC047 00/M01 A2984 RMK AO2 T10051010
KRQB 291234Z AUTO 00000KT 10SM OVC047 00/M01 A2984 RMK AO2 T10051010
KRQE 291153Z AUTO 00000KT 10SM CLR M03/M09 A3018 RMK AO2 SLP170 T10281089 10039 21050 55000 TSNO
KRQO 291155Z AUTO 25010KT 10SM CLR 04/M05 A2991 RMK AO2 T00441053 10064 20038
KRQO 291215Z AUTO 26008KT 10SM CLR 04/M05 A2991 RMK AO2 T00431050
KRQO 291235Z AUTO 26008KT 10SM CLR 04/M05 A2992 RMK AO2 T00451047
KRRL 291155Z AUTO 00000KT 10SM CLR M05/M05 A2981 RMK AO2 T10471050 11010 21051
KRRL 291215Z AUTO 00000KT 10SM CLR M04/M05 A2981 RMK AO2 T10451049
KRRL 291235Z AUTO 00000KT 10SM CLR M04/M04 A2981 RMK AO2 T10431045
KRRT 291154Z AUTO 23005KT 10SM SCT039 M01/M03 A2948 RMK AO2
KRRT 291214Z AUTO 21007KT 10SM BKN035 00/M03 A2948 RMK AO2
KRRT 291234Z AUTO 21007KT 10SM OVC032 00/M03 A2947 RMK AO2
KRSL 291153Z AUTO 23008KT 10SM CLR M01/M03 A2981 RMK AO2 SLP106 T10111028 10017 21011 56012
KRSN 291155Z AUTO 00000KT 10SM CLR M01/M02 A3010 RMK AO2 T10151020 10016 21015
KRSN 291215Z AUTO 00000KT 10SM CLR M01/M02 A3011 RMK AO2 T10131020
KRSN 291235Z AUTO 00000KT 10SM CLR M01/M02 A3011 RMK AO2 T10141020
KRSP 291154Z AUTO VRB06KT 1/4SM FG VV001 14/14 A2964 RMK AO2 SLP040 60000 70001 T01390139 10139 20128 56016 $
KRST 291154Z 17012KT 10SM OVC080 M02/M04 A2976 RMK AO2 SLP093 T10221039 11022 21039 56017 $
KRSV 291155Z AUTO 28004KT 10SM OVC034 02/M01 A2996 RMK AO2 60001 70001 T00151015 10016 20013
KRSV 291215Z AUTO 28003KT 10SM OVC036 02/M01 A2995 RMK AO2 T00151015
KRSV 291235Z AUTO 28003KT 10SM OVC038 02/M01 A2996 RMK AO2 T00151014
KRSW 291153Z 33006KT 10SM BKN015 BKN021 OVC036 19/19 A2975 RMK AO2 SLP071 60000 70282 T01940194 10194 20183 53024
KRSW 291205Z 33008KT 5SM -RA BR FEW009 BKN013 OVC034 19/19 A2975 RMK AO2 RAB05 P0000 T01940194
KRSW 291216Z 33006KT 6SM -RA BR BKN009 OVC015 19/19 A2976 RMK AO2 RAB05 P0000 T01940194
KRSW 291241Z 33008KT 10SM BKN011 20/20 A2977 RMK AO2 RAB05E19 P0001 T02000200
KRTN 291153Z AUTO 05008KT 10SM CLR M03/M06 A3008 RMK AO2 SLP174 T10331061 11011 21033 58008
KRTS 291150Z AUTO 00000KT 10SM CLR 04/M02 A3011 RMK AO2
KRTS 291210Z AUTO 00000KT 10SM CLR 02/M03 A3010 RMK AO2
KRTS 291230Z AUTO 35003KT 10SM CLR 02/M03 A3011 RMK AO2
KRUE 291153Z AUTO 00000KT 10SM CLR M03/M04 A3003 RMK AO2 SLP168 T10331044 11017 21039 55002
KRUT 291156Z AUTO 13010KT 10SM FEW022 BKN030 OVC049 14/13 A2983 RMK AO2 RAE48 SLP120 P0000 60000 T01440128 10156 20117 58006 $
KRUT 291209Z AUTO 13010KT 10SM BKN024 BKN028 OVC044 15/12 A2983 RMK AO2 $
KRVS 291153Z 22003KT 10SM CLR M01/M03 A2992 RMK AO2 SLP140 T10061033 10011 21006 56018
KRWF 291153Z AUTO 17010KT 10SM OVC080 03/M06 A2964 RMK AO2 SLP047 T00281056 10028 20011 58023
KRWI 291153Z AUTO 00000KT 1/4SM FG VV003 16/16 A2960 RMK AO2 SLP023 60089 70100 T01560156 10178 20150 56013 $
KRWI 291209Z AUTO 00000KT 1/2SM FG VV003 17/17 A2961 RMK AO2 T01670167 $
KRWI 291219Z AUTO 00000KT 1/4SM FG VV002 17/17 A2960 RMK AO2 T01670167 $
KRWL 291153Z AUTO 22008KT CLR 04/M04 A3007 RMK AO2 SLP141 T00441039 10067 20028 58004
KRWV 291155Z AUTO 00000KT 10SM CLR 02/M02 A3012 RMK AO2 T00231021 10047 20005
KRWV 291215Z AUTO 00000KT 10SM CLR 00/M02 A3011 RMK AO2 T00041019
KRWV 291235Z AUTO 00000KT 10SM CLR 01/M02 A3011 RMK AO2 T00071018
KRXE 291153Z AUTO 06004KT 10SM CLR M01/M03 A3007 RMK AO2 SLP180 T10111028 10017 21017 56009 $
KRYM 291156Z AUTO 16009KT 10SM OVC065 00/M03 A2962 RMK AO2 SLP047 T10021028 11002 21013 57027 $
KRYT 291146Z AUTO 05004KT 7SM BKN009 BKN016 OVC025 16/16 A2962
KRYT 291146Z AUTO 05004KT 7SM BKN009 BKN016 OVC025 16/16 A2962 RMK AO2 CIG 008V015 TSNO $
KRYT 291153Z AUTO VRB03KT 6SM BR BKN011 OVC014 16/16 A2961 RMK AO2 SLP024 60000 70001 T01560156 10167 20144 56015 TSNO $
KRYV 291155Z AUTO 00000KT 10SM CLR M02/M02 A2987 RMK AO2 T10161020 10013 21017
KRYV 291215Z AUTO 00000KT 10SM CLR M01/M02 A2987 RMK AO2 T10151020
KRYV 291235Z AUTO 00000KT 10SM CLR M02/M02 A2988 RMK AO2 T10201021
KRYW 291155Z AUTO 27008KT 10SM CLR 04/M01 A3010 RMK AO2 T00361010 10094 20032
KRYW 291215Z AUTO 27007KT 10SM CLR 05/M01 A3009 RMK AO2 T00461012
KRYW 291235Z AUTO 27008KT 10SM CLR 04/M01 A3010 RMK AO2 T00381015
KRYY 291148Z 31006G17KT 10SM OVC017 03/M01 A2980 RMK AO2 SLP814 70085 T00331006 10050 20033 53002
KRZL 291155Z AUTO 00000KT 10SM OVC055 00/M01 A2991 RMK AO2
KRZL 291215Z AUTO 00000KT 10SM OVC055 00/M01 A2991 RMK AO2
KRZL 291235Z AUTO 00000KT 10SM OVC055 01/M01 A2991 RMK AO2
KRZN 291155Z AUTO 16009G14KT 10SM OVC070 M01/M04 A2972 RMK AO2 T10151041 11015 21030
KRZN 291215Z AUTO 17007KT 10SM SCT070 BKN085 OVC120 M01/M04 A2971 RMK AO2 T10141041
KRZN 291235Z AUTO 17008KT 10SM BKN075 OVC095 M01/M04 A2971 RMK AO2 T10121040
KRZR 291155Z AUTO 36009KT 10SM SCT022 BKN039 OVC046 03/M00 A2983 RMK A01
KRZR 291215Z AUTO 36010G18KT 10SM FEW022 OVC027 03/M01 A2984 RMK A01
KRZR 291235Z AUTO 34006G14KT 10SM OVC027 03/M01 A2984 RMK A01
KRZT 291154Z AUTO 32006KT 10SM OVC041 03/01 A2985 RMK AO2
KRZT 291215Z AUTO 34005KT 10SM OVC041 03/01 A2985 RMK AO2
KRZT 291234Z AUTO 32006KT 10SM OVC043 03/01 A2985 RMK AO2
KS32 291155Z AUTO 30008KT 10SM BKN060 BKN070 06/02 A2954 RMK AO2
KS32 291215Z AUTO 30008KT 10SM BKN060 OVC070 06/02 A2954 RMK AO2
KS32 291235Z AUTO 31008KT 10SM BKN055 BKN070 BKN110 06/02 A2955 RMK AO2
KS33 291155Z AUTO 12006KT 10SM CLR A3001 RMK AO2
KS33 291215Z AUTO 12006KT 10SM CLR A3001 RMK AO2
KS33 291235Z AUTO 12006KT 7SM CLR A3001 RMK AO2
KS39 291155Z AUTO 00000KT 10SM CLR 01/00 A3000 RMK AO2
KS39 291215Z AUTO 00000KT 10SM CLR 01/01 A3000 RMK AO2
KS39 291235Z AUTO 00000KT 10SM CLR M00/M01 A3000 RMK AO2
KS52 291155Z AUTO 31003KT 5SM BR CLR M02/M02 A3008 RMK AO2 T10171020 10014 21023
KS52 291215Z AUTO 00000KT 7SM BR CLR M01/M02 A3008 RMK AO2 T10131016
KS52 291235Z AUTO 34003KT 5SM BR CLR M02/M02 A3008 RMK AO2 T10161019
KSAA 291155Z AUTO 15009KT 10SM CLR 00/M03 A3010 RMK AO2
KSAA 291215Z AUTO 14011KT 10SM CLR 00/M03 A3010 RMK AO2
KSAA 291235Z AUTO 15011KT 10SM CLR 01/M02 A3010 RMK AO2
KSAC 291153Z AUTO 18003KT 7SM CLR 11/11 A2986 RMK AO2 SLP110 T01110111 10161 20111 58002
KSAD 291151Z AUTO 12009KT 10SM CLR 13/M03 A3004 RMK AO2 SLP136 T01331028 10161 20133 53000 TSNO
KSAF 291153Z AUTO 01008KT 10SM CLR 00/M04 A3014 RMK AO2 SLP174 T00001039 10039 21017 55003
KSAN 291151Z 00000KT 8SM OVC010 18/16 A2989 RMK AO2 SLP122 T01780156 10189 20178 53001
KSAR 291155Z AUTO 00000KT 10SM CLR M01/M03 A2999 RMK AO2 T10131027 10026 21013
KSAR 291215Z AUTO 00000KT 10SM CLR M02/M03 A2999 RMK AO2 T10161030
KSAR 291235Z AUTO 00000KT 10SM CLR M02/M03 A2998 RMK AO2 T10161029
KSAT 291151Z 31005KT 10SM CLR 03/M05 A3014 RMK AO2 SLP196 T00281050 10056 20022 56005
KSAV 291153Z 27014KT 10SM BKN010 OVC029 14/11 A2966 RMK AO2 SLP044 T01390111 10200 20139 53008
KSAV 291200Z 27017G23KT 10SM SCT010 BKN028 13/11 A2966
KSAV 291200Z 27017G23KT 10SM SCT010 BKN028 13/11 A2966 RMK AO2 T01330106 $
KSAV 291220Z 27016G22KT 10SM BKN014 BKN030 13/10 A2967
KSAV 291220Z 27016G22KT 10SM BKN014 BKN030 13/10 A2967 RMK AO2 T01330100 $
KSAV 291235Z 28016G22KT 10SM BKN015 13/10 A2967
KSAV 291235Z 28016G22KT 10SM BKN015 13/10 A2967 RMK AO2 T01280100 $
KSAW 291147Z 00000KT 10SM SKC M05/M05 A2981
KSAZ 291152Z AUTO 16007KT 10SM BKN065 M01/M04 A2959 RMK AO2
KSAZ 291212Z AUTO 15006KT 10SM CLR M01/M04 A2957 RMK AO2
KSAZ 291232Z AUTO 16006KT 10SM CLR M01/M04 A2956 RMK AO2
KSBA 291153Z AUTO 08010KT OVC005 15/14 A2986 RMK AO2 SLP112 T01500144 10156 20144 53001 RVRNO $
KSBD 291158Z AUTO 09005KT 10SM CLR 14/06 A2989 RMK AO2 T01410061
KSBD 291218Z AUTO 17003KT 10SM CLR 15/07 A2989 RMK AO2 T01510065
KSBD 291239Z AUTO 00000KT 10SM CLR 14/06 A2989 RMK AO2 T01410064
KSBM 291153Z AUTO 00000KT 10SM CLR M02/M03 A2986 RMK AO2 UPB01E10B38E47 SLP119 P0000 60000 T10221033 10028 21033 58002 TSNO
KSBN 291154Z 23007KT 10SM BKN028 OVC035 02/01 A2986
KSBO 291155Z AUTO 10SM OVC015 06/04 A2974 RMK AO2
KSBO 291215Z AUTO 10SM OVC015 06/03 A2974 RMK AO2
KSBO 291235Z AUTO 10SM OVC015 06/03 A2975 RMK AO2
KSBP 291156Z AUTO 28005KT 4SM BR OVC003 12/11 A2988 RMK AO2 SLP119 T01220111 10133 20122 56005
KSBS 291154Z AUTO 00000KT 10SM CLR M03/M05 A3017 RMK AO1 T10301047
KSBS 291212Z AUTO 00000KT 10SM CLR M05/M06 A3017 RMK AO1 T10461056
KSBS 291235Z AUTO 00000KT 10SM CLR M04/M05 A3017 RMK AO1 T10411051
KSBY 291154Z 10007KT 4SM RA BR FEW005 BKN055 OVC080 18/18 A2968 RMK AO2 SLP051 P0022 60025 70025 T01830183 10183 20161 56021
KSBY 291226Z 12010KT 2 1/2SM RA BR SCT006 BKN036 OVC049 18/18 A2966 RMK AO2 P0013 T01830183
KSBY 291229Z 12009KT 3SM RA BR SCT006 BKN022 OVC049 18/18 A2966 RMK AO2 P0014 T01830183
KSCD 291155Z AUTO 32003KT 10SM OVC031 04/00 A2991 RMK AO2 70019 T00440000 10056 20040
KSCD 291215Z AUTO 31003KT 10SM OVC029 04/00 A2991 RMK AO2 T00420003
KSCD 291235Z AUTO 34003KT 10SM OVC029 04/00 A2992 RMK AO2 T00430003
KSCF 291155Z AUTO 01015KT 10SM CLR 12/M01 A3010 RMK A01
KSCF 291215Z AUTO 36009G17KT 10SM CLR 12/M02 A3011 RMK A01
KSCF 291235Z AUTO 36010G18KT 10SM CLR 12/M02 A3011 RMK A01
KSCH 291153Z 13006KT 10SM SCT010 BKN025 OVC031 15/14 A2981
KSCK 291155Z AUTO 29003KT 10SM CLR 11/08 A2985 RMK AO2 SLP108 T01060078 10167 20100 57003
KSCR 291200Z AUTO 17004KT 10SM BKN006 OVC012 17/17 A2957 RMK AO2 T01670165
KSCR 291220Z AUTO 00000KT 7SM OVC006 17/17 A2957 RMK AO2 T01660165
KSCR 291240Z AUTO 17003KT 7SM BKN006 OVC055 17/17 A2956 RMK AO2 T01670165
KSCX 291155Z AUTO 01008KT 9SM SCT013 OVC019 00/M01 A2984 RMK A01
KSCX 291215Z AUTO 36005KT 8SM SCT016 BKN022 OVC027 00/M01 A2984 RMK A01
KSCX 291235Z AUTO 35004KT 10SM FEW016 BKN027 OVC032 00/M01 A2985 RMK A01
KSDA 291155Z AUTO 00000KT 10SM CLR 02/M09 A2981 RMK AO2
KSDA 291215Z AUTO 21005KT 10SM CLR 01/M09 A2980 RMK AO2
KSDA 291235Z AUTO 22004KT 10SM CLR 01/M09 A2980 RMK AO2
KSDB 291153Z AUTO 05004KT 10SM CLR 21/M07 A3004 RMK AO2 SLP110 T02061072 10228 20206 58008
KSDF 291156Z 31007KT 10SM FEW030 OVC038 03/M01 A2992 RMK AO2 SLP134 T00331011 10044 20033 53002
KSDL 291153Z 26003KT 10SM CLR 17/M01 A2989 RMK AO2 SLP100 T01721011 10217 20167 53004
KSDM 291153Z AUTO 00000KT 8SM OVC008 17/16 A2988 RMK AO2 SLP115 T01720156 10178 20172 53002
KSDY 291156Z AUTO 32009KT 10SM CLR 09/02 A2978 RMK AO2 RAE16 SLP092 P0000 60000 7//// T00890022 10122 20078 51022
KSEA 291153Z 22004KT 1/16SM R16L/0600V0800FT FG VV001 09/09 A2999 RMK AO2 SLP162 T00890089 10122 20078 53003 $
KSEE 291155Z AUTO 00000KT 6SM HZ OVC010 17/15 A2988 RMK AO2
KSEE 291215Z AUTO 02003KT 6SM BR OVC010 17/15 A2988 RMK AO2
KSEE 291235Z AUTO 00000KT 6SM HZ 17/15 A2988 RMK AO2
KSEF 291155Z AUTO 30011G14KT 5SM BR SCT011 BKN019 BKN024 20/18 A2972 RMK AO2 70010 T01970181 10200 20192
KSEF 291215Z AUTO 31012G16KT 10SM BKN009 OVC015 20/19 A2973 RMK AO2 T02020185
KSEF 291235Z AUTO 32013KT 10SM BKN011 OVC020 21/19 A2974 RMK AO2 T02050185
KSEG 291153Z AUTO 17005KT 10SM SCT019 BKN025 OVC100 16/15 A2967 RMK AO2 RAE48 SLP045 P0001 60011 70020 T01610150 10161 20128 56010
KSEG 291209Z AUTO 00000KT 10SM FEW020 BKN038 OVC100 16/16 A2966 RMK AO2 T01610156
KSEG 291226Z AUTO 00000KT 10SM BKN026 OVC036 16/16 A2966 RMK AO2 T01610156
KSEM 291155Z AUTO 29006KT 10SM CLR 02/01 A2996 RMK AO2 TSNO
KSEM 291215Z AUTO 30006KT 10SM CLR 02/01 A2996 RMK AO2 TSNO
KSEM 291235Z AUTO 30007KT 10SM CLR 03/01 A2997 RMK AO2 TSNO
KSEP 291155Z AUTO 00000KT 10SM CLR 03/M08 A3007 RMK AO2 T00281081 10028 20005
KSEP 291215Z AUTO 00000KT 10SM CLR 02/M07 A3006 RMK AO2 T00221075
KSEP 291235Z AUTO 00000KT 10SM CLR 03/M08 A3007 RMK AO2 T00291083
KSET 291154Z AUTO 00000KT 10SM CLR M03/M04 A2996 RMK AO2 SLP149 I6001 T10281044 10017 21050 58005 $
KSEZ 291155Z AUTO 04011KT 10SM CLR 13/M03 A3008 RMK AO2
KSEZ 291215Z AUTO 04011KT 10SM CLR 14/M03 A3008 RMK AO2
KSEZ 291235Z AUTO 03011KT 10SM CLR 13/M03 A3008 RMK AO2
KSFB 291151Z 27006KT 10SM FEW005 BKN055 OVC100 19/19 A2968 RMK AO2
KSFB 291153Z 28006KT 10SM FEW005 BKN050 OVC100 19/19 A2968 RMK AO2 SLP051 70015 T01940189 10206 20189 51004
KSFB 291200Z 28007KT 10SM BKN006 BKN022 OVC100 19/19 A2969 RMK AO2 T01940189
KSFB 291234Z 27013KT 9SM SCT006 SCT010 OVC019 19/18 A2970 RMK AO2 RAB12E28 P0001 T01890178
KSFF 291153Z AUTO 07004KT 1/4SM FG VV002 03/03 A3002 RMK AO2 SLP168 T00280028 10050 20028 50000
KSFM 291156Z AUTO 00000KT 7SM BKN005 OVC060 13/13 A2997 RMK AO2 CIG 005V010 SLP152 T01280128 10128 20106 53004
KSFM 291204Z AUTO 00000KT 7SM BKN007 OVC070 13/13 A2997 RMK AO2 CIG 005V010
KSFM 291214Z AUTO 00000KT 8SM FEW007 OVC060 13/13 A2997 RMK AO2
KSFM 291241Z AUTO 12003KT 10SM BKN028 OVC060 13/13 A2997 RMK AO2
KSFO 291156Z 24003KT 10SM FEW005 OVC007 12/10 A2990 RMK AO2 SLP125 T01220100 10128 20117 58007
KSFQ 291155Z AUTO 16004KT 10SM 19/19 A2963 RMK AO2 6//// 7//// T01870186 PWINO
KSFQ 291215Z AUTO 18003KT 10SM -RA SCT010 BKN080 OVC120 19/19 A2963 RMK AO2 T01870186
KSFQ 291235Z AUTO 16003KT 10SM SCT007 BKN022 OVC120 19/19 A2963 RMK AO2 T01880187
KSFY 291155Z AUTO 15003KT 10SM CLR M03/M04 A2991 RMK AO2 T10301042 10018 21037
KSFY 291215Z AUTO 14004KT 10SM CLR M03/M04 A2990 RMK AO2 T10271040
KSFY 291235Z AUTO 13003KT 10SM CLR M02/M04 A2989 RMK AO2 T10241038
KSFZ 291156Z AUTO 12005KT 10SM SCT090 14/13 A2991 RMK AO2 SLP075 T01440133 10156 20144 58007
KSGF 291152Z 16008KT 10SM CLR M03/M04 A2994 RMK AO2 SLP147 T10281044 11011 21050 58010
KSGH 291156Z AUTO 31007KT 10SM OVC034 02/M01 A2986 RMK AO2 SLP122 70003 T00221011 10028 20022 50003 FZRANO $
KSGJ 291151Z 29007KT 10SM OVC009 19/17 A2969 RMK AO2
KSGJ 291156Z 29011KT 10SM OVC009 19/17 A2969 RMK AO2 SLP052 70013 T01890172 10206 20189 53005
KSGR 291153Z 00000KT 10SM CLR 03/02 A3012 RMK AO2 SLP202 T00280017 10050 20022 50001
KSGS 291153Z AUTO 15004KT 10SM OVC060 00/M03 A2973 RMK AO2 T10021030 11002 21012
KSGS 291213Z AUTO 15005KT 10SM SCT060 OVC085 00/M03 A2972 RMK AO2 T10011028
KSGS 291233Z AUTO 14005KT 10SM SCT065 OVC085 00/M03 A2972 RMK AO2 T00001027
KSGT 291156Z AUTO 00000KT 10SM CLR M01/M02 A3005 RMK AO2 SLP179 T10111022 10011 21011 53005 FZRANO
KSGU 291156Z AUTO 00000KT 10SM CLR 13/M03 A3003 RMK AO2 SLP144 T01281028 10183 20111 58004
KSHD 291155Z AUTO 35004KT 10SM -RA OVC016 14/14 A2960 RMK AO2 P0001 60025 70032 T01400136 10151 20138
KSHD 291215Z AUTO 00000KT 10SM OVC016 14/14 A2960 RMK AO2 T01400135
KSHD 291235Z AUTO 00000KT 10SM OVC016 15/14 A2960 RMK AO2 T01460136
KSHL 291155Z AUTO 17006KT 10SM CLR 01/M07 A2966 RMK AO2
KSHL 291215Z AUTO 17005KT 10SM SCT095 BKN120 02/M07 A2967 RMK AO2
KSHL 291235Z AUTO 18005KT 10SM BKN090 OVC120 02/M06 A2966 RMK AO2
KSHM 291158Z AUTO 32008KT 10SM CLR 08/M07 A3002 RMK AO2 SLP142 T00841072 10094 20033 56009
KSHN 291153Z AUTO 25004KT 10SM OVC009 11/10 A2997 RMK AO2 SLP148 T01110100 10111 20106 56003 $
KSHN 291219Z AUTO 27003KT 9SM BKN010 11/09 A2997 RMK AO2 T01060094 $
KSHN 291237Z AUTO 00000KT 9SM SCT010 11/09 A2997 RMK AO2 T01060094 $
KSHR 291153Z AUTO 31021KT 10SM CLR 11/00 A2988 RMK AO2 PK WND 32027/1137 PRESRR SLP103 T01110000 10200 20067 53032
KSHV 291156Z 00000KT 10SM FEW120 M01/M03 A3008 RMK AO2 SLP185 T10111028 10033 21017 53001
KSIF 291145Z AUTO 00000KT 10SM SCT013 BKN023 BKN055 15/13 A2958 RMK AO2 T01470129
KSIF 291205Z AUTO 00000KT 10SM RA BKN011 BKN029 OVC075 15/13 A2957 RMK AO2 T01470130
KSIF 291225Z AUTO 00000KT 10SM BKN011 OVC017 15/13 A2957 RMK AO2 T01480131
KSIK 291155Z AUTO 00000KT 10SM CLR 00/M01 A3000 RMK AO2
KSIK 291215Z AUTO 00000KT 10SM CLR 00/M01 A3000 RMK AO2
KSIK 291235Z AUTO 00000KT 10SM CLR 00/M01 A3000 RMK AO2
KSIY 291153Z AUTO 00000KT 10SM CLR 03/01 A3001 RMK AO2 SLP166 T00330006 10094 20028 57004 $
KSJC 291153Z AUTO 00000KT 6SM BR OVC008 14/12 A2990 RMK AO2 SLP124 T01390117 10144 20139 58007
KSJN 291154Z AUTO 00000KT 10SM CLR 02/M07 A3014 RMK AO2 SLP159 T00221067 10083 20017 56002 TSNO
KSJS 291155Z AUTO 32003KT 10SM SCT008 SCT021 OVC027 02/02 A2983 RMK AO2 T00150015 10030 20013
KSJS 291215Z AUTO 33005KT 10SM SCT010 OVC021 02/02 A2983 RMK AO2 T00150015
KSJS 291235Z AUTO 35003KT 7SM DZ BKN008 OVC016 02/02 A2984 RMK AO2 T00150015
KSJT 291151Z 22005KT 10SM CLR M01/M09 A3009 RMK AO2 SLP195 T10061094 10033 21011 57008
KSJX 291156Z AUTO 04003KT 10SM BKN027 OVC037 02/M01 A2983 RMK AO2 T00191009 10030 20015
KSJX 291217Z AUTO 00000KT 10SM SCT021 SCT028 OVC036 01/M01 A2983 RMK AO2 T00111010
KSJX 291236Z AUTO 00000KT 10SM SCT021 SCT028 BKN036 00/M01 A2983 RMK AO2 T10011013
KSKA 291156Z 00000KT 1/8SM RVRNO FG BKN000 01/01 A2999 RMK AO2A SLP167 $
KSKA 291158Z 00000KT 1/8SM RVRNO FG BKN000 01/01 A3000 RMK AO2A SLP170 T00130013 10062 20011 50000 $
KSKF 291156Z AUTO 33004KT 10SM CLR 02/M03 A3011 RMK AO2 SLP198 T00161031 10042 20010 57005 $
KSKX 291156Z AUTO 01007KT 10SM CLR M05/M08 A3019 RMK AO2 SLP221 T10501078 10011 21050 55006 FZRANO $
KSLB 291155Z AUTO 20008KT 10SM BKN070 02/M08 A2971 RMK AO2
KSLB 291215Z AUTO 21007KT 10SM FEW070 01/M09 A2970 RMK AO2
KSLB 291235Z AUTO 20006KT 10SM CLR 01/M08 A2970 RMK AO2
KSLC 291154Z 14006KT 10SM CLR 07/02 A3009 RMK AO2 SLP168 T00670017 10094 20056 56006 $
KSLE 291156Z 18003KT 9SM OVC008 11/10 A2999 RMK AO2 SLP154 T01110100 10117 20078 58004
KSLG 291156Z AUTO 11003KT 10SM CLR M03/M06 A2995 RMK AO2 SLP150 T10331056 11022 21044 58015 FZRANO
KSLH 291154Z AUTO 00000KT 10SM CLR M02/M02 A2983 RMK AO2 T10221024
KSLH 291214Z AUTO 00000KT 10SM CLR M01/M01 A2983 RMK AO2 T10161017
KSLH 291234Z AUTO 00000KT 10SM CLR M01/M01 A2983 RMK AO2 T10131013
KSLI 291148Z AUTO 00000KT 6SM BR OVC007 17/15 A2986 RMK AO2 SLP114
KSLI 291158Z AUTO 00000KT 6SM BR OVC007 17/15 A2986 RMK AO2 SLP114 T01670154 10167 20148 58004
KSLI 291243Z AUTO 11005KT 7SM OVC008 17/15 A2986 RMK AO2 SLP114
KSLK 291151Z AUTO 36003KT 5SM -RA BR SCT005 OVC016 07/07 A2980 RMK AO2 SLP095 P0000 60001 70001 T00670067 10122 20067 56008
KSLK 291221Z AUTO 02004KT 10SM -RA FEW005 FEW017 OVC048 07/07 A2979 RMK AO2 P0002 T00720072
KSLN 291153Z 16005KT 10SM CLR 00/M07 A2984 RMK AO2 SLP111 T00001067 10028 20000 58009
KSLO 291155Z AUTO 00000KT 10SM OVC039 00/M02 A2996 RMK AO2 T00001020 10032 20000
KSLO 291215Z AUTO 00000KT 10SM BKN037 00/M02 A2996 RMK AO2 T00001021
KSLO 291235Z AUTO 00000KT 10SM CLR 00/M02 A2996 RMK AO2 T10051023
KSLR 291155Z AUTO 18004KT 10SM CLR 03/M02 A3005 RMK AO2 T00321022 10036 20011
KSLR 291215Z AUTO 18005KT 10SM CLR 03/M03 A3005 RMK AO2 T00331026
KSLR 291235Z AUTO 18007KT 10SM CLR 04/M03 A3005 RMK AO2 T00361026
KSME 291155Z AUTO 36004KT 10SM OVC033 01/M01 A2989 RMK AO2
KSME 291215Z AUTO 35003KT 10SM OVC031 01/M01 A2990 RMK AO2
KSME 291235Z AUTO 30005KT 10SM OVC031 01/M01 A2990 RMK AO2
KSMF 291153Z 00000KT 10SM CLR 10/09 A2985 RMK AO2 SLP108 T01000094 10183 20089 58001
KSMN 291156Z AUTO 00000KT 10SM CLR M04/M05 A3007 RMK AO2 SLP200 T10391050 10011 21039 55004 FZRANO
KSMO 291151Z AUTO 00000KT 4SM BR OVC005 16/16 A2987 RMK AO2 SLP113 T01610156 10167 20161 58005
KSMP 291156Z AUTO 00000KT 10SM CLR 08/03 A3001 RMK AO2 SLP174 T00780033 10122 20078 58004 $
KSMQ 291153Z AUTO 00000KT 10SM OVC011 16/15 A2974 RMK AO2 SLP072 60000 T01610150 10167 20128 58014 $
KSMQ 291217Z AUTO 00000KT 10SM OVC009 16/16 A2974 RMK AO2 T01610156 $
KSMS 291155Z AUTO 00000KT 4SM BR SCT015 BKN055 16/16 A2959 RMK AO2
KSMS 291215Z AUTO 00000KT 7SM BKN014 BKN019 OVC055 17/16 A2959 RMK AO2
KSMS 291235Z AUTO 19005KT 9SM OVC013 17/16 A2959 RMK AO2
KSMX 291151Z AUTO 00000KT 5SM BR OVC002 12/12 A2989 RMK AO2 SLP123 T01170117 10128 20117 55003
KSMX 291203Z AUTO 25004KT 1 3/4SM R12/4500VP6000FT BR OVC003 12/12 A2989
KSMX 291203Z AUTO 25004KT 1 3/4SM R12/4500VP6000FT BR OVC003 12/12 A2989 RMK AO2 T01170117
KSMX 291210Z AUTO 25005KT 3/4SM R12/4500VP6000FT BR OVC003 12/12 A2989
KSMX 291210Z AUTO 25005KT 3/4SM R12/4500VP6000FT BR OVC003 12/12 A2989 RMK AO2 T01170117
KSMX 291218Z AUTO 23003KT 1SM R12/5500VP6000FT BR OVC002 12/12 A2989
KSMX 291218Z AUTO 23003KT 1SM R12/5500VP6000FT BR OVC002 12/12 A2989 RMK AO2 T01170117
KSMX 291230Z AUTO 25003KT 1 3/4SM BR OVC002 12/12 A2989
KSMX 291230Z AUTO 25003KT 1 3/4SM BR OVC002 12/12 A2989 RMK AO2 T01170117
KSNA 291153Z AUTO 00000KT 6SM BR OVC008 18/16 A2986 RMK AO2 SLP111 T01780156 10178 20172 58004
KSNC 291155Z AUTO 13006G12KT 10SM BKN047 BKN065 18/15 A2986 RMK AO2
KSNC 291215Z AUTO 14006G12KT 10SM SCT042 BKN049 OVC055 18/15 A2987 RMK AO2
KSNC 291235Z AUTO 14006KT 4SM -DZ FEW019 BKN048 OVC060 17/15 A2986 RMK AO2
KSNH 291155Z AUTO 00000KT 10SM OVC043 03/01 A2997 RMK A01
KSNH 291215Z AUTO 00000KT 10SM OVC042 03/01 A2997 RMK A01
KSNH 291235Z AUTO 00000KT 10SM OVC042 03/01 A2998 RMK A01
KSNK 291155Z AUTO 23006KT 10SM CLR 03/M07 A3007 RMK AO2 T00251070
KSNK 291215Z AUTO 23006KT 10SM CLR 03/M07 A3007 RMK AO2 T00251069
KSNK 291235Z AUTO 24005KT 10SM CLR 03/M07 A3007 RMK AO2 T00271068
KSNL 291155Z AUTO 22007KT 10SM CLR 03/M07 A2990 RMK AO2 T00321071 10032 20015
KSNL 291215Z AUTO 21006KT 10SM CLR 03/M07 A2990 RMK AO2 T00291070
KSNL 291235Z AUTO 21005KT 10SM CLR 03/M07 A2990 RMK AO2 T00271067
KSNS 291153Z AUTO 01004KT 5SM BR OVC004 11/11 A2990 RMK AO2 SLP134 T01110106 10122 20111 58006
KSNT 291151Z AUTO 00000KT M03/M04 A3012 RMK AO1 SLP158 T10281044 10000 21033 58009
KSNY 291153Z AUTO 28007KT 10SM CLR 03/M02 A2986 RMK AO2 SLP106 T00331017 10078 20000 55010
KSOA 291155Z AUTO 00000KT 10SM CLR M03/M09 A3016 RMK AO2
KSOA 291215Z AUTO 00000KT 10SM CLR M03/M09 A3016 RMK AO2
KSOA 291235Z AUTO 00000KT 10SM CLR M03/M08 A3016 RMK AO2
KSOP 291149Z AUTO 00000KT 10SM SCT016 OVC100 17/17 A2959 RMK AO2
KSOP 291156Z AUTO 12003KT 9SM SCT016 BKN100 17/17 A2958 RMK AO2 SLP032 70043 T01670167 10178 20161 58015
KSOP 291219Z AUTO 00000KT 5SM BR BKN007 BKN100 17/17 A2958 RMK AO2
KSOW 291155Z AUTO 17005KT 10SM CLR 02/M07 A3017 RMK AO2
KSOW 291215Z AUTO 16003KT 10SM CLR 02/M07 A3017 RMK AO2
KSOW 291235Z AUTO 00000KT 10SM CLR 01/M08 A3017 RMK AO2
KSPA 291155Z AUTO 00000KT 7SM OVC008 09/08 A2961 RMK AO2
KSPA 291215Z AUTO 32003KT 10SM OVC010 09/08 A2961 RMK AO2
KSPA 291235Z AUTO 31004KT 10SM OVC010 09/06 A2961 RMK AO2
KSPB 291146Z AUTO 26004KT 3/4SM BR SCT003 OVC012 05/05 A2999 RMK AO2 T00500050 $
KSPB 291149Z AUTO 26003KT 2SM BR SCT003 OVC011 06/06 A2999 RMK AO2 VIS 1 1/4V4 $
KSPB 291153Z AUTO 26004KT 3SM BR FEW003 OVC011 06/06 A2999 RMK AO2 SLP156 T00610061 10083 20044 58001 $
KSPD 291156Z AUTO 27005KT 06/M02 A2996 RMK AO1 SLP124 T00561017 10061 20011 55005
KSPF 291155Z AUTO 28013G19KT 10SM BKN120 15/M03 A2974 RMK AO2
KSPF 291215Z AUTO 29012G21KT 10SM OVC120 15/M03 A2975 RMK AO2
KSPF 291235Z AUTO 30019G25KT 10SM OVC120 14/M02 A2977 RMK AO2
KSPG 291153Z 34012G20KT 10SM BKN020 OVC025 19/16 A2976 RMK AO2 SLP078 60004 70012 T01890161 10200 20189 53020
KSPI 291152Z 20003KT 10SM CLR M04/M04 A2994 RMK AO2 SLP145 70001 I1000 I6000 T10391044 10017 21050 58006
KSPR 291155Z AUTO 02019KT 10SM CLR 13/01 A3006 RMK A01
KSPR 291215Z AUTO 01015G24KT 10SM CLR 12/00 A3007 RMK A01
KSPR 291235Z AUTO 02015KT 10SM CLR 12/01 A3008 RMK A01
KSPS 291152Z AUTO 23012KT 10SM CLR 06/M08 A2995 RMK AO2 SLP142 T00611078 10072 20028 56013
KSPW 291153Z AUTO 18005KT 10SM CLR 01/M08 A2969 RMK AO2 SLP066 T00111078 10022 21011 58016
KSQI 291156Z AUTO 23003KT 10SM CLR M03/M04 RMK AO2 SLPNO 6//// 7//// T10331044 10017 21033 FZRANO PNO $
KSQL 291155Z AUTO 33004KT 10SM OVC008 13/11 A2991 RMK AO2
KSQL 291215Z AUTO 33004KT 10SM OVC008 13/11 A2991 RMK AO2
KSQL 291235Z AUTO 34004KT 10SM OVC008 13/11 A2991 RMK AO2
KSRB 291155Z AUTO VRB05KT 10SM OVC024 02/M01 A2989 RMK A01
KSRB 291215Z AUTO VRB05G10KT 10SM OVC022 02/M01 A2989 RMK A01
KSRB 291235Z AUTO 33007KT 10SM OVC022 02/M01 A2989 RMK A01
KSRC 291156Z AUTO 00000KT 10SM CLR M03/M03 A3005 RMK AO2 SLP187 6//// 7//// T10331033 11011 21033 53003 FZRANO
KSRQ 291153Z 32016G25KT 10SM -RA FEW019 BKN030 OVC036 20/17 A2976 RMK AO2 RAB53 SLP078 P0000 60005 70037 T02000172 10206 20172 53019
KSRQ 291200Z 32018G27KT 10SM -RA SCT017 BKN024 OVC034 19/17 A2977 RMK AO2 PK WND 33027/1156 P0000 T01940172
KSRR 291155Z AUTO 27008KT 10SM CLR 04/M05 A3018 RMK AO2
KSRR 291215Z AUTO 25007KT 10SM CLR 04/M05 A3018 RMK AO2
KSRR 291235Z AUTO 25007KT 10SM CLR 03/M05 A3017 RMK AO2
KSSC 291153Z AUTO 21007KT 10SM SCT013 BKN019 16/15 A2956 RMK AO2 BKN V SCT SLP010 $
KSSC 291158Z AUTO 22006KT 10SM BKN013 16/16 A2956 RMK AO2 CIG 013V019 BKN V SCT SLP010 T01640155 10184 20156 57010 $
KSSC 291228Z AUTO 24007KT 10SM BKN015 BKN022 BKN035 OVC050 17/15 A2956 RMK AO2 SLP010 $
KSSC 291233Z AUTO 24007KT 10SM SCT015 BKN022 BKN035 17/15 A2956 RMK AO2 CIG 014V022 CIG 009 RWY22 SLP010 $
KSSF 291153Z 00000KT 10SM CLR 03/M01 A3012 RMK AO2 SLP202 T00281006 10056 20017 58004 $
KSSI 291149Z AUTO 28016G23KT 10SM SCT012 OVC020 15/12 A2967 RMK AO2
KSSI 291153Z AUTO 27013G22KT 10SM FEW012 OVC022 14/11 A2968 RMK AO2 SLP050 T01440111 10211 20144 51008
KSTC 291153Z 15007KT 10SM OVC070 00/M03 A2966 RMK AO2 SLP063 T00001028 10000 21011 56022
KSTE 291155Z AUTO 00000KT 10SM CLR M06/M06 A2984 RMK AO2 T10631064 11017 21065
KSTE 291215Z AUTO 00000KT 10SM CLR M06/M06 A2984 RMK AO2 T10631063
KSTE 291235Z AUTO 00000KT 10SM CLR M06/M06 A2984 RMK AO2
KSTF 291155Z AUTO 00000KT 10SM CLR M01/M02 A3002 RMK AO2
KSTF 291215Z AUTO 00000KT 10SM CLR M01/M02 A3002 RMK AO2
KSTF 291235Z AUTO 00000KT 7SM CLR M02/M02 A3002 RMK AO2
KSTJ 291153Z AUTO 17005KT 10SM CLR M01/M06 A2984 RMK AO2 SLP110 T10111061 10000 21033 58022
KSTK 291155Z AUTO 21005KT 10SM CLR 00/M01 A2987 RMK AO2
KSTK 291210Z AUTO 21007KT 10SM CLR 00/M01 A2987 RMK AO2
KSTK 291230Z AUTO 20006KT 10SM CLR 00/M01 A2987 RMK AO2
KSTL 291151Z 00000KT 10SM CLR M01/M03 A2996 RMK AO2 SLP155 T10111033 10011 21011 58006
KSTP 291153Z 15009KT 10SM OVC060 M01/M03 A2974 RMK AO2 SLP078 T10061028 11006 21017 56021
KSTS 291153Z 26003KT 1/2SM FG VV002 10/10 A2989 RMK AO2 SLP115 T01000100 10106 20100 58004
KSUA 291147Z 30010G16KT 7SM BKN006BKN050 21/21 A2966
KSUE 291156Z AUTO 20003KT 10SM CLR M03/M04 A2985 RMK AO2 SLP135 7//// T10331039 10017 21033 50003 FZRANO
KSUN 291155Z AUTO 31009KT 10SM CLR 02/M01 A3008 RMK AO2
KSUN 291215Z AUTO 31009KT 10SM CLR 02/M01 A3008 RMK AO2
KSUN 291235Z AUTO 31010KT 10SM CLR 02/M01 A3007 RMK AO2
KSUS 291154Z 00000KT 10SM CLR M04/M04 A2996 RMK AO2 SLP153 T10391044 11011 21044 58005
KSUT 291145Z AUTO 26008KT 7SM SCT007 BKN021 OVC031 19/19 A2961 RMK AO2 P0022 T01920192
KSUT 291205Z AUTO 29009G15KT 10SM SCT017 BKN033 OVC044 19/19 A2960 RMK AO2 T01850185
KSUT 291225Z AUTO 00000KT 10SM -RA BKN033 BKN042 OVC050 19/19 A2960 RMK AO2 T01850185
KSUU 291158Z 24010KT 10SM CLR 12/11 A2984 RMK AO2A SLP111 T01170111 10140 20116 58001 $
KSUW 291155Z AUTO 20006KT 10SM OVC070 M01/M04 A2972 RMK AO2 T10141039 11014 21041
KSUW 291215Z AUTO 20006KT 10SM OVC070 M01/M04 A2971 RMK AO2 T10131039
KSUW 291235Z AUTO 20006KT 10SM OVC060 M01/M04 A2970 RMK AO2 T10121036
KSUX 291152Z 11008KT 10SM SCT110 01/M04 A2971 RMK AO2 SLP068 T00061044 10006 21011 58016
KSVC 291155Z AUTO 36008KT 10SM CLR 03/M03 A3015 RMK AO2 T00311033 10042 20017
KSVC 291215Z AUTO 36008KT 10SM CLR 02/M03 A3015 RMK AO2 T00241035
KSVC 291235Z AUTO 36007KT 10SM CLR 03/M03 A3015 RMK AO2 T00261035
KSVE 291155Z AUTO 27003KT 10SM CLR 03/00 A3007 RMK AO2
KSVE 291215Z AUTO 27003KT 10SM CLR 03/00 A3006 RMK AO2
KSVE 291235Z AUTO 30003KT 10SM CLR 03/00 A3006 RMK AO2
KSVH 291145Z AUTO 01003KT 2 1/2SM DZ BKN003 OVC008 13/11 A2957 RMK AO2 T01270111
KSVH 291205Z AUTO 36003KT 2 1/2SM BR OVC003 13/11 A2957 RMK AO2 T01260111
KSVH 291225Z AUTO 02004KT 2 1/2SM BR OVC003 13/11 A2957 RMK AO2 T01260111
KSVN 291156Z AUTO 28010KT 10SM BKN014 OVC028 14/11 A2963 RMK AO2 CIG 013 RWY28 SLP037 T01420112 10210 20142 53001 $
KSVN 291211Z AUTO 28010KT 10SM SCT014 OVC028 14/11 A2963 RMK AO2 CIG 014V028 CIG 014 RWY28 SLP037 $
KSVN 291226Z AUTO 28008KT 10SM BKN012 OVC029 14/11 A2963 RMK AO2 SLP037 $
KSWF 291145Z 16010KT 6SM -RA BR BKN008 OVC015 15/15 A2980
KSWO 291153Z AUTO 17004KT 10SM CLR 01/M04 A2988 RMK AO2 SLP121 T00061039 10022 20006 58010
KSWW 291155Z AUTO 23011KT 10SM CLR 07/M12 A3008 RMK AO2 T00651125 10080 20065
KSWW 291215Z AUTO 22012KT 10SM CLR 06/M12 A3007 RMK AO2 T00641124
KSWW 291235Z AUTO 23012KT 10SM CLR 07/M12 A3007 RMK AO2 T00661125
KSXS 291158Z AUTO 32006KT 10SM CLR 03/02 A2990 RMK AO2 SLP128 70009 T00290017 10060 20029 53005
KSXT 291156Z AUTO 16005KT 10SM CLR 13/08 A3001 RMK AO2 SLP121 T01330083 10167 20133 58007
KSXU 291155Z AUTO 05003KT 10SM CLR 01/M03 A3006 RMK AO2 T00081031 10036 20000
KSXU 291215Z AUTO 00000KT 10SM CLR 00/M03 A3006 RMK AO2 T00041033
KSXU 291235Z AUTO 00000KT 10SM CLR 00/M03 A3006 RMK AO2 T00021031
KSYF 291155Z AUTO 23008KT 10SM CLR 03/00 A2986 RMK AO2 T00281005 10058 20025
KSYF 291215Z AUTO 23010KT 10SM CLR 04/00 A2986 RMK AO2 T00351004
KSYF 291235Z AUTO 24010KT 10SM CLR 03/00 A2986 RMK AO2 T00321005
KSYI 291155Z AUTO 32007G12KT 10SM OVC026 03/M01 A2992 RMK A01
KSYI 291215Z AUTO 32008KT 10SM OVC026 03/M01 A2992 RMK A01
KSYI 291235Z AUTO 32007G13KT 10SM OVC026 03/M01 A2993 RMK A01
KSYM 291150Z AUTO 00000KT 10SM OVC034 02/M00 A2987 RMK AO2
KSYM 291210Z AUTO 00000KT 10SM OVC034 02/M00 A2987 RMK AO2
KSYM 291230Z AUTO 00000KT 10SM OVC034 02/00 A2987 RMK AO2
KSYN 291153Z AUTO 18008G15KT 10SM OVC070 00/M03 A2973 RMK AO2 T00021028 10002 21011
KSYN 291212Z AUTO 17008KT 10SM OVC070 00/M03 A2971 RMK AO2 T00031030
KSYN 291232Z AUTO 17009KT 10SM OVC060 00/M03 A2971 RMK AO2 T00031030
KSYR 291154Z 35010KT 4SM RA BR BKN007 OVC025 06/06 A2978 RMK AO2 SLP083 P0022 60048 70059 T00610061 10083 20061 56015 $
KSYR 291218Z 32010KT 6SM -RA BR BKN008 BKN016 OVC024 06/06 A2980
KSYR 291218Z 32010KT 6SM -RA BR BKN008 BKN016 OVC024 06/06 A2980 RMK AO2 P0005 T00610061 $
KSZL 291156Z 17004KT 10SM CLR M03/M05 A2987 RMK AO2A SLP126 T10351055 11019 21042 57011
KSZT 291155Z AUTO 00000KT 1 1/4SM BR BKN003 00/00 A3004 RMK AO2
KSZT 291215Z AUTO 00000KT 1SM BR OVC003 M01/M01 A3004 RMK AO2 VIS 1/2V3
KSZT 291235Z AUTO 00000KT 3/4SM BR OVC003 00/00 A3004 RMK AO2
KSZY 291155Z AUTO 27003KT 10SM OVC041 01/M00 A2997 RMK A01
KSZY 291215Z AUTO 27005KT 10SM BKN041 00/M00 A2998 RMK A01
KSZY 291235Z AUTO 27004KT 10SM SCT040 01/M00 A2998 RMK A01
KT20 291155Z AUTO 00000KT 10SM CLR 02/00 A3013 RMK AO2 T00170003 10033 20008
KT20 291215Z AUTO 00000KT 10SM CLR 02/01 A3013 RMK AO2 T00200005
KT20 291235Z AUTO 00000KT 10SM CLR 02/00 A3013 RMK AO2 T00160001
KT35 291155Z AUTO 00000KT 10SM CLR 02/M02 A3011 RMK AO2 T00151016 10045 20008
KT35 291215Z AUTO 21003KT 10SM CLR 01/M01 A3011 RMK AO2 T00131015
KT35 291235Z AUTO 22004KT 10SM CLR 02/M02 A3010 RMK AO2 T00211020
KT65 291155Z AUTO 00000KT CLR 06/M01 A3014 RMK AO2 T00561013 10084 20055 PWINO
KT65 291215Z AUTO 00000KT CLR 06/M01 A3014 RMK AO2 T00571012 PWINO
KT65 291235Z AUTO 00000KT CLR 06/M01 A3014 RMK AO2 T00551008 PWINO
KT82 291155Z AUTO 27003KT 10SM CLR M01/M06 A3012 RMK AO2 T10151060 10005 21017
KT82 291215Z AUTO 27004KT 10SM CLR M01/M06 A3012 RMK AO2 T10121061
KT82 291235Z AUTO 26005KT 10SM CLR M01/M06 A3012 RMK AO2 T10131063
KTAD 291154Z AUTO 25012KT 10SM CLR 03/M03 A3003 RMK AO2 SLP142 T00331028 10044 20011 56012
KTAN 291152Z AUTO 12006KT 10SM BKN090 16/12 A2994 RMK AO2 SLP137 T01560122 10156 20150 53001
KTAZ 291155Z AUTO 24003KT 10SM CLR M04/M05 A2995 RMK AO2 T10421049 10018 21042
KTAZ 291215Z AUTO 00000KT 10SM CLR M05/M05 A2995 RMK AO2 T10461052
KTAZ 291235Z AUTO 00000KT 10SM CLR M03/M04 A2995 RMK AO2 T10341038
KTBN 291156Z AUTO 17004KT 10SM CLR M04/M06 A2993 RMK AO2 SLP149 T10411058 11034 21056 58005 $
KTBN 291236Z AUTO 17003KT 2 3/4SM BR CLR M04/M06 A2993 RMK AO2 VIS 2 3/4V4 SLP149 $
KTBR 291155Z AUTO 28011G20KT 10SM OVC008 09/06 A2971 RMK AO2 T00910059 10196 20091
KTBR 291215Z AUTO 29012G16KT 10SM OVC010 08/04 A2971 RMK AO2 T00840042
KTBR 291235Z AUTO 28014G19KT 10SM OVC012 08/03 A2972 RMK AO2 T00810033
KTBX 291155Z AUTO 21010KT 10SM CLR 09/M06 A3005 RMK AO2
KTBX 291215Z AUTO 23005KT 10SM CLR 08/M05 A3005 RMK AO2
KTBX 291235Z AUTO 27009KT 10SM CLR 09/M06 A3005 RMK AO2
KTCC 291153Z AUTO 27007KT 10SM CLR 01/M03 A3003 RMK AO2 SLP157 T00111028 10056 20000 56008
KTCL 291153Z AUTO 31005KT 10SM BKN036 02/01 A2999 RMK AO2 SLP154 70001 T00170011 10056 20017 51008
KTCM 291158Z 22001KT 1/2SM FG VV002 10/10 A3000 RMK AO2A SLP163 T00960096 10096 20047 50002 $
KTCS 291153Z AUTO 29005KT 10SM CLR 06/M03 A3013 RMK AO2 SLP160 T00561028 10089 20056 58002
KTDF 291200Z AUTO 14003KT 7SM OVC004 16/15 A2961 RMK AO2
KTDF 291220Z AUTO 14004KT 4SM BR OVC004 16/15 A2960 RMK AO2
KTDF 291240Z AUTO 00000KT 2SM BR OVC002 16/16 A2959 RMK AO2
KTDR 291156Z AUTO 34006KT 10SM CLR 06/03 A2992 RMK AO2 SLP136 60001 70006 T00590029 10105 20059 51012 $
KTDZ 291153Z AUTO 25003KT 10SM OVC047 04/M01 A2987 RMK AO2 SLP119 T00391006 10044 20039 55000
KTEB 291151Z 18006KT 5SM -RA BR SCT008 OVC014 17/16 A2977 RMK AO2 RAE1058B31 SLP080 P0000 60004 70004 T01720161 10194 20167 56015 $
KTEW 291155Z AUTO 00000KT 10SM OVC008 03/01 A2985 RMK AO2
KTEW 291215Z AUTO 00000KT 10SM OVC006 03/01 A2985 RMK AO2
KTEW 291225Z AUTO 00000KT 10SM OVC006 03/02 A2985 RMK AO2
KTEX 291155Z AUTO 12003KT 10SM CLR 01/M07 A3025 RMK AO2 7//// T00061070 10021 20000
KTEX 291215Z AUTO 15007KT 10SM CLR 00/M07 A3025 RMK AO2 T00041067
KTEX 291235Z AUTO 12003KT 10SM CLR 01/M07 A3025 RMK AO2 T00061070
KTGI 291154Z AUTO 10008G16KT 3SM SCT005 BKN010 OVC049 19/19 A2963 RMK AO1 P0039
KTGI 291214Z AUTO 11014KT 1 3/4SM SCT005 BKN015 OVC027 19/19 A2961 RMK AO1 P0009
KTGI 291234Z AUTO 13019G26KT 5SM SCT014 BKN035 OVC110 19/19 A2960 RMK AO1 P0011
KTHA 291155Z AUTO 33010KT 10SM OVC022 02/M02 A2990 RMK A01
KTHA 291215Z AUTO 34008KT 10SM OVC021 02/M02 A2990 RMK A01
KTHA 291235Z AUTO 33005KT 10SM OVC020 02/M02 A2990 RMK A01
KTHV 291153Z AUTO 08003KT 10SM OVC011 16/16 A2964 RMK AO2 SLP038 60002 70002 T01610161 10167 20150 56019
KTIF 291155Z AUTO 26004KT 10SM CLR 04/01 A2975 RMK AO2 T00410005 10060 20027
KTIF 291215Z AUTO 27003KT 10SM CLR 05/01 A2975 RMK AO2 T00500008
KTIF 291235Z AUTO 26004KT 10SM CLR 03/00 A2974 RMK AO2 T00330003
KTIK 291156Z AUTO 20007KT 10SM CLR 03/M06 A2989 RMK AO2 SLP133 T00251064 10026 20016
KTIP 291155Z AUTO 29005KT 10SM OVC041 02/M01 A2992 RMK AO2 T00201009 10026 20020
KTIP 291215Z AUTO 29005KT 10SM OVC041 02/M01 A2992 RMK AO2 T00161007
KTIP 291235Z AUTO 28004KT 10SM BKN041 01/M01 A2992 RMK AO2 T00111006
KTIW 291153Z AUTO 00000KT 1/2SM FG VV002 09/09 A3000 RMK AO2 SLP157 T00940094 10100 20078 53004 $
KTIX 291155Z 29015KT 6SM HZ BKN004 19/19 A2968
KTKC 291153Z AUTO 20013G17KT 10SM CLR 04/M05 A2963 RMK AO2 T00351048 10045 20035
KTKC 291213Z AUTO 20010KT 10SM SCT070 04/M04 A2964 RMK AO2 T00401045
KTKC 291233Z AUTO 19008KT 10SM SCT070 BKN120 04/M04 A2963 RMK AO2 T00411045
KTKI 291153Z 18004KT 10SM CLR 01/M03 A3000 RMK AO2 SLP172 T00111033 10017 21011 58016
KTKV 291155Z AUTO 00000KT 10SM CLR M06/M07 A2979 RMK AO2 T10581066 11015 21058
KTKV 291215Z AUTO 00000KT 10SM CLR M06/M07 A2979 RMK AO2 T10591067
KTKV 291235Z AUTO 00000KT 10SM CLR M06/M07 A2979 RMK AO2 T10601068
KTKX 291155Z AUTO 33003KT 10SM M00/M01 A3000 RMK AO2
KTKX 291215Z AUTO 33004KT 10SM CLR M00/M01 A3000 RMK AO2
KTKX 291235Z AUTO 34005KT 10SM CLR M00/M01 A3000 RMK AO2
KTLH 291153Z 31007KT 10SM FEW010 07/04 A2987 RMK AO2 SLP114 70111 T00670044 10117 20067 53017
KTMA 291155Z AUTO 30012KT 10SM CLR 05/03 A2982 RMK AO2 T00530029
KTMA 291215Z AUTO 30011G16KT 10SM CLR 05/03 A2981 RMK AO2 T00540026
KTMA 291235Z AUTO 30010KT 10SM CLR 06/03 A2982 RMK AO2 T00550028
KTMB 291153Z 31012KT 10SM SCT008 21/20 A2969 RMK AO2 SLP054 60007 70133 T02060200 10244 20206 53033 $
KTMB 291208Z 30015KT 10SM BKN008 21/20 A2970 RMK AO2 T02110200 $
KTMB 291228Z 30017KT 10SM SCT008 21/20 A2971 RMK AO2 T02110200 $
KTME 291155Z AUTO 00000KT 10SM CLR 02/00 A3014 RMK AO2
KTME 291215Z AUTO 00000KT 10SM CLR 02/00 A3014 RMK AO2
KTME 291235Z AUTO 00000KT 10SM CLR 02/00 A3014 RMK AO2
KTMK 291155Z AUTO 00000KT 7SM SCT005 SCT013 OVC018 12/11 A3000 RMK AO2
KTMK 291215Z AUTO 00000KT 7SM SCT009 OVC020 12/11 A3000 RMK AO2
KTMK 291235Z AUTO 00000KT 7SM SCT009 OVC020 12/11 A3000 RMK AO2
KTMT 291155Z AUTO 00000KT 10SM CLR M05/M10 A3015 RMK AO2 T10471097 10013 21047
KTMT 291215Z AUTO 00000KT 10SM CLR M04/M10 A3014 RMK AO2 T10411096
KTMT 291235Z AUTO 00000KT 10SM CLR M06/M11 A3015 RMK AO2 T10561110
KTNB 291155Z AUTO 29012G17KT 5SM BR OVC006 02/02 A2965 RMK AO2 60014 70198 T00150015 10066 20015
KTNB 291215Z AUTO 29014G18KT 5SM BR OVC006 02/02 A2965 RMK AO2 T00150015
KTNB 291235Z AUTO 30010G17KT 3SM BR OVC006 02/02 A2966 RMK AO2 T00150015
KTNU 291155Z AUTO 14006KT 10SM BKN075 OVC090 M02/M04 A2982 RMK AO2 PWINO
KTNU 291215Z AUTO 15007KT 10SM BKN075 OVC095 M02/M04 A2982 RMK AO2 PWINO
KTNU 291235Z AUTO 16007KT 10SM SCT075 OVC090 M01/M04 A2981 RMK AO2 PWINO
KTOB 291153Z AUTO 17012KT 10SM OVC070 M01/M03 A2974 RMK AO2
KTOB 291213Z AUTO 16012KT 10SM OVC070 M01/M04 A2973 RMK AO2
KTOB 291233Z AUTO 15009KT 10SM OVC070 M01/M03 A2972 RMK AO2
KTOC 291155Z AUTO 27003KT 10SM SCT030 07/05 A2963 RMK AO2 T00670051 10117 20058
KTOC 291215Z AUTO 31006KT 10SM BKN032 07/05 A2963 RMK AO2 T00710052
KTOC 291235Z AUTO 29003KT 10SM OVC034 08/05 A2963 RMK AO2 T00750052
KTOI 291153Z AUTO 31008KT 10SM CLR 03/02 A2991 RMK AO2 SLP130 70029 T00280017 10050 20022 53002
KTOL 291152Z 28005KT 10SM OVC046 03/01 A2986 RMK AO2 SLP116 T00330006 10044 20033 55001
KTOP 291153Z 00000KT 10SM CLR M02/M04 A2985 RMK AO2 SLP116 T10221044 11011 21033 56016
KTOR 291153Z AUTO VRB05KT 10SM CLR 06/M02 A2981 RMK AO2 SLP081 T00561022 10072 21006 56019
KTPA 291153Z 32016G24KT 10SM SCT020 OVC028 18/15 A2978 RMK AO2 DZB13E29 SLP085 P0000 60003 70008 T01830150 10200 20183 53024
KTPA 291224Z 32015G24KT 10SM SCT024 OVC033 18/14 A2980 RMK AO2 SCT V BKN T01780144
KTPF 291155Z AUTO 31011G17KT 10SM SCT016 OVC027 18/17 A2978 RMK AO2
KTPF 291215Z AUTO 33009G19KT 10SM SCT018 OVC029 18/16 A2979 RMK AO2
KTPF 291235Z AUTO 33010G17KT 10SM OVC033 17/15 A2980 RMK AO2
KTPH 291156Z AUTO 01007KT 10SM CLR 06/M05 A3011 RMK AO2 SLP151 T00561050 10100 20056 58006
KTPL 291151Z AUTO 15004KT 10SM CLR 02/M05 A3009 RMK AO2 SLP209 T00171050 10039 20011 57007 FZRANO
KTQE 291154Z AUTO 17005KT 10SM CLR 01/M07 A2975 RMK AO2 SLP079 T00111072 10017 21017 56018
KTQH 291155Z AUTO 00000KT 10SM CLR M02/M03 A2996 RMK AO2
KTQH 291215Z AUTO 00000KT 10SM CLR M02/M03 A2994 RMK AO2
KTQH 291235Z AUTO 00000KT 10SM CLR M02/M03 A2994 RMK AO2
KTRI 291153Z 00000KT 10SM -DZ SCT017 OVC030 03/03 A2976 RMK AO2 DZB23 SLP071 P0000 60000 70089 T00330028 10050 20033 55000 $
KTRI 291227Z 34005KT 10SM BKN018 OVC031 03/02 A2976
KTRI 291227Z 34005KT 10SM BKN018 OVC031 03/02 A2976 RMK AO2 DZE1159 P0000 T00330022 $
KTRK 291155Z AUTO 00000KT 10SM CLR M01/M02 A3016 RMK AO2
KTRK 291215Z AUTO 00000KT 10SM CLR M01/M02 A3016 RMK AO2
KTRK 291235Z AUTO 00000KT 10SM CLR M01/M02 A3016 RMK AO2
KTRL 291153Z AUTO 00000KT 10SM CLR 00/M04 A3004 RMK AO2 SLP173 T00001039 10022 21006 58013 $
KTRM 291152Z AUTO 35004KT 10SM CLR 14/04 A2977 RMK AO2 SLP083 T01440044 10228 20133 55002
KTSP 291155Z AUTO 12003KT 10SM CLR 06/M07 A3003 RMK AO2
KTSP 291215Z AUTO 09003KT 10SM CLR 06/M07 A3003 RMK AO2
KTSP 291235Z AUTO 00000KT 10SM CLR 04/M07 A3002 RMK AO2
KTTA 291145Z AUTO 00000KT 3SM BR SCT006 OVC012 16/16 A2958 RMK AO2 T01600160
KTTA 291205Z AUTO 00000KT 1 3/4SM BR BKN010 OVC023 16/15 A2958 RMK AO2 T01550154
KTTA 291225Z AUTO 00000KT 3SM BR SCT010 OVC023 16/16 A2957 RMK AO2 T01610160
KTTD 291153Z AUTO 25003KT 9SM OVC007 09/08 A3000 RMK AO2 SLP160 T00940083 10117 20078 58000
KTTF 291153Z AUTO 27004KT 10SM OVC044 04/00 A2985 RMK AO2 T00350003 10039 20017
KTTF 291213Z AUTO 28004KT 10SM OVC044 04/00 A2985 RMK AO2 T00350004
KTTF 291233Z AUTO 28005KT 10SM OVC044 04/01 A2985 RMK AO2 T00350005
KTTN 291153Z 07006KT 10SM OVC006 16/15 A2973 RMK AO2 SLP062 T01560150 10167 20144 58015
KTTS 291158Z AUTO 30008KT 10SM CLR 20/20 A2967 RMK AO2 SLP051 60000 70034 T01970197 10206 20196 52010 VISNO RWY15 CHINO RWY15 $
KTUL 291153Z 16009KT 10SM CLR 03/M05 A2991 RMK AO2 SLP129 T00331050 10044 20017 56018
KTUP 291153Z 00000KT 10SM CLR 00/M02 A3000 RMK AO2 SLP160 T00001017 10044 20000 53002
KTUS 291153Z 14005KT 10SM CLR 14/M05 A2995 RMK AO2 SLP105 T01441050 10178 20144 56001
KTVC 291153Z 00000KT 10SM BKN050 01/M01 A2984 RMK AO2 SLP109 70012 I1000 I6000 T00061006 10033 20000 53001
KTVF 291201Z AUTO 25009KT 10SM CLR 00/M05 A2952 RMK AO2 SLP012 T00001050 10011 20000 56018 FZRANO
KTVF 291230Z AUTO 24010KT 10SM BKN018 01/M04 A2951 RMK AO2 FZRANO
KTVI 291155Z AUTO 32008KT 10SM CLR 06/04 A2986 RMK AO2
KTVI 291215Z AUTO 32006KT 10SM CLR 06/04 A2986 RMK AO2
KTVI 291235Z AUTO 32008KT 10SM CLR 06/05 A2986 RMK AO2
KTVK 291155Z AUTO 00000KT 10SM CLR M02/M05 A2985 RMK AO2
KTVK 291215Z AUTO 00000KT 10SM CLR M02/M04 A2985 RMK AO2
KTVK 291235Z AUTO 00000KT 10SM SCT090 M01/M04 A2986 RMK AO2
KTVL 291153Z AUTO 19003KT 10SM CLR M01/M02 A3015 RMK AO2 SLP188 T10111022 10028 21011 58006
KTVR 291153Z AUTO 00000KT 8SM CLR M02/M02 A3007 RMK AO2 SLP190 T10171017 10006 21017 53004
KTVY 291155Z AUTO 19008KT 10SM CLR 04/M01 A3010 RMK AO2
KTVY 291215Z AUTO 20007KT 10SM CLR 04/M01 A3009 RMK AO2
KTVY 291235Z AUTO 21007KT 10SM CLR 05/00 A3009 RMK AO2
KTWF 291153Z 19008KT 10SM CLR 06/01 A3002 RMK AO2 SLP137 T00560006 10078 20028 56011
KTWM 291154Z AUTO 19006KT 10SM BKN014 OVC070 00/M03 A2968 RMK AO2
KTWM 291213Z AUTO 18006KT 10SM BKN012 01/M03 A2967 RMK AO2
KTWM 291234Z AUTO 18007KT 10SM SCT012 01/M02 A2967 RMK AO2
KTXK 291153Z 00000KT 10SM CLR 02/M02 A3005 RMK AO2 SLP176 T00171022 10028 20000 58005
KTYQ 291155Z AUTO 00000KT 10SM OVC035 01/M02 A2990 RMK AO2 T00071022 10015 20006
KTYQ 291215Z AUTO 25003KT 10SM OVC037 01/M02 A2990 RMK AO2 T00061021
KTYQ 291235Z AUTO 27003KT 10SM OVC037 01/M02 A2990 RMK AO2 T00071019
KTYR 291153Z 18005KT 10SM CLR 00/M01 A3006 RMK AO2 SLP180 T00001006 10017 21006 57002
KTYS 291153Z 36006KT 10SM OVC042 02/02 A2982 RMK AO2 RAE38SNE38 SLP100 P0000 60000 70092 T00220017 10044 20022 53003 $
KTZR 291145Z 31005KT 10SM OVC039 03/01 A2985
KU42 291155Z AUTO 20005KT 10SM CLR 06/02 A3010 RMK AO1 T00550017 10077 20043
KU42 291215Z AUTO 19006KT 10SM CLR 05/01 A3010 RMK AO1 T00510012
KU42 291235Z AUTO 21003KT 10SM CLR 05/01 A3010 RMK AO1 T00490010
KU68 291155Z AUTO 04004KT 10SM SCT110 04/M29 A2990 RMK AO2
KU68 291215Z AUTO 24008KT 10SM SCT100 02/M31 A2991 RMK AO2
KU68 291235Z AUTO 27003KT 10SM SCT100 03/M30 A2992 RMK AO2
KUAO 291153Z AUTO 05003KT 6SM BR BKN005 OVC011 11/11 A3000 RMK AO2 SLP159 T01060106 10106 20078 58002 $
KUAO 291218Z AUTO 00000KT 6SM BR SCT005 OVC011 11/11 A3000 RMK AO2 T01060106 $
KUBE 291155Z AUTO 14008KT 10SM SCT080 BKN090 BKN120 M03/M05 A2974 RMK AO2
KUBE 291215Z AUTO 15009KT 10SM OVC080 M03/M04 A2973 RMK AO2
KUBE 291235Z AUTO 15009KT 10SM OVC070 M02/M04 A2972 RMK AO2
KUCP 291156Z AUTO 00000KT 9SM OVC033 02/02 A2982 RMK AO2 UPE15 SLP122 P0000 60008 70024 T00220022 10028 20022 53003
KUCP 291212Z AUTO 29003KT 9SM BKN026 OVC033 02/02 A2981 RMK AO2
KUCP 291244Z AUTO 00000KT 10SM SCT026 BKN036 OVC044 02/02 A2979 RMK AO2
KUCY 291155Z AUTO 03004KT 10SM OVC039 02/00 A2998 RMK A01
KUCY 291215Z AUTO 00000KT 10SM BKN038 01/M00 A2999 RMK A01
KUCY 291235Z AUTO 00000KT 10SM BKN038 01/M00 A2999 RMK A01
KUDG 291156Z AUTO 18004KT 5SM BR CLR 16/16 A2958 RMK AO2 SLP021 70001 T01610161 10172 20150 58015
KUES 291145Z 26005KT 10SM OVC049 00/M03 A2987
KUGN 291155Z VRB04KT 10SM OVC055 01/M02 A2987 RMK AO2 SLP124 T00111022 10022 20011 58002
KUIL 291153Z AUTO 07006KT 10SM FEW005 OVC014 09/09 A2999 RMK AO2 SLP155 T00940089 10111 20094 58002
KUIL 291223Z AUTO 08004KT 10SM OVC015 09/09 A2999
KUIL 291223Z AUTO 08004KT 10SM OVC015 09/09 A2999 RMK AO2 T00940089
KUIN 291154Z AUTO 19007KT 10SM CLR M04/M06 A2990 RMK AO2 SLP133 T10441056 11022 21044 58010
KUKF 291155Z AUTO 31004KT 10SM OVC019 08/07 A2965 RMK AO2
KUKF 291215Z AUTO 29004KT 10SM OVC021 08/07 A2965 RMK AO2
KUKF 291235Z AUTO 29003KT 10SM OVC023 08/07 A2965 RMK AO2
KUKI 291156Z AUTO 00000KT 10SM CLR 10/07 A2990 RMK AO2 SLP117 T01000067 10156 20083 57004
KUKT 291155Z AUTO 12005KT 10SM OVC006 15/15 A2974 RMK AO1
KUKT 291215Z AUTO 11004KT 10SM OVC006 15/15 A2974 RMK AO1
KUKT 291235Z AUTO 12004KT 10SM OVC006 15/15 A2975 RMK AO1
KULM 291154Z AUTO 17008KT 10SM 01/M05 A2968 RMK AO2
KULM 291214Z AUTO 17010KT 10SM 01/M05 A2967 RMK AO2
KULM 291234Z AUTO 17007KT 10SM 01/M05 A2966 RMK AO2
KUNI 291155Z AUTO 00000KT 10SM -SN OVC038 02/01 A2982 RMK AO2 70002 T00210013 10027 20021
KUNI 291215Z AUTO 00000KT 10SM -SN OVC040 02/02 A2982 RMK AO2 T00220015
KUNI 291235Z AUTO 00000KT 10SM -SN OVC040 02/02 A2984 RMK AO2 T00230015
KUNO 291153Z AUTO 00000KT 10SM CLR M05/M07 A2998 RMK AO2 SLP163 I1001 I6002 T10501072 11022 21061 58001
KUNU 291155Z AUTO 00000KT 10SM CLR M02/M04 A2987 RMK AO2 T10181038 10009 21018
KUNU 291215Z AUTO 00000KT 10SM SCT018 M03/M04 A2988 RMK AO2 T10261039
KUNU 291235Z AUTO 00000KT 10SM SCT018 M02/M04 A2988 RMK AO2 T10251040
KUNV 291153Z 00000KT 3SM RA SCT014 BKN027 OVC044 07/07 A2971
KUSE 291155Z AUTO 26004KT 10SM OVC050 02/00 A2986 RMK AO2
KUSE 291215Z AUTO 27004KT 10SM OVC050 03/01 A2986 RMK AO2
KUSE 291235Z AUTO 26003KT 10SM OVC049 03/01 A2986 RMK AO2
KUTA 291155Z AUTO 00000KT 1/2SM FG A3004 RMK AO2 TSNO
KUTA 291215Z AUTO 00000KT 1/4SM FG A3004 RMK AO2 TSNO
KUTA 291235Z AUTO 00000KT M1/4SM FG A3005 RMK AO2 TSNO
KUTS 291153Z AUTO 00000KT 10SM CLR 01/M03 A3010 RMK AO2 SLP192 T00111028 10039 20006 56001
KUUU 291153Z AUTO 13008KT 10SM FEW095 SCT120 17/15 A2991 RMK AO2 SLP127 T01670150 10172 20167 58003
KUVA 291155Z AUTO 00000KT 10SM CLR 01/M04 A3014 RMK AO2 T00071045 10072 20007
KUVA 291215Z AUTO 00000KT 10SM CLR 02/M05 A3015 RMK AO2 T00171046
KUVA 291235Z AUTO 00000KT 10SM CLR 01/M05 A3015 RMK AO2 T00141046
KUXL 291155Z AUTO 33003KT 10SM CLR 02/00 A3011 RMK AO2 T00210001 10060 20017
KUXL 291215Z AUTO 00000KT 10SM CLR 02/00 A3012 RMK AO2 T00200000
KUXL 291235Z AUTO 00000KT 10SM CLR 02/00 A3012 RMK AO2 T00201002
KUYF 291155Z AUTO 31009KT 10SM OVC035 03/01 A2985 RMK AO2
KUYF 291215Z AUTO 31008KT 10SM OVC035 03/01 A2985 RMK AO2
KUYF 291235Z AUTO 31009KT 10SM OVC037 03/01 A2985 RMK AO2
KUZA 291154Z AUTO 25004KT 10SM BKN006 OVC028 15/15 A2958 RMK AO2 RAB41E51 CIG 004V009 SLP008 P0000 60009 70011 T01500150 10167 20150 56008
KVAD 291156Z AUTO 30008KT 10SM CLR 07/03 A2981 RMK AO2 SLP097 60000 T00680025 10149 20068 52023 $
KVAF 291155Z AUTO 03007G13KT 010V080 10SM CLR 18/05 A3009 RMK A01
KVAF 291215Z AUTO 02007G13KT 350V050 10SM CLR 18/06 A3010 RMK A01
KVAF 291235Z AUTO VRB06G11KT 10SM CLR 18/06 A3010 RMK A01
KVAY 291149Z AUTO 11003KT 10SM BKN008 OVC070 16/16 A2973 RMK AO2 $
KVAY 291154Z AUTO 11005KT 10SM BKN008 OVC070 16/16 A2973 RMK AO2 SLP066 T01610156 10172 20156 56014 $
KVBG 291158Z AUTO 00000KT 3/8SM R30/1800FT FG VV001 11/11 A2989 RMK AO2 SLP125 70001 T01140111 10120 20109 55004 $
KVBT 291156Z AUTO 15004KT 10SM CLR M02/M06 A2997 RMK AO2 SLP160 T10171056 11017 21028 58010 FZRANO
KVBW 291155Z AUTO 34003KT 10SM BKN010 OVC015 14/14 A2956 RMK AO2 60024 70039 T01350135 10146 20129
KVBW 291215Z AUTO 00000KT 10SM OVC010 14/13 A2956 RMK AO2 T01350134
KVBW 291235Z AUTO 7SM OVC010 13/13 A2956 RMK AO2 P0003 T01300125
KVCB 291153Z AUTO 00000KT 10SM CLR 10/08 A2987 RMK AO2 SLP113 T01000083 10144 20089 58001
KVCT 291151Z 31004KT 10SM CLR 02/M01 A3014 RMK AO2 SLP205 T00171011 10033 20006 58001 $
KVCV 291155Z AUTO 00000KT 10SM CLR 12/M06 A2995 RMK AO2
KVCV 291215Z AUTO 00000KT 10SM CLR 09/M07 A2995 RMK AO2
KVCV 291235Z AUTO 00000KT 7SM CLR 10/M07 A2996 RMK AO2
KVDF 291155Z AUTO 32011G16KT 10SM SCT010 BKN016 OVC026 17/16 A2978 RMK AO2
KVDF 291215Z AUTO 31008G18KT 10SM SCT017 OVC022 17/15 A2979 RMK AO2
KVDF 291235Z AUTO 33006G17KT 10SM SCT020 OVC026 17/14 A2981 RMK AO2
KVDI 291155Z AUTO 32008G15KT 10SM OVC014 08/06 A2974 RMK AO2
KVDI 291215Z AUTO 31005G14KT 10SM OVC014 08/05 A2974 RMK AO2
KVDI 291235Z AUTO 30006G14KT 10SM OVC014 07/05 A2975 RMK AO2
KVEL 291153Z AUTO 29003KT 10SM CLR M01/M05 A3013 RMK AO2 SLP192 T10061050 10033 21022 56004
KVER 291155Z AUTO 18003KT 10SM CLR M03/ A2992 RMK AO2 T1030 10341 21040
KVER 291215Z AUTO 18003KT 10SM CLR M03/ A2992 RMK AO2 T1028
KVER 291235Z AUTO 16005KT 10SM CLR M03/ A2991 RMK AO2 T1030
KVES 291155Z AUTO 30003KT 10SM OVC033 01/00 A2988 RMK AO2
KVES 291215Z AUTO 31005KT 10SM OVC033 01/00 A2987 RMK AO2
KVES 291235Z AUTO 29005KT 10SM OVC033 01/00 A2987 RMK AO2
KVGT 291153Z AUTO 30005KT 10SM CLR 16/01 A2994 RMK AO2 SLP138 T01560011 10189 20156 58003
KVIH 291153Z AUTO 20009KT 10SM CLR M04/M05 A2995 RMK AO2 SLP152 I6000 T10391050 11033 21061 58005
KVIS 291156Z AUTO 00000KT 9SM CLR 12/10 A2986 RMK AO2 SLP118 T01170100 10167 20117 55005
KVJI 291155Z AUTO 35004KT 4SM BR OVC013 03/02 A2973 RMK AO2 60002 70123 T00280024 10050 20028
KVJI 291215Z AUTO 34004KT 7SM BKN015 OVC022 03/02 A2974 RMK AO2 T00300023
KVJI 291235Z AUTO 00000KT 10SM OVC019 03/02 A2974 RMK AO2 T00300022
KVKS 291155Z AUTO 00000KT 8SM CLR 00/00 A3008 RMK A01
KVKS 291215Z AUTO 00000KT 10SM CLR 00/M00 A3008 RMK A01
KVKS 291235Z AUTO 00000KT 7SM CLR 00/00 A3009 RMK A01
KVKY 291155Z AUTO 36024G30KT 10SM BKN036 12/04 A3003 RMK A01
KVKY 291215Z AUTO 01024G32KT 10SM SCT036 12/04 A3001 RMK A01
KVKY 291235Z AUTO 36025G31KT 10SM FEW035 12/04 A3001 RMK A01
KVLD 291153Z VRB04KT FEW022 07/04 A2983 RMK AO2 RAB12E22 SLP108 P0000 60000 70002 T00720039 10144 20072 53023 $
KVLL 291155Z AUTO 00000KT 10SM OVC047 05/02 A2985 RMK AO2 T00450024 10050 20037
KVLL 291214Z AUTO 00000KT 10SM OVC045 05/03 A2985 RMK AO2 T00460025
KVLL 291234Z AUTO 29003KT 10SM SCT017 OVC045 05/02 A2986 RMK AO2 T00450024
KVNC 291155Z AUTO 33016G26KT 10SM CLR 22/19 A2977 RMK AO2 P0001
KVNC 291215Z AUTO 32020G26KT 10SM CLR 22/19 A2978 RMK AO2
KVNC 291235Z AUTO 32018G28KT 10SM CLR 21/18 A2978 RMK AO2
KVNY 291151Z AUTO 00000KT 5SM BR CLR 14/13 A2986 RMK AO2 SLP104 T01440128 10183 20139 58005
KVNY 291211Z AUTO 00000KT 6SM BR SCT004 14/13 A2986 RMK AO2 T01390128
KVNY 291220Z AUTO 00000KT 7SM BKN004 14/13 A2986 RMK AO2 T01390128
KVOA 291155Z AUTO 33023G33KT 9SM SCT027 BKN033 12/04 A2996 RMK A01
KVOA 291215Z AUTO 33022G33KT 10SM SCT034 12/04 A2998 RMK A01
KVOA 291235Z AUTO 35017G34KT 8SM FEW033 12/05 A2995 RMK A01
KVOK 291158Z AUTO 12003KT 10SM CLR M07/M08 A2984 RMK AO2 SLP120 T10741083 11046 21076 57010
KVPC 291153Z AUTO VRB04KT 10SM BKN024 OVC038 03/01 A2983 RMK AO2 SLP100 70072 T00330006 10050 20033 53004
KVPC 291204Z AUTO VRB03KT 10SM SCT023 OVC038 03/01 A2984 RMK AO2 T00330006
KVPS 291155Z 32008KT 10SM FEW027 04/02 A2995 RMK AO2A SLP149 70004 T00410015 10076 20041 52010 $
KVPZ 291156Z AUTO 27007KT 10SM OVC041 02/M01 A2989 RMK AO2 SLP127 T00221011 10033 20022 53001 $
KVQQ 291150Z 32014KT 10SM OVC009 15/14 A2973
KVQT 291155Z AUTO 03013KT 10SM CLR 15/03 A3009 RMK A01
KVQT 291215Z AUTO 01013G18KT 10SM CLR 15/03 A3009 RMK A01
KVQT 291235Z AUTO 01015KT 10SM CLR 15/03 A3009 RMK A01
KVRB 291153Z 29012KT 10SM CLR 19/19 A2966 RMK AO2 SLP044 60015 70306 T01940194 10211 20194 53010
KVSF 291145Z AUTO 00000KT 10SM -RA FEW007 SCT011 OVC017 14/14 A2987 RMK AO2 RAE1057B12 P0003 T01390139
KVSF 291154Z AUTO 00000KT 10SM -RA BKN007 BKN013 OVC018 13/13 A2987 RMK AO2 RAE1057B12 CIG 006V010 SLP117 P0003 60006 70006 T01330133 10139 20111 58007
KVTA 291154Z AUTO 32005KT 10SM OVC038 02/01 A2982 RMK AO2 SLP103 70010 T00220006 10022 21006 58006
KVTI 291155Z AUTO 15006KT 10SM CLR M01/M03 A2985 RMK AO2 T10071031 11007 21050
KVTI 291215Z AUTO 16008KT 10SM CLR M01/M03 A2984 RMK AO2 T10071035
KVTI 291235Z AUTO 16008KT 10SM CLR M01/M03 A2983 RMK AO2 T10071035
KVTN 291152Z AUTO 25007KT 10SM CLR 07/01 A2970 RMK AO2 SLP066 T00670011 10067 20017 58013
KVTP 291154Z AUTO 22026G32KT 10SM CLR 00/M05 A3028 RMK AO2
KVTP 291212Z AUTO 21026G35KT 10SM CLR 00/M05 A3027 RMK AO2
KVTP 291236Z AUTO 21026G33KT 10SM CLR 00/M05 A3027 RMK AO2
KVUJ 291200Z AUTO 16005KT 10SM BKN005 OVC013 16/16 A2960 RMK AO2 T01620160
KVUJ 291220Z AUTO 19003KT 10SM OVC005 17/16 A2961 RMK AO2 T01650162
KVUJ 291240Z AUTO 20004KT 10SM BKN005 OVC010 17/16 A2960 RMK AO2 T01650160
KVUO 291153Z AUTO 10003KT 8SM OVC008 10/10 A3000 RMK AO2 SLP158 T01000100 10106 20072 58002
KVVG 291150Z AUTO 15011G16KT 10SM 17/17 A2965 RMK A01
KVVG 291210Z AUTO 4SM BR 16/16 A2965 RMK A01
KVVG 291230Z AUTO 3SM BR 16/16 A2966 RMK A01
KVVV 291154Z AUTO 02003KT 10SM CLR 02/M03 A2958 RMK AO2
KVVV 291213Z AUTO 03005KT 10SM CLR 02/M03 A2957 RMK AO2
KVVV 291234Z AUTO 03005KT 10SM CLR 03/M02 A2956 RMK AO2
KVWU 291151Z AUTO 18006KT 10SM BKN065 00/M02 A2951 RMK AO2
KVWU 291211Z AUTO 17007KT 10SM BKN065 00/M02 A2950 RMK AO2
KVWU 291232Z AUTO 17006KT 10SM SCT065 M01/M02 A2950 RMK AO2
KVYS 291155Z AUTO 26004KT 10SM CLR M02/M04 A2992 RMK AO2 T10251043 10012 21029
KVYS 291215Z AUTO 26004KT 10SM CLR M03/M04 A2992 RMK AO2 T10311043
KVYS 291235Z AUTO 25005KT 10SM CLR M03/M04 A2993 RMK AO2 T10301045
KW13 291155Z AUTO 13008KT 110V180 7SM OVC004 14/14 A2958 RMK AO1 60019 70025 T01400140 10154 20140
KW13 291215Z AUTO 12009KT 7SM OVC004 14/14 A2958 RMK AO1 T01410140
KW13 291235Z AUTO 11006KT 4SM OVC004 14/14 A2958 RMK AO1 T01420141
KW22 291155Z AUTO 00000KT 10SM OVC004 02/02 A2976 RMK AO2
KW22 291215Z AUTO 35006KT 5SM BR OVC004 02/02 A2975 RMK AO2
KW22 291235Z AUTO 00000KT 1SM -UP OVC004 02/02 A2976 RMK AO2
KW31 291155Z AUTO 15003KT 1/4SM OVC003 15/15 A2960 RMK AO1 60040 70062 T01530153 10155 20150
KW31 291215Z AUTO 14003KT M1/4SM OVC003 15/15 A2960 RMK AO1 T01540154
KW31 291235Z AUTO 00000KT 1/4SM OVC003 16/16 A2958 RMK AO1 T01550155
KW43 291155Z AUTO 24006KT 10SM CLR 11/M02 A2979 RMK AO2
KW43 291215Z AUTO 30006KT 10SM CLR 11/M01 A2981 RMK AO2
KW43 291235Z AUTO 32013G19KT 10SM CLR 11/M01 A2982 RMK AO2
KW63 291155Z AUTO 14003KT 10SM OVC003 16/16 A2959 RMK AO1
KW63 291215Z AUTO 16003KT 7SM OVC003 16/16 A2958 RMK AO1
KW63 291235Z AUTO 16003KT 7SM OVC003 16/16 A2958 RMK AO1
KW75 291155Z AUTO 10005KT 7SM SCT010 BKN060 OVC090 18/18 A2960 RMK AO1 P0009 60066 70066 T01840184 10192 20178
KW75 291215Z AUTO 15005KT 7SM SCT080 BKN095 OVC110 18/18 A2959 RMK AO1 P0001 T01820182
KW75 291235Z AUTO 16007KT 10SM SCT070 OVC110 18/18 A2959 RMK AO1 P0002 T01830183
KW78 291155Z AUTO 00000KT 10SM OVC004 16/16 A2958 RMK AO1 60001 70009 T01620155 10165 20158
KW78 291215Z AUTO 14003KT 10SM OVC004 16/16 A2958 RMK AO1 T01630155
KW78 291235Z AUTO 11003KT 10SM OVC004 17/16 A2957 RMK AO1 T01650158
KW81 291155Z AUTO 14003KT 1/4SM OVC002 16/16 A2959 RMK AO1 60039 70052 T01580158 10160 20154
KW81 291215Z AUTO 14003KT M1/4SM OVC002 16/16 A2959 RMK AO1 T01580158
KW81 291235Z AUTO 14004KT 1 1/4SM OVC002 16/16 A2959 RMK AO1 T01600160
KW96 291155Z AUTO 00000KT 10SM OVC010 17/17 A2959 RMK AO1 P0003 60112 70112 T01720172 10172 20159
KW96 291215Z AUTO 10SM OVC008 17/17 A2959 RMK AO1 T01720172
KW96 291235Z AUTO 10SM BKN008 OVC014 18/18 A2959 RMK AO1 T01750175
KW99 291155Z AUTO 00000KT 10SM DZ SCT006 BKN018 OVC025 09/08 A2966 RMK AO2 P0003 60054 70097 T00880083 10100 20086
KW99 291215Z AUTO 00000KT 5SM RA SCT016 OVC022 09/08 A2966 RMK AO2 T00880082
KW99 291235Z AUTO 00000KT 4SM RA SCT012 OVC022 09/08 A2966 RMK AO2 P0003 T00850079
KWAL 291154Z AUTO 12009KT 6SM -RA BR FEW037 BKN050 OVC095 18/18 A2967 RMK AO2 SLP045 P0014 60020 70020 T01830183 10194 20178 58021
KWAL 291236Z AUTO 12009KT 4SM +RA BR SCT018 BKN024 OVC043 18/18 A2965
KWAL 291236Z AUTO 12009KT 4SM +RA BR SCT018 BKN024 OVC043 18/18 A2965 RMK AO2 P0020 T01830183
KWDG 291145Z 00000KT 10SM SKC 01/M02 A2987
KWDG 291155Z AUTO 00000KT 10SM CLR 01/M01 A2987 RMK AO2
KWDR 291155Z AUTO 30011G15KT 10SM CLR 04/01 A2973 RMK AO1
KWDR 291215Z AUTO 29010G16KT 245V315 10SM CLR 04/01 A2973 RMK AO1
KWDR 291235Z AUTO 29010G17KT 10SM SCT020 05/01 A2974 RMK AO1
KWJF 291156Z AUTO 00000KT 10SM CLR 07/M07 A2994 RMK AO2 SLP128 T00721072 10150 20067 58002
KWLD 291154Z AUTO 00000KT 10SM CLR 01/M04 A2989 RMK AO2 SLP127 T00061044 10039 20000 55006
KWMC 291156Z AUTO 00000KT 10SM CLR 01/M04 A3005 RMK AO2 SLP153 T00111039 10067 21006 58006
KWRB 291156Z AUTO 30011KT 10SM BKN021 04/02 A2978 RMK AO2 SLP087 60000 70042 T00440018 10097 20044 50007
KWRB 291159Z AUTO 30011KT 10SM SCT022 04/02 A2978 RMK AO2 SLP087
KWRI 291156Z AUTO 13006KT 10SM SCT007 OVC070 16/15 A2972 RMK AO2 SLP064 T01600152 10171 20156 57019 $
KWRI 291210Z AUTO 13008KT 10SM -RA SCT007 OVC065 16/15 A2972 RMK AO2 RAB10 SLP064 $
KWRI 291215Z AUTO 14007KT 10SM -RA BKN008 OVC065 16/16 A2972 RMK AO2 RAB10 CIG 008V065 CIG 007 RWY06 SLP064 $
KWRI 291236Z AUTO 13007KT 10SM BKN008 BKN025 OVC065 17/16 A2971 RMK AO2 RAB10E36 SLP060 $
KWRI 291241Z AUTO 13007KT 10SM SCT008 BKN024 OVC065 17/16 A2971 RMK AO2 RAB10E36 CIG 008V024 CIG 020 RWY18 SLP060 $
KWRL 291153Z AUTO 16004KT 10SM CLR M01/M02 A2988 RMK AO2 SLP124 T10111022 10061 21017 55008
KWST 291153Z AUTO 11008KT 10SM OVC080 18/16 A2989 RMK AO2 SLP122 T01830156 10183 20178 58004
KWVI 291153Z AUTO 21003KT 3/4SM BR VV003 11/ A2991 RMK AO2 SLP127 T0106 10117 20106 58008 $
KWVI 291236Z AUTO 00000KT 1SM BR VV003 11/ A2991 RMK AO2 T0106 $
KWVL 291156Z AUTO VRB04KT 10SM OVC006 13/ A2995 RMK AO2 RAB24E36 SLP170 P0000 60000 T0133 10139 20122 51002
KWWD 291155Z AUTO 13010KT 10SM SCT008 BKN065 OVC100 18/17 A2973 RMK AO2 RAB01E15 SLP068 P0000 60000 T01830172 10183 20172 58010
KWYS 291155Z AUTO 00000KT 10SM CLR M04/M04 A3008 RMK AO2
KWYS 291210Z AUTO 00000KT 10SM CLR M04/M05 A3008 RMK AO2
KWYS 291235Z AUTO 00000KT 10SM CLR M04/M04 A3007 RMK AO2
KX60 291155Z AUTO 28008G15KT 1 3/4SM BR OVC004 15/14 A2978 RMK A01
KX60 291215Z AUTO 29010G20KT 9SM SCT004 SCT009 BKN013 12/11 A2979 RMK A01
KX60 291235Z AUTO 28013KT 8SM CLR 10/08 A2981 RMK A01
KXBP 291155Z AUTO 23005KT 10SM CLR 06/M08 A3001 RMK AO2 T00551085 10061 21010
KXBP 291215Z AUTO 22005KT 10SM CLR 06/M09 A3000 RMK AO2 T00571086
KXBP 291235Z AUTO 23006KT 10SM CLR 06/M09 A3000 RMK AO2 T00601087
KXIH 291155Z AUTO 10SM CLR 14/M03 A3011 RMK A01
KXIH 291215Z AUTO 10SM CLR 14/M03 A3011 RMK A01
KXIH 291235Z AUTO 10SM CLR 14/M04 A3011 RMK A01
KXLL 291155Z AUTO 14006KT 10SM OVC007 16/15 A2974 RMK AO2
KXLL 291215Z AUTO 15005KT 10SM OVC007 16/15 A2974 RMK AO2
KXLL 291235Z AUTO 13009KT 10SM -RA OVC007 16/15 A2974 RMK AO2
KXMR 291158Z AUTO 29010KT 10SM CLR 20/19 A2966 RMK AO2 SLP047 70033 T02000190 10218 20200 53008 $
KXMR 291228Z AUTO 29013KT 10SM BKN006 20/19 A2966 RMK AO2 BKN V FEW SLP047 $
KXNA 291153Z 00000KT 10SM CLR M02/M06 A2995 RMK AO2 SLP149 T10221056 11011 21033 58012
KXNO 291156Z AUTO 26015G20KT 10SM CLR 14/11 A2962 RMK AO2 SLP031 T01370109 10181 20136 55003 $
KXPY 291155Z AUTO 34011G17KT 10SM CLR 09/04 A3007 RMK A01
KXPY 291215Z AUTO 36011KT 10SM CLR 09/04 A3007 RMK A01
KXPY 291235Z AUTO 36010KT 10SM CLR 09/05 A3008 RMK A01
KXSA 291155Z AUTO 07006KT 10SM RA BKN015 OVC020 A2959 RMK AO2
KXSA 291215Z AUTO 10SM -RA BKN007 OVC015 A2960 RMK AO2
KXSA 291235Z AUTO 10SM BKN004 OVC008 A2959 RMK AO2
KXVG 291156Z AUTO 17007G14KT 10SM SCT075 OVC080 M01/M02 A2957 RMK AO2
KXVG 291216Z AUTO 17007KT 10SM SCT075 OVC080 M01/M02 A2956 RMK AO2
KXVG 291236Z AUTO 15006KT 10SM OVC065 M01/M02 A2955 RMK AO2
KY23 291155Z AUTO 14005KT 10SM CLR M03/M04 A2977 RMK AO2 T10351045 11013 21036
KY23 291215Z AUTO 14006KT 10SM BKN095 M03/M04 A2977 RMK AO2 T10341045
KY23 291235Z AUTO 14008KT 10SM OVC095 M03/M04 A2976 RMK AO2 T10301041
KY31 291154Z AUTO 00000KT 10SM CLR M03/M04 A2983 RMK AO2 T10331041 10036 21035
KY31 291214Z AUTO 00000KT 10SM CLR M03/M04 A2983 RMK AO2 T10311040
KY31 291234Z AUTO 00000KT 10SM CLR M03/M04 A2984 RMK AO2 T10331041
KY49 291155Z AUTO 18007KT 10SM BKN065 OVC095 00/M02 A2954 RMK AO2 T00001025 10000 21017
KY49 291215Z AUTO 17007KT 10SM SCT065 SCT095 00/M03 A2953 RMK AO2 T00001030
KY49 291235Z AUTO 17008KT 10SM BKN095 00/M03 A2953 RMK AO2 T00001031
KY50 291156Z AUTO 00000KT 10SM CLR M04/M06 A2987 RMK AO2 SLP140 6//// 7//// T10441061 11011 21044 58006 PNO $
KY51 291155Z AUTO 17006KT 10SM CLR M02/M03 A2983 RMK AO1 T10251033 11013 21027
KY51 291215Z AUTO 17005KT 10SM CLR M02/M03 A2982 RMK AO1 T10251034
KY51 291235Z AUTO 17005KT 10SM CLR M03/M03 A2982 RMK AO1 T10271035
KY63 291155Z AUTO 16007KT 120V180 5SM HZ CLR 01/M03 A2957 RMK AO2 T00071031 10016 20005
KY63 291215Z AUTO 17009KT 7SM CLR 01/M03 A2957 RMK AO2 T00131033
KY63 291236Z AUTO 23007KT 190V260 3SM HZ CLR 02/M03 A2957 RMK AO2 T00171035
KY70 291156Z AUTO 00000KT 7SM BKN005 BKN011 OVC040 03/03 A2984 RMK AO2 T00300025 10040 20030
KY70 291213Z AUTO 00000KT 7SM OVC011 03/03 A2984 RMK AO2 T00310028
KY70 291233Z AUTO 00000KT 7SM SCT008 BKN011 OVC043 03/03 A2984 RMK AO2 T00320030
KYIP 291153Z AUTO 23003KT 10SM OVC043 04/02 A2985 RMK AO2 SLP111 T00390022 10050 20022 53001
KYKM 291153Z AUTO 00000KT 6SM BR CLR 02/01 A3003 RMK AO2 SLP171 T00220011 10050 20017 55000 $
KYKN 291156Z AUTO 23006KT 10SM FEW120 06/M03 A2966 RMK AO2 RAB07E19 SLP062 P0000 60000 T00611028 10067 20039 56024
KYNG 291151Z 24003KT 10SM -RA BKN031 OVC045 02/01 A2980 RMK AO2 SLP100 60004 70012 P0001 T00220011 10028 20017 58003
KYNG 291230Z 24003KT 10SM -RA BKN021 OVC050 02/02 A2979
KYNG 291230Z 24003KT 10SM -RA BKN021 OVC050 02/02 A2979 RMK AO2 P0000 T00220017
KZPH 291155Z AUTO 29011G19KT 10SM BKN014 BKN022 OVC033 18/17 A2976 RMK AO2 70006 T01830172 10200 20183
KZPH 291215Z AUTO 31015G23KT 10SM BKN014 OVC024 18/17 A2977 RMK AO2 T01840171
KZPH 291235Z AUTO 31017G27KT 10SM OVC016 17/15 A2979 RMK AO2 T01710146
KZZV 291153Z AUTO 34005KT 10SM OVC034 02/00 A2981 RMK AO2 SLP101 70009 T00220000 10028 20022 58008
LATI 291150Z 25006KT 220V280 9999 FEW150 18/01 Q1010 NOSIG
LATI 291220Z 27004KT 200V330 9999 SCT150 18/02 Q1009 NOSIG
LBBG 291200Z 24017KT 9999 SCT040 15/04 Q1002 NOSIG
LBBG 291230Z 23018KT 9999 FEW046 15/03 Q1001 NOSIG
LBGO 291200Z AUTO 26011KT 230V290 9999 FEW065/// 16/02 Q1000 NOSIG
LBGO 291230Z AUTO 25007KT 9999 NCD 16/01 Q0999 NOSIG
LBPD 291200Z AUTO 00000KT 9999 NCD 16/02 Q1002 NOSIG
LBPD 291230Z AUTO 27004KT 200V310 9999 NCD 16/02 Q1001 NOSIG
LBSF 291200Z 28011KT 250V310 CAVOK 13/M01 Q1001 NOSIG
LBSF 291230Z 27018KT CAVOK 13/M02 Q1001 NOSIG
LBWN 291200Z 25017KT 9999 SCT048 14/03 Q1000 NOSIG
LBWN 291230Z 22012KT 9999 SCT045 14/04 Q0999 NOSIG
LCEN 291150Z 23014KT 9999 FEW025CB SCT030 25/11 Q1008 NOSIG
LCEN 291150Z 23014KT 9999 FEW025CB SCT030 25/11 Q1008 NOSIG RMK RWY11 23017KT
LCEN 291220Z 22018KT 9999 FEW025CB SCT030 26/11 Q1008 NOSIG
LCEN 291220Z 22018KT 9999 FEW025CB SCT030 26/11 Q1008 NOSIG RMK RWY11 24020KT
LCLK 291200Z 23014KT 6000 -SHRA FEW025TCU SCT030 BKN060 20/18 Q1009 RERA NOSIG
LCLK 291230Z 23011KT 9999 FEW025TCU SCT030 BKN060 22/18 Q1009 NOSIG
LCPH 291200Z 22014KT 9999 FEW025TCU FEW030CB SCT060 25/18 Q1009
LCPH 291230Z 23015KT 9999 FEW025TCU FEW030CB SCT060 24/17 Q1009
LCRA 291150Z 23016KT 9999 FEW028TCU SCT030 24/17 Q1009 TEMPO 5000 SHRA SCT024CB
LDDU 291200Z 14010KT 120V190 9999 FEW040 16/06 Q1009 TEMPO 14012KT
LDDU 291230Z 13009KT 100V170 9999 FEW035 16/06 Q1008 TEMPO 14012KT
LDOS 291200Z 26015KT CAVOK 17/07 Q0995
LDOS 291230Z 26013KT 9999 BKN043 17/07 Q0995
LDPL 291200Z 22009KT CAVOK 17/10 Q1002 NOSIG
LDPL 291230Z 22008KT 190V250 CAVOK 18/11 Q1002 NOSIG
LDRI 291200Z 16009KT 120V200 9999 SCT030 17/10 Q1003
LDRI 291230Z 16009KT 120V200 9999 SCT030 18/10 Q1002
LDSP 291200Z 17007KT 140V210 9999 SCT035 18/09 Q1007 NOSIG
LDSP 291230Z 16007KT 120V210 9999 SCT035 18/09 Q1006 NOSIG
LDZA 291200Z 25016KT 210V280 CAVOK 18/08 Q0996 NOSIG
LDZA 291230Z 25018G30KT 220V280 CAVOK 18/08 Q0997 NOSIG
LDZD 291200Z 20010KT 160V240 9999 FEW033 18/09 Q1005 NOSIG
LDZD 291230Z 20010KT 140V250 9999 FEW033 18/09 Q1005 NOSIG
LEAB 291200Z VRB02KT 9999 BKN025 17/10 Q1023 NOSIG
LEAG 291200Z AUTO 08012KT 9999 SCT019 BKN023 BKN031 20/16 Q1020
LEAG 291230Z AUTO 08009KT 9999 BKN018 BKN021 BKN024 20/16 Q1020
LEAL 291200Z 20005KT 150V280 9999 FEW025 23/15 Q1020 NOSIG
LEAL 291230Z 22004KT 160V250 9999 FEW025 23/15 Q1020 NOSIG
LEAM 291200Z 18007KT 9999 FEW030 23/17 Q1020
LEAM 291230Z 19006KT 160V230 9999 FEW030 23/17 Q1020
LEAS 291200Z 12003KT 070V160 9999 BKN035 18/11 Q1028 NOSIG
LEAS 291230Z VRB01KT 9999 BKN035 17/11 Q1028 NOSIG
LEBA 291200Z 00000KT CAVOK 23/12 Q1020
LEBA 291230Z 00000KT CAVOK 24/11 Q1019
LEBB 291200Z VRB01KT 9999 FEW025 BKN045 15/12 Q1028 NOSIG
LEBB 291230Z 26001KT 9999 FEW025 BKN045 15/12 Q1027 NOSIG
LEBG 291200Z 05014KT 010V070 9999 FEW020 12/06 Q1027
LEBG 291230Z 03015KT 9999 FEW020 13/06 Q1026
LEBL 291200Z 33007KT 260V030 CAVOK 21/09 Q1019 NOSIG
LEBL 291230Z 32005KT 280V360 CAVOK 22/08 Q1018 NOSIG
LEBR 291200Z AUTO 32023KT 9999 NCD 18/05 Q1023
LEBR 291230Z AUTO 32023G34KT 9999 NCD 18/05 Q1022
LEBT 291200Z AUTO VRB02KT 9999 // NCD 22/11 Q1021
LEBZ 291200Z 04003KT 350V080 CAVOK 25/07 Q1021
LECH 291200Z AUTO VRB01KT 9999 NCD 22/M01 Q1021
LECH 291230Z AUTO 13001KT 9999 NCD 22/01 Q1020
LECO 291200Z 03006KT 300V100 CAVOK 19/12 Q1027 NOSIG
LECO 291230Z 03009KT 330V070 CAVOK 19/12 Q1026 NOSIG
LECV 291200Z 17005KT CAVOK 20/01 Q1023
LEGA 291200Z VRB02KT CAVOK 21/09 Q1021
LEGE 291200Z 12001KT CAVOK 22/11 Q1018
LEGE 291230Z VRB01KT CAVOK 23/09 Q1018
LEGR 291200Z VRB02KT CAVOK 21/12 Q1021
LEGR 291230Z 00000KT CAVOK 24/11 Q1020
LEGT 291200Z 02002KT CAVOK 19/00 Q1023
LEHC 291200Z 26008KT 200V300 CAVOK 17/04 Q1022
LEHC 291230Z 26008KT 210V300 CAVOK 18/04 Q1021
LEIB 291200Z 20010KT 170V230 9999 -RA FEW010 BKN043 20/17 Q1020 NOSIG
LEIB 291230Z 20008KT 170V230 9999 FEW008 BKN020 21/17 Q1020 RERA NOSIG
LEJR 291200Z 29003KT 210V350 CAVOK 24/13 Q1019
LEJR 291230Z VRB02KT CAVOK 25/14 Q1019
LELC 291200Z 12004KT 070V160 9999 BKN052 23/17 Q1021 NOSIG
LELL 291200Z 23006KT 200V280 CAVOK 22/09 Q1019
LELL 291230Z 24007KT CAVOK 22/08 Q1018
LELN 291200Z 13003KT 100V190 CAVOK 18/M02 Q1025
LELO 291200Z 30011KT 270V330 9999 FEW030 18/07 Q1026
LEMD 291200Z 25003KT CAVOK 19/03 Q1022 NOSIG
LEMD 291230Z 29003KT 220V020 CAVOK 20/02 Q1022 NOSIG
LEMG 291200Z 13003KT 060V170 9999 FEW030 23/15 Q1020 NOSIG
LEMG 291230Z 13003KT 080V180 9999 FEW030 23/15 Q1020 NOSIG
LEMH 291200Z 26011KT 230V300 9999 FEW022 22/15 Q1019
LEMH 291230Z 26012KT 230V300 9999 FEW022 21/14 Q1019
LEMO 291200Z VRB02KT CAVOK 24/10 Q1020 NOSIG
LEPA 291200Z 22009KT 190V260 9999 FEW035 22/17 Q1020 NOSIG
LEPA 291230Z 23012KT 9999 FEW035 23/18 Q1019 NOSIG
LEPP 291200Z 35017KT 9999 BKN032 16/08 Q1026
LEPP 291230Z 35016G26KT 320V020 9999 BKN032 15/07 Q1025
LERI 291200Z VRB02KT 9999 FEW045 23/14 Q1020 NOSIG
LERS 291200Z VRB01KT CAVOK 22/06 Q1020
LERS 291230Z VRB01KT CAVOK 23/07 Q1019
LERT 291200Z 07003KT 340V130 CAVOK 25/15 Q1019 NOSIG
LESA 291200Z 07006KT 020V110 CAVOK 17/M01 Q1025
LESA 291230Z 06011KT CAVOK 18/M05 Q1024
LESO 291200Z VRB02KT 9999 FEW023 BKN041 18/13 Q1027
LESO 291230Z 35004KT 300V040 9999 FEW023 SCT030 BKN041 18/12 Q1027
LEST 291200Z 36011KT CAVOK 18/12 Q1027 NOSIG
LEST 291230Z 03012KT CAVOK 18/12 Q1026 NOSIG
LESU 291200Z VRB03KT CAVOK 17/M05 Q1021
LESU 291230Z 16005KT 130V200 CAVOK 17/M04 Q1020
LETL 291200Z AUTO 34010KT 310V010 9999 NCD 14/M02 Q1024
LETL 291230Z AUTO 35009KT 300V030 9999 NCD 15/M03 Q1023
LETO 291200Z 00000KT CAVOK 22/M01 Q1023 NOSIG
LEVC 291200Z VRB01KT 9999 FEW030 23/12 Q1020 NOSIG
LEVC 291230Z 08004KT 040V140 9999 FEW030 23/13 Q1020 NOSIG
LEVD 291200Z 06010KT 030V090 CAVOK 16/00 Q1025
LEVD 291230Z 06010KT 040V100 CAVOK 17/00 Q1025
LEVS 291200Z VRB01KT CAVOK 22/01 Q1023
LEVS 291230Z VRB02KT CAVOK 23/00 Q1022
LEVT 291200Z 36010KT 330V050 9999 FEW020 BKN030 15/08 Q1027
LEVT 291230Z 35009KT 300V030 9999 FEW020 BKN035 15/08 Q1027
LEVX 291200Z VRB01KT CAVOK 23/11 Q1024 NOSIG
LEVX 291230Z VRB01KT CAVOK 24/12 Q1024 NOSIG
LEXJ 291200Z 00000KT 9999 OVC028 15/13 Q1028
LEXJ 291230Z 00000KT 9999 OVC028 15/13 Q1028
LEZG 291200Z 29018KT CAVOK 19/07 Q1023
LEZG 291230Z 29018KT CAVOK 20/07 Q1022
LEZL 291200Z 06005KT 020V120 CAVOK 24/13 Q1019 NOSIG
LEZL 291230Z 05004KT 350V150 CAVOK 26/12 Q1019 NOSIG
LFAQ 291200Z AUTO 36013KT 9999 FEW022 BKN031 BKN038 12/08 Q1020 NOSIG
LFAQ 291230Z AUTO 36017KT 9999 FEW034 OVC044 13/07 Q1020 NOSIG
LFAT 291200Z AUTO 02015KT 9999 FEW040 13/06 Q1021 TEMPO 4000 SHRA
LFAT 291230Z AUTO 02017KT 350V050 9999 FEW045 13/06 Q1021 TEMPO 4000 SHRA
LFBA 291200Z AUTO 25004KT 170V300 9999 OVC035 14/09 Q1026 NOSIG
LFBA 291230Z AUTO 23005KT 190V280 9999 OVC035 14/09 Q1025 NOSIG
LFBC 291200Z AUTO 32007KT 290V350 9999 BKN019 BKN026 OVC031 16/13 Q1026
LFBC 291230Z AUTO 31008KT 280V340 9999 BKN014 BKN025 BKN032 16/13 Q1026
LFBD 291200Z AUTO VRB03KT 9999 FEW009 BKN016 OVC021 14/12 Q1026 NOSIG
LFBD 291230Z AUTO VRB02KT 9999 FEW011 OVC019 14/12 Q1026 NOSIG
LFBE 291200Z AUTO VRB02KT 9999 OVC027 10/08 Q1026 NOSIG
LFBE 291230Z AUTO 00000KT 9999 BKN023 OVC032 11/09 Q1025 NOSIG
LFBG 291200Z AUTO 26005KT 230V290 9999 FEW009 BKN019 BKN030 13/10 Q1026
LFBG 291230Z AUTO 27007KT 240V300 9999 FEW009 BKN028 OVC036 14/10 Q1025
LFBH 291200Z AUTO 30011KT 9999 BKN033 OVC042 16/11 Q1025 NOSIG
LFBH 291230Z AUTO 30012KT 9999 SCT013 BKN020 BKN028 15/12 Q1025 NOSIG
LFBI 291200Z AUTO 27007KT 9999 BKN008 OVC013 13/12 Q1024 TEMPO 4500 -RA
LFBI 291230Z AUTO 27008KT 240V300 9999 BKN010 BKN014 OVC037 14/12 Q1024 TEMPO 4500 -RA
LFBL 291200Z AUTO 27004KT 230V300 2400 1400 R21/2600D R03/3300D DZ BR OVC004 09/09 Q1024 BECMG 9999 NSW BKN016
LFBL 291230Z AUTO 27005KT 240V300 2800 1300 R21/2700U R03/3300U -DZ BR OVC003 09/09 Q1024 TEMPO BKN016 BECMG 9999 NSW
LFBM 291200Z AUTO 23004KT 180V270 9999 BKN033 OVC040 15/10 Q1027 NOSIG
LFBM 291230Z AUTO 23005KT 200V270 9999 BKN035 OVC041 16/10 Q1026 NOSIG
LFBO 291200Z AUTO 32011KT 9999 SCT027 OVC034 14/07 Q1026 NOSIG
LFBO 291230Z AUTO 32008KT 300V360 9999 FEW028 OVC034 14/07 Q1026 NOSIG
LFBP 291200Z AUTO 31005KT 270V360 9999 BKN034 OVC041 16/09 Q1027 NOSIG
LFBP 291230Z AUTO 33003KT 270V020 9999 BKN034 OVC041 16/09 Q1026 NOSIG
LFBT 291200Z AUTO 28007KT 9999 BKN035 15/07 Q1027 NOSIG
LFBT 291230Z AUTO 32007KT 290V350 9999 BKN035 16/07 Q1026 NOSIG
LFBU 291200Z AUTO 26007KT 7000 OVC007 11/10 Q1025 TEMPO BKN003 BECMG 4000 BR
LFBU 291230Z AUTO 27007KT 8000 3600 OVC006 11/10 Q1025 TEMPO BKN003 BECMG 4000 BR
LFBY 291200Z AUTO 24004KT 200V280 9999 // FEW028 OVC043 16/11 Q1026
LFBY 291230Z AUTO 26004KT 220V300 9999 // OVC042 17/11 Q1026
LFBZ 291200Z AUTO VRB03KT 9999 FEW022 BKN029 BKN035 17/12 Q1027 TEMPO 3000 -RA BKN010
LFBZ 291230Z AUTO VRB03KT 9999 FEW022 SCT028 BKN048 17/11 Q1026 TEMPO 3000 -RA BKN010
LFCK 291200Z AUTO 29018KT 9999 BKN024 OVC031 12/06 Q1026 TEMPO 30017G28KT
LFCK 291230Z AUTO 30016KT 9999 OVC026 12/06 Q1026 TEMPO 30017G28KT
LFCR 291200Z AUTO 31011KT 9999 OVC009 07/06 Q1024 TEMPO BKN020
LFCR 291230Z AUTO 31010KT 9999 OVC009 08/06 Q1023 TEMPO BKN020
LFGA 291200Z AUTO 23015KT 9999 SCT032 BKN040 BKN072 13/08 Q1015
LFGA 291230Z AUTO 22011KT 9999 FEW036 SCT049 BKN062 14/08 Q1015
LFGJ 291200Z AUTO 19012KT 9999 BKN014 OVC021 11/08 Q1020 NOSIG
LFGJ 291230Z AUTO 19013KT 9999 SCT015 OVC021 11/09 Q1020 TEMPO BKN012
LFJL 291200Z AUTO 31013KT 9999 BKN031 OVC056 11/08 Q1016 NOSIG
LFJL 291230Z AUTO 32013KT 9999 FEW034 BKN040 BKN047 12/07 Q1016 NOSIG
LFJR 291200Z AUTO 26008KT 9999 OVC007 14/13 Q1023 TEMPO 4000 -RADZ BKN016
LFJR 291230Z AUTO 28006KT 240V330 9999 OVC007 14/12 Q1023 TEMPO 4000 -RADZ BKN016
LFKB 291200Z 03009KT 9999 BKN036 BKN250 20/13 Q1009 NOSIG
LFKB 291230Z 03008KT 9999 SCT036 BKN250 20/13 Q1008 NOSIG
LFKC 291200Z AUTO 21010KT 170V240 CAVOK 21/09 Q1009 NOSIG
LFKC 291230Z AUTO 22008KT 180V250 CAVOK 21/07 Q1008 NOSIG
LFKF 291200Z AUTO 25017KT 9999 BKN036 20/09 Q1011 NOSIG
LFKF 291230Z AUTO 25017KT 9999 FEW035 SCT043 19/09 Q1010 NOSIG
LFKJ 291200Z 23006KT 9999 FEW030 SCT040 BKN260 18/09 Q1011 NOSIG
LFKJ 291230Z 22007KT 9999 FEW030 SCT040 BKN260 19/11 Q1011 NOSIG
LFKS 291200Z AUTO 08008KT 9999 FEW027 SCT230 20/14 Q1009
LFKS 291230Z AUTO 08008KT 050V110 9999 BKN044 19/13 Q1009
LFLB 291200Z AUTO 01010KT 9999 BKN047 BKN054 BKN078 13/07 Q1021 NOSIG
LFLB 291230Z AUTO 35011KT 9999 BKN046 BKN054 BKN064 12/07 Q1020 NOSIG
LFLC 291200Z AUTO 19004KT 120V210 9999 OVC026 11/05 Q1022 BECMG 32012KT
LFLC 291230Z AUTO 19005KT 9999 OVC025 11/05 Q1022 BECMG 32012KT
LFLL 291200Z 06003KT 020V090 9999 OVC027 11/06 Q1021 NOSIG
LFLL 291230Z VRB03KT 9999 OVC025 11/06 Q1021 NOSIG
LFLN 291200Z AUTO 24007KT 220V280 9999 BKN011 BKN019 OVC026 11/09 Q1021 TEMPO 3000 -RADZ BR OVC005
LFLN 291230Z AUTO 26007KT 220V280 9999 FEW010 OVC016 11/09 Q1021 TEMPO 3000 -RADZ BR OVC005
LFLP 291200Z AUTO VRB02KT 9999 BKN050 OVC062 11/05 Q1021 NOSIG
LFLP 291230Z AUTO VRB02KT 9999 SCT045 OVC052 11/05 Q1020 NOSIG
LFLS 291200Z AUTO 03005KT 350V080 9999 OVC019 10/06 Q1021 NOSIG
LFLS 291230Z AUTO 03005KT 350V100 9999 OVC019/// 11/06 Q1021 NOSIG
LFLU 291200Z AUTO 02017KT 9999 OVC029 13/06 Q1019
LFLU 291230Z AUTO 01016KT 9999 OVC029 13/06 Q1019
LFLW 291200Z AUTO 29007KT 3200 BR OVC004 06/06 Q1024 TEMPO OVC005
LFLW 291230Z AUTO 29007KT 2600 BR OVC004 07/06 Q1023 TEMPO 3000 BR OVC005
LFLX 291200Z AUTO 26012KT 8000 BKN005 OVC009 12/11 Q1023 TEMPO 3000 -RADZ
LFLX 291230Z AUTO 26012KT 3800 -RADZ BR OVC005 12/11 Q1023 NOSIG
LFLY 291200Z AUTO 05003KT 020V080 9999 BKN030 OVC035 12/06 Q1021 NOSIG
LFLY 291230Z AUTO 04004KT 010V080 9999 OVC026 12/06 Q1021 NOSIG
LFMC 291200Z AUTO 27011KT 230V320 9999 ////// 22/03 Q1008
LFMC 291230Z AUTO 28011KT 250V310 9999 ////// 23/03 Q1008
LFMD 291200Z AUTO 14006KT 090V180 CAVOK 20/08 Q1008 NOSIG
LFMD 291230Z AUTO 15005KT 100V200 CAVOK 22/05 Q1007 NOSIG
LFMH 291200Z AUTO 35007KT 320V030 9999 BKN024 OVC030 11/06 Q1021 BECMG OVC012
LFMH 291230Z AUTO 35007KT 310V010 9999 OVC029 12/06 Q1021 BECMG OVC012
LFMI 291200Z AUTO 33027KT CAVOK 19/03 Q1014 TEMPO 34033G45KT
LFMI 291230Z AUTO 33026KT CAVOK 19/03 Q1014 TEMPO 34033G45KT
LFMK 291200Z AUTO 30022G33KT 9999 BKN035 16/06 Q1024 NOSIG
LFMK 291230Z AUTO 30021G31KT 9999 OVC036 16/07 Q1023 NOSIG
LFML 291230Z 31030G40KT CAVOK 17/04 Q1013
LFMN 291200Z 19010KT CAVOK 19/13 Q1008 NOSIG
LFMN 291230Z 20011KT CAVOK 19/12 Q1007 NOSIG
LFMO 291200Z AUTO 35028G40KT CAVOK 17/05 Q1016 TEMPO 35035G55KT
LFMO 291230Z AUTO 36026KT CAVOK 17/06 Q1016 TEMPO 35035G55KT
LFMP 291200Z AUTO 31020KT CAVOK 19/03 Q1019 TEMPO 30020G35KT
LFMP 291230Z AUTO 30021KT CAVOK 19/03 Q1019 TEMPO 30020G35KT
LFMT 291200Z AUTO 31020KT CAVOK 20/05 Q1017 TEMPO 31020G30KT
LFMT 291230Z AUTO 30017KT CAVOK 21/06 Q1016 TEMPO 31020G30KT
LFMU 291200Z AUTO 27018KT CAVOK 18/04 Q1019 TEMPO 31020G30KT
LFMU 291230Z AUTO 28018KT CAVOK 18/04 Q1019 TEMPO 31020G30KT
LFMV 291200Z AUTO 34024KT CAVOK 19/05 Q1015 TEMPO 34032G45KT
LFMV 291230Z AUTO 35026G37KT 320V020 CAVOK 18/05 Q1015 NOSIG
LFMY 291200Z AUTO 32024G41KT 280V350 CAVOK 18/05 Q1013
LFMY 291230Z AUTO 32026G39KT CAVOK 19/06 Q1013
LFOA 291200Z AUTO 27010KT 4700 BR OVC005 12/11 Q1022
LFOA 291230Z AUTO 28011KT 4400 BR OVC005 12/11 Q1022
LFOB 291200Z AUTO 36007KT 9999 SCT027 OVC035 12/10 Q1020 NOSIG
LFOB 291230Z AUTO 35009KT 6000 -RADZ BKN013 OVC033 12/10 Q1021 BECMG BKN030
LFOC 291200Z AUTO 29009KT 2900 -RADZ BR BKN011 OVC026 14/13 Q1021
LFOC 291230Z AUTO 29009KT 9999 FEW008 BKN013 BKN031 15/13 Q1021
LFOE 291200Z AUTO 30011KT 9999 SCT012 BKN018 OVC058 15/13 Q1021
LFOE 291230Z AUTO 32009KT 9999 FEW012 SCT027 BKN047 15/13 Q1020
LFOH 291200Z AUTO 35014KT 330V030 9999 FEW023 BKN028 BKN036 15/10 Q1022 TEMPO BKN012
LFOH 291230Z AUTO 35013KT 9999 FEW018 BKN034 OVC049 14/11 Q1022 NOSIG
LFOJ 291200Z AUTO 29012KT 9999 OVC014 14/13 Q1021 TEMPO 3000 -RADZ BKN004
LFOJ 291230Z AUTO 29012KT 9999 BKN010 BKN015 OVC020 14/13 Q1020 TEMPO 02005KT 4000 -RA BKN030
LFOK 291200Z AUTO 36015KT 9999 FEW006/// SCT012/// BKN026/// ///TCU 11/10 Q1018 BECMG BKN040
LFOK 291230Z AUTO 35012KT 9999 FEW030 BKN036 BKN043 11/10 Q1019 NOSIG
LFOP 291200Z AUTO 36010KT 9999 FEW014 SCT021 OVC038 13/09 Q1021 TEMPO BKN012
LFOP 291230Z AUTO 36010KT 8000 -RADZ BKN011 BKN017 BKN029 13/10 Q1021 BECMG BKN030
LFOT 291200Z AUTO 27008KT 9999 2200 -RA OVC007 13/12 Q1023 TEMPO 4000 -RADZ
LFOT 291230Z AUTO 27008KT 9999 -RADZ OVC005 13/12 Q1022 TEMPO 4000 -RADZ
LFOV 291200Z AUTO 28007KT 9999 BKN007 BKN014 OVC028 15/13 Q1023
LFOV 291230Z AUTO 29006KT 270V330 9999 BKN012 OVC021 15/13 Q1023
LFPB 291200Z AUTO 33010KT 300V010 9999 BKN036 BKN047 OVC062 15/12 Q1020 TEMPO 01015G25KT 1500 SHRA BKN008 SCT010TCU
LFPB 291230Z AUTO 02010KT 340V050 4000 -DZ BR FEW009 SCT014 BKN043 12/11 Q1020 BECMG 9999 NSW
LFPG 291200Z 02016KT 2500 -SHRA BR BKN008 FEW011TCU BKN018 12/11 Q1020 TEMPO 01015G25KT 1500 -SHRA BKN008 SCT010TCU
LFPG 291230Z 03010KT 4000 -SHRA BR SCT007 SCT030 BKN043 11/10 Q1020 NOSIG
LFPM 291200Z AUTO 32012KT 270V350 4300 -RA BR FEW006 SCT010 BKN015 13/12 Q1020
LFPM 291230Z AUTO 31009KT 9999 -RADZ FEW030/// OVC040/// ///TCU 13/12 Q1019
LFPN 291200Z AUTO 30011KT 270V330 9999 BKN015 BKN027 OVC034 15/13 Q1020 TEMPO 4500 -RA BKN008
LFPN 291230Z AUTO 36014KT 320V050 5000 RA BR FEW009 BKN013 BKN018 13/11 Q1020 BECMG NSW BKN025
LFPO 291200Z 35009KT 310V030 9999 -DZRA FEW011 SCT015 BKN020 13/10 Q1020 TEMPO 4500 -DZRA BKN012
LFPO 291230Z 35009KT 330V030 9999 -DZRA FEW015 OVC025 13/11 Q1020 TEMPO 4500 -DZRA BKN012
LFPT 291200Z AUTO 35010KT 9999 FEW012 BKN026 OVC032 13/12 Q1020
LFPT 291230Z AUTO 03012KT 9999 FEW008 BKN014 BKN022 12/11 Q1020
LFPV 291200Z AUTO 31010KT 280V340 9999 OVC014 14/12 Q1020 NOSIG
LFPV 291230Z AUTO 34009KT 310V020 5000 -RA BR BKN010 BKN017 OVC022 12/11 Q1020 NOSIG
LFQA 291200Z AUTO 32007KT 300V360 9999 BKN021 BKN029 OVC047 12/10 Q1019
LFQA 291230Z AUTO 33008KT 9999 BKN018 BKN023 BKN032 13/10 Q1018
LFQB 291200Z AUTO 28013KT 9000 FEW012/// SCT018/// BKN023/// ///TCU 14/12 Q1018
LFQB 291230Z AUTO 28013KT 9999 FEW011/// BKN035/// OVC068/// ///TCU 15/12 Q1018
LFQG 291200Z AUTO 26009KT 9999 OVC006 12/11 Q1021
LFQG 291230Z AUTO 26008KT 220V300 5000 -DZ BR OVC006 12/11 Q1021
LFQQ 291200Z AUTO 34013KT 310V010 9999 SCT042 SCT056 OVC070 13/05 Q1020 NOSIG
LFQQ 291230Z AUTO 34014G26KT 9999 FEW042 BKN100 13/04 Q1020 NOSIG
LFRB 291200Z AUTO 34011KT 9999 BKN009 OVC026 14/12 Q1027 TEMPO 2000 DZ BR OVC002
LFRB 291230Z AUTO 34013KT 9999 BKN010 OVC025 14/12 Q1026 TEMPO 2000 DZ BR OVC002
LFRC 291200Z AUTO 33011KT 300V360 9999 BKN011 BKN018 BKN026 15/12 Q1023 TEMPO 32015G25KT 4000 RADZ BKN007
LFRC 291230Z AUTO 01013KT 9999 OVC012 13/10 Q1023 TEMPO 4000 RADZ BECMG BKN020
LFRD 291200Z AUTO 32014KT 9999 BKN010 OVC033 15/14 Q1024 TEMPO 4000 RADZ
LFRD 291230Z AUTO 32015KT 9999 BKN010 BKN026 OVC039 15/14 Q1024 TEMPO 4000 RADZ
LFRG 291200Z AUTO 35008KT 300V030 9999 -RADZ FEW009 BKN013 BKN022 14/12 Q1022 TEMPO 4000 RADZ BKN007
LFRG 291230Z AUTO 02008KT 350V050 9999 BKN026 BKN033 OVC039 14/11 Q1022 TEMPO 4000 RADZ BKN007
LFRH 291200Z AUTO 31006KT 9999 BKN010 BKN018 BKN024 15/13 Q1026 TEMPO 4500 DZ
LFRH 291230Z AUTO 30006KT 9999 BKN013 OVC020 15/13 Q1025 TEMPO 4500 DZ
LFRI 291200Z AUTO 28007KT 250V310 6000 2700 BKN010 BKN020 OVC031 14/12 Q1025
LFRI 291230Z AUTO 30007KT 2700 -DZ BR BKN009 OVC015 14/12 Q1025
LFRJ 291200Z AUTO 34011KT 9999 OVC007 14/13 Q1026
LFRJ 291230Z AUTO 34013KT 9999 OVC008 14/13 Q1026
LFRK 291200Z AUTO 32013KT 8000 -RA SCT009 BKN013 BKN020 14/13 Q1022 TEMPO 4000 RADZ BKN009
LFRK 291230Z AUTO 32011KT 9999 BKN011 BKN017 OVC056 15/14 Q1022 TEMPO 4000 RADZ BECMG BKN030
LFRL 291200Z AUTO 34012KT 9999 OVC011 14/12 Q1027
LFRL 291230Z AUTO 34010KT 9999 BKN012 OVC025 14/12 Q1026
LFRM 291200Z AUTO 26007KT 9999 BKN013 BKN020 OVC027 15/13 Q1022 TEMPO 4000 -RADZ BKN016
LFRM 291230Z AUTO 26008KT 9000 BKN008 BKN016 OVC031 15/14 Q1022 TEMPO 4000 -RADZ BKN016
LFRN 291200Z AUTO 30008KT 5000 2400 -RADZ BR BKN007 BKN011 OVC016 14/13 Q1024 TEMPO RADZ
LFRN 291230Z AUTO 31009KT 9000 FEW007 BKN032 OVC041 15/14 Q1024 TEMPO 4000 RADZ BKN007
LFRO 291200Z AUTO 32011KT 280V350 9999 OVC010 15/13 Q1026 TEMPO 3000 DZ OVC003
LFRO 291230Z AUTO 32011KT 290V360 9999 BKN009 OVC013 15/13 Q1026 TEMPO 3000 DZ OVC003
LFRQ 291200Z AUTO 34012KT 9999 OVC011 14/13 Q1026 TEMPO 3000 DZ BR OVC003
LFRQ 291230Z AUTO 34010KT 9999 BKN012 OVC017 14/12 Q1026 TEMPO 3000 DZ BR OVC003
LFRS 291200Z AUTO 30008KT 280V350 9999 BKN012 OVC039 14/12 Q1025 BECMG BKN025
LFRS 291230Z AUTO 31009KT 9999 OVC013 15/13 Q1024 BECMG BKN025
LFRT 291200Z AUTO 34009KT 9999 BKN009 BKN014 OVC034 14/13 Q1025
LFRT 291230Z AUTO 34011KT 310V010 9999 BKN011 BKN022 OVC034 15/13 Q1025
LFRU 291200Z AUTO 32012KT 9999 OVC007 14/13 Q1026
LFRU 291230Z AUTO 32010KT 9999 OVC007 14/13 Q1026
LFRV 291200Z AUTO 30006KT 280V340 8000 -DZ OVC006 14/13 Q1025
LFRV 291230Z AUTO 31008KT 280V350 9999 OVC007 14/13 Q1024
LFRZ 291200Z AUTO 30010KT 270V340 9999 SCT013 SCT021 BKN032 15/12 Q1025 NOSIG
LFRZ 291230Z AUTO 30010KT 9999 FEW010 OVC038 15/13 Q1025 NOSIG
LFSB 291200Z 25017KT 210V270 9999 FEW010 BKN016 BKN073 12/08 Q1017 TEMPO 25020G35KT -RADZ BKN014
LFSB 291230Z 26016KT 9999 FEW010 BKN016 11/08 Q1017 TEMPO 25020G35KT -RADZ BKN014
LFSD 291200Z AUTO 25010KT 9999 SCT020 SCT027 BKN032 13/09 Q1019
LFSD 291230Z AUTO 27011KT 240V300 9999 BKN021 BKN027 BKN033 14/09 Q1019
LFSG 291200Z AUTO 25014KT 2700 -RA BR BKN009/// OVC013/// ///TCU 12/11 Q1016
LFSG 291230Z AUTO 33006KT 7000 -RA BKN007 BKN013 OVC028 10/09 Q1017
LFSI 291200Z AUTO 34010KT 9999 -RA FEW014/// BKN029/// OVC037/// ///TCU 12/10 Q1018
LFSI 291230Z AUTO 34006KT 9999 -RA FEW014 OVC038 12/11 Q1018
LFSL 291200Z AUTO 28004KT 200V310 9999 BKN009 OVC018 10/08 Q1024 BECMG BKN020
LFSL 291230Z AUTO 29008KT 9999 BKN008 OVC013 10/08 Q1024 BECMG BKN020
LFSN 291200Z AUTO 30005KT 270V340 9999 FEW009 SCT015 BKN020 11/10 Q1017
LFSN 291230Z AUTO 34005KT 300V010 9999 BKN015 BKN021 OVC041 11/10 Q1017
LFSO 291200Z AUTO 33008KT 9999 BKN006 OVC012 10/10 Q1017
LFSO 291230Z AUTO 33010KT 280V350 9999 OVC012 10/09 Q1017
LFST 291200Z AUTO 30010KT 9999 -RA FEW015 OVC044 12/10 Q1015 NOSIG
LFST 291230Z AUTO 31010KT 9999 FEW019 SCT036 OVC056 12/10 Q1016 NOSIG
LFSX 291200Z AUTO 24010KT 5000 -DZ BR BKN006 OVC011 09/09 Q1018
LFSX 291230Z AUTO 24010KT 9999 OVC008 09/09 Q1017
LFTH 291200Z AUTO 32006KT 230V010 CAVOK 23/03 Q1009 NOSIG
LFTH 291230Z AUTO 31010KT 240V350 CAVOK 23/04 Q1008 NOSIG
LFTW 291200Z AUTO 35018KT 320V020 CAVOK 22/05 Q1016 TEMPO 35020G30KT
LFTW 291230Z AUTO 34018KT 300V360 CAVOK 21/06 Q1015 TEMPO 35020G30KT
LFVP 291200Z VRB02KT 9999 OVC023 10/09 Q1019 NOSIG
LFYR 291200Z AUTO 27007KT 240V320 9999 OVC007 12/11 Q1022
LFYR 291230Z AUTO 27005KT 230V300 9999 OVC007 13/11 Q1022
LGAD 291150Z 28005KT 9999 SCT020 19/07 Q1010
LGAD 291220Z 32007KT 9999 SCT020 20/07 Q1010
LGAL 291150Z 21014KT 9999 SCT025 16/09 Q1005
LGAL 291220Z 21014KT 9999 SCT025 17/09 Q1004
LGAV 291150Z 23011KT 9999 FEW025 18/05 Q1008 NOSIG
LGAV 291220Z 23011KT 9999 FEW025 19/05 Q1008 NOSIG
LGBL 291150Z 12005KT CAVOK 17/03 Q1007
LGBL 291150Z 12005KT CAVOK 17/03 Q1007 RMK FEW200 BLU
LGBL 291220Z 10008KT CAVOK 17/05 Q1006
LGEL 291150Z 20013KT 9999 FEW025 19/07 Q1008
LGEL 291220Z 22010KT 9999 FEW025 19/07 Q1008
LGHI 291150Z 05005KT 9999 FEW020 17/06 Q1007
LGIO 291150Z /////KT 9999 FEW070 15/01 Q1010
LGIO 291220Z /////KT 9999 FEW070 16/01 Q1010
LGIR 291150Z 34005KT 9999 FEW020 SCT030 18/13 Q1010 NOSIG
LGIR 291220Z 35004KT 9999 FEW020 SCT030 18/13 Q1010 NOSIG
LGKF 291150Z 32009KT 9999 FEW018 20/11 Q1011
LGKL 291150Z 34008KT 9999 FEW030 20/05 Q1010
LGKL 291220Z 34008KT 9999 FEW030 21/05 Q1010
LGKO 291150Z 31017KT 9999 FEW018 17/07 Q1008
LGKO 291220Z 31014KT 9999 FEW018 17/07 Q1008
LGKP 291150Z 31016KT 9999 SCT020 20/08 Q1009
LGKP 291220Z 31015KT 9999 SCT020 20/08 Q1009
LGKR 291150Z 29013KT CAVOK 20/10 Q1010 NOSIG
LGKR 291220Z 28011KT CAVOK 20/10 Q1010 NOSIG
LGKV 291150Z 24008KT 9999 FEW025 15/04 Q1005
LGKV 291220Z 27008KT 9999 FEW025 15/04 Q1004
LGKZ 291150Z 10004KT CAVOK 14/M02 Q1008
LGLM 291150Z 19010KT 9999 SCT025 17/07 Q1006
LGLM 291220Z 20010KT 9999 SCT025 17/08 Q1006
LGLR 291150Z 22004KT CAVOK 18/00 Q1007 RMK FEW180 BLU
LGMK 291150Z 34004KT 9999 FEW018 19/10 Q1008
LGMK 291220Z 28005KT 9999 FEW018 19/10 Q1008
LGMT 291150Z VRB03KT 9999 FEW020 18/07 Q1008
LGMT 291220Z 13005KT 100V210 9999 FEW020 18/07 Q1008
LGNX 291150Z 34007KT 9999 FEW025 18/08 Q1010
LGPA 291150Z 31007KT 9999 FEW030 17/07 Q1009
LGPZ 291150Z 25006KT 9999 FEW020 19/08 Q1011
LGPZ 291150Z 25006KT 9999 FEW020 19/08 Q1011 RMK SCT180 BLU
LGPZ 291220Z 24011KT 9999 FEW020 19/08 Q1011
LGRP 291150Z 26011KT 9999 SCT018 19/10 Q1007 NOSIG
LGRP 291220Z 26013KT 9999 SCT018 19/10 Q1007 NOSIG
LGRX 291150Z VRB03KT 9999 FEW020 SCT180 19/07 Q1011
LGRX 291150Z VRB03KT 9999 FEW020 SCT180 19/07 Q1011 BLU
LGRX 291220Z VRB03KT 9999 FEW020 19/08 Q1010
LGSA 291150Z 29010KT 9999 FEW025 19/14 Q1010
LGSA 291220Z 28012KT 9999 FEW025 19/14 Q1010
LGSK 291150Z 00000KT CAVOK 17/04 Q1007
LGSM 291150Z 33013KT 9999 FEW020 18/08 Q1007
LGSM 291220Z 33010KT 9999 FEW020 18/08 Q1007
LGSO 291150Z AUTO 30007KT 250V330 //// // ////// 18/06 Q1009 RE//
LGSO 291220Z AUTO 28008KT //// // ////// 18/05 Q1008 RE//
LGSR 291150Z 32012KT 9999 FEW025 19/08 Q1009
LGSR 291150Z 32012KT 9999 FEW025 19/08 Q1009 RMK FEW080 BLU
LGSR 291220Z 29010KT 9999 FEW025 19/08 Q1009
LGSY 291150Z 28009KT 9999 FEW020 16/05 Q1006 RMK FEW180 BLU
LGTG 291150Z 22009KT CAVOK 19/M01 Q1008 RMK FEW180 BLU
LGTS 291150Z VRB01KT CAVOK 16/M01 Q1006 NOSIG
LGTS 291220Z 34006KT CAVOK 16/M02 Q1005 NOSIG
LGZA 291150Z 30011KT 9999 SCT025 20/09 Q1011
LHBC 291145Z 21017KT 9999 -RA FEW004 OVC083 10/07 Q0993
LHBP 291200Z 29019KT CAVOK 11/05 Q0993 WS R31R NOSIG
LHBP 291230Z 28019KT CAVOK 12/06 Q0992 NOSIG
LHDC 291145Z 22020KT 6000 RA SCT004 OVC013 09/07 Q0990 NOSIG
LHDC 291151Z 22023KT 6000 RA SCT004 OVC013 09/07 Q0990
LHDC 291215Z 22023KT 9999 -RA SCT004 BKN013 OVC040 09/08 Q0988 NOSIG
LHDC 291216Z AUTO 23024G38KT //// ////// 09/08 Q0988
LHKE 291145Z 30017G50KT 240V350 3000 +SHRA SCT025TCU BKN040 OVC050 09/06 Q0995 NOSIG RMK YLO
LHKE 291152Z 31031G50KT 270V350 5000 SHRA FEW025TCU BKN030 OVC050 07/06 Q0995 BECMG 8000 -SHRA RMK WHT
LHKE 291204Z 31021G37KT 8000 -SHRA FEW025TCU BKN033 OVC050 08/06 Q0994 BECMG 9999 NSW RMK BLU
LHKE 291215Z 29019G33KT 260V320 9999 -SHRA FEW025TCU BKN040 BKN060 09/05 Q0994 TEMPO NSW RMK BLU
LHPA 291145Z 30023G39KT 9999 SQ FEW023TCU BKN040 10/04 Q0996 NOSIG RMK BLU
LHPA 291215Z 31017G29KT 9999 FEW023TCU SCT050 BKN083 10/04 Q0996 NOSIG RMK BLU
LHPA 291238Z 31019G35KT 280V340 9999 FEW033 BKN083 11/03 Q0996 RMK BLU
LHPP 291145Z 27012KT 9999 -RA BKN023 OVC083 14/08 Q0996
LHPP 291207Z 27016G28KT 9999 SCT020 SCT023 15/08 Q0995 RERA
LHPP 291215Z 27017G28KT 9999 FEW023 SCT026 15/08 Q0995 RERA
LHPR 291145Z 29019KT 9999 FEW026 FEW033TCU BKN050 11/07 Q0995 RESHRA RMK BLU
LHPR 291215Z 29018KT 270V330 9999 FEW026 SCT050 11/07 Q0995 RMK BLU
LHSM 291145Z 26013KT 9999 BKN044 17/07 Q0995 BECMG 33020G34KT 8000 SHRA SCT020CB BKN025
LHSM 291215Z 01017G33KT 9999 -SHRA FEW020CB BKN027 11/07 Q0997 NOSIG
LHSN 291145Z 29027G50KT 230V330 9999 SHRA SQ FEW017TCU SCT020CB OVC050 10/06 Q0993 TEMPO 8000 -TSRA RMK BLU
LHSN 291215Z 28019G33KT 230V310 9999 -SHRA FEW017TCU BKN050 OVC083 11/03 Q0991 BECMG NSW RMK BLU
LHUD 291145Z 22012KT 9999 -SHRA BKN036TCU 10/06 Q0994
LHUD 291215Z 22013KT 9999 -SHRA SCT030TCU BKN083 11/07 Q0994
LHUD 291236Z /////KT 1200 SHGR SHRAGR OVC020CB
LHUD 291237Z /////KT 1500 TSRA TSSN BKN020CB
LIBD 291150Z 28012KT 250V310 CAVOK 22/06 Q1007
LIBD 291220Z 28013KT CAVOK 22/06 Q1007
LIBF 291150Z 23028G40KT CAVOK 20/08 Q1006
LIBG 291150Z 24006KT 190V290 CAVOK 19/06 Q1009
LIBH 291155Z 06005KT CAVOK 20/12 Q1008 RMK BKN FEW080 BKN200 QUK 2 QUL 1 E VIS MAR 30 KM VIS MIN 9999
LIBN 291155Z 23014KT 9999 FEW025 18/13 Q1009 RMK BKN BKN200 VIS MIN 9999 WIND THR14 25012KT WIND THR32 25016KT BLU
LIBP 291150Z 22016KT CAVOK 22/08 Q1005
LIBR 291145Z 20019KT CAVOK 20/05 Q1010 NOSIG
LIBR 291145Z 20019KT CAVOK 20/05 Q1010 NOSIG RMK SCT SCT200 VIS MIN 9999 WIND THR31 23010KT BLU
LIBR 291215Z 24015KT CAVOK 20/05 Q1009 NOSIG
LIBV 291155Z 24014KT CAVOK 19/02 Q1009 RMK BKN BKN200 VIS MIN 9999 WIND THR32 24013KT WIND THR14 24013KT BLU
LIBY 291155Z ///08KT CAVOK 17/08 Q1010 RMK SCT SCT200 QUK 1 QUL 0 VIS MAR 20 KM VIS MIN 9999
LICA 291150Z 26016KT 9999 SCT025 20/12 Q1013
LICB 291150Z 27014KT 9999 FEW030 19/13 Q1015
LICC 291150Z 25010KT CAVOK 24/04 Q1012
LICC 291220Z 27010KT CAVOK 25/04 Q1012
LICD 291150Z 29016KT 9999 FEW030 22/14 Q1017
LICF 291155Z 31010KT 9999 FEW025 21/10 Q1013 RMK SCT QUK 3 QUL 1 NW VIS MAR 25 KM MON LIB NC VIS MIN 9999
LICG 291155Z 29018G31KT 9999 SCT015 19/15 Q1018
LICG 291155Z 29018G31KT 9999 SCT015 19/15 Q1018 RMK SCT VIS MIN 9999 WIND THR08 /////KT WIND THR21 29018KT BLU
LICJ 291150Z 27016KT 9999 FEW025 20/13 Q1014
LICJ 291220Z 26013KT 9999 FEW025 20/14 Q1013
LICR 291150Z 35012KT 9999 FEW030 22/09 Q1013
LICT 291155Z 26017KT 9999 BKN025 22/14 Q1014
LICT 291155Z 26017KT 9999 BKN025 22/14 Q1014 RMK BKN VIS MIN 9999 WIND THR13 25015KT 220V290 BLU
LICZ 291155Z 26015KT CAVOK 27/01 Q1012 RMK FEW FEW180 VIS MIN 9999 WIND THR28 27011KT WIND THR10 24014KT A2991 BLU
LIEA 291150Z 28017G27KT 250V320 9999 SCT040 18/08 Q1014
LIEA 291220Z 28013G23KT 9999 SCT040 19/08 Q1014
LIEB 291155Z 07006KT CAVOK 22/06 Q1010 RMK SCT SCT200 QUK 2 QUL 0 VIS MAR 30 KM MON LIB VIS MIN 9999
LIEC 291155Z 27045KT CAVOK 20/10 Q1011 RMK FEW FEW200 QUK 6 QUL 0 VIS MAR 18 KM VIS MIN 9999
LIED 291155Z 31022KT 9999 FEW016 22/09 Q1014 RMK SCT SCT200 VIS MIN 9999 WIND THR35 32018KT WIND THR17 /////KT BLU
LIEE 291150Z 28021KT CAVOK 22/08 Q1014
LIEE 291220Z 29021G32KT CAVOK 22/09 Q1013
LIEO 291150Z 23024G34KT 9999 FEW030 21/08 Q1011
LIEO 291220Z 23029KT 9999 FEW030 21/07 Q1010
LIMA 291150Z 20007KT 7000 NSC 17/03 Q1005
LIMC 291150Z 24010KT 210V270 CAVOK 17/03 Q1006 NOSIG
LIMC 291220Z 24009KT CAVOK 17/04 Q1005 NOSIG
LIME 291150Z 26018KT 9999 FEW060 19/01 Q1003 NOSIG
LIME 291220Z 26020KT 9999 FEW060 19/01 Q1002 NOSIG
LIMF 291150Z 21007KT 180V240 7000 NSC 16/02 Q1005
LIMF 291220Z 20004KT 160V250 7000 NSC 16/03 Q1004
LIMG 291150Z 18006KT CAVOK 21/12 Q1008
LIMH 291155Z /////KT 0800 FZFG VV/// M05/M05 Q1015 RMK MON INVIS VAL INVIS VIS MIN 0800
LIMJ 291150Z 18004KT 9999 FEW028 19/12 Q1009
LIMJ 291220Z 17005KT 120V220 9999 SCT028 19/11 Q1008
LIMK 291155Z 23011KT 210V300 CAVOK 19/M06 Q1007 RMK BKN FEW130 BKN200 VAL FOSCHIA VIS MIN 9999
LIML 291150Z 27008KT 240V360 CAVOK 18/09 Q1004 NOSIG
LIML 291220Z 27009G20KT 240V330 CAVOK 18/08 Q1003 NOSIG
LIMP 291150Z 23022KT CAVOK 22/07 Q1002
LIMS 291155Z 27016KT 240V310 CAVOK 25/02 Q1002
LIMS 291155Z 27016KT 240V310 CAVOK 25/02 Q1002 RMK BKN SCT130 BKN190 VIS MIN 9999 WIND THR30 26014KT BLU
LIMU 291155Z 20015KT CAVOK 18/13 Q1009 RMK BKN BKN200 QUK 3 QUL 1 S VIS MAR 30 KM VIS MIN 9999
LIMZ 291150Z 14008KT 8000 NSC 23/M01 Q1006
LIPB 291150Z 35004KT 9999 SCT060 SCT120 14/M02 Q1001
LIPC 291155Z 25018G32KT CAVOK 21/11 Q1001
LIPC 291155Z 25018G32KT CAVOK 21/11 Q1001 RMK BKN BKN200 VIS MIN 9999 WIND THR11 25022KT WIND THR29 /////KT BLU
LIPE 291150Z 22004KT 170V260 CAVOK 19/07 Q1002
LIPE 291220Z 02003KT 330V050 9999 FEW060 20/08 Q1001
LIPF 291155Z 23004KT CAVOK 17/09 Q1002
LIPF 291155Z 23004KT CAVOK 17/09 Q1002 RMK BKN BKN120 VIS MIN 9999
LIPH 291150Z VRB02KT 6000 NSC 13/08 Q1001
LIPH 291220Z VRB02KT 5000 BR NSC 13/08 Q1001
LIPL 291155Z /////KT CAVOK 18/05 Q1003 RMK BKN FEW140 SCT200 VIS MIN 9999 WIND THR31 31014KT BLU
LIPO 291150Z 30020KT 8000 NSC 18/05 Q1002
LIPQ 291150Z 20004KT 9000 FEW070 14/09 Q1002
LIPQ 291220Z 20005KT 170V230 8000 NSC 14/09 Q1001
LIPR 291145Z 21012KT CAVOK 22/07 Q1002
LIPR 291145Z 21012KT CAVOK 22/07 Q1002 RMK BKN BKN200 VIS MIN 9999 WIND THR31 22012KT BLU
LIPR 291215Z 22016KT CAVOK 22/07 Q1002
LIPS 291155Z 16002KT 6000 NSC 13/09 Q1001 RMK BKN FEW120 BKN200 VIS MIN 6000 WIND THR26 17001KT WIND THR08 30001KT WHT
LIPX 291150Z 25026KT 8000 FEW090 18/05 Q1000
LIPX 291220Z 25024KT 8000 FEW090 18/05 Q1000
LIPY 291150Z 22021KT CAVOK 20/10 Q1004
LIPZ 291150Z VRB03KT 5000 BR NSC 12/08 Q1001 NOSIG
LIPZ 291220Z 08004KT 040V120 5000 BR NSC 12/07 Q1001 NOSIG
LIQC 291155Z ///12KT 9999 FEW021 19/14 Q1012 RMK BKN BKN160 QUK 2 QUL 1 SW VIS MAR 40 KM VIS MIN 9999
LIQN 291150Z VRB01KT 9999 BKN045 13/08 Q1009
LIQO 291155Z 19003KT 8000 BKN003 14/10 Q1011 RMK BKN VAL FOSCHIA NC VIS MIN 8000
LIRA 291150Z 24005KT 200V280 9999 FEW020 BKN030 17/11 Q1011
LIRA 291220Z 26006KT 190V300 9999 FEW025 BKN030 17/10 Q1011
LIRE 291155Z 26010KT 9999 FEW020 SCT030 19/12 Q1011 RMK BKN VIS MIN 9999 WIND THR13 28009KT WIND THR31 /////KT BLU
LIRF 291150Z 24012KT 9999 SCT040 19/11 Q1011 NOSIG
LIRF 291220Z 26012KT 230V290 9999 SCT025 SCT030 19/12 Q1010 NOSIG
LIRI 291150Z 18010KT 9999 SCT030 19/12 Q1011
LIRK 291155Z AUTO 28010KT //// ///// Q////
LIRM 291155Z /////KT 9999 SCT035 21/10 Q1011
LIRM 291155Z /////KT 9999 SCT035 21/10 Q1011 RMK BKN SCT200 VIS MIN 9999 WIND THR06 23009KT BLU
LIRN 291150Z 23008KT 200V260 9999 BKN045 19/08 Q1011 NOSIG
LIRN 291220Z 24009KT 9999 BKN045 19/10 Q1010 NOSIG
LIRP 291145Z 25007KT 9999 FEW025 16/11 Q1010 NOSIG
LIRP 291215Z 27008KT 9999 FEW030 17/12 Q1009 NOSIG
LIRQ 291150Z 22010KT 170V260 9999 SCT040 19/11 Q1008
LIRQ 291220Z 22008KT 190V260 9999 SCT040 20/11 Q1007
LIRS 291155Z 15009KT 110V170 9999 FEW030 19/10 Q1009
LIRS 291155Z 15009KT 110V170 9999 FEW030 19/10 Q1009 RMK OVC BKN150 VIS MIN 9999 WIND THR03 16007KT WIND THR21 15008KT 110V190 BLU
LIRT 291155Z ///23KT 9999 SCT020 10/06 Q1010 RMK BKN SCT070 MON LIB VAL CIME INC VIS MIN 9999
LIRU 291150Z VRB02KT 9999 BKN025 18/11 Q1011
LIRX 291155Z 08004KT 9999 FEW015 18/14 Q1009 RMK OVC OVC200 VIS MIN 9999 VIS MAR 10 KM
LIRZ 291150Z 20012KT 9999 BKN045 18/10 Q1009
LIVD 291155Z 27006KT 9999 SCT030 15/06 Q1003 RMK SCT VIS MIN 9999
LIVE 291155Z 35007G19KT 9999 BKN020 SCT050 09/03 Q1006 RMK OVC VIS MIN 9999
LIVO 291155Z 12012KT 9999 SCT030 13/07 Q0998 RMK SCT VIS MIN 9999
LIVR 291155Z 31024G40KT 9999 SCT020 08/M02 Q1003 RMK BKN SCT180 MON LIB VIS MIN 9999
LIVT 291155Z 00000KT 5000 BR SCT010 SCT025 15/12 Q1001 RMK BKN QUK 1 QUL 0 VIS MAR 5 KM VIS MIN 5000
LJCE 291200Z 26017KT 240V300 CAVOK 17/06 Q0997 RMK BLU
LJCE 291230Z 27013KT 240V300 CAVOK 17/07 Q0997 RMK BLU
LJLJ 291200Z 24011KT 200V270 9999 FEW040 15/05 Q0999 NOSIG
LJLJ 291230Z 24011KT 200V280 9999 FEW040 15/05 Q0998 NOSIG
LJMB 291200Z 22018KT 9999 FEW035 SCT040 BKN080 18/07 Q0995
LJMB 291230Z 22016KT 9999 FEW035 SCT040 BKN080 17/07 Q0996
LJPZ 291200Z 20010KT 170V250 8000 SCT030 15/08 Q1002
LJPZ 291230Z 21009KT 170V240 8000 FEW026 15/09 Q1001
LKCV 291200Z 29038G46KT 9999 BKN040 10/03 Q0995 NOSIG
LKCV 291200Z 29038G46KT 9999 BKN040 10/03 Q0995 NOSIG RMK BLU BLU
LKKB 291200Z 28025G37KT 9999 SCT031 BKN046 09/02 Q0998 NOSIG
LKKV 291152Z 27020G33KT 240V300 9999 FEW013 BKN020 05/02 Q1002 RMK REG QNH 0985
LKKV 291200Z 27022G33KT 9999 BKN020 05/02 Q1002
LKKV 291230Z 28019G30KT 9999 BKN026 06/01 Q1003
LKKV 291239Z 29020G32KT 9999 -SHRA BKN028 06/01 Q1003 RMK REG QNH 0985
LKMT 291200Z 27023G34KT 9999 -RA FEW031 09/03 Q0988 NOSIG
LKMT 291230Z 27023G35KT 9999 SCT031 10/04 Q0989 NOSIG
LKNA 291200Z 29035G44KT 9999 BKN047 08/01 Q0994 NOSIG
LKNA 291200Z 29035G44KT 9999 BKN047 08/01 Q0994 NOSIG RMK BLU BLU
LKNA 291200Z 29035G44KT 9999 -RA BKN047 08/01 Q0994 NOSIG
LKNA 291200Z 29035G44KT 9999 -RA BKN047 08/01 Q0994 NOSIG RMK BLU BLU
LKPD 291200Z 28036G50KT 9999 -SHRA SCT038 BKN060 10/02 Q0994 NOSIG
LKPD 291200Z 28036G50KT 9999 -SHRA SCT038 BKN060 10/02 Q0994 NOSIG RMK BLU BLU
LKPR 291149Z 29032G43KT 9999 -SHRA BKN035 BKN041 09/01 Q0999 RMK REG QNH 0985
LKPR 291200Z 30031G44KT 9999 BKN034 BKN042 09/02 Q0999 NOSIG
LKPR 291230Z 29032G47KT 260V320 9999 BKN033 BKN046 09/02 Q1000 NOSIG
LKPR 291239Z 30031G42KT 9999 -SHRA FEW030TCU BKN033 BKN046 09/02 Q1000 RMK REG QNH 0985
LKPR 291243Z 30031G43KT 8000 -TSRA SCT018CB BKN033 BKN046 08/02 Q1001 RMK REG QNH 0985
LKPR 291244Z 30032G43KT 2500 TSRA SCT018CB BKN033 BKN046 08/02 Q1001 RMK REG QNH 0985
LKTB 291200Z 29031G47KT CAVOK 12/01 Q0992 NOSIG
LKTB 291230Z 30033G48KT CAVOK 12/01 Q0993 NOSIG
LLBG 291150Z 26013KT 9999 FEW030 26/12 Q1012 NOSIG
LLBG 291220Z 26015KT 9999 FEW030 25/11 Q1012 NOSIG
LLET 291150Z VRB03KT CAVOK 30/07 Q1010
LLHA 291150Z 23010KT 9999 FEW030 26/14 Q1012
LLIB 291150Z 16007KT 130V210 9999 FEW030 25/12 Q1012
LLOV 291150Z VRB03KT CAVOK 27/05 Q1013
LLSD 291150Z 23014KT 9999 FEW035 26/15 Q1012
LMML 291145Z 31015KT 9999 FEW030 22/13 Q1016 NOSIG
LMML 291215Z 30017KT 9999 SCT032 22/14 Q1016 NOSIG
LOAN 291200Z 30021G32KT 20KM FEW040CU BKN080AC
LOAV 291200Z 28016G32KT 25KM SCT020CU BKN030SC 11/00
LOWG 291150Z 32015G26KT 280V340 CAVOK 18/06 Q0995 TEMPO 33025G45KT SHRA
LOWG 291220Z 32015KT 280V350 9999 -SHRA FEW060 SCT085 18/05 Q0995 TEMPO 33025G45KT SHRA
LOWI 291150Z 27025G57KT 230V300 9999 -SHRA SCT045 BKN060 14/06 Q1007 TEMPO SHRA
LOWI 291220Z 26026G39KT 9999 FEW045 BKN060 14/06 Q1007 TEMPO SHRA
LOWK 291150Z 31007KT 9999 FEW060 SCT090 19/04 Q0996 TEMPO 34018G28KT
LOWK 291220Z 29008KT 270V330 9999 FEW060 SCT090 19/04 Q0996 TEMPO 34018G28KT
LOWL 291150Z 29023G35KT 9999 FEW018 SCT060 10/06 Q1003 WS ALL RWY NOSIG
LOWL 291220Z 30024G38KT 9999 FEW028 SCT040 10/04 Q1004 WS ALL RWY NOSIG
LOWS 291150Z 30024G34KT 260V320 7000 SHRA FEW010 FEW020TCU SCT025 BKN045 12/07 Q1005 TEMPO 4000
LOWS 291220Z 31026G37KT 9999 SHRA FEW012 FEW020CB SCT025 BKN040 08/07 Q1007 BECMG NSW
LOWW 291150Z 30018G31KT 9999 FEW050 12/04 Q0995 NOSIG
LOWW 291220Z 31030G43KT 9999 FEW050 13/02 Q0996 TEMPO 32040G55KT
LOXT 291150Z 31021G38KT 20KM FEW060SC 13/02 Q0996 RMK FEW
LOXZ 291150Z 25013KT 15KM -SHRA FEW020SC SCT050SC BKN070SC 13/07 Q0997 NOSIG
LOXZ 291220Z 26027KT 6000 -SHRA FEW018SC BKN045SC 11/06 Q0998 NOSIG
LPAZ 291200Z 14009KT 9999 FEW010 23/20 Q1024
LPAZ 291230Z 14010KT 9999 FEW010 23/20 Q1024
LPBJ 291200Z 11005KT 080V120 CAVOK 24/07 Q1021
LPCS 291200Z 10005KT 030V140 CAVOK 25/06 Q1021
LPCS 291230Z VRB04KT CAVOK 26/06 Q1020
LPFL 291200Z 19011KT 150V240 9999 FEW018 21/17 Q1018
LPFL 291230Z 18011KT 9999 SCT018 21/16 Q1019
LPFR 291200Z 10007KT 070V140 CAVOK 22/16 Q1020
LPFR 291230Z 11009KT CAVOK 22/16 Q1019
LPHR 291200Z 21008KT 9999 FEW016 SCT040 21/19 Q1021
LPHR 291230Z 19009KT 9999 FEW016 22/19 Q1022
LPLA 291200Z /////KT 9999 SCT008 SCT016 BKN024 22/21 Q1022
LPLA 291236Z /////KT 4000 RA SCT007 BKN014 BKN020 21/21 Q1022
LPMA 291200Z 20007KT CAVOK 25/18 Q1021
LPMA 291230Z 19007KT 140V210 CAVOK 25/19 Q1021
LPMR 291200Z 02007KT CAVOK 25/06 Q1021
LPMT 291200Z 36008KT CAVOK 23/09 Q1020
LPOV 291200Z 27003KT CAVOK 25/11 Q1022
LPPD 291200Z 14010KT 9999 FEW006 SCT012 23/21 Q1025
LPPD 291230Z 14010KT 9999 FEW006 SCT012 23/21 Q1024
LPPR 291200Z 08006KT 040V130 CAVOK 25/06 Q1023
LPPR 291230Z 04005KT 320V130 CAVOK 25/07 Q1022
LPPS 291200Z 35013KT 9999 FEW012 24/18 Q1021
LPPS 291230Z 35014KT 9999 FEW012 24/19 Q1021
LPPT 291200Z 05009KT 020V080 CAVOK 23/06 Q1021
LPPT 291230Z 04008KT CAVOK 24/06 Q1020
LQBK 291200Z 24010KT CAVOK 20/04 Q0996 NOSIG
LQBK 291230Z 25008KT CAVOK 20/04 Q0996 NOSIG
LQMO 291200Z VRB02KT 9999 SCT045 BKN055 15/05 Q1007
LQMO 291230Z VRB04KT 9999 FEW045 SCT050 17/06 Q1006
LQSA 291200Z 33009KT 290V050 CAVOK 16/00 Q1002 NOSIG
LQSA 291230Z 25010G31KT 200V320 CAVOK 16/M01 Q1002 NOSIG
LQTZ 291200Z 27005KT 230V300 CAVOK 17/03 Q0997
LQTZ 291230Z 26008KT 210V310 CAVOK 19/04 Q0996
LRAR 291200Z 21012KT 9999 -RA FEW009 SCT026 BKN049 10/07 Q0994 R09/29//95
LRAR 291230Z 22014KT 9999 -RA FEW021 BKN028 10/07 Q0993 R09/29//95
LRBC 291200Z 20010KT 170V240 9999 BKN050 13/04 Q0990
LRBC 291230Z 20011KT 9999 BKN050 13/04 Q0990
LRBM 291200Z AUTO /////KT //// FEW003/// SCT015/// BKN019/// ///// Q0988
LRBM 291230Z AUTO /////KT //// FEW011/// SCT024/// BKN075/// ///// Q0988
LRBO 291200Z 25016G26KT 9999 SCT030 BKN100 12/05 Q0994 BLU BLU
LRBS 291200Z 26019KT 180V290 CAVOK 14/03 Q0997 NOSIG
LRBS 291230Z 26019KT CAVOK 14/03 Q0997 NOSIG
LRCK 291200Z 25018KT 9999 FEW030 13/05 Q0998 NOSIG
LRCK 291230Z 23018KT 9999 SCT041 13/05 Q0997 NOSIG
LRCL 291230Z 25021KT 9999 -RA FEW020 BKN047 10/03 Q0990 R07/29//95
LRCT 291200Z 22018G28KT 9999 -RA BKN030 OVC070 09/04 Q0991 BLU BLU
LRCV 291200Z 23008KT CAVOK 13/02 Q0997
LRCV 291230Z 23010KT CAVOK 13/01 Q0996
LRIA 291200Z 18008KT 9999 -RA SCT049 09/03 Q0989 R14/29//95
LRIA 291230Z 18009KT 9999 -RA NSC 09/03 Q0988 R14/29//95
LROD 291200Z 21021KT 8000 -RA FEW025 OVC045 08/07 Q0991 RERA R01/29//95
LROD 291230Z 22021G35KT 9999 -RA BKN029 OVC036 09/07 Q0991 R01/29//95
LROP 291200Z 26020KT 9999 FEW045 13/05 Q0996 NOSIG
LROP 291230Z 26016KT CAVOK 13/05 Q0996 NOSIG
LRSB 291200Z 21004KT 160V270 9999 OVC048 12/03 Q0993
LRSB 291230Z 21004KT 140V270 9999 OVC049 12/03 Q0992
LRSM 291200Z 25023G38KT 9999 -RA SCT015 BKN026 09/08 Q0988 R01/29//94
LRSM 291230Z 24029G39KT 9999 FEW016 SCT030 09/07 Q0986 R01/29//94
LRSV 291200Z 21012KT CAVOK 09/02 Q0986
LRSV 291230Z 21016KT CAVOK 10/02 Q0985
LRTC 291200Z 21021KT 9999 SCT035 13/05 Q0995
LRTC 291230Z 22021KT 9999 FEW035 13/05 Q0995
LRTM 291200Z 21017G27KT 9999 SCT043 10/03 Q0992
LRTM 291230Z 22020KT 9999 SCT043 10/04 Q0991
LRTR 291200Z 20013KT 9999 -RA NSC 11/07 Q0994 R11/190095
LRTR 291230Z 21014KT 9999 -RA NSC 11/06 Q0994 R11/190095
LRTZ 291200Z 24015G25KT 9999 SCT040 BKN200 14/05 Q0999 BLU BLU
LSGC 291150Z 24008KT 200V260 4700 -DZ BKN004 05/05 Q1019
LSGC 291220Z 24009KT 2800 -DZ BR BKN003 05/05 Q1018
LSGG 291150Z VRB02KT 9999 FEW035 BKN045 11/05 Q1021 NOSIG
LSGG 291220Z 13003KT 080V170 9999 FEW035 SCT045 BKN070 12/05 Q1020 NOSIG
LSGS 032120Z AUTO 24007KT 210V300 9999 -RA BKN/// 07/M01 Q1013
LSGS 291150Z 25017KT 210V280 9999 BKN070 12/05 Q1018
LSGS 291220Z 25017KT 9999 BKN070 11/05 Q1018
LSMA 291150Z AUTO 22005KT 180V250 9999NDV OVC045 15/08 Q1017 RMK
LSMD 291150Z AUTO 30010KT 260V330 9999NDV -SHRA BKN024 BKN027 OVC033 10/06 Q1016 RMK
LSME 291150Z AUTO 27007KT 230V300 9999NDV -SHRA BKN036 OVC051 12/05 Q1018 RMK
LSMM 291150Z AUTO 29005KT 230V330 9999NDV -SHRA SCT010 BKN018 OVC047 09/08 Q1018 RMK
LSMP 291150Z 24010KT 9999 OVC035 12/04 Q1020 RMK BLU
LSMS 291150Z 25017KT 210V280 9999 BKN070 12/05 Q1018 RMK BLU
LSZA 291150Z VRB01KT CAVOK 21/05 Q1005 NOSIG
LSZA 291220Z VRB03KT 9999 FEW110 SCT160 20/05 Q1004 NOSIG
LSZB 291150Z 26007KT 210V310 9999 SCT038 BKN046 11/05 Q1018 NOSIG
LSZB 291220Z 26006KT 200V010 9999 SCT038 BKN046 12/05 Q1018 NOSIG
LSZC 291150Z AUTO 06007KT 9999 -RA BKN043 SCT050 10/09 Q1017 REDZ
LSZC 291220Z AUTO 06010KT 9999 DZ FEW042 OVC047 11/08 Q1017
LSZG 291150Z 24014KT 9999 FEW024 BKN032 BKN038 11/06 Q1018 NOSIG
LSZG 291220Z AUTO 25012KT 9999 OVC033 10/07 Q1018
LSZH 291150Z 25010KT 210V280 8000 -DZ FEW012 BKN022 09/07 Q1017 TEMPO 4000 DZ
LSZH 291220Z 25011KT 6000 -DZ FEW012 BKN022 09/07 Q1017 TEMPO 4000 DZ
LSZL 291150Z AUTO 00000KT 9999NDV FEW100 16/06 Q1005 RMK
LSZR 291150Z 26015G25KT 210V290 9999 FEW020 BKN050 12/06 Q1014 NOSIG RMK D
LSZR 291220Z 26015G25KT 210V290 9999 FEW020 BKN050 12/06 Q1014 REDZ NOSIG RMK D
LSZS 291150Z 36022KT 330V050 9999 SCT031 BKN040 10/00 Q1011 RMK K
LSZS 291220Z 36021G34KT 320V050 9999 SCT031 BKN040 10/01 Q1010 RMK L
LTAC 291150Z VRB04KT 9999 SCT030 BKN080 10/08 Q1005 NOSIG
LTAC 291150Z VRB04KT 9999 SCT030 BKN080 10/08 Q1005 NOSIG RMK RWY21L 28004KT 240V320 RWY03L 31002KT RWY21R VRB02KT
LTAC 291220Z VRB02KT 9999 SCT030 BKN080 10/07 Q1005 NOSIG
LTAC 291220Z VRB02KT 9999 SCT030 BKN080 10/07 Q1005 NOSIG RMK RWY21L VRB02KT RWY03L VRB01KT RWY21R 30002KT
LTAF 291150Z 19008KT 150V220 9999 SCT035 BKN100 24/16 Q1008 TEMPO -TSRA
LTAF 291150Z 19008KT 150V220 9999 SCT035 BKN100 24/16 Q1008 TEMPO -TSRA RMK RWY23 21009KT 180V240
LTAF 291220Z 20008KT 9999 SCT030 BKN090 23/15 Q1008 TEMPO -TSRA
LTAF 291220Z 20008KT 9999 SCT030 BKN090 23/15 Q1008 TEMPO -TSRA RMK RWY23 21007KT 180V240
LTAF 291236Z 19008KT 9999 -SHRA SCT035 BKN10023/16 Q1008 TEMPO 21015G25KT -TSRA RMK RWY23 21008KT 170V240
LTAF 291236Z 19008KT 9999 SHRA SCT035 BKN100 23/16 Q1008 TEMPO 21015G25KT -TSRA RMK RWY23 21008KT 170V240
LTAG 291150Z 22008KT 9999 SCT030 BKN090 23/16 Q1008 NOSIG
LTAG 291220Z 20008KT 9999 SCT030 BKN090 23/16 Q1008 NOSIG
LTAG 291231Z 17009KT 9999 FEW025CB SCT030 BKN090 23/16 Q1008 NOSIG
LTAI 291150Z 02005KT 9999 BKN030 18/16 Q1005 R36R/2///95 R18L/2///95 NOSIG
LTAI 291150Z 02005KT 9999 BKN030 18/16 Q1005 R36R/2///95 R18L/2///95 NOSIG RMK RWY18C 01004KT RWY36R 01005KT 330V050 RWY18L 36004KT 330V040
LTAI 291220Z 06003KT 010V120 9999 BKN030 18/16 Q1005 R36R/2///95 R18L/2///95 NOSIG
LTAI 291220Z 06003KT 010V120 9999 BKN030 18/16 Q1005 R36R/2///95 R18L/2///95 NOSIG RMK RWY18C 05003KT 010V110 RWY36R 01003KT 330V060 RWY18L 36003KT 300V060
LTAJ 291150Z 22010KT 190V250 9999 SCT035 BKN090 20/11 Q1012 NOSIG
LTAJ 291150Z 22010KT 190V250 9999 SCT035 BKN090 20/11 Q1012 NOSIG RMK RWY10 22009KT 190V250
LTAJ 291220Z 20010KT 170V230 9999 SCT040 BKN090 20/11 Q1012 NOSIG
LTAJ 291220Z 20010KT 170V230 9999 SCT040 BKN090 20/11 Q1012 NOSIG RMK RWY10 23009KT 190V260
LTAN 291150Z 18013KT 9999 -SHRA FEW011 SCT035 BKN090 11/10 Q1007 NOSIG
LTAN 291235Z 17011KT 150V210 9999 FEW010 SCT040 BKN100 12/10 Q1007 RESHRA NOSIG RMK RWY19 18011KT
LTAP 291150Z 25012KT 9999 SCT040 BKN100 19/06 Q1003 NOSIG
LTAP 291150Z 25012KT 9999 SCT040 BKN100 19/06 Q1003 NOSIG RMK RWY23 27009KT
LTAP 291220Z 24008KT 9999 SCT040 BKN100 19/06 Q1003 NOSIG
LTAP 291220Z 24008KT 9999 SCT040 BKN100 19/06 Q1003 NOSIG RMK RWY23 24010KT
LTAR 291150Z 23017KT 9999 BKN035 14/02 Q1009
LTAR 291218Z 22017KT 9999 FEW030CB BKN035 14/02 Q1009 RMK RWY19 20015KT
LTAS 291150Z 21004KT 170V310 9999 SCT027 BKN090 15/09 Q1005
LTAT 291150Z 18013KT 9999 BKN035 BKN100 18/09 Q1011 NOSIG
LTAT 291150Z 18013KT 9999 BKN035 BKN100 18/09 Q1011 NOSIG RMK RWY03 21014KT
LTAT 291220Z 16012KT 9999 -SHRA BKN035 BKN100 17/10 Q1011 NOSIG
LTAT 291220Z 16012KT 9999 -SHRA BKN035 BKN100 17/10 Q1011 NOSIG RMK RWY03 20014KT
LTAU 291150Z 27016KT 9999 BKN035 BKN100 16/05 Q1008 RESHRA BECMG VRB02KT
LTAU 291150Z 27016KT 9999 BKN035 BKN100 16/05 Q1008 RESHRA BECMG VRB02KT RMK RWY07 27016KT
LTAU 291216Z 28013KT 9999 -SHRA BKN035 BKN100 13/08 Q1008 BECMG VRB02KT RMK RWY07 27014KT
LTAU 291220Z 27011KT 9999 -SHRA BKN035 BKN100 13/08 Q1008 NOSIG
LTAU 291220Z 27011KT 9999 -SHRA BKN035 BKN100 13/08 Q1008 NOSIG RMK RWY07 27013KT
LTAY 291204Z 28013KT 3700 -SHRA BR SCT004 BKN030 09/09 Q1007 RMK RWY06 31014KT
LTAY 291212Z 28013KT 2000 -SHRA BR SCT004 BKN030 09/09 Q1007 RMK RWY06 31012KT
LTAZ 291150Z 20008KT 9999 -SHRA SCT035 BKN090 12/10 Q1009
LTAZ 291150Z 20008KT 9999 -SHRA SCT035 BKN090 12/10 Q1009 RMK RWY29 21011KT
LTAZ 291220Z 18007KT 140V210 9999 -SHRA SCT035 BKN090 19/16 Q1008
LTAZ 291220Z 18007KT 140V210 9999 -SHRA SCT035 BKN090 19/16 Q1008 RMK RWY29 19009KT
LTBA 291150Z 23010KT 200V260 CAVOK 15/06 Q1006 NOSIG
LTBA 291150Z 23010KT 200V260 CAVOK 15/06 Q1006 NOSIG RMK RWY17L 24012KT 210V280 RWY05 22010KT RWY23 24013KT
LTBA 291220Z 24011KT 190V300 9999 FEW035 15/06 Q1006 NOSIG
LTBA 291220Z 24011KT 190V300 9999 FEW035 15/06 Q1006 NOSIG RMK RWY17L 24012KT 200V270 RWY05 23011KT 190V260 RWY23 25013KT
LTBF 291150Z VRB02KT 9999 SCT035 15/06 Q1007 NOSIG
LTBH 291150Z 23008KT 9999 FEW035 SCT100 16/06 Q1006
LTBJ 291150Z 35014KT 9999 SCT030 BKN200 16/04 Q1007 NOSIG
LTBJ 291150Z 35014KT 9999 SCT030 BKN200 16/04 Q1007 NOSIG RMK RWY16 34012KT 310V010
LTBJ 291220Z 36013KT 9999 FEW030 SCT200 16/03 Q1007 NOSIG
LTBJ 291220Z 36013KT 9999 FEW030 SCT200 16/03 Q1007 NOSIG RMK RWY16 35012KT
LTBQ 291150Z 27007KT 210V340 9999 SCT032 14/11 Q1006 NOSIG
LTBR 291150Z 23007KT 160V300 9999 SCT035 14/09 Q1005 NOSIG
LTBR 291150Z 23007KT 160V300 9999 SCT035 14/09 Q1005 NOSIG RMK RWY07 23010KT
LTBR 291220Z 23006KT 200V270 9999 SCT035 14/08 Q1005 NOSIG
LTBR 291220Z 23006KT 200V270 9999 SCT035 14/08 Q1005 NOSIG RMK RWY07 23007KT 200V260
LTBS 291150Z 24011KT 9999 SCT030 SCT100 20/10 Q1006 NOSIG
LTBS 291150Z 24011KT 9999 SCT030 SCT100 20/10 Q1006 NOSIG RMK RWY19 23007KT 200V270
LTBS 291220Z 25011KT 9999 SCT030 SCT100 20/09 Q1006 NOSIG
LTBS 291220Z 25011KT 9999 SCT030 SCT100 20/09 Q1006 NOSIG RMK RWY19 22010KT
LTBU 291150Z 20011KT 160V220 9999 SCT035 SCT100 14/05 Q1005
LTBU 291150Z 20011KT 160V220 9999 SCT035 SCT100 14/05 Q1005 RMK RWY23 23012KT
LTBU 291220Z 19014KT 9999 SCT035 SCT100 15/06 Q1005
LTBU 291220Z 19014KT 9999 SCT035 SCT100 15/06 Q1005 RMK RWY23 21012KT
LTBY 291150Z 21004KT 160V280 9999 SCT030 BKN090 11/06 Q1005
LTCA 291150Z 16011KT 120V220 9999 SCT035 BKN100 18/09 Q1013 NOSIG
LTCB 291150Z 30008G18KT 270V330 9999 SCT035TCU BKN100 21/13 Q1003
LTCC 291150Z 08004KT 050V110 9999 SCT035 BKN090 16/13 Q1013 NOSIG
LTCC 291150Z 08004KT 050V110 9999 SCT035 BKN090 16/13 Q1013 NOSIG RMK RWY16 08004KT 040V120
LTCC 291220Z 10003KT 050V130 9999 SCT035 BKN090 17/13 Q1013 NOSIG
LTCC 291220Z 10003KT 050V130 9999 SCT035 BKN090 17/13 Q1013 NOSIG RMK RWY16 01004KT
LTCD 291150Z 10013KT 9999 SCT040 BKN090 16/07 Q1010 NOSIG
LTCE 291150Z 25015KT 220V280 9999 BKN032 BKN070 12/05 Q1014 NOSIG
LTCE 291150Z 25015KT 220V280 9999 BKN032 BKN070 12/05 Q1014 NOSIG RMK RWY08R 21013KT 170V250 RWY26R 25015KT RWY08L 23015KT 200V260
LTCE 291220Z 25010KT 9999 BKN033 BKN070 11/05 Q1014 NOSIG
LTCE 291220Z 25010KT 9999 BKN033 BKN070 11/05 Q1014 NOSIG RMK RWY08R 22013KT 190V260 RWY26R 25009KT 220V280 RWY08L 23014KT
LTCF 291150Z 23021KT 9999 BKN035 08/05 Q1014 RESHRA
LTCF 291150Z 23021KT 9999 FEW025CB BKN030 08/05 Q1014 RESHRA
LTCG 291150Z 12004KT 070V150 9999 SCT035 BKN100 21/18 Q1002 NOSIG
LTCG 291150Z 12004KT 070V150 9999 SCT035 BKN100 21/18 Q1002 NOSIG RMK RWY29 11004KT
LTCG 291220Z VRB05KT 9999 SCT035 BKN100 20/17 Q1002 NOSIG
LTCG 291220Z VRB05KT 9999 SCT035 BKN100 20/17 Q1002 NOSIG RMK RWY29 01012KT 320V030
LTCI 291150Z 30006KT 9999 SCT040 15/04 Q1016 NOSIG
LTCJ 291150Z 36006KT 330V030 9999 SCT040 SCT100 20/13 Q1013
LTCJ 291150Z 36006KT 330V030 9999 SCT040 SCT100 20/13 Q1013 RMK RWY20 01008KT
LTCJ 291220Z 01006KT 330V030 9999 SCT040 SCT100 21/12 Q1013
LTCJ 291220Z 01006KT 330V030 9999 SCT040 SCT100 21/12 Q1013 RMK RWY20 01007KT
LTCK 291150Z 32008KT 9999 BKN025 BKN080 08/06 Q1015
LTCN 291150Z 16006KT 130V210 9999 FEW025CB BKN030 19/14 Q1011 TEMPO -TSRA
LTCO 291150Z VRB02KT 9999 SCT030 BKN100 07/04 Q1016
LTCP 291150Z 06007KT 9999 SCT035 BKN090 15/14 Q1012
LTCR 291150Z 21005KT 160V270 9999 FEW040 24/10 Q1013
LTCS 291150Z 18014KT 9999 FEW040 SCT100 17/12 Q1014
LTCS 291150Z 18014KT 9999 FEW040 SCT100 17/12 Q1014 RMK RWY22 17016KT
LTCS 291220Z 17012KT 9999 FEW040 SCT100 17/12 Q1014
LTCS 291220Z 17012KT 9999 FEW040 SCT100 17/12 Q1014 RMK RWY22 17014KT
LTCT 291150Z 04004KT 360V090 9999 SCT035 BKN070 12/09 Q1013
LTCU 291150Z VRB02KT 5000 BR SCT014 BKN030 BKN080 10/09 Q1016 RESHRA
LTCV 291150Z 20011KT 130V230 9999 SCT040 25/06 Q1013
LTCW 291150Z 21010G21KT 130V290 9999 SCT040 16/01 Q1018
LTDA 291150Z 23016KT 9999 SCT035 25/13 Q1010
LTFC 291150Z 29003KT 210V360 9999 BKN035 14/09 Q1006
LTFC 291150Z 29003KT 210V360 9999 BKN035 14/09 Q1006 RMK RWY23 VRB03KT
LTFC 291220Z 34003KT 290V030 9999 BKN035 14/09 Q1006
LTFC 291220Z 34003KT 290V030 9999 BKN035 14/09 Q1006 RMK RWY23 30004KT 270V010
LTFD 291150Z 26010KT 9999 FEW035 16/06 Q1007
LTFE 291150Z 26013KT 9999 SCT035 BKN200 18/09 Q1007 NOSIG
LTFE 291150Z 26013KT 9999 SCT035 BKN200 18/09 Q1007 NOSIG RMK RWY10 26013KT
LTFE 291220Z 27016KT 9999 FEW035 SCT200 19/08 Q1007 NOSIG
LTFE 291220Z 27016KT 9999 FEW035 SCT200 19/08 Q1007 NOSIG RMK RWY10 26014KT
LTFG 291150Z 10006KT 060V120 6000 -SHRA FEW020CB BKN030 17/17 Q1008 RETSRA
LTFJ 291150Z 24010KT 9999 FEW019 SCT030 BKN090 13/08 Q1006 NOSIG
LTFJ 291150Z 24010KT 9999 FEW019 SCT030 BKN090 13/08 Q1006 NOSIG RMK RWY24 24008KT
LTFJ 291220Z 23010KT 9999 FEW019 SCT030 BKN090 13/08 Q1005 NOSIG
LTFJ 291220Z 23010KT 9999 FEW019 SCT030 BKN090 13/08 Q1005 NOSIG RMK RWY24 22010KT
LUKK 291200Z 21018KT 9999 SCT049 11/04 Q0991 R26/CLRD// TEMPO 22022G34KT
LUKK 291200Z 21018KT 9999 SCT049 11/04 Q0991 R26/D TEMPO 22022G34KT
LUKK 291230Z 21015KT 9999 -SHRA BKN033CB BKN048 10/05 Q0990 R26/CLRD// TEMPO 22022G34KT
LUKK 291230Z 21015KT 9999 -SHRA BKN033CB BKN048 10/05 Q0990 R26/D TEMPO 22022G34KT
LWOH 291200Z 23005KT 9999 FEW050 13/01 Q1008
LWOH 291230Z 22011G21KT 9999 FEW050 13/M04 Q1007
LWSK 291200Z VRB02KT CAVOK 15/M00 Q1004 NOSIG
LWSK 291230Z VRB02KT 9999 SCT100 15/M00 Q1004 NOSIG
LXGB 291150Z 09009KT 9999 SCT018 BKN030 20/17 Q1020 TEMPO FEW018
LYBE 291200Z 18008KT CAVOK 15/04 Q0996 NOSIG
LYBE 291230Z 18007KT CAVOK 16/04 Q0995 NOSIG
LYBT 291200Z 15008KT CAVOK 15/06 Q0995 NOSIG
LYBT 291230Z 17007KT CAVOK 15/05 Q0995 NOSIG
LYKV 291200Z 04004KT 360V090 CAVOK 15/05 Q0999 NOSIG
LYKV 291230Z VRB02KT CAVOK 15/05 Q0998 NOSIG
LYNI 291200Z 18010KT 120V230 CAVOK 14/01 Q1001 NOSIG
LYNI 291230Z 16011G21KT CAVOK 14/02 Q1000 NOSIG
LYPG 291200Z 14005KT 090V200 9999 FEW040 15/03 Q1009 NOSIG
LYPG 291230Z 14008KT 110V180 9999 FEW040 16/03 Q1008 NOSIG
LYTV 291200Z 14013KT 120V180 9999 FEW033 SCT040 19/07 Q1008 NOSIG
LYTV 291230Z 14012KT 9999 FEW033 SCT040 17/06 Q1008 NOSIG
LYUZ 291200Z 23017G30KT CAVOK 11/02 Q1000
LYUZ 291230Z 23014G25KT CAVOK 12/02 Q1000
LYVR 291200Z 15023KT 9999 BKN040 13/04 Q0995 NOSIG
LYVR 291230Z 15024KT 9999 BKN040 13/03 Q0994 NOSIG
LZIB 291200Z 28011KT 230V020 9999 FEW032 BKN053 12/04 Q0994 NOSIG
LZIB 291212Z 30025G37KT 260V330 9999 FEW044 SCT065 13/02 Q0994
LZIB 291230Z 30027G38KT 9999 FEW048 BKN062 13/01 Q0994 NOSIG
LZKZ 291200Z 32008KT 300V020 9999 FEW002 FEW010TCU SCT021 09/06 Q0985 NOSIG
LZKZ 291230Z 25005KT 220V290 9999 FEW002 10/06 Q0985 NOSIG
LZPP 291200Z 30026G36KT CAVOK 12/02 Q0992
LZPP 291230Z 29025G44KT CAVOK 11/02 Q0992
LZSL 291200Z 31020G31KT 280V340 9999 -RA FEW040 BKN052 10/02 Q0989
LZSL 291230Z 29018G28KT 270V330 9999 BKN050 10/00 Q0989
LZTT 291200Z 24020KT 9999 -SHRA SCT023 BKN040 04/01 Q0984 NOSIG
LZTT 291205Z 25021G32KT 9999 -SHRA SCT023 BKN043 04/01 Q0984
LZTT 291230Z 26021G32KT 9999 -SHRA FEW010 BKN022 04/01 Q0984 NOSIG
LZZI 291200Z 27019G31KT 9999 -SHRA SCT047TCU BKN056 OVC067 09/02 Q0988
LZZI 291230Z 28020G30KT 250V310 9999 -SHRA FEW037TCU OVC048 08/03 Q0989
MBPV 291200Z 13005KT 9999 SCT012 27/24 Q1010
MDAB 291200Z 00000KT 9999 BKN018 25/23 Q1012
MDBH 291200Z 00000KT 9999 FEW014CB SCT014 SCT080 BKN300 24/23 Q1012 CB/NE/E/NW
MDCY 291200Z 18007KT 9999 SCT018 SCT070 25/24 Q1011
MDJB 291200Z 00000KT 9999 FEW016CB SCT018 BKN070 24/24 Q1012 CB/E/SE
MDLR 291200Z 00000KT 7000 -TSRA FEW012CB SCT014 BKN070 24/24 Q1012 CB/NE/E/SE/SW/NW/N
MDPC 291200Z 14010KT 8000 -RA FEW016CB SCT018 BKN070 25/24 Q1012 CB/S
MDPP 291200Z 00000KT 9999 FEW018 BKN300 24/23 Q1011
MDSD 291200Z 00000KT 9999 FEW016CB SCT016 SCT070 25/24 Q1011 CB/SE
MDST 291200Z 00000KT 9999 SCT018 SCT300 23/23 Q1011
MGCB 291200Z 00000KT 2000 BR OVC002 15/15 QFE 871.9 APCH CLSD
MGES 291200Z 00000KT 6000 OVC014 18/17 QFE 909.6 BR
MGGT 291200Z 02010KT 9999 BKN013 SCT090 16/14 Q1025 A3027
MGHT 291200Z 00000KT 9999 OVC010 14/13 QFE 819/5 MTN SMC N CUB/CL
MGHT 291200Z 00000KT 9999 OVC010 14/13 QFE 819.5 MTN SMC N CUB/CL
MGMM 291200Z 24004KT 9999 OVC010 20/20 Q1017 A3003
MGMT 291200Z 00000KT CAVOK 24/23 QFE 1009.5 BKN070 SCT200
MGPB 291200Z 27004KT 9999 FEW018 BKN090 24/21 Q1015 A2997
MGQZ 291200Z 34006KT 9999 SCT015 SCT080 12/11 QFE 772/6
MGQZ 291200Z 34006KT 9999 SCT015 SCT080 12/11 QFE 772.6
MGRT 291200Z 00000KT 9999 BKN018 BKN090 23/21 Q1014 A2994 VOL. SANTA MARIA Y SANTIAGUITO EN ACTIVIDAD
MGSJ 291200Z 00000KT 8000 VCSH FEW018 SCT060 BIKN080 24/24 Q1012 A2988 BR TCU SE PCPN SW
MGZA 291200Z 00000KT 9999 FEW015 SCT028 21/20 QFE 989/8 SCT200
MGZA 291200Z 00000KT 9999 FEW015 SCT028 21/20 QFE 989.8 SCT200
MHAM 291200Z 00000KT CAVOK 25/24
MHCA 291200Z 25002KT 9999 SCT022 OVC070 21/ Q1015
MHCH 291200Z 00000KT 9999 FEW024 BKN080 22/22 HZ
MHLC 291200Z VRB02KT 6000 VCSH BKN022 OVC070 22/22 Q1014 A2995 NOSIG
MHLE 291200Z 01004KT 9999 BKN020 OVC070 15/14 VCSH NNW
MHLE 291200Z 01004KT 9999 BKN020 OVC070 15/14 VCSH NNW METAR MHCH 291200Z 00000KT 9999 FEW024 BKN080 22/22 HZ
MHLM 291200Z 18002KT 9999 SCT020 BKN080 23/23 Q1015 A2997 NOSIG
MHNO 291200Z 35002KT 9999 FEW035 19/17 HZ
MHRO 291200Z 26012KT 7000 VCSH BKN020TCU OVC070 26/22 Q1013 A2992 NOSIG
MHSC 291158Z AUTO 02005KT 9999 BKN032 OVC043 20/20 A3004 RMK AO2 SLP145 60000 70087 T01990199 10200 20196 52018 $
MHSR 291200Z 00000KT 5000 -DZ FEW003 BKN018 BKN080 17/16 5 KMS ALL VCSH
MHTG 291200Z 04006KT 6000 3000SW BR FEW004 BKN020 BKN080 17/17 Q1019 A3009 NOSIG
MHTR 291200Z 09004KT 8000 -DZ SCT20 OVC080 23/22 8 KMS ALL VCSH
MHYR 291200Z 27003KT 9999 SCT018 BKN070 19/19 HZ
MKJP 291200Z 09004KT 9999 SCT020 SCT038 28/25 Q1011
MKJS 291200Z 19007KT 9999 FEW018 SCT020CB 27/24 Q1010
MMAA 291151Z 00000KT 6SM FEW015 SCT080 25/24 A2987 RMK SLP098 57014 911 8/130 HZY DSNT CB E
MMAN 291241Z 28005KT 15SM SKC 05/02 A3018 RMK RTS
MMAS 291150Z 00000KT 8SM SKC 08/05 A3022 RMK SLP134
MMCE 291221Z RTD 26003KT 7SM FEW010TCU SCT070 23/// A2998 RMK SLP152 5//// 933 8/270 RTS
MMCZ 291240Z 33015KT 8SM FEW080 25/22 A2991 RMK 8/070
MMDO 291242Z 00000KT 10SM SKC 05/03 A3022
MMGL 291153Z 00000KT 10SM SCT090 BKN300 14/12 A3015 RMK SLP104 54000 925 8/038
MMHO 291241Z 09003KT 10SM SKC 20/06 A2985 RMK HZY
MMIO 291200Z 00000KT 10SM BKN040 05/M02 A3020 RMK 8/500
MMIO 291240Z 00000KT 10SM SCT040 06/00 A3020 RMK 8/500 AC
MMLO 291146Z 00000KT 8SM SCT220 09/07 A3026 RMK SLP140 52010 911 8/002
MMLO 291241Z 00000KT 8SM BKN080 BKN220 10/08 A3027 RMK 8/052 HZY
MMLP 291244Z 17005KT 10SM SKC 19/18 A2987 RMK RTS
MMMD 291152Z 00000KT 5SM -RA OVC010 22/21 A2996 RMK SLP155 52012 938 60275 8/7// HZY
MMMM 291145Z 00000KT 4SM SCT230 08/08 A3020 RMK SLP123 54000 917 8/001 HZY
MMMM 291240Z 00000KT 3SM BR HZ FEW230 08/08 A3021 RMK 8/001
MMMX 291145Z 07005KT 7SM FEW090 BKN200 13/07 A3028 NOSIG RMK SLP097 52009 952 8/032 HZY
MMMY 291145Z 28006KT 15SM SKC 05/01 A3014 RMK SLP226 56006 952
MMMY 291243Z 30007KT 15SM SKC 05/00 A3015
MMMZ 291240Z 06004KT 10SM SKC 23/21 A2988 RMK HZY
MMOX 291203Z 00000KT 7SM FEW020 SCT040 BKN120 OVC210 14/12 A3024 RMK 8/536 BINOVC HZY
MMOX 291243Z 00000KT 10SM SCT070 SCT120 OVC210 14/12 A3025 RMK 8/036 BINOVC HZY
MMPR 291145Z 04004KT 12SM BKN030 25/23 A2986 RMK SLP109 52002 933 8/50 AC
MMPR 291243Z 01005KT 12SM FEW030 BKN070 25/23 A2987 RMK 8/530
MMQT 291145Z 00000KT 0SM FG SCT020 08/08 A3028 RMK 8/500
MMRX 291244Z 00000KT 2SM BR FU HZ SKC 06/M02 A3015
MMSD 291208Z RTD 00000KT 12SM SKC 17/09 A2987 RMK SLP104 5//// 929 RTS
MMSL 291242Z 30007KT 8SM SKC 20/02 A2992 RMK RTS
MMSP 291145Z 00000KT 1SM BR FEW003 OVC005 08/08 A3021 RMK SLP140 57006 909 8/6// COND VRB
MMTC 291207Z RTD 00000KT 8SM SCT100 13/01 A3012 RMK SLP140 5//// 964 8/070 RTS
MMTC 291244Z 00000KT 10SM FEW100 13/01 A3013 RMK 8/070
MMTG 291240Z 24003KT 7SM FEW015 BKN070 BKN300 19/18 A3005 RMK 8/152 HZY
MMTG 291240Z 24003KT 7SM FEW015 BKN070 BKN300 19/18 A305 RMK 8/152 HZY
MMTJ 291145Z 00000KT 2SM BR OVC005 17/15 A2990 RMK SLP127 54002 952 8/6//
MMTM 291240Z E31010KT 10SM BKN040 OVC080 17/00 A3012 RMK 8/52/ VC FU N MOV E
MMTO 291146Z 22004KT 3SM BR HZ SCT015 BKN070 08/06 A3033 RMK SLP122 57002 912 8/630
MMTP 291241Z 00000KT 10SM OVC160 24/24 A2990 RMK 8/09/ HZY BINOVC
MMUN 291147Z 26003KT 7SM SCT020 20/20 A2991 RMK SLP131 52011 940 8/500
MMUN 291242Z 27003KT 7SM SCT020 21/21 A2993 RMK 8/500 TCU N
MMVA 291243Z 25007KT 2 1/2SM BR BKN008 OVC060 21/21 A3003 RMK 8/72/ OCNL DROPS
MMVR 291243Z 00000KT 7SM OVC070 19/16 A3007 RMK 8/07/ HZY
MMZC 291146Z 20006KT 8SM SKC 04/01 A3023
MMZC 291241Z 00000KT 10SM SKC 04/01 A3025
MNBL 291200Z 29004KT 9999 FEW017 SCT022 23/23 Q1012
MNCH 291200Z 00000KT 9999 FEW024CB SCT025 22/22 Q1012 CB/S/SW
MNJG 291200Z 36008KT 5000 BR SCT016 19/17 Q1013
MNMG 291200Z 00000KT 9999 FEW020 SCT070 24/23 Q1011 A2988 1CI300 NOSIG
MNPC 291200Z 35004KT 7000 SCT016 23/22 Q1010 HZ
MNRS 291200Z 00000KT 6000 RA SCT012CB SCT013 24/24 Q1012 CB 4/C
MPBO 291200Z 00000KT 9999 SCT016 BKN090 Q1014
MPDA 291200Z 00000KT 9999 FEW004 FEW015CB SCT110 24/// Q1011
MPMG 291200Z 00000KT 9999 FEW010 SCT018 BKN090 24/24 Q1013 REDZ RWY DAMP NOSIG
MPPA 291200Z 00000KT 9000 DZ FEW005 FEW016 BKN070 Q1012 RWY WET
MPSM 291200Z 34003KT 9999 SCT030 OVC120 24/24 Q1012
MPTO 291200Z 00000KT 9999 FEW008 SCT016 BKN080 24/24 Q1014 NOSIG
MRLB 291200Z 34002KT 4000 BR SCT010 BKN025 24/23 A2992 NOSIG
MRLM 291200Z 27004KT CAVOK 23/21 A2989
MROC 291200Z 10003KT CAVOK 18/17 A3006 NOSIG
MRPV 291200Z 09001KT CAVOK 17/16 A3008 NOSIG
MSAC 291150Z 06005KT 9999 FEW027 SCT043 24/22 Q1010 A2984
MSLP 291150Z 08003KT 050V110 CAVOK 22/21 Q1011 A2987
MSLP 291150Z 08003KT 050V110 CAVOK 22/21 Q1011 A2987 NOSIG
MSSS 291150Z 35007KT CAVOK 20/19 Q1015 A2998
MTCH 291200Z VRB02KT 9000 SCT032 BKN060 26/23 Q1011 A2988
MTPP 291200Z VRB02KT 9000 FEW022 BKN050 27/25 Q1010 A2985
MUCC 291151Z 25012KT 9000 BKN020 26/23 Q1008
MUCF 291159Z AUTO 26006KT 24/22 Q1010
MUCL 291151Z 29009KT 9000 FEW020 BKN200 25/22 Q1010
MUCM 291151Z 20005KT 6000 VCFG SCT012 24/24 Q1010
MUCU 291150Z 19008KT 8000 FEW018CB SCT060 28/22 Q1011
MUGM 291156Z 21013KT 9999 SCT024 BKN030 BKN080 29/27 A2986 RMK SLP109 T02890267 10289 20278 50009
MUHA 291155Z 31007KT 9000 SCT025 25/19 Q1009
MUHG 291150Z 22005KT 7000 -RA SCT018 BKN070 24/23 Q1010
MUSC 291150Z 24009KT 8000 BKN020 23/21 Q1009
MUVR 291150Z 28008KT 250V310 8000 -RA SCT020 24/22 Q1009
MWCB 291200Z 30008KT 280V340 9999 FEW018 28/22 Q1011
MWCR 291200Z 31004KT 9999 FEW018 27/23 Q1010
MYGF 291200Z 29016KT 8000 -RA SCT010 BKN012CB BKN070 25/24 A2956 RMK CB NE THRU SE
MYNN 291200Z 19017KT 9999 SCT012CB BKN080 26/26 A2966 RMK CBNW PKWND23KT
MZBZ 291200Z 00000KT 9999 FEW045 22/21 A2996 Q1014 NOSIG
NCAI 291200Z AUTO 13007KT 100V180 //// ////// 23/20 Q1012
NCPY 291200Z AUTO 05001KT //// ///// 26/24 Q1007
NCRG 291200Z 14009KT 9999 FEW025 SCT290 23/18 Q1013
NFFN 291200Z 00000KT 9999 FEW028 SCT048 BKN120 25/20 Q1011 NOSIG
NFNA 291200Z 00000KT 9999 SCT020 BKN045 BKN110 24/23 Q1012
NFTF 291200Z 09007KT 9999 -DZ SCT009 SCT016 BKN110 23/21 Q1014
NFTL 291200Z 10015KT 9999 FEW017 BKN120 26/22 Q1013
NFTV 291200Z 07012KT 9999 FEW009 SCT017 BKN110 25/22 Q1012
NGFU 291200Z 36004KT 9999 FEW020 28/23 Q1010
NGTA 291200Z 22003KT 9999 FEW020 SCT300 28/24 Q1009
NIUE 291200Z AUTO 13005KT //// ////// 23/22 Q1013
NSFA 291200Z 12004KT 9999 FEW030 23/22 Q1010 RMK DEW
NSTU 291150Z 12013KT 10SM FEW022 SCT045 BKN120 27/25 A2981 RMK SLP097 8/870 T02700251 10280 20270 56014
NTAA 291200Z 07007KT 9999 FEW023 BKN070 26/21 Q1010 NOSIG
NTAA 291230Z 06008KT 9999 FEW023 26/21 Q1010 NOSIG
NWWW 291200Z AUTO VRB02KT 9999 FEW043 20/16 Q1013 NOSIG
NWWW 291230Z AUTO 00000KT 9999 FEW044 20/16 Q1013 NOSIG
NZAA 291200Z AUTO 06009KT 9999 BKN050/// BKN075/// 16/14 Q1026 NOSIG
NZAA 291230Z AUTO 06007KT 9999 FEW041/// BKN075/// 16/14 Q1026 NOSIG
NZCH 291200Z AUTO 32003KT 5000 BR NCD 12/11 Q1021 BECMG 0500 FG
NZCH 291230Z AUTO 34003KT 0200 R02/1100D R20/0800D FG VV003 11/10 Q1021 NOSIG
NZCM 291155Z 07010G19KT 9999 SCT080 SCT140 M15/M20 A2905 RMK PK WND 05028/04 SLP842 SN DSNT S-W
NZSP 291150Z 05008KT 9999 IC FEW030 SCT060 M43/ A2854 RMK CLN AIR 06008KT ALL WNDS GRID SDG/HDG
NZWN 291200Z AUTO 35015KT 9999 OVC018/// 16/13 Q1025 NOSIG
NZWN 291230Z AUTO 35016KT 9999 BKN020/// OVC085/// 16/13 Q1025 NOSIG
OAHR 291155Z 25010KT CAVOK 30/M03 Q1019 RMK BLU
OAJL 291155Z 00000KT 9999 CLR 26/08 A3000 RMK AO2A SLP134 T02630078 10270 20118 57006
OAJL 291155Z COR 00000KT 9999 SCT300 26/08 A3000 RMK AO2A SLP134 T02630078 10270 20118 57006 COR 1205
OAKB 291150Z 07003KT CAVOK 22/M14 Q1022 NOSIG RMK A3020 BLU BLU
OAKN 291155Z 00000KT 9999 CLR 28/M09 A3008 RMK AO2A SLP101 Q1019 55005 DA5398
OAMS 291150Z 07017KT 4000 -BLDU FEW250 27/M01 Q1014 GRN WHT TEMPO YLO
OBBI 291200Z 09006KT CAVOK 32/20 Q1013 NOSIG
OBBI 291230Z 09006KT CAVOK 31/21 Q1013 NOSIG
OEAB 291200Z 18005KT 9999 FEW020 24/14 Q1023 NOSIG
OEAH 291200Z 24007KT CAVOK 36/04 Q1013 NOSIG
OEAO 291200Z 17010KT CAVOK 34/11 Q1014
OEAR 291200Z 20012KT 9999 SCT040 36/19 Q1010
OEBA 291200Z 12004KT 9999 FEW025 29/03 Q1019 NOSIG
OEBH 291200Z 09004KT CAVOK 32/00 Q1016 NOSIG
OEDF 291200Z 23004KT CAVOK 37/04 Q1012 NOSIG
OEDM 291200Z 21010KT CAVOK 34/00 Q1016
OEDR 291200Z 10009KT CAVOK 36/13 Q1011 NOSIG
OEGN 291200Z 19009KT 9999 FEW030 35/24 Q1009 NOSIG
OEGS 291200Z 21005KT CAVOK 35/08 Q1013
OEGT 291200Z 28002KT CAVOK 25/02 Q1013 NOSIG
OEHL 291200Z 21006KT CAVOK 33/03 Q1015
OEJN 291200Z 25016KT 9999 FEW040 32/23 Q1008 NOSIG
OEKM 291200Z 03003KT 9999 FEW022 26/14 Q1023 NOSIG
OEMA 291200Z 26010KT CAVOK 37/M04 Q1013 NOSIG
OEMK 291200Z 21004KT 9999 FEW040 39/19 Q1008
OENG 291200Z 10004KT CAVOK 30/01 Q1018 NOSIG
OEPA 291200Z 23010KT CAVOK 37/09 Q1013 NOSIG
OERF 291200Z 30005KT 0200 DU SKC 29/03 Q1012
OERK 291200Z 16005KT CAVOK 33/M01 Q1016 NOSIG
OERR 291200Z 07002KT 0100 HZ VV/// 28/15 Q1012 NOSIG
OESH 291200Z 08010KT CAVOK 32/03 Q1014 NOSIG
OESK 291200Z 02003KT 0400 HZ SKC 29/01 Q1013 NOSIG
OETB 291200Z 23006KT CAVOK 28/09 Q1013 NOSIG
OETF 291200Z 36004KT 9999 FEW030 31/03 Q1019 NOSIG
OETR 291200Z 20006KT 1000 DU SKC 25/08 Q1014
OEWD 291200Z 15008KT CAVOK 32/07 Q1014 NOSIG
OEWJ 291200Z 30017KT CAVOK 30/21 Q1010
OEYN 291200Z 24012KT CAVOK 34/22 Q1008 NOSIG
OIAA 291200Z 16008KT CAVOK 36/11 Q1012
OIAH 291200Z 15004KT CAVOK 32/M06 Q1017
OIAM 291200Z 18012KT CAVOK 33/20 Q1012
OIAW 291151Z 18006KT 8000 NSC 36/16 Q1011
OIAW 291200Z 18006KT 8000 NSC 36/16 Q1011
OIAW 291224Z 18006KT 8000 NSC 36/14 Q1011
OIBA 291200Z 30012KT 6000 NSC 33/23 Q1011
OIBB 291150Z 28010KT 6000 NSC 31/18 Q1012 A2990
OIBB 291200Z 28010KT 6000 NSC 31/18 Q1012 A2990
OIBJ 291200Z 23008KT CAVOK 32/05 Q1017
OIBK 291200Z 29006KT 8000 NSC 34/19 Q1012
OIBL 291200Z 16004KT 6000 NSC 32/23 Q1011
OIBP 291200Z 29010KT CAVOK 34/18 Q1009 A2982
OIBP 291230Z 29010KT CAVOK 33/21 Q1009 A2983
OIBQ 291200Z 11008KT CAVOK 32/23 Q1012
OIBS 291200Z 33012KT CAVOK 34/20 Q1012
OICC 291150Z 16016KT 9999 FEW045 26/M04 Q1018 A3009 NOSIG
OICC 291200Z 16016KT 9999 FEW045 26/M04 Q1018 A3009 NOSIG
OICC 291230Z 18014KT 9999 FEW045 26/M04 Q1019 A3009 NOSIG
OICI 291200Z 15010KT CAVOK 25/02 Q1019 A3011
OICK 291150Z 23020KT CAVOK 27/M05 Q1019
OICK 291200Z 23020KT CAVOK 27/M05 Q1019
OICK 291230Z 24014KT CAVOK 26/M06 Q1019
OICS 291153Z 19016KT 8000 FEW040 26/M03 Q1016
OICS 291200Z 19016KT 8000 FEW040 26/M03 Q1016
OIFM 291200Z 11004KT CAVOK 26/M07 Q1020 A3013 NOSIG
OIFM 291230Z 13004KT CAVOK 25/M07 Q1020 A3013
OIFS 291150Z 19006KT CAVOK 23/M11 Q1024
OIFS 291200Z 19006KT CAVOK 23/M11 Q1024
OIGG 291200Z 35006KT 9999 BKN017 21/19 Q1007
OIGG 291230Z 36006KT 9999 BKN017 21/19 Q1007
OIHH 291152Z 25010G19KT CAVOK 23/M05 Q1020
OIHH 291200Z 25010G19KT CAVOK 23/M05 Q1020
OIIE 291200Z 24008KT CAVOK 30/M08 Q1014
OIIE 291230Z 24008KT CAVOK 30/M08 Q1014
OIII 291200Z 21008KT 8000 NSC 28/M06 Q1016 A3001
OIII 291230Z 24012KT 8000 NSC 28/M07 Q1016 A3000
OIIK 291153Z 26010KT 5000 DU FEW035CB SCT040TCU 26/M01 Q1015
OIIK 291200Z 26010KT 5000 DU FEW035CB SCT040TCU 26/M01 Q1015
OIIP 291200Z 27008KT 8000 FEW040 28/M10 Q1016
OIKB 291200Z 20012KT 5000 HZ NSC 32/26 Q1011 A2986 NOSIG
OIKB 291230Z 20012KT 5000 HZ NSC 32/26 Q1011 A2986
OIKK 291150Z 23004KT CAVOK 29/M15 Q1022 A3021
OIKK 291200Z 23004KT CAVOK 29/M15 Q1022 A3021
OIKQ 291200Z 22014KT 4000 SA NSC 31/26 Q1011
OIMB 291150Z 26010KT CAVOK 28/M08 Q1020
OIMB 291200Z 26010KT CAVOK 28/M08 Q1020
OIMC 291155Z AUTO 22002KT //// // ////// 34/06 Q1008
OIMC 291200Z AUTO 22002KT //// // ////// 34/06 Q1008
OIMM 291200Z 04006KT 9000 4000NW HZ NSC 30/M01 Q1015 A2998
OIMM 291230Z 00000KT 9999 4000NW HZ NSC 28/02 Q1015 A2998
OIMN 291200Z 24006KT CAVOK 29/M00 Q1015
OIMQ 291200Z AUTO 25008KT //// // ////// 29/M02 Q1017
OINE 291200Z 00000KT 7000 NSC 32/14 Q1007
OING 291200Z 09008KT 7000 NSC 30/18 Q1008
OINN 291200Z 05004KT 6000 SCT017 23/20 Q1005
OINR 291200Z 10006KT 6000 FEW027 22/20 Q1005
OINZ 291200Z 06008KT 5000 HZ NSC 27/19 Q1006
OISF 291150Z 22006KT CAVOK 29/M03 Q1018
OISF 291200Z 22006KT CAVOK 29/M03 Q1018
OISL 291150Z 00000KT CAVOK 33/04 Q1015
OISL 291200Z 00000KT CAVOK 33/04 Q1015
OISR 291200Z 26004KT CAVOK 36/11 Q1014
OISS 291150Z 13004KT CAVOK 28/M07 Q1021 A3017
OISS 291200Z 13004KT CAVOK 28/M07 Q1021 A3017
OISS 291225Z 17004KT CAVOK 27/M07 Q1021 A3016
OISS 291230Z 17004KT CAVOK 27/M07 Q1021 A3016
OISY 291200Z 18010KT CAVOK 24/M18 Q1024
OITL 291151Z 23019G31KT 7000 3000SE SA FEW035TCU 24/03 Q1012
OITL 291200Z 23019G31KT 7000 3000SE SA FEW035TCU 24/03 Q1012
OITL 291230Z 21019G33KT 7000 3000SE SA FEW035TCU 23/02 Q1012
OITM 291200Z 26014KT 3000 DU BKN100 22/01 Q1015
OITR 291151Z 22019KT 4000 DU FEW035CB FEW040 22/M02 Q1014 NOSIG
OITR 291200Z 22019KT 4000 DU FEW035CB FEW040 22/M02 Q1014 NOSIG
OITR 291230Z 22019KT 4000 DU FEW035CB FEW040 22/M02 Q1014
OITT 291200Z 24018KT 4000 DU NSC 22/M02 Q1015 A2997 NOSIG
OITT 291230Z 22019KT 180V270 4000 DU NSC 22/M02 Q1015 A2997
OITZ 291200Z 24017KT 8000 FEW030TCU BKN035 23/M05 Q1016
OIYY 291150Z 12002KT CAVOK 30/M09 Q1019
OIYY 291200Z 12002KT CAVOK 30/M09 Q1019
OIYY 291220Z 10004KT CAVOK 30/M09 Q1019
OIYY 291230Z 10004KT CAVOK 30/M09 Q1019
OIZB 291200Z 00000KT CAVOK 36/02 Q1012
OIZH 291200Z 03004KT CAVOK 29/M04 Q1021 A3015 NOSIG
OIZI 291200Z 25004KT CAVOK 35/M03 Q1015
OIZJ 291150Z 22008KT 6000 NSC 30/27 Q1010
OIZJ 291200Z 22008KT 6000 NSC 30/27 Q1010
OJAI 291200Z 24008KT 8000 NSC 24/06 Q1015 NOSIG
OJAM 291200Z 24008KT 5000 HZ NSC 23/05 Q1015 NOSIG
OJAQ 291200Z 00000KT CAVOK 31/14 Q1010 NOSIG
OKBK 291200Z 12013KT CAVOK 34/13 Q1012 NOSIG
OLBA 291200Z 24017KT 8000 BKN026 25/18 Q1012 NOSIG
OMAA 291200Z 32010KT CAVOK 34/15 Q1012 NOSIG
OMAD 291200Z 33009KT CAVOK 34/17 Q1012 NOSIG
OMAL 291200Z 28005KT 200V330 CAVOK 36/03 Q1013 BECMG 34008KT
OMDB 291200Z 31014KT CAVOK 33/21 Q1012 NOSIG
OMDW 291200Z 32013KT CAVOK 35/14 Q1013 NOSIG
OMFJ 291200Z 09007KT 060V120 8000 NSC 32/20 Q1012 RMK A2989
OMFJ 291200Z 09007KT 060V120 8000 NSC 33/20 Q1012 RMK A2989
OMRK 291200Z 35010KT CAVOK 33/21 Q1012 A2990
OMSJ 291200Z 30013KT CAVOK 34/18 Q1012
OOMS 291150Z 05008KT CAVOK 31/23 Q1012 NOSIG
OOSA 291150Z 17009KT CAVOK 30/21 Q1012 NOSIG
OPKC 291155Z 00000KT 6000 NSC 33/07 Q1014 NOSIG
OPKC 291225Z 23006KT 6000 NSC 32/09 Q1014 NOSIG
OPLA 291155Z 34008KT 2500 HZ NSC 28/15 Q1015/A30.00 NOSIG
OPLA 291225Z 00000KT 2500 HZ NSC 27/15 Q1016/A30.00
OPMT 291150Z 00000KT 3000 HZ NSC 31/14 Q1013 TEMPO 2500
OPNH 291200Z 23006KT 6000M NSC 37/07 Q.1012 NOSIG
OPPS 291200Z 05004KT 2500 HZ SKC 25/11 Q1015
OPPS 291230Z 05004KT 2500 HZ SKC 25/11 Q1015
OPRN 291200Z 00000KT 2000 HZ NSC 27/15 Q1017.8/30.06
OPSK 291200Z 27004KT 4000 HZ NSC 36/17 QNH 1011 NOSIG
OPST 291200Z 00000KT 2500 FU NSC 25/14 Q1016 BECMG 2000 RH51
ORBD 291155Z 21006KT 170V230 6000 HZ FEW035 33/14 A2983 RMK WND DATA ALSTG ESTMD
ORBI 291200Z 20006KT 160V220 CAVOK 33/13 Q1010 NOSIG
ORER 291200Z 17006KT 0800 DS VV/// 29/05 Q1014 NOSIG
ORMM 291200Z 15012KT CAVOK 38/07 Q1011 NOSIG
ORNI 291200Z 16007KT 7000 NSC 35/06 Q1009 NOSIG
ORSU 291200Z 22007KT 8000 SCT045 BKN065 29/07 Q1016
ORSU 291200Z 22015KT 8000 SCT045 BKN065 29/07 Q1016
OSDI 291200Z 25015KT 9999 FEW030 26/10 Q1013
OSKL 291200Z 17005KT CAVOK 25/07 Q1012
OSLK 291200Z 21010KT 9999 SCT026TCU SCT030 BKN100 24/16 Q1010
OTBD 291200Z 10009KT CAVOK 33/19 Q1012 NOSIG
OTBH 291156Z AUTO 36006KT 9999 CLR 36/07 A2991 RMK AO2 SLP129 60000 7//// T03580069 10363 20316 56014
OTBH 291156Z COR AUTO 36006KT 9000 HZ CLR 36/07 A2991 RMK AO2A SLP129 T03580069 10363 20316 56014 COR 1221
OTHH 291200Z 10010KT CAVOK 32/18 Q1012 NOSIG
PAAD 291155Z AUTO 23012KT 10SM SCT055 OVC085 M03/M05 A3018 RMK AO2 T10271046 11006 21035
PAAD 291215Z AUTO 22010KT 10SM OVC085 M03/M05 A3018 RMK AO2 T10311050
PAAD 291235Z AUTO 22009KT 10SM OVC085 M03/M05 A3018 RMK AO2 T10321050
PAAK 291152Z AUTO 33010G30KT 10SM -RA FEW018 BKN028 OVC085 05/01 A2951 RMK AO2 PK WND 35037/1131 P0000
PAAQ 291153Z AUTO 34011KT 10SM CLR 02/M02 A3028 RMK AO2 SLP258 T00221022 10033 20022 58012 TSNO
PABA 291152Z AUTO 27017KT 10SM OVC085 M02/M03 A3018
PABA 291152Z AUTO 27017KT 10SM OVC085 M02/M03 A3018 RMK AO2 SLP205 60000 T10171033 10000 21039 51022 FZRANO TSNO
PABE 291153Z 14004KT 10SM SCT039 OVC055 02/01 A3000 RMK AO2 SLP166 60000 70039 T00220011 10039 20022 58007 $
PABI 291153Z AUTO 10010KT 10SM CLR M01/M03 A3022
PABI 291153Z AUTO 10010KT 10SM CLR M01/M03 A3022 RMK AO2 SLP259 T10111028 11006 21017 57012 TSNO
PABL 291149Z AUTO 00000KT 9SM -SN BKN013 OVC022 M08/M09 A3012 RMK AO2 SNB41 P0000 FZRANO
PABL 291156Z AUTO 00000KT 9SM -SN SCT013 OVC020 M08/M09 A3012 RMK AO2 SNB41 SLP201 P0000 60000 T10781089 11072 21106 58007 FZRANO
PABL 291209Z AUTO 00000KT 8SM -SN BKN013 OVC020 M08/M08 A3012 RMK AO2 P0000 FZRANO
PABR 291153Z AUTO 20016KT 10SM CLR M09/M11 A3000
PABR 291153Z AUTO 20016KT 10SM CLR M09/M11 A3000 RMK AO2 SLP159 60001 70005 T10891111 51012 TSNO $
PABT 291153Z 14003KT 4SM -RA BR OVC007 01/00 A3018 RMK AO2 RAB38 SLP234 PCPN VRY LGT 60000 70014 931000 4/014 I6000 T00110000 10011 20006 53001 $
PACD 291153Z AUTO 12015G24KT 10SM FEW020 BKN025 OVC040 08/07 A2966
PACD 291153Z AUTO 12015G24KT 10SM FEW020 BKN025 OVC040 08/07 A2966 RMK AO2 SLP045 60010 70045 T00780067 10078 20056 56025 TSNO
PACD 291244Z AUTO 14023G29KT 10SM FEW022 SCT027 OVC040 08/07 A2964
PACD 291244Z AUTO 14023G29KT 10SM FEW022 SCT027 OVC040 08/07 A2964 RMK AO2 PK WND 14029/1241 T00780072 TSNO
PACM 291149Z AUTO 15010KT 10SM SCT005 BKN008 OVC019 03/02 A2996 RMK AO2 RAB03E12B29E30UPB12E29 P0000
PACM 291156Z AUTO 15008KT 5SM BR BKN003 BKN008 OVC012 03/02 A2996 RMK AO2 RAB03E12B29E30UPB12E29 SLP142 P0000 60018 70030 T00280022 10028 20022 50008
PACM 291206Z AUTO 15011KT 2SM BR BKN003 OVC010 03/02 A2996 RMK AO2 VIS 1 1/2V4
PACM 291242Z AUTO 14011KT 4SM BR OVC003 03/02 A2996 RMK AO2
PACV 291153Z 00000KT 10SM BKN130 01/01 A3040 RMK AO2 SLP295 T00110011 10028 20000 58012
PACZ 291155Z AUTO 15014KT 10SM OVC015 04/03 A2990
PACZ 291155Z AUTO 15014KT 10SM OVC015 04/03 A2990 RMK AO2 SLP131 60012 70020 T00350028 10039 20020 53006
PACZ 291205Z AUTO 15012KT 10SM OVC018 03/03 A2990
PACZ 291205Z AUTO 15012KT 10SM OVC018 03/03 A2990 RMK AO2 SLP131
PACZ 291220Z AUTO 15012KT 10SM OVC014 04/03 A2990
PACZ 291220Z AUTO 15012KT 10SM OVC014 04/03 A2990 RMK AO2 SLP131
PADE 291153Z AUTO 25003KT 10SM BKN120 M11/M12 A3009 RMK AO2 SLP189 70009 I6000 T11061122 11100 21150 58004 TSNO
PADK 291156Z AUTO 01022G37KT 5SM -RA BR BKN022 OVC030 04/02 A2962
PADK 291156Z AUTO 01022G37KT 5SM -RA BR BKN022 OVC030 04/02 A2962 RMK AO2 PK WND 36037/1149 RAE26B49 SLP030 P0001 60003 70003 T00390017 10050 20039 55010
PADL 291156Z AUTO 06005KT 10SM -RA FEW028 SCT037 OVC044 03/02 A3001
PADL 291156Z AUTO 06005KT 10SM -RA FEW028 SCT037 OVC044 03/02 A3001 RMK AO2 SLP167 P0001 60001 70001 T00330022 10056 20033 58012
PADM 291156Z AUTO 09008KT 10SM BKN042 03/02 A2997 RMK AO2 SLP158 60004 70016 T00280022 10050 20028 56008
PADQ 291153Z AUTO 08019KT 4SM RA BR BKN008 OVC011 07/07 A3005
PADQ 291153Z AUTO 08019KT 4SM RA BR BKN008 OVC011 07/07 A3005 RMK AO2 SLP176 P0018 60025 70025 T00720067 10072 20067 56045 TSNO
PADU 291156Z AUTO 07012G17KT 6SM -RA BR SCT006 OVC014 07/06 A2952 RMK AO2 SLP000 P0002 60006 70035 T00720061 10078 20061 57035
PAED 291156Z AUTO 32011KT 10SM CLR 02/01 A3026
PAED 291156Z AUTO 32011KT 10SM CLR 02/01 A3026 RMK AO2 SLP244 T00200013 10039 21004 58019
PAED 291156Z COR 32011KT 10SM SCT160 02/01 A3026
PAED 291156Z COR 32011KT 10SM SCT160 02/01 A3026 RMK AO2 SLP244 T00200013 10039 21004 58019 COR 1210
PAEG 291153Z AUTO 12010G15KT 10SM FEW120 02/M03 A3027 RMK AO2 SLP260 T00221028 10039 20017 50001 TSNO $
PAEH 291155Z AUTO 12016G25KT 10SM -RA BKN011 06/04 A2989
PAEH 291155Z AUTO 12016G25KT 10SM -RA BKN011 06/04 A2989 RMK AO2 RAB0955 SLP126 P0006 60035 70048 T00580036 10066 20053 58014
PAEI 291156Z 00000KT 10SM FEW120 BKN130 M02/M03 A3024
PAEI 291156Z 00000KT 10SM FEW120 BKN130 M02/M03 A3024 RMK AO2A SLP250 WND DATA ESTMD ALSTG/SLP ESTMD 70004 T10191030 $
PAEN 291153Z AUTO 02007KT 10SM CLR 01/01 A3023
PAEN 291153Z AUTO 02007KT 10SM CLR 01/01 A3023 RMK AO2 SLP239 T00060006 10022 20006 58029 TSNO
PAFA 291153Z 00000KT 10SM BKN080 BKN100 OVC120 M01/M01 A3023
PAFA 291153Z 00000KT 10SM BKN080 BKN100 OVC120 M01/M01 A3023 RMK AO2 SLP244 T10061006 10006 21011 57009
PAFB 291158Z AUTO 07003KT 10SM FEW080 M01/M01 A3023
PAFB 291158Z AUTO 07003KT 10SM FEW080 M01/M01 A3023 RMK AO2 SLP244 T10091012 10009 21015 57008 $
PAFM 291156Z AUTO 02007KT 10SM OVC020 M02/M03 A3018 RMK AO2 SLP234 70016 T10221033 11022 21044 56004 FZRANO
PAFR 291153Z AUTO 35006KT 10SM CLR 02/M01 A3026
PAFR 291153Z AUTO 35006KT 10SM CLR 02/M01 A3026 RMK AO1
PAFR 291213Z AUTO 31003KT 10SM CLR 01/M02 A3025
PAFR 291213Z AUTO 31003KT 10SM CLR 01/M02 A3025 RMK AO1
PAFR 291233Z AUTO 01003KT 10SM CLR 03/M01 A3023
PAFR 291233Z AUTO 01003KT 10SM CLR 03/M01 A3023 RMK AO1
PAFS 291201Z AUTO 05005KT 10SM CLR 01/01 A3014
PAFS 291201Z AUTO 05005KT 10SM CLR 01/01 A3014 RMK AO2 SLP225 60001 70014 T00110006 10028 20006 58008 FZRANO
PAGA 291156Z AUTO 10006KT 10SM BKN026 OVC038 02/02 A3013
PAGA 291156Z AUTO 10006KT 10SM BKN026 OVC038 02/02 A3013 RMK AO2 RAE07UPB07E47 SLP204 P0000 60000 T00220017 10022 20011 58004 FZRANO
PAGH 291156Z AUTO 11010KT 4SM -SN BR FEW017 OVC029 M02/M03 A3016 RMK AO2 SNB27 SLP222 P0000 60000 70001 T10171028 11017 21033 56004 FZRANO
PAGK 291153Z AUTO 30003KT 10SM CLR M06/M06 A3034 RMK AO2 SLP305 I1000 I6000 T10561061 11011 21056 57012 TSNO $
PAGL 291156Z AUTO 00000KT 10SM -SN BKN020 OVC026 00/M01 A3004 RMK AO2 RAB42E53 SLP168 P0001 60002 70002 T00001006 10011 21011 58010 FZRANO
PAGS 291156Z AUTO 00000KT 1/2SM FZFG OVC002 M02/M02 A3046 RMK AO2 SLP315 60000 T10221022 10000 21022 51002 FZRANO RVRNO
PAGS 291208Z AUTO 00000KT 1/4SM UP FZFG OVC002 M02/M02 A3046 RMK AO2 UPB04 P0000 FZRANO RVRNO
PAGS 291215Z AUTO 00000KT 3/4SM UP BR OVC002 M02/M02 A3045 RMK AO2 UPB04 P0000 FZRANO RVRNO
PAGS 291234Z AUTO 00000KT 1/2SM FZFG OVC002 M02/M02 A3046 RMK AO2 UPB04E17 P0000 FZRANO RVRNO
PAGY 291153Z AUTO 00000KT 10SM CLR 01/00 A3046 RMK AO2 SLP315 T00060000 10022 20000 53002 TSNO $
PAHC 291156Z AUTO 02003KT 10SM BKN048 OVC120 03/02 A3004 RMK AO2 SLP179 60001 70023 T00280017 10039 20028 56008
PAHL 291156Z AUTO 09004KT 10SM -RA SCT010 OVC021 01/01 A3013 RMK AO2 SLP214 P0002 60005 70007 T00110006 10011 20006 58005 FZRANO
PAHL 291205Z AUTO 09003KT 10SM -RA BKN010 OVC021 01/01 A3013 RMK AO2 P0000 FZRANO
PAHN 291154Z AUTO 30006KT 10SM CLR 01/01 A3045 RMK AO2 SLP313 T00110006 10028 20000 53001 TSNO
PAHO 291153Z AUTO 01005KT 10SM BKN075 OVC090 04/01 A3018 RMK AO2 SLP219 T00390006 10072 20017 58044 TSNO
PAHP 291154Z AUTO 11009KT 10SM SCT014 OVC035 02/02 A2993 RMK AO2 FZRANO
PAHP 291156Z AUTO 11009KT 10SM SCT016 OVC035 02/02 A2992 RMK AO2 SLP171 60003 70010 T00170017 10033 20017 51002 FZRANO
PAHP 291242Z AUTO 12010KT 2 1/2SM BR BKN028 OVC035 02/02 A2993 RMK AO2 FZRANO
PAHX 291156Z AUTO 00000KT 10SM SCT075 SCT120 03/02 A3007 RMK AO2 SLP183 60000 70011 T00330022 10039 20033 56007
PAHY 291156Z AUTO 00000KT 10SM CLR 05/01 A3028 RMK AO2 SLP250 6//// 7//// T00500011 10083 20050 58004 PNO $
PAIG 291156Z AUTO 08012G18KT 10SM -RA BKN045 BKN055 OVC070 06/03 A3003 RMK AO2 RAB47 SLP180 P0000 60000 T00610028 10067 20050 55018 $
PAII 291145Z AUTO 08007KT 8SM -RA BKN010 BKN015 OVC045 04/03 A2997 RMK AO2 P0019
PAII 291156Z AUTO 07007KT 8SM -RA BKN010 OVC047 04/03 A2997 RMK AO2 SLP151 P0022 60046 70046 T00390028 10061 20039 58019
PAII 291222Z AUTO 07009KT 7SM -RA SCT010 OVC037 04/03 A2996 RMK AO2 P0004
PAIK 291156Z AUTO 06004KT 10SM FEW022 M06/M06 A3016 RMK AO2 SLP219 70007 T10561061 11050 21072 58003 FZRANO
PAIL 291153Z AUTO 10020G29KT 10SM OVC032 07/03 A3009 RMK AO2 PK WND 10029/1152 SLP192 60000 T00670028 10072 20061 56031 TSNO
PAIM 291155Z AUTO 00000KT 7SM -RASN FEW006 BKN011 OVC023 00/00 A3013
PAIM 291155Z AUTO 00000KT 7SM -RASN FEW006 BKN011 OVC023 00/00 A3013 RMK AO2 SHRAB1122E1132 SLP221 60002 70026 T10010000 10007 21001 57004
PAIN 291156Z AUTO VRB05KT 10SM SCT048 04/M04 A3021 RMK AO2 SLP258 T00391039 10044 20028 58007
PAIW 291156Z AUTO 07006KT 10SM BKN024 M03/M06 A3008 RMK AO2 SLP187 T10331061 11006 21050 58002 FZRANO
PAIW 291244Z AUTO 07006KT 10SM SCT024 M03/M07 A3008 RMK AO2 FZRANO
PAJC 291157Z AUTO 03010G22KT 3SM -RA BR OVC006 07/06 A2987 RMK AO2 SLP114 P0004 60039 70052 T00720061 10072 20067 58016
PAJC 291205Z AUTO 03017G22KT 2 1/2SM -RA BR OVC006 07/06 A2986 RMK AO2 P0001
PAJC 291215Z AUTO 03011G19KT 3SM -RA BR OVC006 07/06 A2987 RMK AO2 P0002
PAJN 291153Z 11003KT 1/4SM R08/1600V2200FT FG VV002 01/01 A3045
PAJN 291153Z 11003KT 1/4SM R08/1600V2200FT FG VV002 01/01 A3045 RMK AO2 SLP310 T00110011 10022 20006 52007 $
PAJN 291201Z 13003KT 1/4SM R08/2000V2600FT FG VV004 01/01 A3045
PAJN 291201Z 13003KT 1/4SM R08/2000V2600FT FG VV004 01/01 A3045 RMK AO2 T00110011 $
PAJN 291238Z 00000KT 1/2SM R08/5000VP6000FT FG VV005 01/01 A3044
PAJN 291238Z 00000KT 1/2SM R08/5000VP6000FT FG VV005 01/01 A3044 RMK AO2 T00110011 $
PAJZ 291156Z AUTO 12015KT 8SM OVC070 06/03 A3007 RMK AO2 SLP189 T00560028 10056 20017 56024 $
PAKF 291201Z AUTO 11010G15KT 8SM -RA OVC006 08/07 A2965 RMK AO2 CIG 004V010 SLP135 P0000 60012 70044 T00780072 10078 20067 56022 $
PAKH 291156Z AUTO 07027G34KT 10SM SCT024 OVC032 A2988 RMK AO2 PK WND 07035/1135 RAE46UPB46E52 SLPNO P0002 60021 70021 58037 FZRANO $
PAKH 291209Z AUTO 07024G29KT 10SM FEW022 BKN027 OVC032 A2987 RMK AO2 PK WND 07033/1159 FZRANO $
PAKH 291219Z AUTO 07022G30KT 10SM FEW022 OVC030 A2987 RMK AO2 PK WND 07033/1159 FZRANO $
PAKH 291231Z AUTO 08019G29KT 10SM OVC029 A2988 RMK AO2 PK WND 07033/1159 FZRANO $
PAKI 291156Z AUTO 13011KT 10SM BKN031 OVC039 04/04 A2991 RMK AO2 RAB1058E14 SLP131 P0000 60005 70023 T00440039 10056 20044 56005
PAKI 291218Z AUTO 12009KT 10SM BKN016 BKN020 OVC048 04/03 A2992 RMK AO2
PAKK 291156Z AUTO 03004KT 10SM -RA OVC008 01/00 A3002 RMK AO2 CIG 007V011 SLP181 P0001 60002 70002 T00060000 10011 20006 58007 FZRANO
PAKK 291230Z AUTO 03005KT 10SM -RA SCT008 BKN028 OVC033 01/00 A3002 RMK AO2 P0001 FZRANO
PAKN 291154Z 08003KT 5SM RA BR SCT021 OVC031 04/03 A2997
PAKN 291154Z 08003KT 5SM RA BR SCT021 OVC031 04/03 A2997 RMK AO2 SLP148 P0017 60017 70017 T00440033 10056 20017 56015
PAKN 291218Z AUTO 04005KT 4SM RA BR OVC028 04/03 A2996
PAKN 291218Z AUTO 04005KT 4SM RA BR OVC028 04/03 A2996 RMK AO2 P0010 T00390033 TSNO
PAKN 291234Z AUTO 05008KT 5SM RA BR OVC032 04/03 A2995
PAKN 291234Z AUTO 05008KT 5SM RA BR OVC032 04/03 A2995 RMK AO2 P0015 T00390033 TSNO
PAKP 291156Z AUTO 18012KT 10SM OVC044 M03/M06 A3007 RMK AO2 SLP228 60000 T10281056 11017 21039 51009 FZRANO
PAKT 291153Z AUTO 34013KT 10SM CLR 08/01 A3028
PAKT 291153Z AUTO 34013KT 10SM CLR 08/01 A3028 RMK AO2 SLP256 T00780011 10089 20067 55000 TSNO
PAKU 291145Z 21011KT 10SM R24/P6000FT SKC M07/M09 A3016
PAKV 291153Z AUTO 00000KT 10SM -RA OVC011 01/00 A3013 RMK AO2 SLP207 P0002 60014 70028 T00110000 10017 20006 58005 TSNO
PAKV 291225Z AUTO 00000KT 8SM -RA SCT007 OVC011 01/00 A3013 RMK AO2 P0001 T00110000 TSNO
PAKV 291235Z AUTO 00000KT 7SM -RA OVC009 01/00 A3013 RMK AO2 P0002 T00110000 TSNO
PAKW 291153Z AUTO 03005KT 10SM CLR 04/02 A3030 RMK AO2 SLP261 T00440017 10072 20033 58001 TSNO $
PALH 291153Z 00000KT 10SM CLR 01/00 A3028 RMK AO2 SLP255 T00060000 10028 20006 58019
PALP 291145Z 18009KT 10SM SKC M09/M11 A3014
PALU 291155Z AUTO 23028G36KT 8SM -SN FEW021 M02/M06 A3001
PALU 291155Z AUTO 23028G36KT 8SM -SN FEW021 M02/M06 A3001 RMK AO2 PK WND 24040/1123 SNB0957 SLP161 P0000 60000 T10241063 11012 21024 53007
PALU 291226Z AUTO 22030G38KT 9SM -SN BKN021 M02/M06 A3000
PALU 291226Z AUTO 22030G38KT 9SM -SN BKN021 M02/M06 A3000 RMK AO2 PK WND 22038/1209 SLP160
PAMB 291156Z AUTO 07009KT 10SM -RA FEW029 OVC036 03/02 A3000 RMK AO2 SLP166 P0001 60001 70001 T00280022 10050 20028 56014 $
PAMC 291153Z AUTO 00000KT 8SM FEW004 01/M01 A3013 RMK AO2 SLP211 60000 70010 T00061006 10039 20006 58010 TSNO $
PAMH 291156Z AUTO 00000KT 10SM FEW120 00/M01 A3017 RMK AO2 SLP241 60000 T00001006 10017 20000 58010 FZRANO
PAMK 291156Z AUTO 15003KT 10SM UP FEW032 BKN050 OVC065 03/02 A3003 RMK AO2 RAE36UPB36 SLP171 P0000 60012 70013 T00280022 10028 20017 58006 $
PAMM 291156Z AUTO 31014KT 10SM CLR 09/03 A3027 RMK AO2 SLP243 70001 T00940028 10111 20089 50003
PAMR 291153Z 34003KT 10SM BKN130 00/00 A3027 RMK AO2 SLP251 T00000000 10017 21006 58018
PAMY 291156Z AUTO 14006KT 10SM BKN015 BKN028 OVC070 02/02 A2989 RMK AO2 SLP123 60000 70009 T00220022 10028 20017 55001 FZRANO
PAMY 291222Z AUTO 14007KT 5SM UP BR FEW012 BKN031 OVC055 03/03 A2989 RMK AO2 UPB22 P0000
PAMY 291237Z AUTO 14007KT 10SM BKN014 BKN020 OVC055 03/02 A2989 RMK AO2 UPB22E32 P0000
PANA 291156Z AUTO 11004KT 10SM BKN041 OVC055 03/02 A2998 RMK AO2 SLP152 60000 70038 T00280017 10039 20022 56005
PANC 291153Z 00000KT 10SM BKN170 02/00 A3027
PANC 291153Z 00000KT 10SM BKN170 02/00 A3027 RMK AO2 SLP252 T00220000 10072 20006 58018
PANI 291156Z AUTO 13007KT 10SM CLR 05/02 A3004 RMK AO2 SLP140 70033 T00500017 10050 20039 56007
PANN 291153Z AUTO 08005KT 10SM BKN070 BKN090 01/M01 A3019 RMK AO2 SLP233 T00111006 10022 20000 58013 TSNO $
PANT 291153Z AUTO 33012G18KT 10SM CLR 08/02 A3026 RMK SLP246 T00830022 10094 20083 53001 TSNO VIA AUTODIAL
PANW 291156Z AUTO 08005KT 10SM -RA BKN043 OVC050 04/02 A3002 RMK AO2 RAB23 SLP182 P0000 60000 T00390017 10039 20011 56022
PANW 291243Z AUTO 08005KT 10SM -RA BKN025 OVC031 04/03 A3001 RMK AO2 P0001
PAOH 291149Z AUTO 00000KT 1SM BR OVC003 M02/M02 A3045 RMK AO2 FZRANO
PAOH 291156Z AUTO 00000KT 1SM BR OVC003 M02/M02 A3045 RMK AO2 SLP311 70001 T10171017 11006 21022 50003 FZRANO
PAOH 291200Z AUTO 00000KT 1 1/4SM BR OVC001 M02/M02 A3045 RMK AO2 FZRANO
PAOH 291207Z AUTO 00000KT 3SM BR OVC001 M02/M02 A3045 RMK AO2 FZRANO
PAOH 291214Z AUTO 00000KT 1 3/4SM BR OVC001 M02/M02 A3045 RMK AO2 VIS 1V4 FZRANO
PAOH 291237Z AUTO 00000KT 5SM BR BKN003 M02/M02 A3045 RMK AO2 CIG 002V005 FZRANO
PAOM 291153Z AUTO 03012KT 4SM -SN BR OVC030 M01/M01 A3000
PAOM 291153Z AUTO 03012KT 4SM -SN BR OVC030 M01/M01 A3000 RMK AO2 SLP158 P0001 60001 70006 T10061006 11006 21039 58013 TSNO $
PAOR 291153Z 10005KT 10SM BKN140 OVC170 M02/M04 A3028
PAOR 291153Z 10005KT 10SM BKN140 OVC170 M02/M04 A3028 RMK AO2 SLP282 4/001 T10171044 11011 21028 56005
PAOT 291153Z AUTO 11009KT 10SM CLR M08/M09 A3012
PAOT 291153Z AUTO 11009KT 10SM CLR M08/M09 A3012 RMK AO2 SLP200 70010 I6001 T10781089 11011 21106 58003 TSNO $
PAOU 291151Z AUTO 05011KT 10SM BKN027 BKN050 OVC060 07/05 A2978 RMK AO2
PAOU 291156Z AUTO 05011KT 10SM BKN025 BKN050 OVC060 07/05 A2978 RMK AO2 SLP083 60001 7//// T00670050 10067 20056 56003
PAPB 291151Z AUTO 10010KT 7SM SCT008 BKN015 05/05 A2967 RMK AO2 RAB34E38 P0000 TSNO $
PAPB 291153Z AUTO 10010KT 6SM BR FEW008 BKN015 05/05 A2967 RMK AO2 RAB34E38 SLP035 P0000 60000 T00500050 10067 20050 56007 TSNO $
PAPB 291212Z AUTO 09008KT 8SM FEW006 BKN014 BKN020 05/05 A2966 RMK AO2 T00500050 TSNO $
PAPB 291228Z AUTO 08009KT 5SM BR BKN009 BKN016 06/05 A2966 RMK AO2 T00560050 TSNO $
PAPB 291235Z AUTO 08009KT 9SM FEW008 BKN014 05/05 A2965 RMK AO2 T00500050 TSNO $
PAPB 291243Z AUTO 08012KT 10SM FEW010 BKN016 05/05 A2965 RMK AO2 T00500050 TSNO $
PAPG 291156Z AUTO 00000KT 1/2SM FG OVC002 03/03 A3042 RMK AO2 SLP303 T00280028 10033 20006 50003
PAPH 291156Z AUTO 02006KT 10SM FEW060 06/04 A2985 RMK AO2 RAE53 SLP110 P0000 60005 70005 T00610039 10083 20056 58019
PAPM 291156Z AUTO 09016G22KT 10SM -RA OVC019 06/04 A2991 RMK AO2 SLP130 P0000 60007 70022 T00560039 10061 20056 58016
PAPO 291156Z AUTO 21014KT 10SM OVC025 M02/M06 A3005 RMK AO2 SLP175 6//// 7//// T10171061 11017 21022 51012 FZRANO PNO $
PAQH 291156Z AUTO 05010KT 10SM FEW025 OVC070 04/03 A2995 RMK AO2 SLP143 60001 70016 T00390028 10061 20039 58012 PWINO
PAQH 291220Z AUTO 06008KT 10SM BKN025 BKN070 03/03 A2995 RMK AO2 PWINO
PAQT 291153Z AUTO 20009KT 10SM CLR M10/M12 A3017 RMK AO2 SLP216 70001 T11001117 11022 21106 51017 TSNO
PARS 291156Z AUTO 00000KT 10SM SCT120 02/02 A3001 RMK AO2 SLP167 60005 70038 T00220017 10033 20022 57009 FZRANO $
PARY 291156Z AUTO 06006KT 1/2SM -RA FG OVC021 01/00 A3013
PARY 291156Z AUTO 06006KT 1/2SM -RA FG OVC021 01/00 A3013 RMK AO2 SLP234 P0002 60009 70016 T00060000 10011 20006 58005 FZRANO
PARY 291208Z AUTO 06007KT 1/2SM -RA FG FEW002 OVC021 01/00 A3013
PARY 291208Z AUTO 06007KT 1/2SM -RA FG FEW002 OVC021 01/00 A3013 RMK AO2 P0000 FZRANO
PARY 291230Z AUTO 06008KT 1/2SM -RA FG BKN003 OVC021 01/00 A3012
PARY 291230Z AUTO 06008KT 1/2SM -RA FG BKN003 OVC021 01/00 A3012 RMK AO2 P0000 FZRANO
PASA 291156Z AUTO 02010KT 10SM OVC015 01/M02 A3002 RMK AO2 SLP167 60000 T00111017 10011 21050 58006 FZRANO $
PASA 291236Z AUTO 04010KT 10SM OVC013 01/M01 A3001 RMK AO2 FZRANO $
PASC 291153Z 21012KT 10SM CLR M06/M07 A3016
PASC 291153Z 21012KT 10SM CLR M06/M07 A3016 RMK AO2 SLP213 60000 I6000 T10561067 11006 21061 51020 $
PASH 291156Z AUTO 11006KT 10SM CLR M07/M08 A3011 RMK AO2 SLP196 T10721083 11050 21072 50000 FZRANO
PASI 291153Z 10003KT 10SM CLR 02/02 A3038
PASI 291153Z 10003KT 10SM CLR 02/02 A3038 RMK AO2 SLP286 60000 T00220022 10039 20011 50000
PASK 291146Z AUTO 04007KT 10SM BKN020 M06/M07 A3015 RMK AO2 FZRANO $
PASK 291232Z AUTO 05009KT 10SM SCT020 OVC060 M05/M06 A3014 RMK AO2 FZRANO $
PASL 291156Z AUTO 00000KT 5SM BR FEW120 M01/M01 A3013 RMK AO2 SLP200 70001 T10061011 10039 21011 56016 FZRANO
PASM 291146Z AUTO 12008KT 10SM -RA BKN013 BKN021 OVC040 03/03 A3000 RMK AO2 P0001
PASM 291156Z AUTO 11007KT 10SM -RA SCT015 BKN024 OVC040 03/03 A3000 RMK AO2 SLP179 P0001 60011 70023 T00330028 10044 20033 55002
PASN 291153Z AUTO 13011KT 10SM OVC013 06/05 A2968 RMK AO2 SLP051 60001 70025 T00560050 10061 20056 58002 TSNO
PASN 291238Z AUTO 12008KT 10SM FEW009 OVC013 05/05 A2967
PASN 291238Z AUTO 12008KT 10SM FEW009 OVC013 05/05 A2967 RMK AO2 RAB16E24 P0000 T00500050 TSNO
PASO 291153Z AUTO 00000KT SCT070 OVC090 04/03 A3016 RMK AO2 SLP214 60000 70001 T00390033 10056 20039 58040 TSNO $
PASV 291155Z AUTO 01002KT 10SM OVC130 04/M03 A3003
PASV 291155Z AUTO 01002KT 10SM OVC130 04/M03 A3003 RMK AO2 SLP183 70005 T00371029 10044 20032 58023
PASX 291156Z AUTO 00000KT 10SM CLR M02/M02 A3003 RMK AO2 SLP179 T10171022 10000 21017 58001 FZRANO
PASY 291158Z AUTO 35016KT 7SM OVC042 04/M03 A3007
PASY 291158Z AUTO 35016KT 7SM OVC042 04/M03 A3007 RMK AO2 RAB18E30 SLP186 P0000 60000 T00361031 10037 20026 58003 $
PATA 291152Z AUTO 12005KT 5SM BR OVC017 02/02 A3020 RMK AO2 SLP231 T00170017 10022 20011 58006 TSNO PNO
PATA 291208Z AUTO 11006KT 4SM BR BKN014 OVC020 02/02 A3020 RMK AO2 T00170017 TSNO PNO
PATA 291234Z AUTO 11005KT 10SM OVC016 02/02 A3019 RMK AO2 T00220022 TSNO PNO
PATC 291155Z AUTO 04008KT 10SM BKN021 M03/M07 A3005
PATC 291155Z AUTO 04008KT 10SM BKN021 M03/M07 A3005 RMK AO2 SLP180 T10321066 11015 21041 57003 $
PATE 291156Z AUTO 10007KT 10SM SCT065 M06/M08 A3005 RMK AO2 SLPNO 7//// T10561078 11028 21061 58003 FZRANO
PATK 291153Z AUTO 01004KT 10SM FEW065 03/M02 A3031 RMK SLP268 T00281022 10033 20022 58011 TSNO VIA AUTODIAL
PATL 291155Z AUTO 06004KT 10SM BKN150 01/01 A3013
PATL 291155Z AUTO 06004KT 10SM BKN150 01/01 A3013 RMK AO2 SLP217 70002 T00120010 10028 20012 58013
PATO 291153Z AUTO 11011G26KT 10SM -RA FEW027 BKN036 OVC047 06/03 A3034 RMK AO2 PK WND 11032/1142 SLP274 P0001 60003 70005 T00610028 10072 20056 58016 TSNO
PATQ 291156Z AUTO 19016KT 10SM OVC110 M07/M09 A3004
PATQ 291156Z AUTO 19016KT 10SM OVC110 M07/M09 A3004 RMK AO2 SLP180 T10721094 11050 21106 51008 FZRANO TSNO
PAUN 291156Z AUTO 06010KT 10SM -RA SCT036 OVC045 02/02 A3006 RMK AO2 SLP184 P0001 60008 70008 T00220017 10022 20017 58005 FZRANO
PAUN 291217Z AUTO 07009KT 10SM -RA BKN026 BKN033 OVC045 02/02 A3006 RMK AO2 P0001 FZRANO
PAUN 291242Z AUTO 07009KT 10SM UP SCT026 OVC041 02/02 A3005 RMK AO2 RAE36UPB36 P0001 FZRANO
PAUT 291155Z AUTO 09019G24KT 4SM BR OVC003 07/07 A2954 RMK AO2 70026 T00730072 10073 20057
PAUT 291215Z AUTO 08019G23KT 10SM BKN003 BKN009 OVC015 07/07 A2952 RMK AO2 T00740073
PAUT 291235Z AUTO 08020G25KT 7SM BKN003 BKN008 OVC015 08/07 A2951 RMK AO2 T00750073
PAVA 291156Z AUTO 13010KT 3/4SM BR OVC003 02/02 A2993 RMK AO2 SLP223 60003 70013 T00170017 10028 20017 51002 FZRANO
PAVA 291206Z AUTO 13011KT 1/2SM FG OVC003 02/02 A2994 RMK AO2 FZRANO
PAVA 291213Z AUTO 13010KT 3/4SM BR OVC003 02/02 A2994 RMK AO2 FZRANO
PAVA 291228Z AUTO 14009KT 1 1/4SM BR BKN003 BKN028 OVC050 02/02 A2994 RMK AO2 FZRANO
PAVA 291241Z AUTO 13010KT 1 1/2SM BR SCT003 BKN030 OVC070 02/02 A2993 RMK AO2 FZRANO
PAVC 291156Z AUTO 08014KT 9SM OVC006 07/07 A2971 RMK AO2 RAE11B34E49 CIG 004V009 SLP068 P0000 60022 70051 T00720067 10072 20056 58020
PAVD 291156Z AUTO 00000KT 10SM CLR M01/M01 A3042
PAVD 291156Z AUTO 00000KT 10SM CLR M01/M01 A3042 RMK AO2 SLP326 6//// 7//// T10061006 10000 21011 58009 $
PAVL 291153Z AUTO 17014KT 6SM HZ OVC035 M01/M06 A3009 RMK AO2 SLP191 6//// 7//// T10061056 10000 21006 53009 TSNO PNO $
PAWD 291153Z AUTO 00000KT 7SM OVC050 03/03 A3031 RMK AO2 SLP263 60000 70003 T00280028 10067 20022 58025 TSNO
PAWI 291153Z AUTO 19016KT 10SM BKN037 OVC044 M06/M07 A2995 RMK AO2 SLP144 60000 T10561072 11050 21078 51003 TSNO
PAWM 291156Z AUTO 01007KT 1 1/2SM -SN BR OVC016 M03/M03 A3003 RMK AO2 SLP174 6//// 7//// T10281033 11028 21039 58012 FZRANO PNO $
PAWM 291244Z AUTO 03007KT 2SM -SN BR OVC016 M02/M02 A3002 RMK AO2 FZRANO PNO $
PAWN 291156Z AUTO 00000KT 10SM OVC029 M07/M08 A3015 RMK AO2 SLP226 70004 T10671083 11033 21072 50005 FZRANO
PAWS 291156Z AUTO 06005KT 10SM CLR 04/M03 A3029 RMK AO2 SLP274 T00391033 10050 20033 58013
PAYA 291156Z 24003KT 1 3/4SM BR BKN002 00/M01 A3040 RMK VSBY VRBL 1SM-5SM TSNO $
PAZK 291156Z AUTO 02004KT 10SM CLR M05/M06 A3024 RMK AO2 SLP297 T10501061 11044 21056 56010 FZRANO
PFCL 291156Z AUTO 06006KT BKN038 OVC048 03/03 A3000 RMK AO2 SLP153 P0002 60005 70005 T00330028 10056 20033 58012 PWINO TSNO $
PFCL 291227Z AUTO 06006KT BKN018 OVC033 03/03 A3000 RMK AO2 P0002 PWINO TSNO $
PFEL 291156Z AUTO 36005KT 3SM -SN BR OVC005 00/M01 A3005 RMK AO2 SLP179 P0002 60004 70004 T00001006 10006 21006 58008 FZRANO
PFEL 291236Z AUTO 36007KT 3SM -SN BR OVC007 00/M01 A3005 RMK AO2 CIG 005V009 P0001 FZRANO
PFKT 291156Z AUTO 10009KT 10SM SCT120 M06/M08 A3008 RMK AO2 SLP187 T10561078 11028 21061 58005 FZRANO
PFKW 291156Z AUTO 13008KT 10SM -RA OVC040 04/02 A3000 RMK AO2 RAB08 SLP158 P0000 60000 70039 T00390022 10044 20033 55001
PFNO 291156Z AUTO 06010KT 10SM OVC022 M07/M07 A3014 RMK AO2 SLP207 70001 T10671072 11067 21100 58005 FZRANO
PFNO 291226Z AUTO 06011KT 10SM SCT022 M06/M07 A3013 RMK AO2 FZRANO
PFSH 291156Z AUTO 11006KT 7SM UP BKN017 OVC033 02/01 A3006 RMK AO2 SLP177 P0002 60009 70012 T00170011 10017 20006 58008 FZRANO
PFWS 291156Z AUTO 09007KT 8SM RA OVC030 03/02 A3001 RMK AO2 SLP168 P0016 60016 70016 T00280022 10056 20022 58016
PFYU 291156Z AUTO 00000KT 10SM BKN030 BKN043 M01/M01 A3024
PFYU 291156Z AUTO 00000KT 10SM BKN030 BKN043 M01/M01 A3024 RMK AO2 SLP264 60000 T10111011 10011 21011 58002 FZRANO
PGSN 291154Z 10004KT 10SM FEW017 28/27 A2988
PGSN 291154Z 10004KT 10SM FEW017 28/27 A2988 RMK AO2 RAB18E29 SLP139 P0000 60000 T02780272 10306 20278 51015 $
PGUA 291156Z 10007KT 10SM SCT014 BKN020 27/25 A2989
PGUA 291156Z 10007KT 10SM SCT014 BKN020 27/25 A2989 RMK AO2A CIG 013V020 CIG 011 RWY24L SLP112 60002 T02710251 10286 20271 51013 RVRNO $
PGUA 291211Z 10006KT 10SM SCT014 SCT022 27/25 A2989
PGUA 291211Z 10006KT 10SM SCT014 SCT022 27/25 A2989 RMK AO2A SLP112 RVRNO $
PGUA 291241Z 10006KT 10SM SCT012 BKN020 27/25 A2989
PGUA 291241Z 10006KT 10SM SCT012 BKN020 27/25 A2989 RMK AO2A BKN V SCT CIG 010 RWY24L SLP112 RVRNO $
PGUM 291154Z 09005KT 10SM FEW017 SCT032 BKN046 28/27 A2988
PGUM 291154Z 09005KT 10SM FEW017 SCT032 BKN046 28/27 A2988 RMK AO2 SLP109 60000 70002 T02780267 10289 20272 51013 $
PHBK 291156Z AUTO 01006KT 10SM BKN050 24/22 A2987 RMK AO2 SLP117 T02390222 10250 20228 58004 $
PHBK 291229Z AUTO 35008KT 10SM -RA FEW009 BKN033 OVC055 23/22 A2987
PHBK 291229Z AUTO 35008KT 10SM -RA FEW009 BKN033 OVC055 23/22 A2987 RMK AO2 RAB26 P0000 T02330222 $
PHHI 291158Z AUTO 05005KT 10SM SCT030 OVC038 21/21 A2987 RMK AO2 DZB18E38 SLP105 P0001 60002 70011 T02080206 10210 20199 57009 $
PHHI 291219Z AUTO 00000KT 10SM -DZ FEW028 OVC038 21/21 A2987 RMK AO2 DZB19 SLP106
PHJR 291153Z AUTO 05005KT OVC060 24/19 A2987
PHJR 291153Z AUTO 05005KT OVC060 24/19 A2987 RMK AO2 SLP122 T02390189 10239 20228 58008 TSNO
PHLI 291153Z AUTO 30004KT 10SM OVC028 23/18 A2990
PHLI 291153Z AUTO 30004KT 10SM OVC028 23/18 A2990 RMK AO2 SLP120 70002 T02330183 10244 20228 58004 TSNO
PHLI 291202Z AUTO 30004KT 10SM OVC030 23/18 A2989
PHLI 291202Z AUTO 30004KT 10SM OVC030 23/18 A2989 RMK AO2 T02330183 TSNO
PHLI 291214Z AUTO 29005KT 10SM BKN029 OVC050 23/18 A2989
PHLI 291214Z AUTO 29005KT 10SM BKN029 OVC050 23/18 A2989 RMK AO2 T02280183 TSNO
PHLI 291234Z AUTO 31004KT 10SM SCT028 OVC050 23/18 A2989
PHLI 291234Z AUTO 31004KT 10SM SCT028 OVC050 23/18 A2989 RMK AO2 T02280183 TSNO
PHMK 291154Z AUTO 01005KT 10SM FEW055 SCT070 22/21 A2989 RMK AO2 SLP122 T02170211 10228 20206 58008 TSNO
PHNG 291157Z 26005KT 10SM -RA BKN016 OVC035 A2985 RMK AO2 RAE34B50 SLP105 P0002 60023 70046 58007 $
PHNG 291157Z COR 26005KT 5SM -RA BKN016 OVC035 21/20 A2985 RMK AO2 RAE34B50 SLP105 T02110201 P0002 60023 70046 58007 $
PHNG 291205Z 25006KT 10SM -RA SCT015 OVC042 A2985 RMK AO2 P0000
PHNG 291205Z 25006KT 10SM -RA SCT015 OVC042 A2985 RMK AO2 P0000 $
PHNG 291205Z COR 25006KT 5SM -RA SCT015 OVC042 22/21 A2985 RMK AO2 T02220211 P0000 $
PHNL 291153Z 33003KT 10SM BKN050 24/20 A2986
PHNL 291153Z 33003KT 10SM BKN050 24/20 A2986 RMK AO2 SLP112 60000 T02440200 10250 20239 58008 $
PHNY 291156Z AUTO 06007KT 10SM CLR 18/16 A2992 RMK AO2 SLP116 T01780161 10189 20178 58009
PHOG 291154Z AUTO 14004KT 10SM CLR 18/18 A2987
PHOG 291154Z AUTO 14004KT 10SM CLR 18/18 A2987 RMK AO2 SLP118 T01830178 10239 20183 58009 TSNO $
PHSF 291156Z AUTO 00000KT 10SM CLR 09/04 A3018 RMK AO2 SLP105 WND DATA ESTMD T00920035 10125 20083 57007 PWINO $
PHTO 291153Z AUTO 00000KT 9SM BKN025 BKN037 OVC065 23/21 A2987
PHTO 291153Z AUTO 00000KT 9SM BKN025 BKN037 OVC065 23/21 A2987 RMK AO2 SLP113 T02280211 10233 20222 58007 TSNO
PHTO 291204Z AUTO 00000KT 9SM SCT026 OVC065 22/21 A2987
PHTO 291204Z AUTO 00000KT 9SM SCT026 OVC065 22/21 A2987 RMK AO2 T02220211 TSNO
PHTO 291214Z AUTO 21003KT 10SM BKN028 OVC065 22/21 A2987
PHTO 291214Z AUTO 21003KT 10SM BKN028 OVC065 22/21 A2987 RMK AO2 T02220211 TSNO
PKMR 291154Z 09004KT 15SM FEW014 SCT050 BKN300 27/25 A2977
PKMR 291154Z 09004KT 15SM FEW014 SCT050 BKN300 27/25 A2977 RMK SHRAB06E18 SLP081 60003 70003 8/801 T02740249 10292 20274 50000
PKWA 291200Z AUTO 04006KT 10SM CLR 28/24 A2980
PKWA 291200Z AUTO 04006KT 10SM CLR 28/24 A2980 RMK AO2 T02800236
PKWA 291220Z AUTO 04007KT 10SM CLR 28/24 A2979
PKWA 291220Z AUTO 04007KT 10SM CLR 28/24 A2979 RMK AO2 T02800236
PKWA 291240Z AUTO 05005KT 10SM CLR 28/24 A2978
PKWA 291240Z AUTO 05005KT 10SM CLR 28/24 A2978 RMK AO2 T02800235
PLCH 291200Z VRB02KT 9999 FEW020 25/22 Q1008
PMDY 291156Z AUTO 34013KT 10SM FEW021 OVC032 21/17 A2990 RMK AO2 RAE04 SLP123 6//// 7//// T02110172 10217 20200 58005 PNO $
PPIT 291156Z AUTO 12006KT 10SM -RA OVC036 02/01 A2998 RMK AO2 RAB56 SLP152 P0000 60002 70037 T00170011 10039 20017 55004 FZRANO TSNO
PPIZ 291156Z AUTO 21029G33KT 5SM -SN CLR M02/M06 A2998 RMK AO2 PK WND 21035/1128 SNE17B36 SLP157 P0000 60000 T10221056 11022 21028 51019 FZRANO TSNO
PTKK 291151Z VRB05KT 15SM FEW014 SCT120 BKN280 28/25 A2983
PTKK 291151Z VRB05KT 15SM FEW014 SCT120 BKN280 28/25 A2983 RMK SLP101 70009 8/171 T02790250 10314 20278 52012
PTKR 291150Z 00000KT 15SM FEW017 BKN120 OVC300 25/25 A2981
PTKR 291150Z 00000KT 15SM FEW017 BKN120 OVC300 25/25 A2981 RMK SLP096 60004 70273 8/271 T02520245 10261 20250 52015
PTPN 291150Z 13004KT 15SM SCT018 SCT130 OVC300 27/25 A2983
PTRO 291150Z 00000KT 13SM SCT016CB BKN110 OVC290 24/23 A2980
PTRO 291150Z 00000KT 13SM SCT016CB BKN110 OVC290 24/23 A2980 RMK CB ALQDS
PTTP 291152Z 14005KT 15SM SCT018 BKN130 OVC300 26/24 A2985
PTTP 291152Z 14005KT 15SM SCT018 BKN130 OVC300 26/24 A2985 RMK SLP108 70019 8/178 T02550242 10286 20255 50000
PTYA 291153Z 00000KT 12SM FEW016 SCT130 OVC300 25/24 A2979
PTYA 291153Z 00000KT 12SM FEW016 SCT130 OVC300 25/24 A2979 RMK SLP088 70047 8/178 T02520241 10267 20252 52017
PWAK 291158Z AUTO 05011KT 9999 FEW021 SCT045 BKN055 28/24 A2984
PWAK 291158Z AUTO 05011KT 9999 FEW021 SCT045 BKN055 28/24 A2984 RMK AO2 SLP111 50000
RCFN 291200Z 36003KT 330V030 9999 FEW025 SCT035 BKN045 22/18 Q1021 NOSIG RMK A3015
RCFN 291230Z 36006KT 320V060 9999 FEW025 SCT035 BKN045 22/17 Q1021 NOSIG RMK A3016
RCKH 291200Z 33004KT 300V010 7000 FEW017 SCT060 BKN090 24/16 Q1017 NOSIG RMK A3004
RCKH 291230Z 32005KT 300V360 7000 FEW017 SCT070 24/16 Q1017 NOSIG RMK A3004
RCMQ 291200Z 02022G32KT 9999 FEW012 SCT200 19/12 Q1017 NOSIG RMK A3004
RCMQ 291230Z 02023G33KT 9999 FEW012 SCT200 19/12 Q1017 NOSIG RMK A3004
RCNN 291200Z 01012KT 9999 FEW012 BKN100 22/14 Q1016 RMK A3002
RCNN 291230Z 01010KT 9999 FEW012 BKN100 22/14 Q1017 RMK A3004
RCSS 291200Z 06007KT 360V110 9999 FEW020 SCT040 BKN060 23/15 Q1023 NOSIG RMK A3021
RCSS 291227Z 06007KT 350V120 9999 -RA FEW020 SCT035 BKN050 23/16 Q1023 NOSIG RMK A3022
RCSS 291230Z 05008KT 340V090 9000 -RA FEW020 SCT035 BKN050 23/16 Q1023 NOSIG RMK A3022
RCTP 291200Z 04020G30KT 9999 VCSH FEW020 BKN035 BKN060 23/16 Q1022 WS ALL RWY NOSIG RMK A3020
RCTP 291230Z 04021KT 9999 VCSH FEW015 BKN035 BKN050 23/16 Q1022 WS ALL RWY NOSIG RMK A3020
RJAA 291200Z 32016KT 3500 SHRA BR FEW002 SCT003 BKN004 15/15 Q0992 TEMPO 33018G28KT BECMG TL1300 8000 NSW
RJAA 291200Z 32016KT 3500 SHRA BR FEW002 SCT003 BKN004 15/15 Q0992 TEMPO 33018G28KT BECMG TL1300 8000 NSW RMK 1ST002 3ST003 6ST004 A2931
RJAA 291209Z 33015KT 4500 -SHRA BR FEW002 SCT003 BKN004 15/15 Q0991 RMK 1ST002 3ST003 6ST004 A2929 P/FR
RJAA 291221Z 33015KT 8000 -SHRA FEW002 BKN004 BKN130 15/15 Q0991 RMK 1ST002 6ST004 7AC130 A2927 P/FR
RJAA 291230Z 34014KT 9000 -SHRA FEW002 BKN004 BKN140 16/15 Q0990 BECMG FEW002 SCT005
RJAA 291230Z 34014KT 9000 -SHRA FEW002 BKN004 BKN140 16/15 Q0990 BECMG FEW002 SCT005 RMK 1ST002 5ST004 7AC140 A2926 P/FR
RJAA 291239Z 33012KT 9999 -SHRA FEW002 SCT004 BKN100 15/15 Q0990 RMK 1ST002 3ST004 5AC100 A2926
RJAH 291200Z 35008KT 4000 SHRA BR FEW004 BKN010 OVC030 15/15 Q0992
RJAH 291220Z 36004KT 6000 -SHRA FEW015 SCT030 OVC050 15/15 Q0991 RMK 2CU015 4CU030 8SC050 A2927
RJAH 291239Z 04004KT 9999 -SHRA FEW025 SCT050 BKN080 15/15 Q0990 RMK 1CU025 4SC050 7AC080 A2924
RJAW 291200Z 19006KT 9999 FEW010 26/25 Q1013 RMK 2CU010 A2992
RJBB 291200Z 30021KT 9999 FEW010 SCT025 BKN040 20/16 Q1005 NOSIG
RJBB 291230Z 29022KT 9999 FEW015 SCT025 BKN040 20/16 Q1006 NOSIG
RJBE 291200Z 27014KT 9999 FEW015 BKN050 19/16 Q1005
RJCC 291146Z 33008KT 2400 -SHRA BR FEW002 SCT003 BKN004 13/13 Q0996 RMK 1ST002 4ST003 6ST004 A2942
RJCC 291200Z 33007KT 2300 SHRA BR FEW002 SCT003 BKN004 13/13 Q0996
RJCC 291200Z 33007KT 2300 SHRA BR FEW002 SCT003 BKN004 13/13 Q0996 RMK 1ST002 4ST003 6ST004 A2941
RJCC 291230Z 33010KT 2000 SHRA BR FEW001 SCT002 BKN003 13/13 Q0995
RJCC 291230Z 33010KT 2000 SHRA BR FEW001 SCT002 BKN003 13/13 Q0995 RMK 1ST001 3ST002 5ST003 A2939
RJDC 291200Z 28005KT 230V330 9999 -SHRA FEW025 BKN035 BKN045 17/15 Q1010
RJFF 291200Z 27011KT 9999 FEW025 BKN030 19/12 Q1013
RJFF 291200Z 27011KT 9999 FEW025 BKN030 19/12 Q1013 RMK 1CU025 5CU030 A2991
RJFF 291230Z 28012KT 9999 FEW025 BKN035 18/10 Q1013
RJFF 291230Z 28012KT 9999 FEW025 BKN035 18/10 Q1013 RMK 1CU025 6CU035 A2992
RJFK 291200Z 31011KT 9999 FEW020 16/11 Q1013
RJFK 291200Z 31011KT 9999 FEW020 16/11 Q1013 RMK 1CU020 A2992
RJFM 291200Z 26015KT 9999 FEW030 18/13 Q1011
RJFO 291200Z 27005KT 9999 FEW030 17/13 Q1010
RJFR 291200Z 26015KT 9999 FEW030 19/13 Q1010
RJFR 291214Z 27017G27KT 9999 FEW030 19/13 Q1010 RMK 1CU030 A2985
RJFS 291200Z 29014KT 9999 FEW020 BKN040 17/13 Q1013
RJFT 291200Z 28005KT 240V330 9999 FEW045 16/12 Q1014
RJFU 291200Z 30024KT 9999 FEW025 18/11 Q1013
RJGG 291200Z 31032G44KT 9999 FEW015 SCT050 21/14 Q0999 NOSIG
RJGG 291230Z 32028KT 9999 FEW015 SCT050 21/14 Q1000 TEMPO 31034G44KT
RJNK 291200Z 29010KT 9999 FEW006 SCT010 BKN030 18/15 Q1002
RJNS 291200Z 25017KT 9999 FEW004 SCT015 18/18 Q0994
RJNT 291200Z 25009KT 9999 -SHRA FEW003 SCT008 BKN020 17/16 Q1000
RJNY 291213Z 23011KT 9999 FEW005 SCT050 18/15 Q0994 RMK 1ST005 3SC050 A2935
RJNY 291232Z 26016G26KT 9999 FEW020 18/14 Q0994 RMK 1CU020 A2937
RJOA 291200Z 29008KT 9999 FEW020 14/11 Q1010
RJOB 291200Z 28008KT 250V320 9999 FEW025 16/12 Q1008
RJOF 291213Z 23003KT 190V270 9999 FEW025 BKN040 15/13 Q1011 RMK 2CU025 5SC040 A2986
RJOH 291200Z 28009KT 9999 FEW030 BKN050 16/10 Q1008
RJOI 291155Z 00000KT 9999 FEW020 16/12 A2984 RMK SLP103 70179 T01560117 10217 20156 51030
RJOM 291200Z 28012KT 9999 FEW025 19/12 Q1010
RJOR 291200Z 29024KT 9999 FEW008 SCT030 BKN050 18/13 Q1007
RJOT 291200Z 29015KT 9999 FEW015 17/16 Q1008
RJSA 291200Z 20003KT 0500 R24/0500N FG BKN001 BKN002 11/11 Q0994
RJSA 291240Z 24006KT 0500 R24/0550N FG BKN001 BKN002 12/11 Q0993 RMK 5ST001 7ST002 A2935
RJSF 291145Z 36010KT 3000 SHRA BCFG BR FEW005 SCT015 BKN050 13/13 Q0994 RMK 1ST005 3CU015 5CU050 A2938 P/FR
RJSK 291200Z 13004KT 110V170 0300 R28/0900VP1800D FG BKN001 BKN002 13/13 Q0994
RJSK 291205Z 12004KT 0300 R28/0900V1200D FG BKN001 BKN002 13/13 Q0994 RMK 5ST001 7ST002 A2935
RJSK 291210Z 14003KT 110V200 0400 R28/0900V1300U FG BKN001 BKN002 13/13 Q0994 RMK 5ST001 7ST002 A2936
RJSK 291232Z 26004KT 0400 R28/0800V1100D -RA FG BKN001 BKN002 13/13 Q0993 RMK 5ST001 6ST002 A2935
RJSK 291243Z 28005KT 0900 R28/0800V1600U -RA FG SCT001 BKN003 13/13 Q0993 RMK 3ST001 6ST003 A2934
RJSN 291200Z 30013KT 9999 -RA FEW005 SCT008 BKN030 17/16 Q0995
RJSS 291200Z 22005KT 9999 -SHRA FEW005 SCT040 BKN100 14/14 Q0993
RJSY 291200Z VRB03KT 5000 R09/P1800N -RA PRFG BR FEW001 SCT003 BKN007 15/14 Q0994
RJSY 291216Z VRB02KT 3000 R09/P1800N -RA PRFG BR FEW001 SCT003 BKN006 15/14 Q0994 RMK 1ST001 4ST003 6ST006 A2937 1000NW-NE
RJSY 291237Z 19003KT 2000 -RA BR FEW001 SCT003 BKN005 15/14 Q0994 RMK 1ST001 4ST003 6ST005 A2936
RJTL 291148Z 34008KT 280V030 4000 -SHRA BR SCT006 SCT012 BKN030 16/15 Q0992 RMK 3ST006 4CU012 7CU030 A2931
RJTL 291153Z 35008KT 280V030 5000 -SHRA BR SCT006 SCT012 BKN030 16/15 Q0992 RMK 3ST006 4CU012 7CU030 A2930 P/FR
RJTT 291146Z 35017KT 9999 -SHRA FEW008 SCT010 BKN040 17/17 Q0991 RMK 1ST008 3CU010 6CU040 A2928 P/FR
RJTT 291200Z 01017KT 9999 FEW010 BKN080 17/16 Q0991 NOSIG
RJTT 291200Z 01017KT 9999 FEW010 BKN080 17/16 Q0991 NOSIG RMK 1CU010 7AC080 A2927 P/FR
RJTT 291230Z 33009KT 9999 FEW010 BKN080 17/16 Q0991 NOSIG
RJTT 291230Z 33009KT 9999 FEW010 BKN080 17/16 Q0991 NOSIG RMK 1CU010 6AC080 A2928
RJTY 291150Z 34005KT 10SM R36/4500FT FEW070 SCT160 16/15 A2935 RMK AO2A RAE24 SLP941 FZRANO $
RJTY 291156Z 34004KT 10SM R36/4500FT FEW100 SCT180 16/15 A2934 RMK AO2A RAE24 SLP938 P0001 60111 T01590148 10161 20146 57045 FZRANO $
RKJB 291200Z 34023KT 9999 FEW030 11/03 Q1022 NOSIG
RKJK 291155Z 32022G27KT 8SM BKN040 11/02 A3015 RMK A02A PK WND 32031/1127 SLP211 10138 20108 51021 $
RKNY 291145Z AUTO 24006KT 180V260 5000 RA ///008 09/08 Q1016
RKNY 291200Z 25005KT 230V290 2500 +RA BR SCT008 BKN018 OVC070 09/09 Q1016 NOSIG
RKNY 291212Z AUTO 27005KT 240V300 3000 RA ///013 10/09 Q1017
RKNY 291222Z AUTO 28006KT 5000 RA ///016 10/09 Q1017
RKNY 291237Z 28006KT 250V330 5000 -RA BR SCT010 BKN020 OVC080 10/09 Q1017 NOSIG
RKPC 291200Z 33020G33KT 9999 SCT030 13/05 Q1023 WS ALL RWY NOSIG
RKPK 291200Z 31016KT CAVOK 13/04 Q1015 NOSIG
RKSG 291156Z 32005KT 10SM CLR 07/M03 A3014 RMK AO2A SLP210 T00651029 10146 20065 52035 PWINO TSNO $
RKSI 291200Z 34022KT CAVOK 09/M09 Q1021 WS R16 R34 NOSIG
RKSI 291230Z 34025KT CAVOK 08/M12 Q1021 WS ALL RWY NOSIG
RKSM 291200Z 31008KT 9999 SKC 09/M07 A3013
RKSO 291155Z 30007KT 7SM CLR 07/M06 A3013 RMK AO2A SLP199 T00681060 $
RKSS 291200Z 33010KT CAVOK 07/M09 Q1020 NOSIG
RKTN 291200Z 31012KT CAVOK 11/M01 Q1016 NOSIG
RKTU 291200Z 28006KT CAVOK 08/M03 Q1020 NOSIG
ROAH 291200Z 01020KT 9999 SCT040 BKN050 24/15 Q1017
ROAH 291200Z 01020KT 9999 SCT040 BKN050 24/15 Q1017 RMK 3SC040 5SC050 A3004
ROAH 291230Z 02019KT 9999 FEW035 BKN050 24/15 Q1017
ROAH 291230Z 02019KT 9999 FEW035 BKN050 24/15 Q1017 RMK 2CU035 5SC050 A3005
RODN 291156Z AUTO 01015G21KT 10SM CLR 23/14 A3005 RMK AO2 PK WND 33026/11 SLP182 T02280144 10260 20228 52021 $
RORY 291200Z AUTO 35020KT 9999 SCT044 SCT048 OVC050 24/16 Q1017
ROTM 291159Z 36011G20KT 9999 FEW030 BKN050 23/25 A3005 RMK SLP170 STNPR29750 WNDS ESTMTD 6//// 7//// T02340154 1//// 2//// 53017
ROYN 291200Z AUTO 02029KT 9000 NSC 24/15 Q1021
RPLB 291200Z 07002KT 9999 FEW020 BKN300 27/24 Q1010 NOSIG RMK A2983
RPLC 291200Z 31002KT 9999 SCT020 BKN100 29/22 Q1013 NOSIG RMK A2991
RPLI 291200Z 05010G20KT 9999 SCT019 SCT100 27/22 Q1012 NOSIG RMK A2988
RPLL 291200Z 11004KT 080V140 9000 SCT023 BKN100 28/24 Q1011 NOSIG RMK A2985
RPMD 291200Z 27004KT 9999 FEW015CB BKN090 BKN290 25/25 Q1011 RESHRA RMK A2985 CB SW-W W/ LTG
RPMZ 291200Z 00000KT 9999 FEW018 27/25 Q1012 RMK A2988
RPVD 291200Z 00000KT 9999 BKN015 OVC080 27/25 Q1010 RMK A2983
RPVM 291200Z 34005KT 9999 FEW020 SCT100 28/23 Q1011 NOSIG RMK A2985
RPVP 291200Z 29004KT 9999 FEW019 SCT080 28/25 Q1010 RMK A2983
SAAR 291200Z 09012KT CAVOK 21/15 Q1010
SABE 291200Z 34009KT 9999 BKN013 BKN100 20/17 Q1012
SACO 291200Z 19004KT 9999 FEW030 SCT100 19/13 Q1009
SADF 291200Z 36003KT 300V360 CAVOK 19/15 Q1012
SADP 291224Z 34006KT 9000 -RA BKN040 OVC200 19/16 Q1013
SAEZ 291200Z 01008KT CAVOK 20/17 Q1011
SAME 291200Z 14009KT CAVOK 14/M06 Q1015
SANR 291200Z 23004KT CAVOK 23/13 Q1005
SANT 291200Z 27002KT CAVOK 25/17 Q1005
SAOC 291200Z 18014KT 9999 OVC025 15/11 Q1010
SARC 291200Z 09010KT 9999 FEW048TCU BKN200 22/17 Q1007
SARC 291210Z 09010KT 9999 VCTS FEW048CB BKN200 22/17 Q1007 RMK CB OBS TO N
SARE 291200Z 08010KT 9999 FEW050CB BKN100 22/16 Q1007
SARE 291236Z 08008KT 9999 TS FEW050CB BKN080 OVC100 24/17 Q1007
SARF 291200Z 07007KT 9999 BKN025 24/18 Q1007
SARI 291200Z 05006KT CAVOK 22/17 Q1011
SARL 291200Z 09012KT CAVOK 21/17 Q1010
SARP 291200Z 09007KT CAVOK 22/16 Q1010
SASJ 291200Z 36003KT CAVOK 25/14 Q1009
SAVC 291200Z 32028G38KT 9999 FEW030 SCT200 12/M00 Q0999
SAWE 291200Z 14021KT 4000 DZ OVC009 06/06 Q0999 REDZ
SAWG 291200Z 14017KT 8000 SCT005 BKN010 OVC060 07/06 Q0993
SAWH 291200Z 16015KT 9999 -RA SCT015 BKN030 07/05 Q1003
SAZM 291200Z 36009KT 330V030 9999 BKN014 SCT100 OVC200 18/14 Q1012
SAZS 291200Z 30018KT 7000 SHSN FEW009 SCT018 BKN043 03/00 Q1008
SBAF 291200Z 24007KT CAVOK 28/19 Q1013
SBAN 291200Z 22008KT 9999 FEW007 BKN100 22/15 Q1020
SBAR 291200Z 08013KT 9999 SCT017 28/20 Q1014
SBAT 291200Z 12003KT CAVOK 28/23 Q1013
SBBE 291200Z 07011KT 9999 SCT015 27/23 Q1012
SBBH 291200Z 10003KT CAVOK 26/17 Q1018
SBBI 291200Z 02005KT 9999 BKN011 18/15 Q1017
SBBQ 291200Z 28004KT 9999 BKN047 23/18 Q1021
SBBR 291200Z 32005KT CAVOK 25/17 Q1020
SBBU 291200Z 32006KT 9999 SCT020 BKN070 24/22 Q1016
SBBV 291200Z 09012KT CAVOK 29/23 Q1011
SBBW 291200Z 14002KT 9999 FEW015 BKN090 26/21 Q1014
SBCA 291200Z 01018KT 9999 SCT008 SCT080 23/15 Q1015
SBCB 291200Z 26010KT CAVOK 27/19 Q1013
SBCC 291200Z 02007KT CAVOK 27/21 Q1014
SBCF 291200Z 20002KT CAVOK 25/17 Q1018
SBCG 291200Z 34009KT 9999 FEW040 BKN100 23/19 Q1015
SBCH 291200Z 03010KT 9999 SCT020 BKN100 23/15 Q1013
SBCJ 291200Z 06003KT 5000 FU SCT013 26/21 Q1016
SBCO 291200Z 11006KT 9999 FEW012 BKN023 21/17 Q1015
SBCP 291200Z 18010KT CAVOK 30/18 Q1011
SBCR 291200Z 06004KT CAVOK 26/22 Q1011
SBCT 291200Z 06005KT 9999 OVC008 17/16 Q1018
SBCY 291200Z 31004KT 9999 FEW020 BKN100 26/24 Q1013
SBCZ 291200Z 24001KT CAVOK 25/23 Q1012
SBDN 291200Z 04004KT CAVOK 25/20 Q1014
SBEG 291200Z 09003KT 9999 FEW020 29/23 Q1012
SBES 291200Z 23010KT CAVOK 26/21 Q1013
SBFI 291200Z 10005KT CAVOK 24/19 Q1010
SBFL 291200Z VRB02KT 9999 SCT020 23/17 Q1015
SBFN 291200Z 13013KT 9999 BKN015 30/24 Q1013
SBFS 291200Z /////KT 9999 FEW020 BKN070 ///// Q////
SBFZ 291200Z 11017KT 9999 BKN023 29/23 Q1013
SBGL 291200Z 34004KT 9999 FEW025 28/18 Q1013
SBGO 291200Z 16003KT 9999 -RA FEW040 BKN100 23/18 Q1018
SBGR 291200Z 05004KT 9000 BKN015 22/19 Q1017
SBGW 291200Z VRB01KT 9999 SCT035 BKN050 26/19 Q1016
SBHT 291200Z 07010KT 9999 BKN015 29/24 Q1012
SBIH 291200Z 00000KT 9999 FEW017 30/25 Q1010
SBIL 291200Z 01006KT 9999 VCSH SCT017 FEW030TCU SCT040 27/23 Q1014
SBIP 291200Z 16005KT CAVOK 31/21 Q1013
SBJP 291200Z 16012KT 9999 BKN025 28/22 Q1014
SBJR 291200Z 18006KT CAVOK 26/21 Q1013
SBJU 291200Z 16005KT 9999 FEW022 31/18 Q1016
SBJV 291200Z 11007KT 9999 SCT020 BKN045 23/19 Q1015
SBKG 291200Z 11014KT 9999 BKN030 26/18 Q1016
SBKP 291200Z 35005KT 9000 VCSH FEW011 BKN025 FEW040TCU 22/19 Q1016
SBKP 291200Z 35005KT 9000 VCSH FEW011 BKN025 FEW040TCU 22/19 Q1 016
SBKP 291220Z 01010KT 9999 BKN010 BKN025 FEW040TCU 22/20 Q1017
SBLB 291200Z 02020KT CAVOK 26/22 Q1011 W///S4
SBLO 291200Z 04002KT 9999 SCT040 SCT100 25/22 Q1015
SBLS 291200Z VRB03KT CAVOK 26/17 Q1018
SBMA 291200Z 33004KT 9999 FEW020 31/25 Q1013
SBMG 291200Z 36008KT 9999 FEW030 SCT100 25/22 Q1013
SBMK 291200Z 33003KT CAVOK 31/13 Q1015
SBMN 291200Z 12002KT 9999 FEW015 SCT050 29/25 Q1012
SBMO 291200Z 08015KT 9999 BKN030 28/21 Q1014
SBMQ 291200Z 03007KT 9999 SCT020 32/24 Q1012
SBMS 291200Z 11007KT 9999 SCT025 33/20 Q1012
SBMT 291200Z 00000KT 5000 HZ SCT017 BKN042 21/16 Q1017
SBNF 291200Z 04005KT 9999 FEW018 SCT035 22/17 Q1015
SBNT 291200Z 13016KT 9999 BKN023 SCT070 29/22 Q1013
SBPA 291200Z 09008KT 060V120 9999 BKN017 BKN026 21/17 Q1015
SBPB 291200Z 10020KT 9999 FEW017 34/23 Q1011
SBPC 291200Z 35005KT 5000 -RA SCT010 OVC080 18/18 Q1023 RETS
SBPJ 291200Z 20006KT CAVOK 29/22 Q1013
SBPK 291200Z 09011KT 9999 BKN032 22/16 Q1015
SBPL 291200Z 12010KT 9999 FEW040 29/18 Q1015
SBPP 291200Z 36004KT 9999 FEW019 BKN080 23/19 Q1013
SBPR 291200Z 29005KT CAVOK 26/18 Q1019
SBPS 291200Z 36013KT 9999 BKN020 28/22 Q1014
SBPV 291200Z 01002KT CAVOK 26/23 Q1011
SBRB 291200Z 31002KT 9999 FEW018 BKN100 25/22 Q1012
SBRF 291200Z 12009KT 9999 SCT023 28/22 Q1014
SBRJ 291200Z 15009KT CAVOK 27/21 Q1013
SBRP 291200Z 08006KT 9999 FEW013 SCT100 23/19 Q1017
SBSC 291200Z 23008KT CAVOK 26/21 Q1014
SBSG 291200Z 17014KT 140V200 9999 BKN024 FEW027TCU BKN090 29/23 Q1013
SBSJ 291200Z 21004KT 9999 SCT030 BKN100 22/18 Q1017
SBSL 291200Z 07013KT 9999 BKN017 29/23 Q1012
SBSM 291200Z 11011KT 9999 SCT011 20/17 Q1013
SBSN 291200Z 06019KT 9999 FEW017 29/23 Q1011
SBSP 291200Z 15002KT 9000 OVC010 20/16 Q1018
SBSR 291200Z 07008KT 9999 FEW015 BKN035 23/19 Q1017
SBSV 291200Z 07006KT 030V100 9999 SCT020 27/22 Q1014
SBSY 291200Z AUTO 04006KT 9999 -RA NSC 20/19 Q1019
SBTA 291200Z 02001KT 8000 FEW040 26/21 Q1015
SBTC 291200Z 03013KT 9999 SCT020 BKN070 27/23 Q1015
SBTE 291200Z 17003KT CAVOK 31/20 Q1012
SBTF 291200Z 27004KT 9999 BKN006 26/25 Q1012
SBTF 291220Z 27005KT 9999 SCT007 26/25 Q1012
SBTT 291200Z 03002KT CAVOK 25/22 Q1012
SBUF 291200Z 11008KT 9999 BKN020 30/19 Q1015
SBUG 291200Z 10011KT CAVOK 20/17 Q1011
SBUL 291200Z 03002KT CAVOK 21/16 Q1019
SBUR 291200Z 08006KT 9999 FEW015 SCT100 22/18 Q1018
SBVH 291200Z 05003KT 020V080 CAVOK 25/23 Q1014
SBVT 291200Z 02006KT CAVOK 29/24 Q1011
SBYS 291200Z 04006KT 9999 -TSRA FEW050 FEW052CB OVC100 20/20 Q1019
SCAR 291200Z 22005KT 9999 OVC025 18/11 Q1017
SCAT 291200Z 35006KT 9999 FEW009 OVC015 13/09 Q1020
SCCF 291200Z 10013KT CAVOK 11/M15 Q1027
SCCH 291200Z 02008KT 9999 SCT025 10/07 Q1020
SCCI 291200Z 15015KT 9999 -RA BKN016 OVC025 07/05 Q0999 NOSIG
SCCY 291200Z 04007KT 9999 BKN033 05/02 Q0999
SCDA 291200Z 32004KT 9999 OVC031 17/10 Q1018
SCEL 291200Z 19005KT 140V230 9999 OVC012 11/07 Q1019 NOSIG
SCFA 291200Z 20005KT 180V240 9999 FEW021 BKN030 15/09 Q1019NOSIG
SCFA 291200Z 20005KT 180V240 9999 FEW021 BKN030 15/09 Q1019 NOSIG
SCFT 291200Z AUTO 00000KT 9999 RA 04/02 Q1005
SCGE 291200Z 36013KT 3000 -RA BKN018 OVC030 08/07 Q1020
SCIC 291200Z 19004KT 9999 SCT012 SCT100 09/07 Q1020
SCIE 291200Z 35007KT 310V020 8000 SHRA BKN025 10/07 Q1020
SCIP 291200Z 10003KT 050V180 9999 FEW020 SCT050 BKN250 18/15 Q1023 NOSIG
SCIR 291200Z 18008KT 9999 SCT015 BKN026 11/08 Q1023
SCJO 291200Z 01007KT 9999 SCT020 BKN035 07/04 Q1011
SCON 291200Z AUTO VRB02KT 9999 -RA SKC 07/06 Q1005
SCPQ 291200Z 34013KT 9000 -SHRA SCT006 OVC028 06/06 Q1006
SCQP 291200Z 34015KT 9999 SCT025 BKN035 08/05 Q1016
SCRD 291200Z 18007KT 9999 BKN030 10/03 Q1020
SCRM 291200Z 26022KT 9999 BKN020 M03/M04 Q1002
SCSE 291200Z 31004KT 9999 FEW012 12/08 Q1019
SCSN 291200Z 22004KT CAVOK 10/07 Q1021
SCTB 291200Z 24004KT 6000 OVC008 10/08 Q1020
SCTE 291200Z 36014KT 9999 FEW025 BKN035 07/05 Q1010 NOSIG
SCTN 291200Z 35022G33KT 8000 -RASH SCT013 BKN023 07/06 Q1006
SCVD 291200Z 33010KT 300V360 5000 SHRA SCT024 BKN033TCU 08/06 Q1014
SCVM 291200Z 18005KT 9999 BKN026 11/06 Q1020
SEAM 291200Z 03003KT CAVOK 11/09 Q1029
SECA 291200Z 30002KT 9999 SCT040 BKN100 19/18 1019
SECO 291200Z /////KT 9999 FEW023 BKN100 23/22 Q1012 RMK A2990
SECU 291200Z 24003KT 9999 FEW015 BKN040 BKN100 14/09 Q1026
SEGS 291200Z 13006KT 9999 BKN020 OVC070 22/16 Q1014 A2997
SEGU 291200Z 21005KT 9999 BKN033 OVC100 23/19 Q1013 NOSIG RMK A2991
SELT 291200Z 34003KT 9999 BKN040 08/06 Q1031
SEMC 291200Z 30006KT 9999 BKN130 18/16 Q1017
SEMT 291200Z 21005KT 9999 OVC020 22/20 Q1014 RMK A2995
SENL 291200Z 28002KT 9999 FEW020 BKN080 23/22 Q1012
SEQM 291200Z 07002KT 9999 FEW040 SCT100 BKN300 11/10 Q1028 NOSIG RMK A3036
SERO 291200Z 23002KT 4000 VCSH OVC006 22/21 Q1013
SESA 291200Z 22005KT 9999 OVC013 22/19 Q1013
SESM 291200Z 34006KT 9999 BKN026 BKN100 19/16 Q1017 A3003
SEST 291200Z 13006KT 9999 OVC030 20/18 Q1014 RMK A2995
SETN 291200Z 19004KT 9999 FEW020 OVC040 24/22 Q1013 A2993
SGAS 291200Z 04010KT 9999 CAVOK 26/21 Q1007
SGAS 291200Z 04010KT CAVOK 26/21 Q1007
SGAS 291230Z 03010KT CAVOK 25/21 Q1007
SGEN 291200Z 05006KT CAVOK 22/18 Q1010
SGEN 291230Z 05006KT CAVOK 23/18 Q1010
SGES 291200Z 08005KT CAVOK 25/21 Q1010
SGES 291230Z 07006KT CAVOK 26/21 Q1010
SKAR 291200Z 00000KT 4000 BR SCT023 BKN120 17/17 A3016 RMK AD OPER IMC
SKBG 291200Z VRB02KT 9999 FEW005 BKN070 18/18 A3002
SKBG 291200Z VRB02KT 9999 FEW005 SCT070 18/18 A3002
SKBO 291200Z 31004KT 9999 -DZ SCT017 BKN070 11/09 A3040
SKBQ 291200Z 16006KT 3500 BR SCT008 BKN200 25/25 A2992
SKCC 291200Z 13005KT 9999 SCT022 BKN080 24/23 A2991
SKCG 291200Z 20006KT 9999 FEW015 SCT070 26/26 A2990
SKCL 291200Z 01003KT 9000 FEW005 SCT020 BKN100 19/18 A3011
SKEJ 291200Z 00000KT 9999 -DZ SCT010 BKN100 22/22 A2997
SKIB 291200Z 05003KT 1200 DZ BR BKN004 OVC070 19/19 A3019 RMK AD BLW MNM MET
SKIP 291200Z 00000KT 9999 3000SW BCFG FEW016 BKN070 09/08 A3045
SKLC 291200Z 15003KT 9999 FEW003 BKN090 24/23 A2994
SKLT 291200Z 01004KT 9999 FEW015 BKN080 24/24 A2986
SKMD 291200Z 00000KT 9999 8000S VCSH SCT010 OVC080 17/16 A3024 REDZ RMK VCSH N/S
SKMR 291200Z 00000KT 9999 BKN018 25/24 A2992
SKMZ 291200Z 00000KT 7000 MIFG FEW005 SCT070 12/12 A3038
SKNV 291200Z 02004KT 4000 DZ BKN010 SCT070 22/22 A3002 RMK AD OPER IMC
SKPC 291200Z 19004KT 9999 BKN080 26/24 A2983
SKPE 291200Z 11006KT 9999 MIFG FEW015 BKN070 17/17 A3016
SKPS 291200Z 00000KT 9999 BKN020 SCT080 15/13 A3025
SKRG 291200Z VRB02KT 9999 FEW012 OVC080 14/14 A3036 REDZ
SKRH 291200Z 14004KT 9999 BKN015 24/23 A2991
SKSM 291200Z 18010KT 9999 FEW020 SCT100 BKN200 27/25 A2987
SKSP 291200Z 24005KT 200V290  9999 SCT016 SCT200 28/25 A2989
SKSP 291200Z 24005KT 200V290 9999 SCT016 SCT200 28/25 A2989
SKUC 291200Z 35003KT 9999 BKN020 SCT200 24/24 A2989
SKUI 291200Z 00000KT 9999 3000NW BCFG SCT005 OVC200 23/22 A2992
SKVP 291200Z 22005KT 5000 -DZ BKN007 23/23 A2999 RMK AD OPER IMC
SKVV 291200Z 00000KT 9999 SCT020 BKN080 23/21 A2994
SLAL 291200Z 20006KT 9999 NSC 14/05 Q1025
SLCA 291200Z 36004KT 9999 NSC 23/18 Q1010
SLCB 291200Z 00000KT 9000 NSC 18/05 Q1022
SLCO 291200Z 24003KT 9999 BKN080 OVC200 24/23 Q1012
SLCP 291200Z 30008KT 5000 FU NSC 24/22 Q1014
SLET 291200Z 32016G31KT 9999 BKN008 BKN013 23/21 Q1008
SLJE 291200Z 00000KT 9999 FEW012 25/22 Q1013
SLJO 291200Z 32004KT 9999 BKN080 27/24 Q1010
SLLP 291200Z VRB02KT 9999 FEW015 SCT200 10/M14 Q1037
SLMG 291200Z 00000KT 8000 BKN080 26/24 Q1010
SLOR 291200Z 00000KT 8000 NSC 05/M03 Q10336 METAR SLET 291200Z 32016G31KT 9999 BKN008 BKN013 23/21 Q1008
SLPO 291200Z 24008KT 9999 NSC 09/M08 Q1035
SLPS 291200Z 00000KT 7000 BKN070 27/22 Q1010
SLRB 291200Z 36018KT 9999 NSC 27/23 Q1012
SLRI 291200Z 00000KT 9999 SCT017 BKN080 26/24 Q1012
SLRQ 291200Z 00000KT 9999 FEW030 SCT070 BKN200 25/24 Q1010
SLRY 291200Z 34004KT 9999 BKN023 BKN080 25/22 Q1009
SLSA 291200Z 34005KT 9999 FEW080 BKN200 25/24 Q1011
SLSI 291200Z 00000KT 8000 BKN070 23/22 Q1012
SLTJ 291200Z 00000KT 9999 NSC 20/13 Q1015
SLTR 291200Z 31007KT 9999 FEW080 SCT200 26/24 Q1010
SLVR 291200Z 36015G25KT 9999 BKN006 BKN012 24/22 Q1009
SLYA 291200Z 00000KT 9999 NSC 28/20 Q1006
SMJP 291200Z 14004KT 110V170 9999 FEW006 25/24 Q1012 NOSIG
SMZO 291200Z 08004KT 9999 FEW012 27/24 Q1011 NOSIG
SOCA 291200Z AUTO 15003KT 070V200 9999 BKN014 30/25 Q1012
SOCA 291230Z AUTO VRB05KT 9999 BKN020 BKN025 30/24 Q1012
SPCL 291200Z 04003KT 9999 SCT017 BKN080 25/23 Q1012 RMK PP000
SPHI 291200Z 18009KT 9999 BKN050 17/15 Q1014 RMK BIRD HAZARD RWY 19/01 PP000
SPHO 291200Z 22003KT 9999 SCT030 BKN080 17/10 Q1025 RMK TN13.3 PP000
SPHY 291200Z 00000KT 6000 BCFG SCT014 OVC040 08/04 Q1034 RMK TN 1.4 PP000
SPJC 291200Z 19005KT 9999 OVC011 16/14 Q1016 NOSIG RMK PP000
SPJL 291200Z 02003KT 9999 SCT020 08/M07 Q1035 RMK PP000
SPJR 291200Z 12002KT 9999 SCT026 BKN043 12/09 Q1028 RMK PP000
SPJR 291230Z VRB01KT 9999 FEW026 SCT046 14/10 Q1028
SPME 291200Z 00000KT 9999 BKN011 22/20 Q1013 RMK BIRD HAZARD RWY 32/14 TN 21.4 PP000
SPMS 291200Z 05005KT 9999 FEW010 BKN080 24/23 Q1014 RMK BIRD HAZARD RWY 09/27 PP000
SPQT 291200Z 26003KT 9999 BKN006 OVC070 24/23 Q1O10 NOSIG RMK BIRD HAZARD RWY 06/24 PP000
SPQU 291200Z 12006KT CAVOK 14/M01 Q1027 NOSIG RMK TN6.4 PP000
SPRU 291200Z 15006KT 6000 BKN120 16/15 Q1014 RMK BR PP000
SPSO 291200Z 22004KT 6000 OVC011 18/15 Q1015 RMK BR BIRD HAZARD RWY 22/04 PP000
SPST 291200Z 00000KT 5000 BR SCT008 BKN080 24/23 Q1011 RMK BIRD HAZARD RWY 17/35 PP000
SPTN 291200Z VRB03KT 9999 OVC030 15/12 Q1018 RMK PP000
SPTU 291200Z 34007KT 8000 -DZ OVC030 24/23 Q1009 RMK TN22.4 BIRD HAZARD RWY 01/19 PPTRZ
SPZO 291200Z 00000KT 9999 SCT040 BKN100 11/06 Q1031 NOSIG RMK BIRD HAZARD RWY 28 PP000
SPZO 291230Z VRB02KT 9999 SCT040 BKN100 12/06 Q1031 NOSIG RMK BIRD HAZARD RWY28
SUAA 291200Z 08012KT 9999 FEW033 BKN200 18/14 Q1013
SUCA 291200Z 03014KT CAVOK 20/16 Q1010
SUCA 291200Z 03014KT CAVOK 20/16 Q1010 METAR SUDU 291200Z 03012KT 9999 FEW010 SCT060 20/16 Q1014
SUDU 291200Z 03012KT 9999 FEW010 SCT060 20/16 Q1014
SULS 291200Z 04008KT 340V090 9999 SCT020 BKN200 18/14 Q1014
SUMU 291200Z 03012KT CAVOK 19/14 Q1013 NOSIG
SUSO 291200Z 12008KT 9999 FEW013 21/17 Q1010
SVMI 291200Z /////KT 9999 SCT016 27/23 Q1010
SYCJ 291200Z VRB02KT 9999 SCT018 28/25 Q1011 NOSIG
SYEC 291200Z 09004KT 9999 SCT020 28/26 Q1011
TAPA 291200Z 13004KT 9999 FEW018 28/24 Q1013 NOSIG
TBPB 291200Z 10013KT 9999 SCT020 29/24 Q1012 NOSIG
TDCF 291200Z 02002KT 9999 FEW020 29/22 Q1012
TFFF 291200Z AUTO 12009KT 9999 FEW024 29/24 Q1013 NOSIG
TFFF 291230Z AUTO 12010KT 9999 BKN025 29/23 Q1013 NOSIG
TFFR 291200Z AUTO 13004KT 100V160 CAVOK 29/24 Q1013 NOSIG
TFFR 291230Z AUTO 12007KT 090V150 9999 SCT021 BKN026 29/24 Q1013 NOSIG
TGPY 291200Z 09010KT 9999 FEW016TCU BKN036 27/26 Q1012 NOSIG ADJ SHRA-NE TCU-NE TO SSW WSW
TGPY 291200Z 09010KT 9999 FEW016TCU BKN036 27/26 Q1012 NOSIG ADJ SHRA-NE TCU-NE TO SSW/WSW
TIST 291153Z AUTO 10008KT 10SM CLR 26/24 A2993
TIST 291153Z AUTO 10008KT 10SM CLR 26/24 A2993 RMK AO2 SLP134 60001 70081 T02610239 10278 20256 51024 $
TJBQ 291150Z 19004KT 10SM SCT090 24/22 A2993
TJPS 291155Z 35006KT 2SM +SHRA FEW003 BKN018 23/22 A2994
TJPS 291155Z 35006KT 2SM +SHRA FEW003 BKN018 23/22 A2994 RMK AO2A LTG DSNT W SHRAB1113 SLP138 WND DATA ESTMD P0087 60000 70050 T02290220 10261 20249 51031
TJPS 291220Z VRB03KT 3SM BR VCSH FEW012 SCT020 BKN030 23/22 A2995
TJPS 291220Z VRB03KT 3SM BR VCSH FEW012 SCT020 BKN030 23/22 A2995 RMK AO2A VISNW-NE 1 1/2SM SLP140 WND DATA ESTMD
TJRV 291155Z 35005KT 7SM SCT021 BKN070 OVC190 25/24 A2995 RMK SLP142 WND DATA ESTMD 70027 T02510238 10251 20242 52005
TJSJ 291156Z 00000KT 10SM FEW033 SCT060 BKN075 27/26 A2993
TJSJ 291156Z 00000KT 10SM FEW033 SCT060 BKN075 27/26 A2993 RMK AO2 SLP134 T02670256 10272 20261 51024
TKPK 291200Z 08008KT 9999 SCT019 28/25 Q1013
TKPN 291200Z 16003KT 9999 FEW018TCU 28/24 Q1013
TLPC 291200Z 11006KT 9999 FEW026 29/24 Q1013 NOSIG
TLPL 291200Z 12014KT 9999 FEW026 29/23 Q1012 NOSIG
TNCA 291200Z 10007KT 9999 FEW018 30/25 Q1011 A2988 NOSIG
TNCB 291155Z AUTO 11007KT 070V160 9999 FEW013/// SCT016/// BKN024/// 29/25 Q1011
TNCC 291200Z 11004KT 9999 FEW018 28/24 Q1012 NOSIG
TNCE 291155Z AUTO 10006KT 060V150 //// // ///////// 28/25 Q1013 RE//
TNCM 291200Z 14006KT 9999 FEW018TCU 29/24 Q1013 A2993 NOSIG JP TO W
TRPG 291200Z 13011KT 9999 SCT017 27/25 Q1014
TTCP 291200Z 06004KT 9999 -RA VCSH FEW012CB SCT036 26/24 Q1012 TEMPO 5000 SHRA RMK CB-NE VCSH-N SE
TTCP 291200Z 06004KT 9999 -RA VCSH FEW012CB SCT036 26/24 Q1012 TEMPO 5000 SHRA RMK CB-NE VCSH-N/SE
TTPP 291200Z 09006KT 9999 VCSH FEW016 28/25 Q1011 NOSIG
TUPJ 291200Z 15007KT 9999 FEW018 SCT034 28/24 Q1013
TVSA 291200Z 10004KT 9999 BKN018 27/24 Q1012
TXKF 291155Z 08006KT 9999 SCT043 BKN300 23/14 Q1016
UAAA 291200Z VRB01MPS 3200 FU FEW100 SCT200 13/03 Q1021 R05L/CLRD65 NOSIG
UAAA 291230Z 14002MPS 1100 R23R/P2000U FU FEW100 SCT200 12/03 Q1021 R23R/CLRD65 NOSIG
UACC 291200Z 22004MPS 9999 SCT036 BKN073 01/M02 Q1023 R22/0///70 NOSIG RMK QFE735/0981
UACC 291230Z 22004MPS 9999 BKN030 01/M02 Q1023 R22/0///70 NOSIG RMK QFE735/0981
UADD 291200Z 27001MPS 6000 NSC 15/06 Q1018 R13/0///65 NOSIG RMK QFE707/0942
UADD 291230Z 27002MPS 6000 NSC 14/06 Q1018 R13/0///65 NOSIG RMK QFE707/0942
UAII 291200Z 06001MPS 6000 NSC 20/06 Q1017 R28/0///70 NOSIG RMK QFE725/0967
UAII 291230Z VRB01MPS 5000 FU NSC 19/05 Q1017 R28/0///70 NOSIG RMK QFE725/0967
UAKK 291200Z 21003MPS CAVOK M02/M04 Q1023 R23/0///70 NOSIG RMK QFE720/0960
UAKK 291230Z 20003MPS CAVOK M02/M04 Q1023 R23/0///70 NOSIG RMK QFE720/0960
UAOO 291200Z 10002MPS CAVOK 15/M01 Q1016 R05/CLRD70 NOSIG RMK QFE750/1001
UAOO 291230Z 10002MPS CAVOK 13/M01 Q1016 R05/CLRD70 NOSIG RMK QFE750/1000
UARR 291200Z 16010MPS CAVOK 10/05 Q1004 R22/210265 NOSIG RMK QFE749/0999
UARR 291230Z 16010MPS CAVOK 10/05 Q1004 R22/210265 TEMPO 15010G15MPS RMK QFE749/0999
UASK 291200Z 32001MPS 9999 BKN043 04/02 Q1025 R12/090060 NOSIG RMK QFE743/0991
UASK 291230Z 32002MPS 9999 BKN054 03/02 Q1025 R12/090060 NOSIG RMK QFE743/0991
UASP 291200Z 20003MPS 9999 OVC035 02/M02 Q1022 R21/0///70 NOSIG RMK QFE755/1007
UASP 291230Z 19003MPS 9999 OVC031 02/M02 Q1023 R21/0///70 NOSIG RMK QFE756/1008
UATE 291200Z 11002MPS 080V180 CAVOK 19/11 Q1003 R12/0///70 NOSIG RMK QFE750/1000
UATE 291230Z VRB01MPS CAVOK 18/11 Q1003 R12/0///70 NOSIG RMK QFE750/1000
UATG 291200Z 13008MPS CAVOK 12/06 Q1005 R14/CLRD70 NOSIG RMK QFE756/1008
UATG 291230Z 13008MPS CAVOK 12/06 Q1005 R14/CLRD70 NOSIG RMK QFE756/1008
UATT 291200Z 13005MPS CAVOK 04/01 Q1013 R13/0///60 NOSIG RMK QFE740/0987
UATT 291230Z 15004MPS CAVOK 03/01 Q1013 R13/0///60 NOSIG RMK QFE740/0987
UAUU 291200Z 18002MPS 9999 OVC003 01/01 Q1019 R33/590140 NOSIG RMK QBB090 QFE749/0998
UAUU 291230Z 20002MPS 9999 OVC005 01/00 Q1019 R33/590140 NOSIG RMK QBB150 QFE749/0998
UBBB 291200Z 20011KT CAVOK 24/14 Q1003 WS ALL RWY R88/CLRD// NOSIG
UBBB 291200Z 20011KT CAVOK 24/14 Q1003 WS ALL RWY R88/D NOSIG
UBBB 291230Z 20010KT CAVOK 24/13 Q1003 WS ALL RWY R88/CLRD// NOSIG
UBBB 291230Z 20010KT CAVOK 24/13 Q1003 WS ALL RWY R88/D NOSIG
UBBG 291200Z 21004KT 170V250 9999 SCT100 23/07 Q1007 R12/CLRD// NOSIG
UBBG 291230Z VRB02KT 9999 SCT100 23/07 Q1007 R12/CLRD// NOSIG
UBBL 291200Z 00000KT 9000 NSC 22/15 Q1007 R33/CLRD// NOSIG RMK MT OP
UBBN 291200Z 27004KT 9999 FEW100 21/10 Q1010 R14R/CLRD// NOSIG RMK MT OP QFE683
UBBN 291230Z 24008KT 9999 FEW100 20/10 Q1010 R14R/CLRD// NOSIG RMK MT OP QFE683
UBBQ 291200Z 30016KT 9999 NSC 26/06 Q1006 R16/////// NOSIG RMK MT OP
UBBY 291200Z VRB03KT 9999 FEW060 21/10 Q1011 R33/////// NOSIG RMK MT OP
UBEE 291200Z 34009KT CAVOK 26/10 Q1006 R30/CLRD// NOSIG
bereinstimmungen in Binrdatei METAR.rwx
UCFL 291200Z 15001MPS 9999 FEW030 11/03 Q1024 R07/CLRD70 RMK G/O
UCFM 291200Z VRB01MPS 8000 NSC 15/04 Q1019 R26/CLRD70 NOSIG
UCFM 291230Z VRB01MPS 6000 NSC 13/05 Q1019 R26/CLRD70 NOSIG
UCFO 291200Z 24001MPS 8000 NSC 17/05 Q1020 R12/CLRD70 NOSIG
UCFO 291230Z 17001MPS 2100 FU NSC 15/05 Q1020 R12/CLRD70 TEMPO 2000 BR FU
UDSG 291200Z 21007KT 9999 -SHRA SCT020CB OVC033 10/05 Q1014 R02/19//60 NOSIG
UDSG 291230Z 19008KT 9999 -SHRA SCT020CB OVC033 11/04 Q1013 R02/19//60 NOSIG
UDYZ 291200Z 26002KT 6000 SCT010 13/10 Q1013 R09/190065 NOSIG
UDYZ 291230Z 26003KT 9999 FEW010 14/11 Q1012 R09/190065 NOSIG
UEEE 291200Z 29003MPS CAVOK M17/M20 Q1011 R23L/490150 NOSIG RMK QFE749
UEEE 291230Z 31004MPS CAVOK M18/M21 Q1010 R23L/490150 NOSIG RMK QFE749
UGKO 291200Z 08006KT 9999 BKN048 23/13 Q1004 R07/09//70 NOSIG
UGKO 291230Z AUTO 08010KT 9999 BKN100/// 21/11 Q1003 R07/09//70 NOSIG
UGSB 291200Z VRB03KT 9999 FEW036 SCT080 20/16 Q1006 R13/70D NOSIG
UGSB 291200Z VRB03KT 9999 FEW036 SCT080 20/16 Q1006 R13/CLRD70 NOSIG
UGSB 291230Z 00000KT 9999 FEW040 SCT090 20/16 Q1005 R13/70D NOSIG
UGSB 291230Z 00000KT 9999 FEW040 SCT090 20/16 Q1005 R13/CLRD70 NOSIG
UGTB 291200Z 14005KT 110V170 CAVOK 21/08 Q1010 R13R/CLRD70 NOSIG
UGTB 291230Z 11004KT CAVOK 21/10 Q1010 R13R/CLRD70 NOSIG
UHBB 291200Z 25002MPS CAVOK M02/M12 Q1016 R36/090060 NOSIG RMK QFE745/0993
UHHH 291200Z 28006MPS CAVOK M01/M10 Q1011 R23L/090060 NOSIG RMK QFE752/1002
UHHH 291230Z 28006MPS CAVOK M01/M10 Q1011 R23L/090060 NOSIG RMK QFE751/1002
UHMA 291200Z 34004MPS CAVOK M18/M20 Q1019 RMK END R01/02003MPS QFE761/1014
UHMM 291200Z 18006G11MPS 9999 -SHSN OVC023CB 00/M01 Q0989 RMK QFE728
UHPP 291200Z 01004MPS 9999 NSC M01/M03 Q1017 R34L/CLRD70 NOSIG RMK QFE759/1012
UHSS 291200Z 35008MPS 9999 FEW006 BKN027 08/06 Q1001 RMK MT OBSC QFE750/1000
UHWW 291200Z 36005G10MPS 9999 NSC 03/M11 Q1016 R07R/0///70 NOSIG RMK QFE761
UHWW 291230Z 35005MPS 9999 NSC 03/M12 Q1016 R07R/0///70 NOSIG RMK QFE761
UIAA 291200Z VRB01MPS 9999 NSC M06/M12 Q1019 R29/70D NOSIG RMK QFE706/0941
UIAA 291200Z VRB01MPS 9999 NSC M06/M12 Q1019 R29/CLRD70 NOSIG RMK QFE706/0941
UIAA 291230Z 31003MPS 9999 NSC M07/M12 Q1019 R29/70D NOSIG RMK QFE705/0941
UIAA 291230Z 31003MPS 9999 NSC M07/M12 Q1019 R29/CLRD70 NOSIG RMK QFE705/0941
UIBB 291200Z 06001MPS 9999 NSC M05/M06 Q1015 R30/920250 NOSIG RMK QFE718/0958
UIBB 291230Z 00000MPS 9999 NSC M04/M04 Q1015 R30/920250 NOSIG RMK QFE718/0958
UIII 291200Z 17005MPS CAVOK 01/M03 Q1017 R12/60D NOSIG RMK QFE720/0961
UIII 291200Z 17005MPS CAVOK 01/M03 Q1017 R12/CLRD60 NOSIG RMK QFE720/0961
UIII 291230Z 18004MPS CAVOK 00/M03 Q1017 R12/60D NOSIG RMK QFE720/0961
UIII 291230Z 18004MPS CAVOK 00/M03 Q1017 R12/CLRD60 NOSIG RMK QFE720/0961
UIUU 291200Z 30002MPS 240V340 9999 NSC M05/M10 Q1019 R26/60D NOSIG RMK QFE720/0960
UIUU 291200Z 30002MPS 240V340 9999 NSC M05/M10 Q1019 R26/CLRD60 NOSIG RMK QFE720/0960
UIUU 291230Z 25004MPS 9999 NSC M06/M11 Q1019 R26/60D NOSIG RMK QFE720/0960
UIUU 291230Z 25004MPS 9999 NSC M06/M11 Q1019 R26/CLRD60 NOSIG RMK QFE720/0960
UKBB 291200Z 19008MPS CAVOK 09/04 Q0985 R88/CLRD// TEMPO 20012G18MPS
UKBB 291200Z 19008MPS CAVOK 09/04 Q0985 R88/D TEMPO 20012G18MPS
UKBB 291230Z 19008MPS CAVOK 09/05 Q0985 R88/CLRD// TEMPO 20012G18MPS
UKBB 291230Z 19008MPS CAVOK 09/05 Q0985 R88/D TEMPO 20012G18MPS
UKDD 291200Z 22007MPS 180V250 9999 BKN031 10/05 Q0995 R26/210270 NOSIG
UKDD 291230Z 22007MPS 170V260 9999 BKN031 11/05 Q0995 R26/210270 NOSIG
UKDE 291200Z 21007MPS 170V230 9999 BKN026 10/04 Q0997 R02/210368 TEMPO 19010G15MPS
UKDE 291230Z 20005MPS 9999 BKN033 10/04 Q0996 R02/210368 NOSIG
UKDR 291200Z 21009MPS 9999 BKN033 11/03 Q0993 R18/09//70 TEMPO 22012G17MPS
UKDR 291230Z 21011MPS 160V240 9999 BKN033 11/03 Q0993 R18/09//70 TEMPO 22012G17MPS
UKHH 291200Z 21006MPS 9999 BKN020 09/05 Q0994 R25/0///66 NOSIG
UKHH 291230Z 22005MPS 9999 BKN020 09/05 Q0994 R25/0///66 NOSIG
UKKK 291200Z 19005MPS 160V230 CAVOK 09/03 Q0984 R26/70D TEMPO 19010G16MPS
UKKK 291200Z 19005MPS 160V230 CAVOK 09/03 Q0984 R26/CLRD70 TEMPO 19010G16MPS
UKKK 291230Z 19006G11MPS 160V230 CAVOK 09/04 Q0984 R26/70D TEMPO 19010G16MPS
UKKK 291230Z 19006G11MPS 160V230 CAVOK 09/04 Q0984 R26/CLRD70 TEMPO 19010G16MPS
UKKM 291200Z AUTO 18007MPS 9999 ///120/// 09/03 Q0984
UKKM 291230Z AUTO 17008MPS 9999 BKN062/// 09/04 Q0983
UKLI 291200Z 23007MPS 200V270 9999 -SHRA SCT023CB BKN040 08/04 Q0982 R28/090070 TEMPO 27020G25MPS
UKLI 291230Z 23009MPS 190V260 9999 SCT023CB BKN040 09/03 Q0981 R28/090070 TEMPO 27020G25MPS
UKLL 291200Z 24008MPS 9999 -RA OVC019 06/03 Q0980 R31/290060 TEMPO 25012G19MPS
UKLL 291230Z 25006MPS 9000 -RA OVC019 06/04 Q0980 R31/290060 TEMPO 25012G19MPS
UKLL 291243Z 27007G13MPS 240V320 2400 -RA OVC009 05/02 Q0981 R31/290060 TEMPO 25012G19MPS
UKLN 291200Z 23005MPS 190V300 9999 SCT033CB BKN100 11/M04 Q0984 TEMPO 27015G20MPS
UKLN 291230Z 24003MPS 170V290 9999 -SHRA SCT033CB BKN100 11/M04 Q0984 TEMPO 27015G20MPS
UKLR 291200Z 22010G16MPS 9999 -SHRA SCT019CB SCT019 OVC100 05/04 Q0978 TEMPO 24011G18MPS
UKLR 291230Z 21008MPS 9999 -SHRA SCT017CB SCT017 OVC100 05/04 Q0978 TEMPO 24011G18MPS
UKLU 291200Z 25005MPS 210V300 9999 BKN022 OVC100 09/07 Q0985 R10/290160 NOSIG
UKLU 291230Z 27003MPS 220V300 9999 BKN031 09/07 Q0985 R10/290160 NOSIG
UKOH 291200Z 22008G13MPS 180V270 9999 BKN040CB 13/05 Q0996 R21/CLRD65 NOSIG
UKOH 291230Z 21009MPS 170V250 9999 SCT040 13/05 Q0995 R21/CLRD65 NOSIG
UKON 291200Z 20010MPS 9999 FEW026 SCT100 13/02 Q0994 NOSIG
UKOO 291200Z 21011MPS 9999 SCT036 SCT100 BKN200 13/04 Q0994 R16/090060 TEMPO 25015G23MPS
UKOO 291230Z 21009MPS 9999 SCT040 BKN100 12/07 Q0993 R16/090060 TEMPO 25015G23MPS
UKWW 291200Z 21009G14MPS 6000 -SHRA BKN030CB OVC100 08/03 Q0985 TEMPO 22014G19MPS 2100 -SHRA
UKWW 291230Z 22011G16MPS 9999 -SHRA SCT011 BKN026CB 07/04 Q0984 NOSIG
ULAA 291200Z 11004MPS 080V140 9999 -SHSN OVC011CB M01/M02 Q0992 R08/590150 NOSIG RMK QFE743/0991
ULAA 291230Z 12004MPS 090V150 9999 -SHSN OVC013CB M01/M03 Q0992 R08/590150 NOSIG RMK QFE743/0991
ULLI 291200Z 12005MPS 9999 -SHRA SCT007 BKN016CB OVC040 03/02 Q0977 R88/290050 NOSIG RMK OBST OBSC
ULLI 291230Z 13005MPS 9999 -SHRA SCT007 BKN016CB OVC040 03/02 Q0977 R88/290050 NOSIG RMK OBST OBSC
ULMM 291200Z 29001MPS 3300 -SHSN SCT006 BKN019CB M00/M01 Q0989 R31/520150 NOSIG RMK OBST OBSC QFE735
ULMM 291230Z 29002MPS 3300 -SHSN SCT007 BKN019CB M00/M01 Q0990 R31/520150 NOSIG RMK OBST OBSC QFE735
ULOO 291200Z 23002MPS P5000 SCT010CB BKN027 07/05 Q0976 R19/290050 NOSIG RMK QFE728
ULOO 291230Z 21002MPS 160V230 P5000 SCT016CB OVC030 07/05 Q0976 R19/290050 NOSIG RMK QFE728
ULPB 291200Z 12003MPS 080V150 9000 -RA BKN010 03/01 Q0982 R01/29//60 NOSIG RMK QBB300 QFE733/0977
ULPB 291230Z 12004MPS 080V160 9999 -RA BKN012 03/01 Q0982 R01/29//60 NOSIG RMK QFE733/0977
ULWC 291200Z 13003MPS 9999 BKN005 OVC016 02/01 Q0985 R21/520150 NOSIG RMK QBB150 QFE729/0972
ULWC 291230Z 13003MPS 9999 BKN006 OVC016 02/01 Q0985 R21/520150 NOSIG RMK QFE729/0972
UMBB 291200Z 26005G08MPS 6000 -SHRA OVC012CB 07/06 Q0974 NOSIG
UMGG 291200Z 17006G09MPS 9999 -SHRA OVC017CB 08/06 Q0982 R28/290050 NOSIG
UMGG 291230Z 16006G09MPS 9999 OVC020CB 08/06 Q0982 R10/290050 NOSIG
UMII 291200Z 17004G07MPS 6000 -SHRA BKN013 BKN021CB 07/06 Q0977 TEMPO 2100 BKN005
UMII 291227Z 17004G07MPS 4000 -SHRA BKN010 BKN017CB 07/06 Q0977 TEMPO 2100 BKN005
UMKK 291200Z 34009G14MPS 310V010 9999 -SHRA BKN019CB 07/04 Q0980 R06/290257 NOSIG RMK QFE734/0979
UMKK 291230Z 34009G15MPS 300V020 9000 -SHRA SCT009 BKN019CB 07/04 Q0981 R06/290257 NOSIG RMK QFE735/0980
UMMG 291235Z 27005G08MPS 9000 -SHRA BKN008CB OVC066 07/06 Q0971 NOSIG
UMMS 291200Z 17004G07MPS 9000 -RA BKN008 OVC019 06/05 Q0975 R13/290055 NOSIG
UMMS 291230Z 17004G07MPS 8000 -RA BKN007 OVC019 06/05 Q0974 R13/290055 NOSIG
UMOO 291200Z 18006MPS 6000 -SHRA BKN008 OVC016CB 07/06 Q0978 NOSIG
UNAA 291200Z 23004MPS CAVOK 03/M02 Q1021 R20/390030 NOSIG RMK QFE743
UNAA 291230Z 23004MPS CAVOK 02/M01 Q1021 R20/390030 NOSIG RMK QFE743
UNBB 291200Z 24005MPS 9999 -SN BKN022 01/M03 Q1022 R24/290058 NOSIG RMK QFE744
UNBB 291230Z 24004MPS 9999 BKN024 M00/M01 Q1022 R24/290058 NOSIG RMK QFE744
UNEE 291200Z 22007MPS 9999 OVC031CB M01/M05 Q1019 R23/290255 NOSIG RMK QFE741
UNEE 291230Z 23006MPS 9999 OVC042CB M01/M05 Q1019 R23/290255 NOSIG RMK QFE741
UNKL 291200Z 27005MPS 9999 SCT040CB 04/M02 Q1016 R29/CLRD65 NOSIG RMK QFE736
UNKL 291230Z 26007MPS 9999 -SHSN SCT033CB 03/M01 Q1017 R29/CLRD65 NOSIG RMK QFE737
UNNT 291200Z 26004MPS 9999 OVC033CB M01/M06 Q1020 R25/150060 R16/150060 NOSIG RMK QFE755/1006
UNNT 291230Z 26005MPS 9999 OVC033CB M01/M06 Q1020 R25/150060 R16/150060 NOSIG RMK QFE755/1007
UNOO 291200Z 23003MPS 9999 SCT030CB M06/M09 Q1021 R25/420550 NOSIG RMK QFE757
UNOO 291230Z 23003MPS 9999 SCT033 M06/M09 Q1021 R25/420550 NOSIG RMK QFE757
UNTT 291200Z 24007G12MPS 9999 -SHSN SCT023CB M01/M04 Q1016 R21/590135 NOSIG RMK QFE747
UNTT 291230Z 23007MPS 9999 -SHSN SCT021CB M01/M04 Q1016 R21/590135 NOSIG RMK QFE747
URKA 291200Z 00000MPS 9999 BKN024 11/10 Q1001 R04/290160 TEMPO 2000 SHRA BKN007 BKN020CB RMK QFE747/0996
URKA 291230Z 00000MPS 9999 BKN020 12/09 Q1001 R04/290160 TEMPO 2000 SHRA BKN007 BKN020CB RMK QFE747/0996
URKK 291200Z 32004MPS 290V350 9999 SCT005 BKN051CB 12/11 Q1001 R23L/290060 TEMPO 2000 SHRA SCT004 BKN020CB RMK QFE747
URKK 291230Z 32003MPS 9999 -SHRA BKN009 BKN059CB 12/11 Q1001 R23L/290060 TEMPO 2000 SHRA SCT004 BKN020CB RMK QFE748
URMG 291200Z 09005MPS 9999 SCT/// 19/11 Q1000 R08/000070 NOSIG RMK QFE736/0981
URMG 291230Z 10005MPS 9999 BKN/// 18/11 Q1000 R08/000070 NOSIG RMK QFE735/0981
URML 291200Z 13004MPS 9999 SCT008 16/13 Q1001 R32/01//70 NOSIG RMK MT OBSC QFE751/1001
URML 291230Z 15004MPS 9999 FEW008 15/13 Q1001 R32/01//70 NOSIG RMK QFE750/1001
URMO 291200Z 07004MPS 9999 FEW034 19/07 Q1000 R09/010070 NOSIG RMK QFE707/0942
URMO 291230Z 09003MPS 9999 FEW034 18/08 Q1000 R09/010070 NOSIG RMK QFE707/0942
URMT 291200Z 13002MPS 9999 -RA FEW013 SCT030 13/11 Q1001 R07/290250 NOSIG RMK QFE711
URMT 291230Z 13002MPS 9999 -SHRA SCT030CB 13/11 Q1001 R07/290250 NOSIG RMK QFE711
URRR 291200Z 25004MPS 220V290 9999 SCT014 SCT///CB 10/07 Q1000 R22/290055 NOSIG RMK QFE742/0990
URRR 291230Z 24004MPS 220V280 9999 SCT/// SCT///CB 10/07 Q0999 R22/290055 NOSIG RMK QFE742/0989
URSS 291200Z 10003MPS 9999 -SHRA BKN060CB OVC083 18/11 Q1003 WS ALL RWY R02/290055 R06/290055 NOSIG RMK R06/09004G08MPS QFE751
URSS 291230Z 07002MPS 9999 -SHRA BKN060CB OVC083 17/12 Q1004 WS ALL RWY R02/290055 R06/290055 NOSIG RMK R06/08003MPS QFE751
URWA 291200Z 14002MPS 9999 BKN018 14/09 Q1004 R09/010070 NOSIG RMK QFE755/1007
URWA 291230Z 12004MPS 9999 BKN018 14/09 Q1004 R09/010070 NOSIG RMK QFE754/1006
URWI 291200Z 18002MPS 9999 FEW///CB 15/12 Q1001 R27/010065 NOSIG
URWI 291230Z VRB01MPS 9999 SCT///CB 15/12 Q1000 R27/010065 NOSIG
URWW 291200Z 21006MPS 9999 -SHRA SCT005 BKN020CB 12/11 Q0999 R24/290060 NOSIG RMK OBST OBSC
URWW 291230Z 21007MPS 9999 SCT008 BKN020CB 12/11 Q0999 R24/290060 NOSIG RMK OBST OBSC
USCC 291200Z 14005MPS 9999 BKN026 M02/M05 Q1015 R09/000060 NOSIG RMK QFE741
USCC 291230Z 15006MPS 3800 -SN BKN026 M02/M04 Q1015 R09/000060 TEMPO 0700 +SN VV002 RMK QFE741
USCM 291200Z 20004MPS 1800 1400E R18/1400D BR VV001 01/M00 Q1013 R18/490232 TEMPO 0500 FG RMK QBB050 QFE722
USCM 291230Z 19003MPS 2400 1000E R18/1000D BR VV001 01/M00 Q1013 R18/490232 TEMPO 0500 FG RMK QBB030 QFE722
USHH 291200Z 24004MPS 9999 BKN043CB M04/M07 Q1012 R24/010060 TEMPO 2000 SHSN BKN005CB RMK QFE755
USHH 291230Z 25005MPS 9999 BKN043CB M04/M07 Q1012 R24/010060 TEMPO 2000 SHSN BKN005CB RMK QFE755
USNN 291200Z 27004MPS 5000 -SN FEW013 OVC025 M04/M04 Q1008 R21/491042 NOSIG RMK QFE751
USNN 291230Z 28005MPS 5000 -SN FEW011 OVC020 M04/M05 Q1008 R21/491042 NOSIG RMK QFE751
USPP 291200Z 11005MPS 9999 FEW048 M02/M08 Q1008 R21/090060 NOSIG RMK QFE745
USPP 291230Z 12006MPS 9999 BKN030 M02/M07 Q1007 R21/090060 NOSIG RMK QFE744
USRR 291200Z 28007MPS 7000 DRSN SCT010 M06/M07 Q1010 R25/450545 NOSIG RMK QFE752
USRR 291230Z 28007MPS 7000 DRSN NSC M07/M08 Q1011 R25/450545 NOSIG RMK QFE753
USSS 291200Z 12003MPS CAVOK M03/M08 Q1014 R08L/150050 NOSIG RMK QFE740/0987
USSS 291230Z 12004MPS CAVOK M03/M08 Q1014 R08L/150050 NOSIG RMK QFE740/0987
USTR 291200Z 22002MPS CAVOK M07/M11 Q1018 R21/420163 NOSIG RMK QFE754/1005
USTR 291230Z 21003MPS CAVOK M07/M09 Q1018 R21/420163 NOSIG RMK QFE754/1005
UTAA 291200Z 33012KT 9000 SCT100 33/04 Q1007 R88/70D NOSIG
UTAA 291200Z 33012KT 9000 SCT100 33/04 Q1007 R88/CLRD70 NOSIG
UTAK 291200Z 19017KT 9999 SCT010 20/17 Q1007 R16R/CLRD70 NOSIG
UTAM 291200Z 16006KT 6000 FEW230 34/06 Q1008 NOSIG
UTAT 291200Z 14012KT CAVOK 20/06 Q1007 R08/CLRD70 NOSIG
UTAV 291200Z 16010KT 3000 BLDU BKN100 29/00 Q1009 NOSIG
UTDD 291200Z 00000MPS 9999 NSC 24/00 Q1020 R09/CLRD// NOSIG RMK QFE696/0928
UTDD 291200Z 00000MPS 9999 NSC 24/00 Q1020 R09/D NOSIG RMK QFE696/0928
UTDD 291230Z 00000MPS 9000 NSC 22/03 Q1020 R09/CLRD// NOSIG RMK QFE696/0928
UTDD 291230Z 00000MPS 9000 NSC 22/03 Q1020 R09/D NOSIG RMK QFE696/0928
UTDK 291200Z VRB01MPS 9999 NSC 23/03 Q1019 R01/09//70 RMK QFE707/0942
UTDK 291230Z 36002MPS 9999 NSC 23/02 Q1019 R01/09//70 RMK QFE707/0942
UTDL 291200Z 07007MPS 9999 BKN200 20/01 Q1018 88CLRD70 NOSIG RMK QFE724/0965
UTDL 291230Z 08005MPS 9999 FEW160 OVC200 19/03 Q1018 88CLRD70 NOSIG RMK QFE724/0965
UTDT 291200Z 31002MPS 9999 BKN130 25/03 Q1017 35CLRD70 RMK QFE723/0965
UTDT 291230Z VRB01MPS 9999 BKN130 23/05 Q1017 35////// RMK QFE723/0965
UTFF 291200Z 32002KT 5000 HZ NSC 20/04 Q1019 R18/CLRD70
UTFF 291230Z VRB02KT 7000 NSC 18/05 Q1019 R18/CLRD70
UTFN 291200Z 23004KT 8000 NSC 19/05 Q1019 R28/CLRD70 NOSIG
UTFN 291230Z 29004KT 6000 NSC 18/05 Q1019 R28/CLRD70 NOSIG
UTNN 291200Z 20008KT CAVOK 19/06 Q1008 R33/CLRD60 NOSIG
UTNN 291230Z 20004KT CAVOK 18/06 Q1008 R33/CLRD60 NOSIG
UTNU 291200Z 12008KT 8000 NSC 20/04 Q1008 R31/CLRD70 NOSIG
UTNU 291230Z 11008KT 7000 NSC 19/04 Q1007 R31/CLRD70 NOSIG
UTSA 291200Z 08008KT 6000 SCT030 24/04 Q1012 R07/CLRD70 NOSIG
UTSA 291230Z 07010KT 7000 NSC 23/04 Q1012 R07/CLRD70 NOSIG
UTSB 291200Z 15006KT 3500 HZ NSC 29/M01 Q1011 R01/CLRD70 NOSIG
UTSB 291230Z 15006KT 3500 HZ NSC 28/M02 Q1011 R01/CLRD70 NOSIG
UTSK 291200Z 18008KT 8000 NSC 29/01 Q1013 R16/CLRD70
UTSK 291230Z 17006KT 8000 NSC 29/01 Q1013 R16/CLRD70
UTSS 291200Z 08004KT 9999 NSC 23/03 Q1015 R09/70D NOSIG
UTSS 291200Z 08004KT 9999 NSC 23/03 Q1015 R09/CLRD70 NOSIG
UTSS 291230Z 12004KT 9999 NSC 23/03 Q1016 R09/70D NOSIG
UTSS 291230Z 12004KT 9999 NSC 23/03 Q1016 R09/CLRD70 NOSIG
UTST 291200Z 08006KT CAVOK 27/M00 Q1016 R88/CLRD70 NOSIG
UTST 291230Z 08006KT CAVOK 25/M02 Q1016 R88/CLRD70 NOSIG
UTTT 291200Z 00000KT 7000 NSC 23/01 Q1016 R08R/CLRD70 NOSIG
UTTT 291230Z 08004KT 4000 FU NSC 22/03 Q1016 R08R/CLRD70 NOSIG
UUBC 291200Z 17004MPS 9999 OVC008 05/04 Q0985 R13/290150 NOSIG RMK QFE721/0962
UUBC 291230Z 18004MPS 9999 OVC008 05/04 Q0985 R13/290150 NOSIG RMK QFE721/0962
UUBP 291200Z 17006MPS 6000 OVC008 06/06 Q0984 R16/////// NOSIG RMK QFE720/0961
UUBW 291200Z 17004MPS 9999 OVC016 06/03 Q0986 R30/110055 NOSIG
UUBW 291230Z 18004MPS 9000 OVC016 06/03 Q0986 R30/110055 NOSIG
UUDD 291200Z 20006MPS 9999 OVC012 05/03 Q0985 R88/290095 NOSIG
UUDD 291230Z 21006MPS 9999 OVC012 05/02 Q0985 R88/290095 NOSIG
UUDL 291200Z 10003MPS 9999 OVC006 03/02 Q0986 R23/290250 NOSIG RMK QFE732
UUDL 291230Z 11002MPS 9999 OVC006 03/02 Q0986 R23/290250 NOSIG RMK QFE732
UUEE 291200Z 17004MPS 9999 -RA OVC006 04/03 Q0984 R24R/290045 R24L/290051 NOSIG
UUEE 291230Z 17004MPS 9999 OVC008 04/03 Q0984 R24R/290045 R24L/290051 NOSIG
UUMO 291200Z 21004MPS 9999 -RA OVC009 05/03 Q0986 R26/290055 NOSIG RMK QFE724/0966
UUMO 291230Z 20005MPS 9999 OVC011 05/03 Q0986 R26/290055 NOSIG RMK QFE724/0966
UUOB 291200Z 20004MPS 9999 BKN015 07/05 Q0993 R29/090060 NOSIG
UUOB 291230Z 19005MPS 9999 BKN016 07/05 Q0992 R29/090060 NOSIG
UUOO 291200Z 20004MPS 150V240 9999 BKN033 07/02 Q0993 R30/090060 NOSIG RMK QFE731
UUOO 291230Z 19002MPS 9999 BKN033 07/02 Q0993 R30/090060 NOSIG RMK QFE731
UUWW 291200Z 17003MPS 9999 BKN006 04/03 Q0985 R24/290050 NOSIG
UUWW 291230Z 18005MPS 9999 OVC006 04/03 Q0985 R24/290050 NOSIG
UUYY 291200Z 13003MPS 1300 1200N R19/1700U SHSN SCT008 BKN020CB M04/M05 Q1001 R19/420249 TEMPO 1000 SHSN RMK QFE743/0990
UUYY 291230Z 13003MPS 5000 -SHSN BKN009 OVC020CB M04/M05 Q1001 R19/490339 TEMPO 0500 +SHSN RMK QFE742/0990
UWGG 291200Z 21003MPS 180V250 9999 OVC014 05/03 Q0988 R18R/290050 NOSIG RMK QFE734
UWGG 291230Z 21002MPS 9999 OVC015 05/03 Q0988 R18R/290050 NOSIG RMK QFE734
UWKE 291200Z 15008G13MPS 8000 -RA BKN006 04/03 Q0999 R21/210355 NOSIG RMK OBST OBSC QFE732/0976
UWKE 291230Z 15009G14MPS 8000 -RA BKN006 04/03 Q0998 R21/210355 NOSIG RMK OBST OBSC QFE732/0976
UWKS 291200Z 19006MPS 9999 OVC005 06/06 Q0990 R06/690338 TEMPO OVC004 RMK QFE728
UWKS 291230Z 19006MPS 9000 OVC005 06/06 Q0990 R06/290355 TEMPO OVC004 RMK QFE728
UWLW 291200Z 17007MPS 8000 -RA BKN011 OVC020 06/05 Q0995 R20/290250 NOSIG RMK QFE741
UWOO 291200Z 12005MPS CAVOK 05/02 Q1011 R08/290053 NOSIG RMK QFE747/0997
UWOO 291230Z 12006MPS CAVOK 05/02 Q1010 R08/290053 NOSIG RMK QFE747/0996
UWOR 291200Z 16007MPS CAVOK 01/M01 Q1014 R25/GLRD65 NOSIG RMK QFE737/0983
UWSS 291200Z 19006G11MPS 2000 BR OVC003 09/09 Q0995 R12/290355 TEMPO 0800 FG RMK QFE734
UWSS 291230Z 19007MPS 2000 BR OVC003 09/09 Q0995 R12/290355 TEMPO 0800 FG RMK QFE734
UWUU 291200Z 17007MPS 9999 -RA OVC010 04/02 Q1008 R14R/290248 TEMPO 1500 RA BR OVC004 RMK QBB300 QFE746/0995
UWUU 291230Z 17007MPS 9999 -RA OVC010 04/02 Q1008 R14R/290248 TEMPO 1500 RA BR OVC004 RMK QBB300 QFE746/0995
UWWW 291200Z 18010MPS 5000 -RA BR OVC008 06/06 Q0998 R23/290350 NOSIG RMK QFE737/0983
UWWW 291230Z 18010MPS 2800 -RA BR OVC007 06/06 Q0998 R23/290350 NOSIG RMK QFE737/0983
VAAH 291230Z 00000KT 5000 FU SCT025 32/15 Q1013 TEMPO4000M
VAAU 291200Z 05003KT 6000 FEW020 29/16 Q1015 NOSIG
VABB 291200Z 30007KT 4000 FU NSC 32/20 Q1011 NOSIG
VABB 291230Z 31006KT 4000 FU NSC 31/22 Q1011 NOSIG
VABO 291200Z 05004KT 6000 NSC 33/13 Q1012 NOSIG
VABP 291200Z 02003KT 6000 SCT100 29/11 Q1015 NOSIG
VABP 291230Z 27004KT 6000 SCT100 29/10 Q1016 NOSIG
VAID 291200Z 16004KT 5000 HZ FEW025 31/06 Q1016 NO SIG
VAJB 291200Z 00000KT 6000 FEW025 SCT100 26/16 Q1015
VAJJ 291200Z 34009KT 310V030 6000 NSC 34/27 Q1011 NOSIG
VAJJ 291230Z 36010KT 6000 NSC 33/27 Q1011 NOSIG
VANP 291200Z 00000KT 2500 HZ FEW020 29/19 Q1014 NOSIG
VANP 291230Z 00000KT 2500 HZ FEW020 27/19 Q1015 NOSIG
VARK 291200Z 09004KT 6000 NSC 34/08 Q1012
VASU 291200Z 09002KT 6000 FEW080 32/15 Q1011
VASU 291230Z 08002KT 6000 NSC 31/16 Q1012
VAUD 291200Z 00000KT 6000 FEW030 29/15 Q1016 NOSIG
VCBI 291210Z 11006KT 6000 TSRA SCT016 FEW018CB 25/23 Q1010 NOSIG RMK N/W/NW
VCRI 291210Z 01003KT 9999 FEW016 FEW017CB SCT270 26/24 Q1010 RE-SHRA NOSIG RMK N/W
VDPP 291200Z 04005KT CAVOK 30/21 Q1010
VDPP 291230Z 04006KT 9999 FEW017 29/21 Q1010
VDSR 291200Z 04003KT 9000 SCT017 28/22 Q1010
VDSR 291230Z 03004KT 9000 SCT017 28/23 Q1011
VEAT 291200Z 14006KT 4000 HZ SCT018 BKN100 24/20 Q1013 NOSIG
VEAT 291230Z 15006KT 4000 BR SCT018 BKN100 24/20 Q1014 NOSIG
VEBN 291200Z 05004KT 3500 HZ NSC 28/22 Q1013 BECMG 3000 BR
VEBN 291230Z 08006KT 3000 BAR NSC 27/23 Q1013 NOSIG
VEBN 291230Z 08006KT 3000 BR NSC 27/23 Q1013 NOSIG
VEBS 291200Z 16003KT 3000 HZ FEW020 28/24 Q1012 NOSIG
VEBS 291230Z 17004KT 3000 HZ FEW100 28/23 Q1013 NOSIG
VECC 291200Z 11004KT 2600 HZ SCT018 SCT100 27/23 Q1012 NOSIG
VECC 291230Z 11005KT 2600 HZ SCT020 SCT100 26/23 Q1013 NOSIG
VEGT 281200Z 03008KT 3000 BR FEW020 SCT100 27/23 Q1013 NOSIG
VEGT 291230Z 02005KT 3000 BR FEW020 27/23 Q1013 NOSIG
VEGY 291200Z 32001KT 4000 HZ NSC 27/21 Q1013
VEKO 291200Z 00000KT 6000 FEW025 30/15 Q1013
VELR 291200Z 29003KT 5000 BR FEW020 BKN100 25/22 Q1015
VEPT 291200Z 00000KT 3000 HZ NSC 26/20 Q1012 NOSIG
VEPT 291230Z 00000KT 2500 HZ NSC 26/20 Q1013 NOSIG
VERC 291200Z 00000KT 3000 HZ NSC 25/18 Q1016 NOSIG
VERC 291230Z 00000KT 3000 HZ SCT020 24/18 Q1017 NOSIG
VERP 291200Z 09005KT 6000 NSC 28/16 1014 NO SIG
VGEG 291200Z 33006KT 4000 HAZE SCT018 FEW030CB OVC080 24/21 Q1013 NOSIG
VGHS 291200Z 09006KT 4000 HZ SCT012 BKN100 28/19 Q1013 NOSIG
VGHS 291230Z 14005KT 4000 HZ SCT012 BKN100 27/19 Q1014 NOSIG
VHHH 291200Z 03008KT CAVOK 26/12 Q1019 NOSIG
VHHH 291230Z 04008KT CAVOK 26/12 Q1019 NOSIG
VIAR 291200Z 00000KT 1500 HZ NSC 25/19 Q1016 NOSIG
VIAR 291230Z 00000KT 1500 HZ NSC 23/18 Q1016 NOSIG
VIDP 291200Z 06004KT 2100 FU NSC 28/13 Q1014 NOSIG
VIDP 291230Z 06004KT 2100 FU NSC 28/14 Q1015 NOSIG
VIGR 291200Z 00000KT 4000 HZ NSC 27/19 Q1014
VIJP 291200Z VRB02KT 4000 HZ NSC 31/M03 Q1015 NOSIG
VIJP 291230Z VRB01KT 4000 HZ NSC 29/00 Q1015 NOSIG
VILK 291200Z VRB02KT 2000 HZ NSC 29/17 Q1014 BECMG 1500 HZ
VILK 291230Z VRB02KT 2000 HZ NSC 28/17 Q1014 NOSIG
VLLB 291200Z 00000KT 9999 FEW018 24/22 Q1015 NOSIG
VLLN 291200Z 14002KT 6000 FEW050 SCT100 22/22 Q1018 NOSIG
VLPS 291200Z 36004KT 5000 HZ SCT023 28/22 Q1012 NOSIG
VLSK 291200Z 09002KT 2000 BR SCT020 26/17 Q1016 NOSIG
VLVT 291200Z 09004KT 4000 BR NSC 25/19 Q1015 NOSIG
VLVT 291200Z 09004KT 4000 BR NSC 27 25/18 Q1015 NOSIG
VLVT 291230Z 12004KT 4000 BR NSC 25/18 Q1015 NOSIG
VMMC 291200Z 02013KT CAVOK 25/18 Q1018 NOSIG
VMMC 291230Z 03013KT CAVOK 25/17 Q1019 NOSIG
VNKT 291150Z 27005KT 240V310 8000 FEW015 SCT030 BKN100 19/09 Q1022 NOSIG
VNKT 291220Z 29004KT 240V330 8000 FEW015 SCT030 19/09 Q1022 NOSIG
VNKT 291220Z 29004KY 240V330 8000 FEW015 SCT030 19/09 Q1022 NOSIG
VOBG 291200Z 06006KT 9999 FEW012 SCT080 26/16 Q1015
VOBL 291200Z 05007KT 020V080 9999 SCT012 SCT020 25/17 Q1016 NOSIG
VOBL 291230Z 03004KT 360V080 9999 SCT012 SCT020 24/18 Q1016 NOSIG
VOBZ 291200Z 07002KT 3000 HZ NSC 30/21 Q1011 NOSIG
VOBZ 291230Z 08002KT 2000 HZ NSC 29/22 Q1012 NOSIG
VOCB 291200Z 09006KT 6000 FEW015 30/17 Q1012 NOSIG
VOCB 291230Z 09005KT 6000 FEW015 29/17 Q1013 NOSIG
VOCI 291200Z 25006KT 5000 HZ FEW015 30/24 Q1009 NOSIG
VOCI 291230Z 25006KT 5000 HZ FEW015 30/24 Q1009 BECMG 4000 HZ
VOCL 291200Z 28005KT 6000 FEW015 29/25 Q1009 NOSIG
VOCL 291230Z 32004KT 6000 FEW015 29/25 Q1010 NOSIG
VOGO 291200Z 34010KT 5000 HZ FEW016 SCT090 31/25 Q1010 NOSIG
VOHS 291200Z 13005KT 6000 FEW015 26/21 Q1016 NOSIG
VOHS 291230Z 15004KT 6000 FEW015 25/21 Q1016 NOSIG
VOHY 291230Z VRB03KT 6000 SCT015 SCT025 27/19 Q1016 NOSIG
VOMD 291200Z 05004KT 6000 FEW020 31/21 Q1010 BECMG 5000 HZ
VOMD 291230Z 04002KT 5000 HZ FEW020 30/20 Q1010 NOSIG
VOML 291200Z 27006KT 6000 FEW015 FEW025CB SCT080 40/23 Q1010 NOSIG
VOML 291230Z 29004KT 6000 FEW015 FEW025CB SCT080 30/23 Q1010 NOSIG
VOMM 291200Z 10010KT 6000 FEW020 FEW025TCU SCT100 28/24 Q1011 NOSIG
VOMM 291230Z 10012KT 6000 FEW020 FEW025TCU SCT100 29/25 Q1011 NOSIG
VOMY 291200Z 09005KT 8000 FEW015 29/17 Q1015
VOMY 291230Z 09005KT 8000 FEW015 28/17 Q1015
VOTP 291200Z 07006KT 5000 HZ FEW020 31/21 Q1011
VOTP 291230Z 06004KT 5000 HZ FEW020 30/21 Q1011
VOTR 291200Z 01005KT 4000 HZ SCT016 FEW020TCU 32/20 Q1008 NOSIG
VOTR 291230Z 04003KT 4000 HZ SCT016 FEW020TCU 31/21 Q1009 NOSIG
VOTV 291200Z 27004KT 5000 HZ SCT012 BKN080 BKN250 29/25 Q1009 TEMPO 4000 HZ
VOTV 291230Z 27003KT 4000 HZ SCT012 BKN080 29/25 Q1009 NOSIG
VRMM 291200Z 28004KT 9999 -SHRA FEW018 FEW019CB 27/25 Q1010 CB E OVERHEAD NOSIG
VTBD 291200Z 10003KT 8000 FEW045 31/23 Q1011 NOSIG
VTBD 291230Z 07003KT 8000 NSC 30/23 Q1012 NOSIG
VTBS 291200Z 05007KT 020V080 CAVOK 31/19 Q1011 NOSIG
VTBS 291230Z 05008KT CAVOK 31/19 Q1012 NOSIG
VTBU 291200Z 02004KT 3000 HZ FEW020 29/20 Q1010 NOSIG
VTBU 291230Z 01004KT 3000 HZ FEW020 28/20 Q1011 NOSIG
VTCC 291200Z 36008KT 9999 FEW035 27/18 Q1016 NOSIG
VTCC 291230Z 01005KT 9999 FEW035 27/18 Q1016 NOSIG
VTCH 291200Z 12005KT 090V160 9999 FEW025 26/21 Q1013
VTCL 291200Z 06003KT 350V120 8000 FEW025 25/21 Q1014
VTCN 291200Z VRB02KT 9999 FEW025 SCT100 25/24 Q1014
VTCP 291200Z AUTO 13003KT 6000 // ////// 26/22 Q1013
VTCT 291200Z 00000KT CAVOK 25/22 Q1016
VTPH 291200Z /////KT ///V/// 6000 FEW030 30/25 Q1010 NOSIG
VTPP 291200Z 00000KT 8000 SCT023 27/22 Q1013
VTSB 291200Z 35003KT 8000 FEW020 28/25 Q1010
VTSF 291200Z 30002KT 9999 FEW017CB BKN018 27/25 Q1010
VTSG 291200Z 12004KT 070V150 9999 SCT020 26/23 Q1010
VTSM 291200Z 00000KT 7000 FEW020 29/25 Q1011
VTSM 291230Z 09008KT 7000 FEW020 29/24 Q1011
VTSP 291200Z VRB03KT 7000 -TSRA FEW016CB SCT020 BKN100 25/24 Q1011 NOSIG
VTSP 291230Z VRB02KT 7000 FEW016CB SCT020 BKN100 25/24 Q1012 RETSRA NOSIG
VTSR 291200Z VRB04KT 9000 FEW017 BKN035 28/22 Q1009 NOSIG
VTSS 291200Z 00000KT 9999 -RA FEW020 SCT028 BKN100 25/25 Q1010 NOSIG
VTSS 291230Z 00000KT 9999 -RA FEW020 SCT028 BKN100 26/25 Q1011 NOSIG
VTST 291200Z 05004KT 9999 FEW020 28/24 Q1009
VTUD 291200Z 00000KT 7000 NSC 25/21 Q1015
VTUI 291200Z 07008KT 040V100 7000 FEW040 27/20 Q1015
VTUK 291200Z 01004KT 7000 FEW035 25/21 Q1014 NOSIG
VTUL 291200Z 00000KT 4000 BR FEW038 23/22 Q1015
VTUQ 291200Z AUTO 04004KT ////NDV ////// 23/21 Q1014 A2995
VTUU 291200Z 04010KT 360V070 9999 FEW025 27/21 Q1013 NOSIG
VTUV 291200Z 06005KT 5000 BR NSC 26/19 Q1014 A2995 INFO M RWY 36
VVCI 291200Z 05005KT 7000 NSC 26/23 Q1018 NOSIG
VVCI 291230Z 05006KT 7000 NSC 26/23 Q1018 NOSIG
VVCR 291200Z 03017KT 8000 FEW015 29/21 Q1013 NOSIG
VVCR 291230Z 02015KT 8000 FEW015 28/22 Q1013 NOSIG
VVCT 291200Z VRB02KT 9999 FEW015 BKN050 27/24 Q1010 NOSIG
VVCT 291230Z 24002KT 9999 FEW015 BKN050 26/24 Q1010 NOSIG
VVDN 291200Z 05005KT 360V080 5000 HZ SCT012 BKN050 27/21 Q1017 NOSIG
VVDN 291230Z 03007KT 5000 HZ SCT012 BKN050 27/21 Q1017 NOSIG
VVNB 291200Z 04003KT 350V080 6000 NSC 25/20 Q1018 NOSIG
VVNB 291230Z 04003KT 360V060 8000 NSC 25/20 Q1019 NOSIG
VVPB 291200Z 23003KT 4000 BR SCT015 BKN060 23/23 Q1017 NOSIG
VVPB 291230Z 23003KT 4000 BR SCT015 BKN050 23/23 Q1017 TEMPO 3000 RA BR
VVPQ 291200Z 05003KT 9999 FEW017 SCT040 28/22 Q1011 NOSIG
VVPQ 291230Z VRB01KT 9999 FEW017 SCT040 28/22 Q1011 NOSIG
VVTS 291200Z 19005KT 9999 FEW017 SCT050 29/25 Q1010 NOSIG
VVTS 291230Z 22005KT 9999 FEW017 SCT050 28/25 Q1010 NOSIG
VYYY 291200Z 09004KT 7000 R21/2000N SCT018 FEW025CB 28/25 Q1011
VYYY 291230Z 04005KT 7000 R21/2000N SCT018 FEW025CB 28/25 Q1012
WAAA 291200Z VRB02KT 8000 SCT019 26/23 Q1010 NOSIG
WAAA 291230Z 17001KT 8000 SCT019 26/23 Q1010 NOSIG
WADD 291200Z 16003KT 120V220 9999 FEW017 27/23 Q1011 NOSIG
WADD 291230Z 16003KT 100V220 9999 FEW017 27/23 Q1011 NOSIG
WADL 291200Z 10002KT 7000 SCT016 26/22 Q1011 NOSIG
WADL 291230Z VRB02KT 7000 SCT016 26/22 Q1012 NOSIG
WAHS 291200Z 31005KT 6000 FEW014 30/24 Q1009 NOSIG
WAHS 291230Z 29005KT 6000 FEW013CB FEW014 30/24 Q1009 NOSIG
WAJJ 291200Z 22002KT 9999 FEW013 26/24 Q1009 NOSIG
WALL 291200Z 04002KT 9000 FEW020 SCT100 27/25Q1009 NOSIG
WAMM 291200Z 08001KT 7000 SCT017 25/24 Q1011 TEMPO RA
WAMM 291230Z VRB02KT 7000 SCT015 25/24 Q1011 TEMPO -RA
WAOO 291200Z 19003KT 8000 SCT015 27/24 Q1008
WAOO 291230Z 23001KT 8000 SCT049 27/24 Q1009
WAPP 291200Z VRB02KT 9999 FEW020 25/20 Q1010 NOSIG
WAQQ 291200Z 09002KT 8000 FEW015 27/24 Q1009
WAQQ 291230Z 05003KT 8000 FEW015 27/24 Q1010
WATT 291200Z 22004KT 8000 FEW018 28/24 Q1010 NOSIG
WATT 291230Z 00000KT 8000 FEW018 28/24 Q1011 NOSIG
WBGB 291200Z 28005KT 210V340 9999 FEW018 BKN150 29/26 Q1009
WBGG 291200Z 26005KT 210V320 9999 FEW015CB SCT020 BKN300 27/22 Q1010 RETS TEMPO 9999 TS
WBGG 291230Z VRB03KT 9999 TS FEW015CB SCT020 BKN300 26/23 Q1010 NOSIG
WBGR 291200Z 26007KT 200V310 9999 FEW016 SCT150 BKN300 29/25 Q1009
WBGS 291200Z 27005KT 230V300 9999 SCT018 SCT150 BKN300 28/24 Q1009
WBGY 291200Z 35003KT 290V030 9999 FEW022 SCT150 BKN300 27/25 Q1009
WBKK 291200Z 02003KT 9999 -RA FEW013 SCT035 BKN270 29/26 Q1010 NOSIG
WBKK 291230Z 36002KT 9999 -RA FEW014 SCT035 BKN260 28/26 Q1010 NOSIG
WBKL 291200Z VRB02KT 9999 FEW013 BKN290 28/26 Q1009
WBKS 291200Z 08006KT 020V120 9999 FEW015 FEW016CB SCT140 BKN270 28/25 Q1009
WBKT 291200Z 12003KT 050V190 9999 SCT014 SCT140 BKN270 28/26 Q1010
WBKW 291200Z VRB02KT 9999 FEW017 SCT140 BKN280 26/25 Q1010
WBSB 291200Z 18014KT 7000 -TSRA SCT014 FEW015CB SCT140 BKN280 25/23 Q1010 WS ALL RWY TEMPO 5000 TSRA
WBSB 291230Z 18002KT 7000 -TSRA SCT014 FEW015CB BKN140 25/25 Q1010 TEMPO 8000 -TSRA
WIBB 291200Z 08005KT 9000 FEW017CB SCT015 29/25 Q1008
WIBB 291230Z 05007KT 9000 FEW017CB SCT015 28/25 Q1008
WIDD 291200Z 00000KT 9999 FEW014 26/24 Q1011
WIDD 291230Z 00000KT 9999 FEW014 26/24 Q1011
WIHH 291200Z 23006KT 6000 SCT020 28/22 Q1010 RMK RA TO W
WIII 291200Z 25007KT 8000 BKN022 28/23 Q1010 NOSIG
WIII 291230Z 29005KT 5000 HZ BKN021 27/23 Q1010 NOSIG
WIMM 291200Z 36006KT 320V030 9999 FEW017CB FEW018 29/24 Q1009
WIMM 291230Z 34005KT 320V020 9999 FEW017CB FEW018 29/24 Q1009
WIOO 291200Z 05004KT 6000 SCT013 27/25 Q1009 NOSIG
WIOO 291230Z 04003KT 6000 SCT013 27/25 Q1010 NOSIG
WIPP 291200Z 05005KT 8000 BKN012 FEW015CB 27/24 Q1009
WIPP 291230Z 08005KT 9999 SCT012 FEW015CB 27/25 Q1009 RMK CB TOS-SW
WMAU 291200Z AUTO 23004KT 170V280 //// // 25/24 Q//// QFF1010
WMBA 291200Z VRB02KT 9999 SCT030 SCT140 BKN260 27/25 Q1009
WMKA 291200Z 05005KT 350V120 9999 FEW017CB SCT140 BKN280 27/24 Q1010
WMKB 291200Z VRB01KT 8000 TS FEW017CB SCT140 BKN260 27/25 Q1009 NOSIG
WMKB 291200Z VRB01KT 8000 -TSRA FEW017CB SCT140 BKN260 27/25 Q1009 NOSIG
WMKC 291200Z 23003KT 170V290 7000 -RA FEW010 SCT020 OVC190 25/24 Q1011
WMKD 291200Z 35005KT 290V050 9999 FEW017CB SCT160 BKN260 26/24 Q1011 NOSIG
WMKE 291200Z AUTO VRB02KT //// // 23/23 Q1011
WMKI 291200Z 13002KT 9999 FEW030 SCT140 BKN270 25/25 Q1009
WMKJ 291200Z VRB02KT 9999 FEW022 SCT130 BKN270 24/24 Q1009
WMKK 291200Z 04005KT 360V080 8000 FEW017CB SCT140 BKN280 27/24 Q1009 NOSIG
WMKK 291230Z 04004KT 8000 FEW017CB SCT140 BKN280 27/24 Q1009 NOSIG
WMKL 291200Z 03005KT 360V090 9999 FEW017CB SCT140 BKN270 28/23 Q1009
WMKM 291200Z 04006KT 360V080 9999 FEW017CB SCT140 BKN260 25/23 Q1010
WMKN 291200Z 21004KT 160V240 3000 +TSRA FEW005 FEW017CB SCT022 BKN160 24/23 Q1011
WMKP 291200Z 05005KT 8000 -RA FEW012 SCT025 BKN270 26/23 Q1009 RETS NOSIG
WMKP 291200Z 05005KT 8000 -RA FEW012 SCT025 BKN270 26/23 Q1009 TEMPO 7000 -RA
WMKP 291230Z 03006KT 350V060 8000 -RA FEW012 FEW017CB SCT024 BKN260 26/24 Q1009 NOSIG
WMSA 291200Z 00000KT 9999 FEW026 SCT140 OVC260 28/24 Q1010
WSAP 291200Z 04001KT 9999 FEW018 BKN300 26/24 Q1009
WSSL 291200Z VRB02KT 9999 FEW020 BKN280 25/23 Q1010
WSSL 291200Z VRB02KT 9999 FEW020 BKN280 25/23 Q1010 RMK 1130Z Q1009
WSSS 291200Z VRB02KT 9999 FEW016 SCT170 25/24 Q1010 NOSIG
WSSS 291230Z VRB02KT 9999 FEW018 BKN170 25/24 Q1010 NOSIG
YABA 291200Z AUTO 27006KT 9999 // NCD 11/06 Q1022
YAMB 291146Z AUTO /////KT 9999 // NCD 20/18 Q1010
YAMB 291200Z AUTO /////KT 9999 // NCD 20/18 Q1010
YAMB 291230Z AUTO /////KT 9999 // NCD 20/18 Q1010
YARG 291200Z AUTO 26005KT 9999 // NCD 30/21 Q1008
YAYE 291200Z AUTO 21006KT 9999 // NCD 24/02 Q1012
YBAS 291200Z AUTO 30006KT 9999 // NCD 27/M02 Q1012
YBAS 291200Z AUTO 30006KT 9999 // NCD 27/M02 Q1012 RF00.0/000.0
YBAS 291230Z AUTO 27005KT 9999 // NCD 25/M01 Q1012 RF00.0/000.0
YBBN 291200Z 02011KT 9999 FEW017 BKN110 24/21 Q1011
YBBN 291200Z 02011KT 9999 FEW017 BKN110 24/21 Q1011 INTER 1200/1300 VRB20G40KT 2000 TSRA BKN012 SCT030CB
YBBN 291230Z 03016KT 9999 -SHRA FEW013 SCT016 BKN110 24/22 Q1010
YBBN 291230Z 03016KT 9999 -SHRA FEW013 SCT016 BKN110 24/22 Q1010 FM1230 36012KT 9999 FEW015 INTER 1230/1300 VRB20G40KT 2000 TSRA BKN012 SCT030CB
YBCG 291200Z AUTO 35006KT 7000 // NCD 23/21 Q1009
YBCG 291200Z AUTO 35006KT 7000 // NCD 23/21 Q1009 RF00.0/000.2 WX2
YBCG 291230Z AUTO 33008KT 9999 // NCD 24/22 Q1009 RF00.0/000.2 WX2
YBCS 291200Z 00000KT 9999 FEW020 25/23 Q1012
YBCS 291200Z 00000KT 9999 FEW020 25/23 Q1012 NOSIG
YBCS 291230Z 00000KT 9999 FEW020 25/23 Q1012 NOSIG
YBCV 291200Z AUTO 00000KT 9999 // NCD 24/08 Q1010
YBDV 291200Z AUTO 15005KT //// // ////// 31/09 Q1006
YBHI 291200Z AUTO 23024KT 9999 // NCD 21/08 Q1006
YBHM 291200Z AUTO 02006KT 9999 // NCD 25/21 Q1013
YBHM 291230Z AUTO 01006KT 9999 // NCD 25/21 Q1013
YBMA 291200Z AUTO 03005KT 9999 // NCD 25/19 Q1012
YBMA 291230Z AUTO 07005KT 9999 // NCD 24/19 Q1012
YBMK 291200Z AUTO 36009KT 9999 // NCD 25/22 Q1012
YBNA 291200Z AUTO 01009KT 9999 // NCD 24/19 Q1008
YBOK 291200Z AUTO /////KT 9999 // NCD ///// Q////
YBPN 291200Z AUTO 34002KT 9999 // NCD 23/21 Q1012
YBRK 291200Z AUTO 03005KT 9999 // NCD 24/21 Q1012
YBRK 291200Z AUTO 03005KT 9999 // NCD 24/21 Q1012 RF00.0/000.0
YBRK 291230Z AUTO 01008KT 9999 // NCD 24/21 Q1012 RF00.0/000.0
YBRM 291200Z AUTO 22004KT 9999 // NCD 29/21 Q1008
YBRM 291200Z AUTO 22004KT 9999 // NCD 29/21 Q1008 RF00.0/000.0
YBRM 291230Z AUTO 23006KT 9999 // NCD 29/21 Q1008 RF00.0/000.0
YBTL 291200Z AUTO /////KT //// // SCT020 OVC026 27/23 Q1012
YBTL 291230Z AUTO /////KT //// // SCT020 OVC026 27/23 Q1012
YBUD 291159Z AUTO 34010KT 9999 // SCT014 24/21 Q1012
YBUD 291200Z AUTO 34010KT 9999 // SCT014 24/21 Q1012
YBWP 291200Z AUTO 13001KT 9999 // SCT039 29/23 Q1010
YBWX 291200Z AUTO 27015KT //// // ////// 24/20 Q1011
YCAR 291200Z AUTO 19016KT 9999 // NCD 22/18 Q1015
YCAS 291200Z AUTO 34010KT //// // ////// 25/18 Q1008
YCBA 291200Z AUTO 05005KT 9999 // NCD 19/11 Q1006
YCBB 291200Z AUTO 31004KT //// // ////// 22/06 Q1009
YCBP 291200Z AUTO 21024KT 9999 // NCD 20/09 Q1012
YCCY 291200Z AUTO 21003KT //// // ////// 30/14 Q1010
YCDU 291156Z AUTO 25020G30KT 9999 // SCT047 SCT057 16/07 Q1014
YCDU 291200Z AUTO 25022G33KT 9999 // SCT043 SCT047 SCT057 16/07 Q1014
YCFS 291200Z AUTO 33003KT 9999 // NCD 22/18 Q1009
YCFS 291200Z AUTO 33003KT 9999 // NCD 22/18 Q1009 RF00.0/003.8
YCFS 291230Z AUTO 36012KT 9999 // NCD 23/19 Q1009 RF00.0/003.8
YCIN 291200Z AUTO 33004KT 9999 // NCD 27/15 Q1006
YCIN 291200Z AUTO 33004KT 9999 // NCD 27/15 Q1006 RF00.0/000.0
YCIN 291230Z AUTO 33001KT 9999 // NCD 26/16 Q1007 RF00.0/000.0
YCNM 291200Z AUTO 34002KT //// // ////// 20/16 Q1007
YCOM 291200Z AUTO 36013KT 9999 // NCD 16/09 Q1006
YCOM 291207Z AUTO 35015G27KT 9999 // NCD 16/08 Q1005
YDBY 291200Z AUTO 36006KT 9999 // NCD 30/20 Q1006
YEML 291200Z AUTO 03010KT 9999 // NCD 27/21 Q1011
YESP 291200Z AUTO 22008KT 9999 // OVC044 11/05 Q1022
YFRT 291200Z AUTO 19017KT //// // ////// 15/05 Q1019
YFRT 291230Z AUTO 19017KT //// // ////// 14/05 Q1019
YGEL 291200Z AUTO 17014KT 9999 // NCD 17/12 Q1019
YGEL 291200Z AUTO 17014KT 9999 // NCD 17/12 Q1019 RF00.0/000.0
YGEL 291230Z AUTO 16014KT 9999 // NCD 17/13 Q1020 RF00.0/000.0
YGFN 291200Z AUTO 18004KT 9999 // BKN105 22/19 Q1009
YGLA 291200Z AUTO 02006KT 9999 // OVC016 25/21 Q1013
YGLA 291200Z AUTO 02006KT 9999 // OVC016 25/21 Q1013 RF00.0/000.0
YGLA 291230Z AUTO 01005KT 9999 // OVC016 OVC020 24/21 Q1012
YGTE 291200Z AUTO 08007KT 9999 // NCD 27/22 Q1009
YGTH 291200Z AUTO 34004KT 9999 // NCD 19/07 Q1003
YHID 291157Z AUTO 11010KT 9999 // BKN014 BKN024 28/25 Q1010
YHID 291200Z AUTO 10009KT 9999 // BKN014 BKN024 28/25 Q1010
YHID 291211Z AUTO 10010KT 9999 // SCT014 28/24 Q1010
YHID 291230Z AUTO 10009KT 9999 // SCT016 28/24 Q1011
YHUG 291200Z AUTO 03008KT 9999 // SCT115 32/12 Q1010
YKRY 291200Z AUTO 36007KT 9999 // NCD 23/19 Q1013
YLEC 291200Z AUTO 20024KT //// // ////// 19/06 Q1011
YLEC 291206Z AUTO 21024G35KT //// // ////// 18/06 Q1011
YLEC 291230Z AUTO 22025G35KT //// // ////// 17/06 Q1011
YLHI 291146Z AUTO 02007KT 9999 // BKN012 21/18 Q1014
YLHI 291200Z AUTO 02007KT 9999 // SCT012 21/19 Q1013
YLHI 291201Z AUTO 02007KT 9999 // SCT012 21/18 Q1013
YLHI 291230Z AUTO 01007KT 9999 // SCT014 21/18 Q1013
YLIS 291200Z AUTO 02008KT 9999 // NCD 23/21 Q1008
YLRE 291200Z AUTO 25015G30KT 9999 // SCT110 32/13 Q1010
YMAV 291200Z AUTO 25016KT 9999 // BKN024 OVC039 13/08 Q1003
YMAV 291216Z AUTO 26015G26KT 9999 -SHRA BKN024 BKN028 OVC035 13/08 Q1003
YMAV 291230Z AUTO 26017KT 9999 -SHRA SCT022 SCT027 BKN033 12/08 Q1003
YMAY 291200Z AUTO 08005KT 9999 // NCD 18/09 Q1002
YMDG 291200Z AUTO 06001KT 9999 // NCD 17/12 Q1008
YMEK 291200Z AUTO 20006KT 9999 // NCD 27/00 Q1017
YMEN 291200Z AUTO 23017G27KT 9999 // OVC022 14/09 Q1003
YMER 291200Z AUTO 00000KT 9999 // NCD 15/14 Q1001
YMHB 291200Z 29014KT 9000 RA FEW025 OVC054 14/11 Q0995
YMHB 291200Z 29014KT 9000 RA FEW025 OVC054 14/11 Q0995 RF00.2/001.8
YMHB 291230Z 34010KT 9999 -RA FEW025 OVC049 13/11 Q0996 RERA
YMIA 291200Z AUTO 22012KT 9999 // NCD 17/08 Q1006
YMLT 291200Z AUTO 34017KT 9999 // SCT023 OVC032 15/10 Q0996
YMLT 291230Z AUTO 33016KT 9999 // SCT023 SCT030 OVC040 15/09 Q0996
YMML 291200Z 20019KT 9999 BKN018 13/09 Q1003 FM1200 MOD TURB BLW 5000FT TILL 1300
YMML 291230Z 23016KT 9999 FEW020 BKN024 13/07 Q1003 TEMPO 1430/1530 4000 RA BKN015 FM1230 MOD TURB BLW 5000FT TILL 1300
YMOR 291200Z AUTO 02007KT 9999 // NCD 24/12 Q1007
YMTG 291200Z AUTO 31007KT 9999 // NCD 09/07 Q1002
YNAR 291200Z AUTO 00000KT //// // ////// 17/07 Q1003
YNBR 291200Z AUTO 05007KT 9999 // NCD 22/13 Q1007
YNTN 291200Z AUTO 18014KT 9999 -SHRA SCT086 BKN120 27/22 Q1010
YNWN 291200Z AUTO 15005KT 9999 // NCD 28/M06 Q1014
YOLD 291200Z AUTO 22018G29KT 9999 // NCD 18/07 Q1011
YOLD 291230Z AUTO 22021G31KT 9999 // NCD 17/06 Q1012
YPAD 291200Z 27019KT 9999 FEW036 SCT150 14/05 Q1007 INTER 1200/1300 25025G35KT 5000 SHRA SCT010 BKN020 INTER 1300/1500 26020G35KT 5000 SHRAGS SCT015 BKN030
YPAD 291232Z 27018G28KT 9999 FEW035 SCT140 14/04 Q1007 INTER 1232/1300 25025G35KT 5000 SHRA SCT010 BKN020 INTER 1300/1532 26020G35KT 5000 SHRAGS SCT015 BKN030 INTER 1400/1532 26025G38KT 3000 TSRAGS SCT012 BKN025 SCT025CB
YPBO 291200Z AUTO 17007KT 9999 // NCD 31/M09 Q1013
YPCC 291200Z AUTO 13019KT 9999 // SCT024 26/20 Q1013
YPCC 291230Z AUTO 13018KT 9999 // SCT024 SCT031 25/20 Q1013
YPDN 291200Z 28007KT 9999 FEW023 BKN350 30/24 Q1010 NOSIG
YPDN 291200Z 28007KT 9999 FEW023 BKN350 30/24 Q1010 NOSIG RMK USE TAF FOR ARRIVALS AFTER 1230Z
YPDN 291230Z 29006KT 9999 FEW023 BKN350 30/24 Q1010
YPEA 291200Z AUTO 20006KT 9999 // NCD 13/08 Q1022
YPEA 291230Z AUTO 20007KT 9999 // NCD 12/08 Q1022
YPGV 291200Z AUTO 03005KT 9999 // NCD 27/21 Q1010
YPGV 291230Z AUTO 03004KT 9999 // NCD 27/22 Q1010
YPJT 291200Z AUTO 20008KT 9999 // NCD 15/09 Q1022 RF00.0/000.0
YPJT 291230Z AUTO 19010KT 9999 // NCD 14/09 Q1022 RF00.0/000.0
YPKG 291200Z AUTO 19007KT 9999 // NCD 19/M03 Q1019
YPKG 291230Z AUTO 18007KT 9999 // NCD 19/M03 Q1020
YPKU 291200Z AUTO 12008KT 9999 // NCD 31/23 Q1010
YPKU 291200Z AUTO 12008KT 9999 // NCD 31/23 Q1010 RF00.0/000.0
YPKU 291230Z AUTO 04010KT 9999 // NCD 31/22 Q1010 RF00.0/000.0
YPKU 291240Z AUTO 02009KT 6000 // NCD 31/22 Q1010 RF00.0/000.0
YPLM 291200Z AUTO 22015KT 9999 // NCD 25/13 Q1012
YPLM 291230Z AUTO 22015KT 9999 // NCD 24/15 Q1012
YPPD 291200Z AUTO 31007KT 9999 // NCD 26/21 Q1010
YPPD 291230Z AUTO 30008KT 9999 // NCD 26/21 Q1010
YPPH 291200Z 21010KT CAVOK 15/08 Q1022 NOSIG
YPPH 291230Z 21010KT CAVOK 15/08 Q1022 NOSIG
YPTN 291200Z AUTO 07017KT 9999 -RA SCT059 BKN086 OVC100 31/17 Q1009
YPTN 291210Z AUTO 07018G29KT 5000 +RA SCT020 SCT049 OVC086 26/20 Q1009
YPTN 291216Z AUTO 02021KT 010V070 3400 +RA SCT013 SCT037 BKN085 25/21 Q1008
YPTN 291224Z AUTO 02018G28KT 9999 +SHRA SCT029 SCT075 OVC100 27/20 Q1009
YPTN 291230Z AUTO 01013KT 9999 -SHRA SCT020 SCT044 OVC100 28/19 Q1008 RESHRA
YPWR 291200Z AUTO 23028G38KT 9999 // NCD 16/04 Q1012
YPWR 291230Z AUTO 23025KT 9999 // NCD 16/02 Q1012
YPWR 291243Z AUTO 23023G33KT 9999 // NCD 15/02 Q1012
YPXM 291200Z AUTO 14009KT 9999 // BKN013 OVC025 24/21 Q1013
YPXM 291230Z AUTO 14009KT 9999 // OVC013 24/21 Q1014
YRMD 291200Z AUTO 19010KT 9999 // NCD 31/12 Q1010
YSCB 291200Z AUTO 01007KT 9999 // NCD 17/10 Q1006
YSCB 291230Z AUTO 00000KT 9999 // NCD 16/10 Q1006
YSDU 291200Z AUTO 04001KT 9999 // NCD 19/15 Q1007
YSDU 291200Z AUTO 04001KT 9999 // NCD 19/15 Q1007 RF00.0/000.0
YSDU 291230Z AUTO 06003KT 9999 // NCD 18/14 Q1007 RF00.0/000.0
YSNF 291200Z AUTO 10008KT 9000 // OVC003 19/19 Q1015
YSNF 291201Z AUTO 10009KT 9000 // OVC003 19/19 Q1015
YSNF 291211Z AUTO 11009KT 6000 // OVC003 19/19 Q1015
YSNF 291230Z AUTO 09007KT 7000 // OVC003 19/19 Q1015
YSNF 291233Z AUTO 09007KT 7000 // OVC003 19/19 Q1015
YSNF 291235Z AUTO 09007KT 6000 // OVC003 19/19 Q1015
YSNW 291200Z AUTO 36007KT 9999 // NCD 22/12 Q1005
YSRI 291200Z AUTO 00000KT 9999 // NCD 20/16 Q1005
YSRI 291200Z AUTO 00000KT 9999 // NCD 20/16 Q1005 RF00.0/000.0 PRESENT WEATHER SENSOR US
YSRI 291230Z AUTO 33002KT 9999 // NCD 19/16 Q1005 RF00.0/000.0 PRESENT WEATHER SENSOR US
YSSY 291200Z 33007KT CAVOK 26/11 Q1005 NOSIG
YSSY 291230Z 31007KT CAVOK 26/12 Q1004 NOSIG
YSTW 291200Z AUTO 23006KT 9999 // NCD 19/12 Q1008
YSTW 291200Z AUTO 23006KT 9999 // NCD 19/12 Q1008 RF00.0/000.0
YSTW 291230Z AUTO 03005KT 300V070 9999 // NCD 19/12 Q1008 RF00.0/000.0
YSWG 291200Z AUTO 22004KT 9999 // NCD 14/09 Q1004
YTEF 291200Z AUTO 16010KT 9999 // NCD 33/M03 Q1011
YTNK 291200Z AUTO 02007KT 9999 // SCT120 34/09 Q1010
YTNK 291208Z AUTO 23015KT 210V010 9999 // BKN120 32/11 Q1011
YTNK 291222Z AUTO 23015G27KT 9999 // SCT095 OVC120 28/15 Q1012
YTNK 291231Z AUTO 19017G29KT 9999 // SCT097 OVC120 28/16 Q1012
YTRE 291200Z AUTO 00000KT 9999 // SCT100 23/16 Q1006
YWGT 291200Z AUTO 33004KT 9999 // NCD 15/09 Q1001
YWHA 291200Z AUTO 25015KT 9999 // SCT043 BKN054 15/06 Q1011
YWHA 291201Z AUTO 25015G25KT 9999 // SCT043 BKN054 15/06 Q1011
YWLM 291200Z AUTO 02008KT 9999 // NCD 24/12 Q1005
YWLM 291230Z AUTO 01006KT 9999 // NCD 23/13 Q1005
ZBAA 291200Z 29003MPS 270V330 CAVOK 11/M10 Q1032 NOSIG
ZBAA 291230Z 31004MPS 270V330 CAVOK 11/M10 Q1032 NOSIG
ZBHH 291200Z 04002MPS 7000 NSC M02/M10 Q1034 NOSIG
ZBSJ 291200Z 22001MPS CAVOK 08/M03 Q1033 NOSIG
ZBTJ 291200Z 25002MPS CAVOK 09/M10 Q1032 NOSIG
ZBTJ 291230Z 26004MPS CAVOK 09/M10 Q1032 NOSIG
ZBYN 291200Z 02002MPS 350V050 CAVOK 05/M11 Q1033 NOSIG
ZBYN 291230Z 34002MPS 300V020 CAVOK 03/M09 Q1033 NOSIG
ZGGG 291200Z 06004MPS CAVOK 23/09 Q1020 NOSIG
ZGGG 291230Z 05005MPS 010V070 CAVOK 23/09 Q1020 NOSIG
ZGHA 291200Z 01006MPS 5000 HZ NSC 17/10 Q1028 NOSIG
ZGKL 291200Z 06008MPS CAVOK 22/09 Q1024 NOSIG
ZGNN 291200Z 36003MPS CAVOK 22/14 Q1021 NOSIG
ZGOW 291200Z 09004MPS CAVOK 22/13 Q1020 NOSIG
ZGSZ 291200Z 03003MPS CAVOK 25/12 Q1019 NOSIG
ZHCC 291200Z VRB01MPS CAVOK 08/M02 Q1034 NOSIG
ZHHH 291200Z 02004MPS CAVOK 13/04 Q1032 NOSIG
ZJHK 291200Z 05003MPS CAVOK 24/18 Q1018 NOSIG
ZJSY 291200Z 08005MPS 9999 FEW020 SCT050 26/17 Q1016 NOSIG
ZLLL 291200Z VRB01MPS CAVOK 05/00 Q1032 NOSIG
ZLXY 291200Z 25002MPS 9999 -RA NSC 10/06 Q1034 NOSIG
ZMUB 291200Z 18006MPS CAVOK M00/M17 Q1024 NOSIG RMK QFE659.6 23
ZMUB 291230Z 16005MPS CAVOK M01/M17 Q1023 NOSIG RMK QFE659.5 25
ZPPP 291200Z 04003MPS 020V090 CAVOK 13/09 Q1030 NOSIG
ZSAM 291200Z 04006MPS CAVOK 21/08 Q1022 NOSIG
ZSFZ 291200Z 04008MPS CAVOK 21/13 Q1024 NOSIG
ZSHC 291200Z 35006MPS 9999 FEW040 17/09 Q1029 NOSIG
ZSHC 291230Z 35005MPS 9999 FEW040 16/09 Q1029 NOSIG
ZSNB 291200Z 34004MPS 320V020 9000 SCT050 16/11 Q1028 NOSIG
ZSNJ 291200Z 02002MPS 320V070 CAVOK 13/06 Q1031 NOSIG
ZSOF 291200Z 36004MPS CAVOK 10/M00 Q1032 NOSIG
ZSPD 291200Z 35010MPS CAVOK 14/06 Q1029 NOSIG
ZSPD 291230Z 35010MPS CAVOK 14/05 Q1029 NOSIG
ZSQD 291200Z 34004MPS CAVOK 06/M02 Q1032 NOSIG
ZSSS 291200Z 36007MPS CAVOK 13/05 Q1029 NOSIG
ZSSS 291230Z 36008MPS CAVOK 13/05 Q1029 NOSIG
ZUCK 291200Z 29003MPS 3600 BR SCT026 18/16 Q1027 NOSIG
ZUGY 291200Z 08003MPS CAVOK 14/08 Q1029 NOSIG
ZUUU 291200Z 36002MPS 310V030 9999 BKN040 15/13 Q1028 NOSIG
ZWSH 291200Z VRB01MPS 6000 NSC 12/M05 Q1028 NOSIG
ZWWW 291200Z 07001MPS 6000 NSC 04/M04 Q1028 NOSIG
ZWWW 291230Z VRB01MPS 7000 NSC 05/M04 Q1028 NOSIG
ZYCC 291200Z 27002MPS CAVOK M01/M12 Q1025 NOSIG
ZYHB 291200Z 25004MPS CAVOK M01/M11 Q1023 NOSIG
ZYTL 291200Z 01003MPS 330V050 9999 SCT026 08/M05 Q1030 NOSIG
ZYTL 291230Z 02003MPS 330V060 9999 SCT026 08/M05 Q1030 NOSIG
ZYTX 291200Z 28002MPS 220V340 CAVOK 04/M14 Q1028 NOSIG
ZYTX 291230Z 00000MPS CAVOK M00/M11 Q1028 NOSIG
