[
  {
    "airportIcao": "AGGH",
    "metar": "AGGH 091200Z 00000KT 9999 FEW016 SCT300 25/25 Q1010",
    "updatedAt": "2022-03-09T12:00:00.000Z"
  },
  {
    "airportIcao": "ANYN",
    "metar": "ANYN 091200Z 08006KT 9999 FEW020 28/25 Q1010",
    "updatedAt": "2022-03-09T12:00:00.000Z"
  },
  {
    "airportIcao": "AYMH",
    "metar": "AYMH 090800Z VRB04KT 9999 -SHRA SCT008 BKN030 -/- Q1019",
    "updatedAt": "2022-03-09T08:00:00.000Z"
  },
  {
    "airportIcao": "AYNZ",
    "metar": "AYNZ 090800Z 07005KT 9999 SCT035 BKN070 28/23 Q1007",
    "updatedAt": "2022-03-09T08:00:00.000Z"
  },
  {
    "airportIcao": "AYPY",
    "metar": "AYPY 090800Z 33010KT 9999 DZ FEW010 SCT040 BKN060 25/24 Q1008",
    "updatedAt": "2022-03-09T08:00:00.000Z"
  },
  {
    "airportIcao": "AZUH",
    "metar": "AZUH 091051Z 15019KT 9999 BKN040 BKN100 13/M05 Q1001",
    "updatedAt": "2022-03-09T10:51:00.000Z"
  },
  {
    "airportIcao": "BGBW",
    "metar": "BGBW 091150Z 05005KT 9999 SKC M16/M24 Q0982",
    "updatedAt": "2022-03-09T11:50:00.000Z"
  },
  {
    "airportIcao": "BGGH",
    "metar": "BGGH 091150Z 04014KT 9999 SCT030 M11/M16 Q0988",
    "updatedAt": "2022-03-09T11:50:00.000Z"
  },
  {
    "airportIcao": "BGJN",
    "metar": "BGJN 091150Z 10008KT 9999 BKN180 M17/M26 Q0990",
    "updatedAt": "2022-03-09T11:50:00.000Z"
  },
  {
    "airportIcao": "BGKK",
    "metar": "BGKK 091150Z AUTO 23006KT 0400NDV +SN VV004/// M06/M08 Q0979",
    "updatedAt": "2022-03-09T11:50:00.000Z"
  },
  {
    "airportIcao": "BGSF",
    "metar": "BGSF 091150Z AUTO 05007KT 9999NDV OVC032/// M18/M22 Q0991",
    "updatedAt": "2022-03-09T11:50:00.000Z"
  },
  {
    "airportIcao": "BGTL",
    "metar": "BGTL 091056Z AUTO 07006KT 9999 CLR M23/M25 A2938 RMK AO2 SLP941 T12321252 TSNO $",
    "updatedAt": "2022-03-09T10:56:00.000Z"
  },
  {
    "airportIcao": "BIAR",
    "metar": "BIAR 091200Z 19024KT 9999 BKN053 04/M01 Q0966",
    "updatedAt": "2022-03-09T12:00:00.000Z"
  },
  {
    "airportIcao": "BIBD",
    "metar": "BIBD 091200Z 36012KT 9999 SCT035 02/M02 Q0972",
    "updatedAt": "2022-03-09T12:00:00.000Z"
  },
  {
    "airportIcao": "BIEG",
    "metar": "BIEG 091200Z 17021G33KT 5000 -RA SCT017 BKN025 BKN095 05/01 Q0970",
    "updatedAt": "2022-03-09T12:00:00.000Z"
  },
  {
    "airportIcao": "BIHN",
    "metar": "BIHN 091200Z 15022KT 9999 -RADZ FEW007 BKN013 OVC018 04/02 Q0970",
    "updatedAt": "2022-03-09T12:00:00.000Z"
  },
  {
    "airportIcao": "BIHU",
    "metar": "BIHU 091200Z 19010KT 9999 -SHRA BKN042 05/M01 Q0965",
    "updatedAt": "2022-03-09T12:00:00.000Z"
  },
  {
    "airportIcao": "BIIS",
    "metar": "BIIS 091200Z 02013G23KT 3500 VCSH BKN015 BKN020 M00/M04 Q0973",
    "updatedAt": "2022-03-09T12:00:00.000Z"
  },
  {
    "airportIcao": "BIKF",
    "metar": "BIKF 091230Z 27007KT 9999 -RA SCT009 BKN020 OVC034 03/02 Q0972",
    "updatedAt": "2022-03-09T12:30:00.000Z"
  },
  {
    "airportIcao": "BIRK",
    "metar": "BIRK 091200Z 26007KT 9999 BKN043 03/M00 Q0971",
    "updatedAt": "2022-03-09T12:00:00.000Z"
  },
  {
    "airportIcao": "BITN",
    "metar": "BITN 091200Z 14025KT 9999 FEW025 BKN040 04/01 Q0968",
    "updatedAt": "2022-03-09T12:00:00.000Z"
  },
  {
    "airportIcao": "BIVM",
    "metar": "BIVM 091200Z 28013KT 9999 VCSH BKN014 05/03 Q0970",
    "updatedAt": "2022-03-09T12:00:00.000Z"
  },
  {
    "airportIcao": "BIVO",
    "metar": "BIVO 091200Z 16040G51KT 9999 SCT020 06/// Q0966",
    "updatedAt": "2022-03-09T12:00:00.000Z"
  },
  {
    "airportIcao": "BKPR",
    "metar": "BKPR 091230Z 03005KT 350V070 9999 FEW035 BKN045 02/M07 Q1017 NOSIG",
    "updatedAt": "2022-03-09T12:30:00.000Z"
  },
  {
    "airportIcao": "CAHR",
    "metar": "CAHR 091200Z AUTO 32010KT M08/M13 RMK AO1 SOG 32 1022 PK WND 31018/1113 SLP202 T10831131",
    "updatedAt": "2022-03-09T12:00:00.000Z"
  },
  {
    "airportIcao": "CBAR",
    "metar": "CBAR 091200Z AUTO 34011KT ////SM OVC008 ///// A////",
    "updatedAt": "2022-03-09T12:00:00.000Z"
  },
  {
    "airportIcao": "CBBC",
    "metar": "CBBC 091200Z AUTO 07005KT 030V110 9SM CLR 04/M12 A3033 RMK SLP276",
    "updatedAt": "2022-03-09T12:00:00.000Z"
  },
  {
    "airportIcao": "CERM",
    "metar": "CERM 091200Z AUTO 32001KT M21/M24 RMK AO1 2PAST HR SOG 108 0000 SLP218 P0001 T12121240 50004",
    "updatedAt": "2022-03-09T12:00:00.000Z"
  },
  {
    "airportIcao": "CMFM",
    "metar": "CMFM 091200Z AUTO 01001KT M14/M16 RMK AO1 SOG 123 5001 SLP190 T11391157 50002",
    "updatedAt": "2022-03-09T12:00:00.000Z"
  },
  {
    "airportIcao": "CMGB",
    "metar": "CMGB 091200Z AUTO 20001KT M03/M09 RMK AO1 SOG 12 8007 SLP200 T10341089",
    "updatedAt": "2022-03-09T12:00:00.000Z"
  },
  {
    "airportIcao": "CPBT",
    "metar": "CPBT 091200Z AUTO 29006KT M16/M18 RMK AO1 T11641180 50005",
    "updatedAt": "2022-03-09T12:00:00.000Z"
  },
  {
    "airportIcao": "CPFI",
    "metar": "CPFI 091200Z AUTO 31004KT M19/M21 RMK AO1 T11901206 50009",
    "updatedAt": "2022-03-09T12:00:00.000Z"
  },
  {
    "airportIcao": "CPIN",
    "metar": "CPIN 091236Z AUTO 33013KT ////SM SCT004 SCT039 BKN055 M24/M26 A3008",
    "updatedAt": "2022-03-09T12:36:00.000Z"
  },
  {
    "airportIcao": "CPIR",
    "metar": "CPIR 091200Z AUTO 32009KT M18/M20 RMK AO1 T11811196",
    "updatedAt": "2022-03-09T12:00:00.000Z"
  },
  {
    "airportIcao": "CPRO",
    "metar": "CPRO 091200Z AUTO 31009KT M22/M24 RMK AO1 T12241241",
    "updatedAt": "2022-03-09T12:00:00.000Z"
  },
  {
    "airportIcao": "CPRY",
    "metar": "CPRY 091200Z AUTO 34004KT M15/M17 RMK AO1 T11511166 50005",
    "updatedAt": "2022-03-09T12:00:00.000Z"
  },
  {
    "airportIcao": "CPST",
    "metar": "CPST 091200Z AUTO 32007KT M18/M20 RMK AO1 T11821199",
    "updatedAt": "2022-03-09T12:00:00.000Z"
  },
  {
    "airportIcao": "CPSV",
    "metar": "CPSV 091200Z AUTO 32012KT M18/M20 RMK AO1 T11771196",
    "updatedAt": "2022-03-09T12:00:00.000Z"
  },
  {
    "airportIcao": "CPXL",
    "metar": "CPXL 091200Z AUTO 00000KT M18/M20 RMK AO1 T11771197 50006",
    "updatedAt": "2022-03-09T12:00:00.000Z"
  },
  {
    "airportIcao": "CTCK",
    "metar": "CTCK 091200Z AUTO 10003KT M04/M06 RMK AO1 SOG 19 8014 SLP186 T10381056",
    "updatedAt": "2022-03-09T12:00:00.000Z"
  },
  {
    "airportIcao": "CTNK",
    "metar": "CTNK 091200Z AUTO 00000KT M16/M18 RMK AO1 SOG 41 6020 SLP160 T11631183",
    "updatedAt": "2022-03-09T12:00:00.000Z"
  },
  {
    "airportIcao": "CTRA",
    "metar": "CTRA 091200Z AUTO 33005KT M17/M21 RMK AO1 SOG 66 1014 SLP166 T11731207 50001",
    "updatedAt": "2022-03-09T12:00:00.000Z"
  },
  {
    "airportIcao": "CWAE",
    "metar": "CWAE 090100Z 05002KT 15SM FEW100 04/M15 A3016 RMK AC1 AC TR LAS T OBS/NEXT091500UTC WIND ESTD SLP233",
    "updatedAt": "2022-03-09T01:00:00.000Z"
  },
  {
    "airportIcao": "CWAF",
    "metar": "CWAF 091200Z AUTO M05/M08 RMK AO1 T10511082",
    "updatedAt": "2022-03-09T12:00:00.000Z"
  },
  {
    "airportIcao": "CWAJ",
    "metar": "CWAJ 091200Z AUTO 33004KT RMK AO1 58014",
    "updatedAt": "2022-03-09T12:00:00.000Z"
  },
  {
    "airportIcao": "CWAQ",
    "metar": "CWAQ 091200Z AUTO 32005KT M22/M25 RMK AO1 2PAST HR 6002 SLP275 P0001 T12231248 50002",
    "updatedAt": "2022-03-09T12:00:00.000Z"
  },
  {
    "airportIcao": "CWAV",
    "metar": "CWAV 091200Z AUTO 33003KT M15/M18 RMK AO1 2PAST HR SOG 10 6010 SLP318 P0001 T11521180 50002",
    "updatedAt": "2022-03-09T12:00:00.000Z"
  },
  {
    "airportIcao": "CWBA",
    "metar": "CWBA 091200Z AUTO 18003KT M05/M07 RMK AO1 SOG 51 T10541069",
    "updatedAt": "2022-03-09T12:00:00.000Z"
  },
  {
    "airportIcao": "CWBE",
    "metar": "CWBE 091200Z AUTO 11002KT M04/M06 RMK AO1 SLP126 T10371059 56010",
    "updatedAt": "2022-03-09T12:00:00.000Z"
  },
  {
    "airportIcao": "CWBK",
    "metar": "CWBK 091200Z AUTO 31015KT M06/M10 RMK AO1 SOG 53 1029 PK WND 30022/1113 SLP217 T10621099",
    "updatedAt": "2022-03-09T12:00:00.000Z"
  },
  {
    "airportIcao": "CWBO",
    "metar": "CWBO 091200Z AUTO 33008KT M18/M21 RMK AO1 SOG 07 4000 SLP324 T11751210 50003",
    "updatedAt": "2022-03-09T12:00:00.000Z"
  },
  {
    "airportIcao": "CWBS",
    "metar": "CWBS 091200Z AUTO 01004KT M09/M11 RMK AO1 T10911114",
    "updatedAt": "2022-03-09T12:00:00.000Z"
  },
  {
    "airportIcao": "CWBT",
    "metar": "CWBT 091200Z AUTO 25003KT M13/M18 RMK AO1 SLP167 T11311179 53033",
    "updatedAt": "2022-03-09T12:00:00.000Z"
  },
  {
    "airportIcao": "CWBU",
    "metar": "CWBU 091200Z AUTO 30011KT M22/M25 RMK AO1 SOG 36 7003 SLP265 T12171253",
    "updatedAt": "2022-03-09T12:00:00.000Z"
  },
  {
    "airportIcao": "CWBV",
    "metar": "CWBV 091200Z AUTO 31011G17KT M05/M11 RMK AO1 PK WND 31020/1106 T10511110",
    "updatedAt": "2022-03-09T12:00:00.000Z"
  },
  {
    "airportIcao": "CWBY",
    "metar": "CWBY 091200Z AUTO 28007KT M11/M16 RMK AO1 SOG 26 3037 SLP168 T11061161",
    "updatedAt": "2022-03-09T12:00:00.000Z"
  },
  {
    "airportIcao": "CWBZ",
    "metar": "CWBZ 091200Z AUTO 07001KT M03/M06 RMK AO1 SLP187 T10341063 58008",
    "updatedAt": "2022-03-09T12:00:00.000Z"
  },
  {
    "airportIcao": "CWCF",
    "metar": "CWCF 091200Z AUTO 32007KT M25/M28 RMK AO1 SOG 22 1002 SLP210 T12521275",
    "updatedAt": "2022-03-09T12:00:00.000Z"
  },
  {
    "airportIcao": "CWCI",
    "metar": "CWCI 091200Z AUTO 30024KT M01/M05 RMK AO1 PK WND 29029/1137 SLP077 T10101052 56002",
    "updatedAt": "2022-03-09T12:00:00.000Z"
  },
  {
    "airportIcao": "CWCJ",
    "metar": "CWCJ 091200Z AUTO 27006KT M03/M07 RMK AO1 SOG 74 5002 SLP065 T10251074 50001",
    "updatedAt": "2022-03-09T12:00:00.000Z"
  },
  {
    "airportIcao": "CWCO",
    "metar": "CWCO 091200Z AUTO 20002KT M04/M06 RMK AO1 SLP149 T10411063 56015",
    "updatedAt": "2022-03-09T12:00:00.000Z"
  },
  {
    "airportIcao": "CWCT",
    "metar": "CWCT 091200Z AUTO 33009KT M19/M21 RMK AO1 SLP326 T11871213 58005",
    "updatedAt": "2022-03-09T12:00:00.000Z"
  },
  {
    "airportIcao": "CWDA",
    "metar": "CWDA 091200Z AUTO 31024G32KT M06/ RMK AO1 PK WND 30035/1128 T1063",
    "updatedAt": "2022-03-09T12:00:00.000Z"
  },
  {
    "airportIcao": "CWDC",
    "metar": "CWDC 091200Z AUTO 25003KT M25/M27 RMK AO1 SOG 82 8021 SLP281 T12461272",
    "updatedAt": "2022-03-09T12:00:00.000Z"
  },
  {
    "airportIcao": "CWDJ",
    "metar": "CWDJ 091200Z AUTO 34008KT M22/M26 RMK AO1 SOG 07 3001 SLP280 T12211255",
    "updatedAt": "2022-03-09T12:00:00.000Z"
  },
  {
    "airportIcao": "CWDK",
    "metar": "CWDK 091200Z AUTO 33003KT M16/M18 RMK AO1 8005 SLP324 T11551177 50001",
    "updatedAt": "2022-03-09T12:00:00.000Z"
  },
  {
    "airportIcao": "CWDM",
    "metar": "CWDM 091100Z AUTO 32019G24KT M10/M14 RMK AO1 SOG 96 1045 PK WND 31026/1000 SLP066 T10991140",
    "updatedAt": "2022-03-09T11:00:00.000Z"
  },
  {
    "airportIcao": "CWDO",
    "metar": "CWDO 091200Z AUTO 30027G38KT M04/M07 RMK AO1 PRESRR SOG 41 1077 PK WND 29046/1105 SLP978 T10401073",
    "updatedAt": "2022-03-09T12:00:00.000Z"
  },
  {
    "airportIcao": "CWDQ",
    "metar": "CWDQ 091200Z AUTO 14002KT M13/M15 RMK AO1 SOG 70 8005 SLP194 T11281148",
    "updatedAt": "2022-03-09T12:00:00.000Z"
  },
  {
    "airportIcao": "CWDT",
    "metar": "CWDT 091200Z AUTO 08002KT RMK AO1 55005",
    "updatedAt": "2022-03-09T12:00:00.000Z"
  },
  {
    "airportIcao": "CWDV",
    "metar": "CWDV 091200Z AUTO 31007KT M11/M14 RMK AO1 1PAST HR SOG 66 3014 SLP095 P0000 T11051136 50002",
    "updatedAt": "2022-03-09T12:00:00.000Z"
  },
  {
    "airportIcao": "CWDZ",
    "metar": "CWDZ 091200Z AUTO 00000KT M16/M18 RMK AO1 SLP333 T11611175 57007",
    "updatedAt": "2022-03-09T12:00:00.000Z"
  },
  {
    "airportIcao": "CWEB",
    "metar": "CWEB 091200Z AUTO 00005KT 03/ RMK AO1 SLP232 T0033 51006",
    "updatedAt": "2022-03-09T12:00:00.000Z"
  },
  {
    "airportIcao": "CWEE",
    "metar": "CWEE 091200Z AUTO M14/M16 RMK AO1 SLP129 T11381155 56006",
    "updatedAt": "2022-03-09T12:00:00.000Z"
  },
  {
    "airportIcao": "CWEF",
    "metar": "CWEF 091200Z AUTO M06/ RMK AO1 SLP138 T1056 53052",
    "updatedAt": "2022-03-09T12:00:00.000Z"
  },
  {
    "airportIcao": "CWEH",
    "metar": "CWEH 091200Z AUTO 31013KT M17/M20 RMK AO1 5006 PK WND 31018/1140 SLP273 T11701196 50002",
    "updatedAt": "2022-03-09T12:00:00.000Z"
  },
  {
    "airportIcao": "CWEL",
    "metar": "CWEL 091200Z AUTO 08015KT 06/M06 RMK AO1 PK WND 08019/1144 SLP243 T00631055 50008",
    "updatedAt": "2022-03-09T12:00:00.000Z"
  },
  {
    "airportIcao": "CWEP",
    "metar": "CWEP 091200Z AUTO 29019G25KT M05/M09 RMK AO1 SOG 56 1036 PK WND 27027/1121 SLP193 T10451093",
    "updatedAt": "2022-03-09T12:00:00.000Z"
  },
  {
    "airportIcao": "CWEQ",
    "metar": "CWEQ 091200Z AUTO 27007KT M24/M26 RMK AO1 SOG 58 5002 SLP244 T12411262",
    "updatedAt": "2022-03-09T12:00:00.000Z"
  },
  {
    "airportIcao": "CWER",
    "metar": "CWER 091200Z AUTO 25006KT RMK AO1",
    "updatedAt": "2022-03-09T12:00:00.000Z"
  },
  {
    "airportIcao": "CWEU",
    "metar": "CWEU 091200Z 02003KT 320V060 15SM IC FEW120 FEW240 M34/M38 A2993 RMK AC1CI1 AC TR CI TR SLP155",
    "updatedAt": "2022-03-09T12:00:00.000Z"
  },
  {
    "airportIcao": "CWEW",
    "metar": "CWEW 091200Z AUTO 36001KT M08/M11 RMK AO1 SOG 19 8006 SLP203 T10801106",
    "updatedAt": "2022-03-09T12:00:00.000Z"
  },
  {
    "airportIcao": "CWEZ",
    "metar": "CWEZ 091200Z AUTO 07027G32KT 06/M07 RMK AO1 PK WND 07032/1112 SLP239 T00571066 51009",
    "updatedAt": "2022-03-09T12:00:00.000Z"
  },
  {
    "airportIcao": "CWFD",
    "metar": "CWFD 091200Z AUTO 28004KT 230V290 ////SM OVC025 M23/M25 A////",
    "updatedAt": "2022-03-09T12:00:00.000Z"
  },
  {
    "airportIcao": "CWFF",
    "metar": "CWFF 091200Z AUTO 29006KT M22/M26 RMK AO1 SOG 35 8003 SLP274 T12241260 50002",
    "updatedAt": "2022-03-09T12:00:00.000Z"
  },
  {
    "airportIcao": "CWFJ",
    "metar": "CWFJ 091200Z AUTO 31004KT M16/M18 RMK AO1 T11621179 50006",
    "updatedAt": "2022-03-09T12:00:00.000Z"
  },
  {
    "airportIcao": "CWFQ",
    "metar": "CWFQ 091200Z AUTO 16003KT M05/M09 RMK AO1 SLP194 T10491094 56010",
    "updatedAt": "2022-03-09T12:00:00.000Z"
  },
  {
    "airportIcao": "CWGB",
    "metar": "CWGB 091200Z AUTO 02014KT 06/ RMK AO1 PK WND 01019/1141 SLP244 T0064 51008",
    "updatedAt": "2022-03-09T12:00:00.000Z"
  },
  {
    "airportIcao": "CWGD",
    "metar": "CWGD 091200Z AUTO 15006KT M03/M06 RMK AO1 SOG 01 6013 SLP143 T10341055",
    "updatedAt": "2022-03-09T12:00:00.000Z"
  },
  {
    "airportIcao": "CWGH",
    "metar": "CWGH 091200Z AUTO 17002KT M03/M07 RMK AO1 SLP186 T10341073 56014",
    "updatedAt": "2022-03-09T12:00:00.000Z"
  },
  {
    "airportIcao": "CWGL",
    "metar": "CWGL 091200Z AUTO 17008KT M05/M07 RMK AO1 SLP136 T10471067 56017",
    "updatedAt": "2022-03-09T12:00:00.000Z"
  },
  {
    "airportIcao": "CWGM",
    "metar": "CWGM 091200Z AUTO 05004KT M16/M18 RMK AO1 T11601182",
    "updatedAt": "2022-03-09T12:00:00.000Z"
  },
  {
    "airportIcao": "CWGR",
    "metar": "CWGR 091200Z AUTO 28014KT M09/M12 RMK AO1 PK WND 27019/1143 SLP182 T10871123 51043",
    "updatedAt": "2022-03-09T12:00:00.000Z"
  },
  {
    "airportIcao": "CWGT",
    "metar": "CWGT 091200Z AUTO 32002KT 06/M11 RMK AO1 SLP245 T00641112 51011",
    "updatedAt": "2022-03-09T12:00:00.000Z"
  },
  {
    "airportIcao": "CWGW",
    "metar": "CWGW 091200Z AUTO 36003KT M17/M19 RMK AO1 SOG 20 6003 SLP317 T11731192 50001",
    "updatedAt": "2022-03-09T12:00:00.000Z"
  },
  {
    "airportIcao": "CWGY",
    "metar": "CWGY 091200Z AUTO 30006KT M21/M24 RMK AO1 SOG 04 6001 SLP331 T12061236 50001",
    "updatedAt": "2022-03-09T12:00:00.000Z"
  },
  {
    "airportIcao": "CWHI",
    "metar": "CWHI 091200Z AUTO 29008KT M18/M20 RMK AO1 T11811195",
    "updatedAt": "2022-03-09T12:00:00.000Z"
  },
  {
    "airportIcao": "CWHO",
    "metar": "CWHO 091200Z AUTO M13/M16 RMK AO1 21 1026 SLP048 T11251155",
    "updatedAt": "2022-03-09T12:00:00.000Z"
  },
  {
    "airportIcao": "CWHP",
    "metar": "CWHP 091200Z AUTO 29016KT M10/ RMK AO1 PK WND 30020/1119 SLP139 T1099 53045",
    "updatedAt": "2022-03-09T12:00:00.000Z"
  },
  {
    "airportIcao": "CWHQ",
    "metar": "CWHQ 091200Z AUTO 05002KT M12/M14 RMK AO1 T11201136",
    "updatedAt": "2022-03-09T12:00:00.000Z"
  },
  {
    "airportIcao": "CWHT",
    "metar": "CWHT 091200Z AUTO 07001KT M22/M25 RMK AO1 SOG 30 7018 SLP322 T12181247",
    "updatedAt": "2022-03-09T12:00:00.000Z"
  },
  {
    "airportIcao": "CWHV",
    "metar": "CWHV 091200Z AUTO 20001KT M13/M15 RMK AO1 SLP209 T11301148 56006",
    "updatedAt": "2022-03-09T12:00:00.000Z"
  },
  {
    "airportIcao": "CWID",
    "metar": "CWID 091200Z AUTO 14002KT M29/M32 RMK AO1 SLP283 T12871317 58045",
    "updatedAt": "2022-03-09T12:00:00.000Z"
  },
  {
    "airportIcao": "CWIG",
    "metar": "CWIG 091200Z AUTO 20009KT RMK AO1",
    "updatedAt": "2022-03-09T12:00:00.000Z"
  },
  {
    "airportIcao": "CWII",
    "metar": "CWII 091200Z AUTO 31010KT M22/M26 RMK AO1 SLP219 T12221262 53013",
    "updatedAt": "2022-03-09T12:00:00.000Z"
  },
  {
    "airportIcao": "CWIJ",
    "metar": "CWIJ 091200Z AUTO 28013KT M26/M29 RMK AO1 SOG 43 6038 SLP189 T12611287",
    "updatedAt": "2022-03-09T12:00:00.000Z"
  },
  {
    "airportIcao": "CWIK",
    "metar": "CWIK 091200Z AUTO 29006KT M19/M21 RMK AO1 SOG 17 6004 SLP250 T11861211",
    "updatedAt": "2022-03-09T12:00:00.000Z"
  },
  {
    "airportIcao": "CWIL",
    "metar": "CWIL 091200Z AUTO 31015KT ////SM NCD ///// A////",
    "updatedAt": "2022-03-09T12:00:00.000Z"
  },
  {
    "airportIcao": "CWIS",
    "metar": "CWIS 091200Z AUTO 20001KT M14/M15 RMK AO1 SOG 129 0000 SLP188 T11411152",
    "updatedAt": "2022-03-09T12:00:00.000Z"
  },
  {
    "airportIcao": "CWIT",
    "metar": "CWIT 091200Z AUTO 13001KT M04/M07 RMK AO1 SOG 15 7009 SLP191 T10351072",
    "updatedAt": "2022-03-09T12:00:00.000Z"
  },
  {
    "airportIcao": "CWIW",
    "metar": "CWIW 091200Z AUTO 29007KT M21/M24 RMK AO1 SOG 07 5002 SLP286 T12121242 50002",
    "updatedAt": "2022-03-09T12:00:00.000Z"
  },
  {
    "airportIcao": "CWIX",
    "metar": "CWIX 091200Z AUTO 10006KT M11/M13 RMK AO1 SLP165 T11081127 55003",
    "updatedAt": "2022-03-09T12:00:00.000Z"
  },
  {
    "airportIcao": "CWIZ",
    "metar": "CWIZ 091200Z AUTO 16005KT M04/M07 RMK AO1 SOG 26 T10371066",
    "updatedAt": "2022-03-09T12:00:00.000Z"
  },
  {
    "airportIcao": "CWJB",
    "metar": "CWJB 091200Z AUTO 00000KT M10/ RMK AO1 SOG 79 T1095",
    "updatedAt": "2022-03-09T12:00:00.000Z"
  },
  {
    "airportIcao": "CWJC",
    "metar": "CWJC 091200Z AUTO 32011KT M26/M28 RMK AO1 SOG 01 8008 PK WND 33017/1138 SLP186 T12561275",
    "updatedAt": "2022-03-09T12:00:00.000Z"
  },
  {
    "airportIcao": "CWJD",
    "metar": "CWJD 091200Z AUTO 28005KT M24/M27 RMK AO1 SOG 70 8006 SLP221 T12441272",
    "updatedAt": "2022-03-09T12:00:00.000Z"
  },
  {
    "airportIcao": "CWJH",
    "metar": "CWJH 091200Z AUTO 31005KT M21/M24 RMK AO1 SOG 77 6008 SLP237 T12091235",
    "updatedAt": "2022-03-09T12:00:00.000Z"
  },
  {
    "airportIcao": "CWJI",
    "metar": "CWJI 091200Z AUTO 30007KT M23/M26 RMK AO1 SOG 32 5004 SLP279 T12271258",
    "updatedAt": "2022-03-09T12:00:00.000Z"
  },
  {
    "airportIcao": "CWJO",
    "metar": "CWJO 091200Z AUTO 10004KT M10/M13 RMK AO1 SLP179 T11041129 55003",
    "updatedAt": "2022-03-09T12:00:00.000Z"
  },
  {
    "airportIcao": "CWJR",
    "metar": "CWJR 091200Z AUTO 05003KT M07/M16 RMK AO1 SOG 04 1004 SLP285 T10681161",
    "updatedAt": "2022-03-09T12:00:00.000Z"
  },
  {
    "airportIcao": "CWJT",
    "metar": "CWJT 091200Z AUTO 00000KT M12/M13 RMK AO1 SLP190 T11211128 58010",
    "updatedAt": "2022-03-09T12:00:00.000Z"
  },
  {
    "airportIcao": "CWJU",
    "metar": "CWJU 091100Z AUTO 08010G17KT 03/M02 RMK AO1 PK WND 07022/1016 SLP297 T00341015 50000",
    "updatedAt": "2022-03-09T11:00:00.000Z"
  },
  {
    "airportIcao": "CWJV",
    "metar": "CWJV 091200Z AUTO 09003KT M07/M14 RMK AO1 SLP277 T10671136 51006",
    "updatedAt": "2022-03-09T12:00:00.000Z"
  },
  {
    "airportIcao": "CWJW",
    "metar": "CWJW 091200Z AUTO 14001KT M19/M22 RMK AO1 SOG 31 6005 SLP344 T11941218",
    "updatedAt": "2022-03-09T12:00:00.000Z"
  },
  {
    "airportIcao": "CWJX",
    "metar": "CWJX 091200Z AUTO M20/M24 RMK AO1 SOG 01 1006 SLP316 T12001235",
    "updatedAt": "2022-03-09T12:00:00.000Z"
  },
  {
    "airportIcao": "CWKD",
    "metar": "CWKD 091200Z AUTO 12003KT M11/M14 RMK AO1 SLP125 T11131144 58009",
    "updatedAt": "2022-03-09T12:00:00.000Z"
  },
  {
    "airportIcao": "CWKG",
    "metar": "CWKG 091200Z AUTO 34002KT M06/M09 RMK AO1 SLP223 T10581092 50014",
    "updatedAt": "2022-03-09T12:00:00.000Z"
  },
  {
    "airportIcao": "CWKH",
    "metar": "CWKH 091200Z AUTO M00/M08 RMK AO1 SLP230 T10021082 53007",
    "updatedAt": "2022-03-09T12:00:00.000Z"
  },
  {
    "airportIcao": "CWKM",
    "metar": "CWKM 091200Z AUTO 09006KT ////SM OVC013 M18/M19 A3057",
    "updatedAt": "2022-03-09T12:00:00.000Z"
  },
  {
    "airportIcao": "CWKO",
    "metar": "CWKO 091200Z AUTO 30005KT M20/M23 RMK AO1 SLP280 T12031233 55004",
    "updatedAt": "2022-03-09T12:00:00.000Z"
  },
  {
    "airportIcao": "CWKP",
    "metar": "CWKP 091214Z AUTO 30011KT ////SM BKN005 BKN011 BKN016 ///// A////",
    "updatedAt": "2022-03-09T12:14:00.000Z"
  },
  {
    "airportIcao": "CWKX",
    "metar": "CWKX 091200Z AUTO 05004KT M22/M25 RMK AO1 SOG 58 8025 SLP365 T12241246",
    "updatedAt": "2022-03-09T12:00:00.000Z"
  },
  {
    "airportIcao": "CWLB",
    "metar": "CWLB 091200Z AUTO 31006KT M20/M24 RMK AO1 SOG 15 8009 SLP334 T11951236",
    "updatedAt": "2022-03-09T12:00:00.000Z"
  },
  {
    "airportIcao": "CWLC",
    "metar": "CWLC 091200Z AUTO 05003KT 04/M03 RMK AO1 T00361033",
    "updatedAt": "2022-03-09T12:00:00.000Z"
  },
  {
    "airportIcao": "CWLE",
    "metar": "CWLE 091200Z AUTO 32010KT M19/M21 RMK AO1 SOG 25 5001 SLP297 T11891211 50002",
    "updatedAt": "2022-03-09T12:00:00.000Z"
  },
  {
    "airportIcao": "CWLI",
    "metar": "CWLI 091200Z AUTO 36011KT ////SM FEW008 SCT012 M25/M28 A3040",
    "updatedAt": "2022-03-09T12:00:00.000Z"
  },
  {
    "airportIcao": "CWLM",
    "metar": "CWLM 091200Z AUTO 04009G17KT 05/M11 RMK AO1 PK WND 02021/1126 SLP236 T00481107 53008",
    "updatedAt": "2022-03-09T12:00:00.000Z"
  },
  {
    "airportIcao": "CWLP",
    "metar": "CWLP 091200Z AUTO 10007KT 05/03 RMK AO1 SLP249 T00500027 51009",
    "updatedAt": "2022-03-09T12:00:00.000Z"
  },
  {
    "airportIcao": "CWLS",
    "metar": "CWLS 091200Z AUTO 16006KT M06/M07 RMK AO1 SLP144 T10621072 56014",
    "updatedAt": "2022-03-09T12:00:00.000Z"
  },
  {
    "airportIcao": "CWLX",
    "metar": "CWLX 091200Z AUTO ///// ////SM SCT050 SCT065 M29/M32 A2947",
    "updatedAt": "2022-03-09T12:00:00.000Z"
  },
  {
    "airportIcao": "CWLY",
    "metar": "CWLY 091200Z AUTO 01005KT 340V060 9SM CLR M01/M12 A3034 RMK SLP285",
    "updatedAt": "2022-03-09T12:00:00.000Z"
  },
  {
    "airportIcao": "CWME",
    "metar": "CWME 091200Z AUTO 05025G33KT 05/M10 RMK AO1 PK WND 04033/1132 SLP273 T00461103 51008",
    "updatedAt": "2022-03-09T12:00:00.000Z"
  },
  {
    "airportIcao": "CWMJ",
    "metar": "CWMJ 091200Z AUTO 18003KT M12/M14 RMK AO1 SOG 32 8013 SLP170 T11221136",
    "updatedAt": "2022-03-09T12:00:00.000Z"
  },
  {
    "airportIcao": "CWMM",
    "metar": "CWMM 091200Z AUTO 09004KT 02/M11 RMK AO1 SLP257 T00211106 52011",
    "updatedAt": "2022-03-09T12:00:00.000Z"
  },
  {
    "airportIcao": "CWMQ",
    "metar": "CWMQ 091200Z AUTO 34012G17KT M16/M19 RMK AO1 3004 PK WND 33017/1144 SLP308 T11611187 50001",
    "updatedAt": "2022-03-09T12:00:00.000Z"
  },
  {
    "airportIcao": "CWMT",
    "metar": "CWMT 091200Z AUTO 23001KT M21/M24 RMK AO1 SOG 32 7043 SLP263 T12101236",
    "updatedAt": "2022-03-09T12:00:00.000Z"
  },
  {
    "airportIcao": "CWMZ",
    "metar": "CWMZ 091200Z AUTO 22014KT M01/M04 RMK AO1 PK WND 24017/1107 SLP141 T10061036 56017",
    "updatedAt": "2022-03-09T12:00:00.000Z"
  },
  {
    "airportIcao": "CWNC",
    "metar": "CWNC 091200Z AUTO 18009KT 01/M03 RMK AO1 SOG 02 6015 SLP162 T00101033",
    "updatedAt": "2022-03-09T12:00:00.000Z"
  },
  {
    "airportIcao": "CWND",
    "metar": "CWND 091200Z AUTO 34006KT M22/M24 RMK AO1 SLP303 T12171241 53004",
    "updatedAt": "2022-03-09T12:00:00.000Z"
  },
  {
    "airportIcao": "CWNE",
    "metar": "CWNE 091200Z AUTO 28018G23KT M07/M13 RMK AO1 PK WND 28025/1115 SLP197 T10741130 51031",
    "updatedAt": "2022-03-09T12:00:00.000Z"
  },
  {
    "airportIcao": "CWNH",
    "metar": "CWNH 091200Z AUTO 18004KT M12/M16 RMK AO1 SOG 72 7003 SLP198 T11161156",
    "updatedAt": "2022-03-09T12:00:00.000Z"
  },
  {
    "airportIcao": "CWNK",
    "metar": "CWNK 091200Z AUTO 29007KT M20/M24 RMK AO1 SLP235 T11971243 53008",
    "updatedAt": "2022-03-09T12:00:00.000Z"
  },
  {
    "airportIcao": "CWNM",
    "metar": "CWNM 091200Z AUTO 10002KT M05/M12 RMK AO1 3008 SLP272 T10521119 50003",
    "updatedAt": "2022-03-09T12:00:00.000Z"
  },
  {
    "airportIcao": "CWNP",
    "metar": "CWNP 091200Z AUTO 08002KT M05/M15 RMK AO1 SOG 30 1006 SLP268 T10531154",
    "updatedAt": "2022-03-09T12:00:00.000Z"
  },
  {
    "airportIcao": "CWNQ",
    "metar": "CWNQ 091200Z AUTO 05004KT M08/M11 RMK AO1 SLP204 T10841111 56005",
    "updatedAt": "2022-03-09T12:00:00.000Z"
  },
  {
    "airportIcao": "CWNZ",
    "metar": "CWNZ 091200Z AUTO 26006KT M05/M07 RMK AO1 SOG 70 3004 SLP048 T10491074 50006",
    "updatedAt": "2022-03-09T12:00:00.000Z"
  },
  {
    "airportIcao": "CWOB",
    "metar": "CWOB 091236Z AUTO 04004KT ////SM OVC006 M19/M21 A2936",
    "updatedAt": "2022-03-09T12:36:00.000Z"
  },
  {
    "airportIcao": "CWOC",
    "metar": "CWOC 091200Z AUTO 29008KT M08/M16 RMK AO1 PK WND 30019/1133 SLP197 T10751162 51029",
    "updatedAt": "2022-03-09T12:00:00.000Z"
  },
  {
    "airportIcao": "CWOD",
    "metar": "CWOD 091200Z AUTO 15007KT M10/M13 RMK AO1 SOG 63 5004 SLP162 T11021132",
    "updatedAt": "2022-03-09T12:00:00.000Z"
  },
  {
    "airportIcao": "CWOE",
    "metar": "CWOE 091200Z AUTO 00030KT M19/M21 RMK AO1 2PAST HR SOG 04 5002 SLP302 P0001 T11921210 50002",
    "updatedAt": "2022-03-09T12:00:00.000Z"
  },
  {
    "airportIcao": "CWOY",
    "metar": "CWOY 091200Z AUTO 30005KT M22/M26 RMK AO1 SOG 18 5000 SLP272 T12151260",
    "updatedAt": "2022-03-09T12:00:00.000Z"
  },
  {
    "airportIcao": "CWPC",
    "metar": "CWPC 091200Z AUTO 08004KT M01/M07 RMK AO1 SLP164 T10121067 58016",
    "updatedAt": "2022-03-09T12:00:00.000Z"
  },
  {
    "airportIcao": "CWPD",
    "metar": "CWPD 091200Z AUTO 12002KT M13/M15 RMK AO1 SLP191 T11321150 55001",
    "updatedAt": "2022-03-09T12:00:00.000Z"
  },
  {
    "airportIcao": "CWPF",
    "metar": "CWPF 091230Z AUTO 04009KT 06/M11 RMK AO1 PK WND 04019/1200 SLP240 T00591112 53009",
    "updatedAt": "2022-03-09T12:30:00.000Z"
  },
  {
    "airportIcao": "CWPK",
    "metar": "CWPK 091200Z AUTO 21005KT M07/M10 RMK AO1 SOG 99 8005 SLP155 T10711100",
    "updatedAt": "2022-03-09T12:00:00.000Z"
  },
  {
    "airportIcao": "CWPO",
    "metar": "CWPO 091200Z AUTO 34004KT M17/M22 RMK AO1 SOG 18 3005 SLP238 T11711219",
    "updatedAt": "2022-03-09T12:00:00.000Z"
  },
  {
    "airportIcao": "CWPR",
    "metar": "CWPR 091200Z AUTO 36002KT M09/M13 RMK AO1 SOG 14 3005 SLP273 T10851134",
    "updatedAt": "2022-03-09T12:00:00.000Z"
  },
  {
    "airportIcao": "CWPS",
    "metar": "CWPS 091200Z AUTO RMK AO1 58017",
    "updatedAt": "2022-03-09T12:00:00.000Z"
  },
  {
    "airportIcao": "CWPX",
    "metar": "CWPX 091200Z AUTO 34025KT ////SM //// FEW003 OVC050 M28/M32 A2986",
    "updatedAt": "2022-03-09T12:00:00.000Z"
  },
  {
    "airportIcao": "CWPZ",
    "metar": "CWPZ 091200Z AUTO 00000KT M14/M16 RMK AO1 SOG 29 0002 SLP348 T11431156",
    "updatedAt": "2022-03-09T12:00:00.000Z"
  },
  {
    "airportIcao": "CWQH",
    "metar": "CWQH 091200Z AUTO 04003KT M06/M09 RMK AO1 SOG 03 8010 SLP208 T10551089",
    "updatedAt": "2022-03-09T12:00:00.000Z"
  },
  {
    "airportIcao": "CWQK",
    "metar": "CWQK 091100Z AUTO 03018KT 07/M08 RMK AO1 PK WND 02026/1000 SLP230 T00671083 53008",
    "updatedAt": "2022-03-09T11:00:00.000Z"
  },
  {
    "airportIcao": "CWQO",
    "metar": "CWQO 091200Z AUTO 22017KT M06/M09 RMK AO1 PK WND 20022/1137 T10581094",
    "updatedAt": "2022-03-09T12:00:00.000Z"
  },
  {
    "airportIcao": "CWQP",
    "metar": "CWQP 091200Z AUTO 13008KT 01/M03 RMK AO1 SOG 02 6016 SLP173 T00051034",
    "updatedAt": "2022-03-09T12:00:00.000Z"
  },
  {
    "airportIcao": "CWQR",
    "metar": "CWQR 091200Z AUTO 32015G20KT M11/M17 RMK AO1 PK WND 32024/1109 T11111171",
    "updatedAt": "2022-03-09T12:00:00.000Z"
  },
  {
    "airportIcao": "CWQS",
    "metar": "CWQS 091200Z AUTO 09008KT 04/M01 RMK AO1 SLP281 T00391011 50001",
    "updatedAt": "2022-03-09T12:00:00.000Z"
  },
  {
    "airportIcao": "CWQV",
    "metar": "CWQV 091200Z AUTO 26002KT M12/M14 RMK AO1 T11161138",
    "updatedAt": "2022-03-09T12:00:00.000Z"
  },
  {
    "airportIcao": "CWRA",
    "metar": "CWRA 091200Z AUTO 28040G49KT M02/M08 RMK AO1 PK WND 28050/1107 SLP010 T10151075 51057",
    "updatedAt": "2022-03-09T12:00:00.000Z"
  },
  {
    "airportIcao": "CWRH",
    "metar": "CWRH 091200Z AUTO 25017G22KT ////SM FEW003 SCT010 OVC018 ///// A////",
    "updatedAt": "2022-03-09T12:00:00.000Z"
  },
  {
    "airportIcao": "CWRJ",
    "metar": "CWRJ 091200Z AUTO 31007KT M22/M26 RMK AO1 SOG 03 3001 SLP306 T12211257 50002",
    "updatedAt": "2022-03-09T12:00:00.000Z"
  },
  {
    "airportIcao": "CWRK",
    "metar": "CWRK 091200Z AUTO 24001KT M11/M12 RMK AO1 SOG 44 6020 SLP160 T11091121",
    "updatedAt": "2022-03-09T12:00:00.000Z"
  },
  {
    "airportIcao": "CWRM",
    "metar": "CWRM 091200Z AUTO 33003KT M15/M17 RMK AO1 SOG 19 6009 SLP301 T11511174",
    "updatedAt": "2022-03-09T12:00:00.000Z"
  },
  {
    "airportIcao": "CWRN",
    "metar": "CWRN 091200Z AUTO 29022G27KT M06/M10 RMK AO1 PK WND 30030/1135 SLP207 T10561099 51040",
    "updatedAt": "2022-03-09T12:00:00.000Z"
  },
  {
    "airportIcao": "CWRO",
    "metar": "CWRO 091200Z AUTO 07013KT 05/ RMK AO1 PK WND 06017/1100 SLP291 T0047 58001",
    "updatedAt": "2022-03-09T12:00:00.000Z"
  },
  {
    "airportIcao": "CWRT",
    "metar": "CWRT 091200Z AUTO 00000KT M20/M22 RMK AO1 SLP315 T12011224 55001",
    "updatedAt": "2022-03-09T12:00:00.000Z"
  },
  {
    "airportIcao": "CWRU",
    "metar": "CWRU 091200Z AUTO 02006KT 06/02 RMK AO1 SLP232 T00570018 51005",
    "updatedAt": "2022-03-09T12:00:00.000Z"
  },
  {
    "airportIcao": "CWRX",
    "metar": "CWRX 091200Z AUTO ///// ////SM FEW065 SCT080 M30/M33 A////",
    "updatedAt": "2022-03-09T12:00:00.000Z"
  },
  {
    "airportIcao": "CWRY",
    "metar": "CWRY 091200Z AUTO 36012KT M15/M16 RMK AO1 SOG 19 3002 PK WND 01018/1118 SLP308 T11471164",
    "updatedAt": "2022-03-09T12:00:00.000Z"
  },
  {
    "airportIcao": "CWRZ",
    "metar": "CWRZ 091200Z AUTO 27007KT M12/M17 RMK AO1 SLP187 T11151168 51032",
    "updatedAt": "2022-03-09T12:00:00.000Z"
  },
  {
    "airportIcao": "CWSA",
    "metar": "CWSA 091200Z AUTO 30021G26KT 9SM SCT027 M02/M08 A3015 RMK ICE SLP212",
    "updatedAt": "2022-03-09T12:00:00.000Z"
  },
  {
    "airportIcao": "CWSD",
    "metar": "CWSD 091200Z AUTO 30012G17KT M08/M12 RMK AO1 SOG 15 1021 PK WND 29017/1151 SLP212 T10771124",
    "updatedAt": "2022-03-09T12:00:00.000Z"
  },
  {
    "airportIcao": "CWSF",
    "metar": "CWSF 091200Z AUTO 28013G22KT M09/M15 RMK AO1 SOG 23 1025 PK WND 27022/1106 SLP177 T10881152",
    "updatedAt": "2022-03-09T12:00:00.000Z"
  },
  {
    "airportIcao": "CWSG",
    "metar": "CWSG 091200Z AUTO 19004KT M09/M13 RMK AO1 SLP191 T10941131 50006",
    "updatedAt": "2022-03-09T12:00:00.000Z"
  },
  {
    "airportIcao": "CWSK",
    "metar": "CWSK 091200Z AUTO 34012G20KT 04/M16 RMK AO1 PK WND 33020/1156 SLP267 T00381160 51010",
    "updatedAt": "2022-03-09T12:00:00.000Z"
  },
  {
    "airportIcao": "CWSL",
    "metar": "CWSL 091200Z AUTO 21002KT M05/M15 RMK AO1 SOG 09 3005 SLP288 T10531148",
    "updatedAt": "2022-03-09T12:00:00.000Z"
  },
  {
    "airportIcao": "CWSP",
    "metar": "CWSP 091200Z AUTO 09008KT 06/M10 RMK AO1 SLP236 T00571095 53007",
    "updatedAt": "2022-03-09T12:00:00.000Z"
  },
  {
    "airportIcao": "CWSR",
    "metar": "CWSR 091200Z AUTO 31009KT M20/M25 RMK AO1 SOG 33 8006 SLP292 T12011248",
    "updatedAt": "2022-03-09T12:00:00.000Z"
  },
  {
    "airportIcao": "CWSS",
    "metar": "CWSS 091200Z AUTO 35002KT M07/M11 RMK AO1 SOG 05 0004 SLP229 T10731114",
    "updatedAt": "2022-03-09T12:00:00.000Z"
  },
  {
    "airportIcao": "CWST",
    "metar": "CWST 091200Z AUTO 13007KT M11/M16 RMK AO1 SOG 55 6006 SLP198 T11081155",
    "updatedAt": "2022-03-09T12:00:00.000Z"
  },
  {
    "airportIcao": "CWTA",
    "metar": "CWTA 091200Z AUTO 22002KT M03/M07 RMK AO1 SOG 71 8006 SLP193 T10301072",
    "updatedAt": "2022-03-09T12:00:00.000Z"
  },
  {
    "airportIcao": "CWTN",
    "metar": "CWTN 091200Z AUTO 25003KT M11/M13 RMK AO1 SLP210 T11101128 55006",
    "updatedAt": "2022-03-09T12:00:00.000Z"
  },
  {
    "airportIcao": "CWTT",
    "metar": "CWTT 091200Z AUTO 00000KT M06/M09 RMK AO1 T10561089",
    "updatedAt": "2022-03-09T12:00:00.000Z"
  },
  {
    "airportIcao": "CWTY",
    "metar": "CWTY 091200Z AUTO 36003KT M10/M12 RMK AO1 SLP208 T11001122 56004",
    "updatedAt": "2022-03-09T12:00:00.000Z"
  },
  {
    "airportIcao": "CWUP",
    "metar": "CWUP 091200Z AUTO 31007KT ////SM OVC030 M23/// A2933",
    "updatedAt": "2022-03-09T12:00:00.000Z"
  },
  {
    "airportIcao": "CWUS",
    "metar": "CWUS 091200Z AUTO 28006KT M03/M17 RMK AO1 SLP274 T10311170 53007",
    "updatedAt": "2022-03-09T12:00:00.000Z"
  },
  {
    "airportIcao": "CWUW",
    "metar": "CWUW 091200Z AUTO 09008KT ////SM NCD M25/// A2931",
    "updatedAt": "2022-03-09T12:00:00.000Z"
  },
  {
    "airportIcao": "CWUX",
    "metar": "CWUX 091200Z AUTO 08001KT M14/M17 RMK AO1 SLP181 T11421171 56002",
    "updatedAt": "2022-03-09T12:00:00.000Z"
  },
  {
    "airportIcao": "CWVD",
    "metar": "CWVD 091200Z AUTO 31009KT ////SM OVC021 M23/M26 A2925",
    "updatedAt": "2022-03-09T12:00:00.000Z"
  },
  {
    "airportIcao": "CWVF",
    "metar": "CWVF 091200Z AUTO 08008KT 05/M08 RMK AO1 T00471076",
    "updatedAt": "2022-03-09T12:00:00.000Z"
  },
  {
    "airportIcao": "CWVH",
    "metar": "CWVH 091200Z AUTO 05006KT ////SM OVC002 M24/M27 A3034",
    "updatedAt": "2022-03-09T12:00:00.000Z"
  },
  {
    "airportIcao": "CWVI",
    "metar": "CWVI 091200Z AUTO 31007KT M19/M22 RMK AO1 SOG 19 8009 SLP334 T11921223",
    "updatedAt": "2022-03-09T12:00:00.000Z"
  },
  {
    "airportIcao": "CWVN",
    "metar": "CWVN 091200Z AUTO 18003KT M23/M25 RMK AO1 SOG 07 6009 SLP291 T12251254 50002",
    "updatedAt": "2022-03-09T12:00:00.000Z"
  },
  {
    "airportIcao": "CWVP",
    "metar": "CWVP 091200Z AUTO 32008KT M19/M21 RMK AO1 2PAST HR SOG 12 5005 PK WND 32017/1122 SLP264 P0001 T11881213 50007",
    "updatedAt": "2022-03-09T12:00:00.000Z"
  },
  {
    "airportIcao": "CWVQ",
    "metar": "CWVQ 091200Z AUTO 15002KT M03/M06 RMK AO1 SOG 21 8006 SLP192 T10271061",
    "updatedAt": "2022-03-09T12:00:00.000Z"
  },
  {
    "airportIcao": "CWVT",
    "metar": "CWVT 091200Z AUTO 32008KT M23/M25 RMK AO1 SOG 80 8012 SLP317 T12251253",
    "updatedAt": "2022-03-09T12:00:00.000Z"
  },
  {
    "airportIcao": "CWVU",
    "metar": "CWVU 091200Z AUTO 32011KT M03/M08 RMK AO1 PK WND 33017/1103 SLP227 T10281081 51006",
    "updatedAt": "2022-03-09T12:00:00.000Z"
  },
  {
    "airportIcao": "CWWA",
    "metar": "CWWA 091200Z AUTO 30002KT 04/M15 RMK AO1 SLP244 T00391153 52009",
    "updatedAt": "2022-03-09T12:00:00.000Z"
  },
  {
    "airportIcao": "CWWB",
    "metar": "CWWB 091200Z AUTO 32001KT 01/M04 RMK AO1 SLP160 T00051044 58015",
    "updatedAt": "2022-03-09T12:00:00.000Z"
  },
  {
    "airportIcao": "CWWE",
    "metar": "CWWE 091200Z AUTO 33002KT M04/M10 RMK AO1 SLP230 T10431096 51018",
    "updatedAt": "2022-03-09T12:00:00.000Z"
  },
  {
    "airportIcao": "CWWF",
    "metar": "CWWF 091200Z AUTO 32008KT M23/M26 RMK AO1 SOG 14 5001 SLP265 T12281255",
    "updatedAt": "2022-03-09T12:00:00.000Z"
  },
  {
    "airportIcao": "CWWK",
    "metar": "CWWK 091200Z AUTO 07003KT 03/M13 RMK AO1 SLP254 T00341126 52012",
    "updatedAt": "2022-03-09T12:00:00.000Z"
  },
  {
    "airportIcao": "CWWL",
    "metar": "CWWL 091200Z AUTO 10005KT 05/M07 RMK AO1 SLP286 T00451066 51002",
    "updatedAt": "2022-03-09T12:00:00.000Z"
  },
  {
    "airportIcao": "CWWS",
    "metar": "CWWS 091200Z AUTO 30014KT M24/M27 RMK AO1 SOG 46 6003 PK WND 31018/1109 SLP202 T12351267",
    "updatedAt": "2022-03-09T12:00:00.000Z"
  },
  {
    "airportIcao": "CWWZ",
    "metar": "CWWZ 091200Z AUTO 07003KT M00/M06 RMK AO1 SLP161 T10041056 58015",
    "updatedAt": "2022-03-09T12:00:00.000Z"
  },
  {
    "airportIcao": "CWXA",
    "metar": "CWXA 091200Z AUTO 00000KT M25/M28 RMK AO1 SLP346 T12461277 56011",
    "updatedAt": "2022-03-09T12:00:00.000Z"
  },
  {
    "airportIcao": "CWXC",
    "metar": "CWXC 091200Z AUTO 19006KT M10/M12 RMK AO1 5001 SLP169 T11031123 50002",
    "updatedAt": "2022-03-09T12:00:00.000Z"
  },
  {
    "airportIcao": "CWXI",
    "metar": "CWXI 091200Z AUTO 30012G18KT M08/M13 RMK AO1 PRESRR PK WND 32026/1115 SLP027 T10751126 51064",
    "updatedAt": "2022-03-09T12:00:00.000Z"
  },
  {
    "airportIcao": "CWXL",
    "metar": "CWXL 091200Z AUTO 34005KT M17/M20 RMK AO1 2PAST HR 3003 SLP318 P0001 T11721195 50005",
    "updatedAt": "2022-03-09T12:00:00.000Z"
  },
  {
    "airportIcao": "CWXR",
    "metar": "CWXR 091200Z AUTO ///// ////SM ////// ///// A////",
    "updatedAt": "2022-03-09T12:00:00.000Z"
  },
  {
    "airportIcao": "CWYJ",
    "metar": "CWYJ 091200Z AUTO 05004KT 05/M10 RMK AO1 SLP242 T00501100 53012",
    "updatedAt": "2022-03-09T12:00:00.000Z"
  },
  {
    "airportIcao": "CWYL",
    "metar": "CWYL 091200Z AUTO 07002KT M23/M26 RMK AO1 SOG 139 6003 SLP292 T12291256",
    "updatedAt": "2022-03-09T12:00:00.000Z"
  },
  {
    "airportIcao": "CWYY",
    "metar": "CWYY 091200Z AUTO 34007KT M00/M16 RMK AO1 SLP264 T10031160 53007",
    "updatedAt": "2022-03-09T12:00:00.000Z"
  },
  {
    "airportIcao": "CWZA",
    "metar": "CWZA 091200Z AUTO 01003KT 01/M10 RMK AO1 SLP261 T00051103 53007",
    "updatedAt": "2022-03-09T12:00:00.000Z"
  },
  {
    "airportIcao": "CWZG",
    "metar": "CWZG 091200Z AUTO 35001KT M21/M23 RMK AO1 SOG 23 5003 SLP306 T12071234 50003",
    "updatedAt": "2022-03-09T12:00:00.000Z"
  },
  {
    "airportIcao": "CWZL",
    "metar": "CWZL 091200Z AUTO 27004KT 03/M00 RMK AO1 SLP294 T00261002 50001",
    "updatedAt": "2022-03-09T12:00:00.000Z"
  },
  {
    "airportIcao": "CWZN",
    "metar": "CWZN 091200Z AUTO 29037G42KT M03/M08 RMK AO1 PRESRR PK WND 29050/1122 SLP053 T10261080 53071",
    "updatedAt": "2022-03-09T12:00:00.000Z"
  },
  {
    "airportIcao": "CWZO",
    "metar": "CWZO 091200Z AUTO 08022KT RMK AO1 PK WND 07029/1125",
    "updatedAt": "2022-03-09T12:00:00.000Z"
  },
  {
    "airportIcao": "CWZQ",
    "metar": "CWZQ 091200Z AUTO 29010KT M07/M10 RMK AO1 SLP198 T10691102 51039",
    "updatedAt": "2022-03-09T12:00:00.000Z"
  },
  {
    "airportIcao": "CWZV",
    "metar": "CWZV 091200Z AUTO 02006G16KT 05/M04 RMK AO1 PK WND 07017/1111 SLP269 T00451041 50003",
    "updatedAt": "2022-03-09T12:00:00.000Z"
  },
  {
    "airportIcao": "CWZW",
    "metar": "CWZW 091200Z AUTO 00000KT M19/M21 RMK AO1 SOG 75 8030 SLP339 T11911210",
    "updatedAt": "2022-03-09T12:00:00.000Z"
  },
  {
    "airportIcao": "CWZZ",
    "metar": "CWZZ 091200Z AUTO 27011KT ////SM FEW003 FEW008 SCT043 ///// A////",
    "updatedAt": "2022-03-09T12:00:00.000Z"
  },
  {
    "airportIcao": "CXAF",
    "metar": "CXAF 091200Z AUTO 30004KT M19/M23 RMK AO1 4PAST HR M P0002 T11941228 50004",
    "updatedAt": "2022-03-09T12:00:00.000Z"
  },
  {
    "airportIcao": "CXAG",
    "metar": "CXAG 091200Z AUTO 31008KT M20/M24 RMK AO1 T12041235",
    "updatedAt": "2022-03-09T12:00:00.000Z"
  },
  {
    "airportIcao": "CXAJ",
    "metar": "CXAJ 091200Z AUTO 27001KT M26/M28 RMK AO1 SOG 63 T12551281 50004",
    "updatedAt": "2022-03-09T12:00:00.000Z"
  },
  {
    "airportIcao": "CXAK",
    "metar": "CXAK 091200Z AUTO 27006KT M23/M23 RMK AO1 T12251226",
    "updatedAt": "2022-03-09T12:00:00.000Z"
  },
  {
    "airportIcao": "CXAT",
    "metar": "CXAT 091200Z AUTO 00000KT M29/M33 RMK AO1 SOG 03 6016 SLP043 T12851331",
    "updatedAt": "2022-03-09T12:00:00.000Z"
  },
  {
    "airportIcao": "CXBA",
    "metar": "CXBA 091200Z AUTO 29006KT M20/M22 RMK AO1 T12011217",
    "updatedAt": "2022-03-09T12:00:00.000Z"
  },
  {
    "airportIcao": "CXBI",
    "metar": "CXBI 091200Z AUTO 21001KT M10/M12 RMK AO1 2PAST HR SOG 22 6016 SLP162 P0001 T11031117 50002",
    "updatedAt": "2022-03-09T12:00:00.000Z"
  },
  {
    "airportIcao": "CXBK",
    "metar": "CXBK 091200Z AUTO 33011KT M23/M26 RMK AO1 SOG 29 5000 SLP277 T12301256",
    "updatedAt": "2022-03-09T12:00:00.000Z"
  },
  {
    "airportIcao": "CXBO",
    "metar": "CXBO 091200Z AUTO 34002KT M09/M12 RMK AO1 T10921120",
    "updatedAt": "2022-03-09T12:00:00.000Z"
  },
  {
    "airportIcao": "CXBR",
    "metar": "CXBR 091200Z AUTO 00000KT M19/M21 RMK AO1 T11891210",
    "updatedAt": "2022-03-09T12:00:00.000Z"
  },
  {
    "airportIcao": "CXBW",
    "metar": "CXBW 091200Z AUTO 31007KT M17/M18 RMK AO1 T11681182",
    "updatedAt": "2022-03-09T12:00:00.000Z"
  },
  {
    "airportIcao": "CXCA",
    "metar": "CXCA 091200Z AUTO 23003KT M07/M08 RMK AO1 SOG 30 3004 SLP067 T10651084",
    "updatedAt": "2022-03-09T12:00:00.000Z"
  },
  {
    "airportIcao": "CXCD",
    "metar": "CXCD 091200Z AUTO 19002KT M19/M21 RMK AO1 T11941214",
    "updatedAt": "2022-03-09T12:00:00.000Z"
  },
  {
    "airportIcao": "CXCK",
    "metar": "CXCK 091200Z AUTO 00000KT M20/M22 RMK AO1 SOG 68 7020 SLP304 T11971220",
    "updatedAt": "2022-03-09T12:00:00.000Z"
  },
  {
    "airportIcao": "CXCP",
    "metar": "CXCP 091200Z AUTO 32006KT M18/M19 RMK AO1 T11781194",
    "updatedAt": "2022-03-09T12:00:00.000Z"
  },
  {
    "airportIcao": "CXCS",
    "metar": "CXCS 091200Z AUTO 30008KT M21/M25 RMK AO1 4PAST HR M P0002 T12091246 50004",
    "updatedAt": "2022-03-09T12:00:00.000Z"
  },
  {
    "airportIcao": "CXDB",
    "metar": "CXDB 091200Z AUTO 36013KT M16/M17 RMK AO1 PK WND 35018/1137 T11621166",
    "updatedAt": "2022-03-09T12:00:00.000Z"
  },
  {
    "airportIcao": "CXDE",
    "metar": "CXDE 091200Z AUTO M23/M26 RMK AO1 SOG 26 6035 SLP250 T12341257",
    "updatedAt": "2022-03-09T12:00:00.000Z"
  },
  {
    "airportIcao": "CXDI",
    "metar": "CXDI 091200Z AUTO 00000KT M02/M04 RMK AO1 SLP152 T10211041 58013",
    "updatedAt": "2022-03-09T12:00:00.000Z"
  },
  {
    "airportIcao": "CXDK",
    "metar": "CXDK 091200Z AUTO M10/M18 RMK AO1 19 SOG 56 8033 SLP269 T11011175",
    "updatedAt": "2022-03-09T12:00:00.000Z"
  },
  {
    "airportIcao": "CXDW",
    "metar": "CXDW 091200Z AUTO 30007KT M18/M24 RMK AO1 SOG 18 3007 SLP236 T11801235",
    "updatedAt": "2022-03-09T12:00:00.000Z"
  },
  {
    "airportIcao": "CXEA",
    "metar": "CXEA 091200Z AUTO 31007KT M18/M21 RMK AO1 SOG 73 1019 SLP142 T11791211",
    "updatedAt": "2022-03-09T12:00:00.000Z"
  },
  {
    "airportIcao": "CXEC",
    "metar": "CXEC 091200Z AUTO 32005KT M17/M20 RMK AO1 8009 SLP337 T11671198 50002",
    "updatedAt": "2022-03-09T12:00:00.000Z"
  },
  {
    "airportIcao": "CXEG",
    "metar": "CXEG 091200Z AUTO 30005KT M18/M20 RMK AO1 SOG 16 6008 SLP336 T11791202",
    "updatedAt": "2022-03-09T12:00:00.000Z"
  },
  {
    "airportIcao": "CXET",
    "metar": "CXET 091200Z AUTO 18002KT M06/M08 RMK AO1 SOG 01 6016 SLP157 T10631076",
    "updatedAt": "2022-03-09T12:00:00.000Z"
  },
  {
    "airportIcao": "CXFM",
    "metar": "CXFM 091200Z AUTO 33009KT M16/M18 RMK AO1 T11641178",
    "updatedAt": "2022-03-09T12:00:00.000Z"
  },
  {
    "airportIcao": "CXFR",
    "metar": "CXFR 091200Z AUTO 28002KT M17/M18 RMK AO1 T11661179",
    "updatedAt": "2022-03-09T12:00:00.000Z"
  },
  {
    "airportIcao": "CXGH",
    "metar": "CXGH 091200Z AUTO 31007KT M20/M25 RMK AO1 SLP209 T11981251 53010",
    "updatedAt": "2022-03-09T12:00:00.000Z"
  },
  {
    "airportIcao": "CXHA",
    "metar": "CXHA 091200Z AUTO 27001KT M01/M02 RMK AO1 SLP154 T10141019 56008",
    "updatedAt": "2022-03-09T12:00:00.000Z"
  },
  {
    "airportIcao": "CXHD",
    "metar": "CXHD 091200Z AUTO 30006KT M21/M23 RMK AO1 T12061231",
    "updatedAt": "2022-03-09T12:00:00.000Z"
  },
  {
    "airportIcao": "CXHF",
    "metar": "CXHF 091200Z AUTO M10/M11 RMK AO1 T10961106",
    "updatedAt": "2022-03-09T12:00:00.000Z"
  },
  {
    "airportIcao": "CXHM",
    "metar": "CXHM 091200Z AUTO 00000KT M03/M04 RMK AO1 SLP159 T10281042 58015",
    "updatedAt": "2022-03-09T12:00:00.000Z"
  },
  {
    "airportIcao": "CXHP",
    "metar": "CXHP 091200Z AUTO 23004KT M15/M19 RMK AO1 T11501194 50005",
    "updatedAt": "2022-03-09T12:00:00.000Z"
  },
  {
    "airportIcao": "CXHR",
    "metar": "CXHR 091200Z AUTO 31008KT M18/M19 RMK AO1 T11821192",
    "updatedAt": "2022-03-09T12:00:00.000Z"
  },
  {
    "airportIcao": "CXIB",
    "metar": "CXIB 091200Z AUTO 28003KT M05/M12 RMK AO1 SOG 24 1049 SLP167 T10521118",
    "updatedAt": "2022-03-09T12:00:00.000Z"
  },
  {
    "airportIcao": "CXKA",
    "metar": "CXKA 091200Z AUTO 22008KT M03/M05 RMK AO1 SOG 87 3001 SLP047 T10261048",
    "updatedAt": "2022-03-09T12:00:00.000Z"
  },
  {
    "airportIcao": "CXKE",
    "metar": "CXKE 091200Z AUTO 15002KT M04/M07 RMK AO1 SOG 11 8013 SLP178 T10411068",
    "updatedAt": "2022-03-09T12:00:00.000Z"
  },
  {
    "airportIcao": "CXKI",
    "metar": "CXKI 091200Z AUTO M07/M08 RMK AO1 SOG 62 8005 SLP094 T10711082",
    "updatedAt": "2022-03-09T12:00:00.000Z"
  },
  {
    "airportIcao": "CXKM",
    "metar": "CXKM 091200Z AUTO 32008KT M22/M24 RMK AO1 T12201240",
    "updatedAt": "2022-03-09T12:00:00.000Z"
  },
  {
    "airportIcao": "CXKT",
    "metar": "CXKT 091200Z AUTO 24005KT M05/M10 RMK AO1 SLP227 T10531102 53019",
    "updatedAt": "2022-03-09T12:00:00.000Z"
  },
  {
    "airportIcao": "CXLB",
    "metar": "CXLB 091200Z AUTO 30009KT M04/M10 RMK AO1 SLP218 T10351104 51021",
    "updatedAt": "2022-03-09T12:00:00.000Z"
  },
  {
    "airportIcao": "CXLL",
    "metar": "CXLL 091200Z AUTO 00000KT M28/M31 RMK AO1 2PAST HR SOG 88 6043 SLP269 P0001 T12771306 50004",
    "updatedAt": "2022-03-09T12:00:00.000Z"
  },
  {
    "airportIcao": "CXMD",
    "metar": "CXMD 091200Z AUTO 30005KT M18/M24 RMK AO1 SOG 09 3010 SLP239 T11771239",
    "updatedAt": "2022-03-09T12:00:00.000Z"
  },
  {
    "airportIcao": "CXMG",
    "metar": "CXMG 091200Z AUTO 26007KT M15/M18 RMK AO1 T11541175",
    "updatedAt": "2022-03-09T12:00:00.000Z"
  },
  {
    "airportIcao": "CXMI",
    "metar": "CXMI 091200Z AUTO 30007KT M04/M09 RMK AO1 SLP221 T10401093 51030",
    "updatedAt": "2022-03-09T12:00:00.000Z"
  },
  {
    "airportIcao": "CXMM",
    "metar": "CXMM 091200Z AUTO 23003KT M23/M26 RMK AO1 SOG 58 8019 SLP315 T12321258",
    "updatedAt": "2022-03-09T12:00:00.000Z"
  },
  {
    "airportIcao": "CXMO",
    "metar": "CXMO 091200Z AUTO 35003KT M21/M21 RMK AO1 T12131213",
    "updatedAt": "2022-03-09T12:00:00.000Z"
  },
  {
    "airportIcao": "CXMY",
    "metar": "CXMY 091200Z AUTO M06/M13 RMK AO1 2PAST HR M P0001 T10601129 50002",
    "updatedAt": "2022-03-09T12:00:00.000Z"
  },
  {
    "airportIcao": "CXNM",
    "metar": "CXNM 091200Z AUTO M11/M12 RMK AO1 SOG 117 T11131115",
    "updatedAt": "2022-03-09T12:00:00.000Z"
  },
  {
    "airportIcao": "CXNP",
    "metar": "CXNP 091200Z AUTO 30007KT M07/M11 RMK AO1 2PAST HR SOG 01 3022 SLP225 P0001 T10671113 50002",
    "updatedAt": "2022-03-09T12:00:00.000Z"
  },
  {
    "airportIcao": "CXOL",
    "metar": "CXOL 091200Z AUTO 28006KT M18/M18 RMK AO1 T11841184",
    "updatedAt": "2022-03-09T12:00:00.000Z"
  },
  {
    "airportIcao": "CXOX",
    "metar": "CXOX 091200Z AUTO 29006KT M22/M25 RMK AO1 SOG 59 6008 SLP269 T12221254",
    "updatedAt": "2022-03-09T12:00:00.000Z"
  },
  {
    "airportIcao": "CXOY",
    "metar": "CXOY 091200Z AUTO 31007KT M24/M24 RMK AO1 T12411244",
    "updatedAt": "2022-03-09T12:00:00.000Z"
  },
  {
    "airportIcao": "CXPA",
    "metar": "CXPA 091200Z AUTO 01001KT M16/M17 RMK AO1 2PAST HR M P0005 T11631173",
    "updatedAt": "2022-03-09T12:00:00.000Z"
  },
  {
    "airportIcao": "CXPC",
    "metar": "CXPC 091200Z AUTO M05/M06 RMK AO1 SOG 23 6018 SLP144 T10481064",
    "updatedAt": "2022-03-09T12:00:00.000Z"
  },
  {
    "airportIcao": "CXPL",
    "metar": "CXPL 091200Z AUTO 32012KT M24/M25 RMK AO1 T12441254",
    "updatedAt": "2022-03-09T12:00:00.000Z"
  },
  {
    "airportIcao": "CXRB",
    "metar": "CXRB 091200Z AUTO 36005KT M25/M28 RMK AO1 SOG 03 8001 SLP088 T12541282",
    "updatedAt": "2022-03-09T12:00:00.000Z"
  },
  {
    "airportIcao": "CXRH",
    "metar": "CXRH 091200Z AUTO 32009G16KT M06/M10 RMK AO1 SOG 28 1054 PK WND 35020/1105 SLP080 T10601095",
    "updatedAt": "2022-03-09T12:00:00.000Z"
  },
  {
    "airportIcao": "CXRL",
    "metar": "CXRL 091200Z AUTO 30004KT M24/M25 RMK AO1 T12381254",
    "updatedAt": "2022-03-09T12:00:00.000Z"
  },
  {
    "airportIcao": "CXSC",
    "metar": "CXSC 091200Z AUTO 33007KT M19/M20 RMK AO1 T11911201",
    "updatedAt": "2022-03-09T12:00:00.000Z"
  },
  {
    "airportIcao": "CXSE",
    "metar": "CXSE 091200Z AUTO 33014KT M30/M33 RMK AO1 PK WND 34019/1143 SLP154 T13021334 56005",
    "updatedAt": "2022-03-09T12:00:00.000Z"
  },
  {
    "airportIcao": "CXSH",
    "metar": "CXSH 091200Z AUTO 07002KT M13/M15 RMK AO1 SLP202 T11281148 56007",
    "updatedAt": "2022-03-09T12:00:00.000Z"
  },
  {
    "airportIcao": "CXSL",
    "metar": "CXSL 091200Z AUTO 33005KT M23/M25 RMK AO1 T12271248",
    "updatedAt": "2022-03-09T12:00:00.000Z"
  },
  {
    "airportIcao": "CXSP",
    "metar": "CXSP 091200Z AUTO 30006KT M21/M23 RMK AO1 4PAST HR M P0002 T12061234 50004",
    "updatedAt": "2022-03-09T12:00:00.000Z"
  },
  {
    "airportIcao": "CXTD",
    "metar": "CXTD 091200Z AUTO 29013G18KT M07/M12 RMK AO1 PK WND 27021/1127 SLP223 T10671122 51040",
    "updatedAt": "2022-03-09T12:00:00.000Z"
  },
  {
    "airportIcao": "CXTH",
    "metar": "CXTH 091200Z AUTO 30008KT M21/M21 RMK AO1 T12101213",
    "updatedAt": "2022-03-09T12:00:00.000Z"
  },
  {
    "airportIcao": "CXTN",
    "metar": "CXTN 091200Z AUTO 33019KT M26/M29 RMK AO1 SOG 29 8016 PK WND 33021/1155 SLP237 T12621289",
    "updatedAt": "2022-03-09T12:00:00.000Z"
  },
  {
    "airportIcao": "CXTO",
    "metar": "CXTO 091200Z AUTO 01/M05 RMK AO1 SOG 01 8013 SLP156 T00101049",
    "updatedAt": "2022-03-09T12:00:00.000Z"
  },
  {
    "airportIcao": "CXTP",
    "metar": "CXTP 091200Z AUTO 30013KT M03/M09 RMK AO1 PK WND 31027/1129 SLP991 T10331094 51071",
    "updatedAt": "2022-03-09T12:00:00.000Z"
  },
  {
    "airportIcao": "CXTV",
    "metar": "CXTV 091200Z AUTO 36007KT M23/M26 RMK AO1 SOG 43 3004 SLP311 T12341259 50005",
    "updatedAt": "2022-03-09T12:00:00.000Z"
  },
  {
    "airportIcao": "CXVM",
    "metar": "CXVM 091200Z AUTO 28005KT M18/M21 RMK AO1 T11811210",
    "updatedAt": "2022-03-09T12:00:00.000Z"
  },
  {
    "airportIcao": "CXVN",
    "metar": "CXVN 091200Z AUTO 10002KT M01/M06 RMK AO1 SLP157 T10131061 58015",
    "updatedAt": "2022-03-09T12:00:00.000Z"
  },
  {
    "airportIcao": "CXVW",
    "metar": "CXVW 091200Z AUTO 25004KT M16/M20 RMK AO1 SLP334 T11571196 58019",
    "updatedAt": "2022-03-09T12:00:00.000Z"
  },
  {
    "airportIcao": "CXWM",
    "metar": "CXWM 091200Z AUTO 35008KT M17/M19 RMK AO1 T11701190",
    "updatedAt": "2022-03-09T12:00:00.000Z"
  },
  {
    "airportIcao": "CXWN",
    "metar": "CXWN 091200Z AUTO 31003KT M19/M24 RMK AO1 SLP223 T11891241 52012",
    "updatedAt": "2022-03-09T12:00:00.000Z"
  },
  {
    "airportIcao": "CXYH",
    "metar": "CXYH 091200Z AUTO M24/M27 RMK AO1 SLP248 T12411269 58042",
    "updatedAt": "2022-03-09T12:00:00.000Z"
  },
  {
    "airportIcao": "CXZC",
    "metar": "CXZC 091200Z AUTO 20003KT M02/M03 RMK AO1 SOG 36 6012 SLP016 T10211034 50002",
    "updatedAt": "2022-03-09T12:00:00.000Z"
  },
  {
    "airportIcao": "CXZV",
    "metar": "CXZV 091200Z AUTO 29003KT M15/M20 RMK AO1 SOG 118 1021 SLP178 T11521200",
    "updatedAt": "2022-03-09T12:00:00.000Z"
  },
  {
    "airportIcao": "CYAH",
    "metar": "CYAH 091223Z AUTO 08003KT 050V130 2SM -SN BKN020 OVC035 M12/M14 A2960 RMK VIS VRB 1-3 SLP052",
    "updatedAt": "2022-03-09T12:23:00.000Z"
  },
  {
    "airportIcao": "CYAM",
    "metar": "CYAM 091200Z 24003KT 2 1/2SM -SN OVC019 M02/M03 A2979 RMK SN1NS7 SLP099",
    "updatedAt": "2022-03-09T12:00:00.000Z"
  },
  {
    "airportIcao": "CYAT",
    "metar": "CYAT 091213Z AUTO 35011G17KT 1 1/2SM -SN OVC023 M15/M16 A2965 RMK SLP042",
    "updatedAt": "2022-03-09T12:13:00.000Z"
  },
  {
    "airportIcao": "CYAW",
    "metar": "CYAW 091200Z 31012KT 15SM FEW120 BKN250 M05/M10 A3020 RMK AC1CI7 DA-2600FT SLP230",
    "updatedAt": "2022-03-09T12:00:00.000Z"
  },
  {
    "airportIcao": "CYAY",
    "metar": "CYAY 091200Z AUTO 28018G25KT 9SM OVC076 M07/M12 A2955 RMK PRESRR SLP012",
    "updatedAt": "2022-03-09T12:00:00.000Z"
  },
  {
    "airportIcao": "CYAZ",
    "metar": "CYAZ 090100Z 31005KT 15SM BKN240 09/05 A3019 RMK CC6 LAST STFD OBS/NXT 091500UTC SLP224",
    "updatedAt": "2022-03-09T01:00:00.000Z"
  },
  {
    "airportIcao": "CYBC",
    "metar": "CYBC 091200Z AUTO 29005KT 9SM CLR M11/M15 A3008 RMK SLP191",
    "updatedAt": "2022-03-09T12:00:00.000Z"
  },
  {
    "airportIcao": "CYBD",
    "metar": "CYBD 090100Z 06004KT 020V130 15SM FEW090 FEW260 09/M09 A3032 RMK ACC1CC1 ACC TR CC TR LAST STFD OBS/NXT 091500Z/ SLP271",
    "updatedAt": "2022-03-09T01:00:00.000Z"
  },
  {
    "airportIcao": "CYBG",
    "metar": "CYBG 091200Z 09006KT 15SM BKN060 M11/M15 A3003 RMK SC6 SLP182",
    "updatedAt": "2022-03-09T12:00:00.000Z"
  },
  {
    "airportIcao": "CYBK",
    "metar": "CYBK 091200Z 31024KT 10SM IC DRSN SCT055 M27/M31 A2984 RMK SC3 SLP110",
    "updatedAt": "2022-03-09T12:00:00.000Z"
  },
  {
    "airportIcao": "CYBL",
    "metar": "CYBL 090500Z 30003KT 15SM SCT075 02/M01 A3020 RMK AC3 LAST STFD OBS/NXT 091400Z SLP233",
    "updatedAt": "2022-03-09T05:00:00.000Z"
  },
  {
    "airportIcao": "CYBQ",
    "metar": "CYBQ 091219Z AUTO 33008G18KT 6SM HZ OVC028 M23/M26 A2993 RMK SLP176",
    "updatedAt": "2022-03-09T12:19:00.000Z"
  },
  {
    "airportIcao": "CYBR",
    "metar": "CYBR 091200Z 31003KT 280V020 15SM -SN OVC040 M17/M21 A3013 RMK SC8 SLP243",
    "updatedAt": "2022-03-09T12:00:00.000Z"
  },
  {
    "airportIcao": "CYBU",
    "metar": "CYBU 091200Z AUTO 27011KT 9SM CLR M22/M24 A3021 RMK ICE INTMT SLP271",
    "updatedAt": "2022-03-09T12:00:00.000Z"
  },
  {
    "airportIcao": "CYBW",
    "metar": "CYBW 091200Z AUTO 30004KT 9SM BKN039 M18/M21 A3022 RMK SLP329",
    "updatedAt": "2022-03-09T12:00:00.000Z"
  },
  {
    "airportIcao": "CYCA",
    "metar": "CYCA 091213Z AUTO 32013G23KT 9SM -SN FEW018 SCT022 BKN120 M09/M13 A2957 RMK SLP018",
    "updatedAt": "2022-03-09T12:13:00.000Z"
  },
  {
    "airportIcao": "CYCB",
    "metar": "CYCB 091200Z 31012KT 15SM SCT045 BKN096 M30/M33 A2995 RMK SC4AC2 SLP150",
    "updatedAt": "2022-03-09T12:00:00.000Z"
  },
  {
    "airportIcao": "CYCD",
    "metar": "CYCD 090500Z 27002KT 15SM BKN074 BKN096 05/02 A3018 RMK AC5AC2 LAST STFD OBS/NEXT 091400Z SLP224",
    "updatedAt": "2022-03-09T05:00:00.000Z"
  },
  {
    "airportIcao": "CYCG",
    "metar": "CYCG 090100Z 35004KT 330V030 15SM BKN095CB 02/M08 A3012 RMK CB7 VIRGA LAST STFD OBS/NXT 091400Z SLP223",
    "updatedAt": "2022-03-09T01:00:00.000Z"
  },
  {
    "airportIcao": "CYCK",
    "metar": "CYCK 091200Z AUTO 36005KT 9SM SCT037 M02/M03 A2994 RMK SLP149",
    "updatedAt": "2022-03-09T12:00:00.000Z"
  },
  {
    "airportIcao": "CYCO",
    "metar": "CYCO 091200Z 28014KT 3SM -SN DRSN OVC035 M23/M27 A3015 RMK SN4SC4 SLP215",
    "updatedAt": "2022-03-09T12:00:00.000Z"
  },
  {
    "airportIcao": "CYCX",
    "metar": "CYCX 091200Z 25005KT 15SM FEW090 BKN290 M09/M12 A3017 RMK AC1CI6 DA-3046FT SLP219",
    "updatedAt": "2022-03-09T12:00:00.000Z"
  },
  {
    "airportIcao": "CYCY",
    "metar": "CYCY 091208Z AUTO 29013KT 9SM -SN OVC055 M23/M26 A2953 RMK SLP006",
    "updatedAt": "2022-03-09T12:08:00.000Z"
  },
  {
    "airportIcao": "CYDB",
    "metar": "CYDB 091200Z AUTO 00000KT 9SM CLR M21/M24 A3020 RMK SLP297",
    "updatedAt": "2022-03-09T12:00:00.000Z"
  },
  {
    "airportIcao": "CYDC",
    "metar": "CYDC 090100Z 36009KT 25SM FEW090 02/M15 A3017 RMK AC1 VIRGA LAST STFD OBS NEXT/091500 Z SLP238",
    "updatedAt": "2022-03-09T01:00:00.000Z"
  },
  {
    "airportIcao": "CYDF",
    "metar": "CYDF 091200Z 28011G19KT 12SM -SN DRSN SCT027 BKN062 M04/M09 A2974 RMK SC4SC3 PRESRR SLP076",
    "updatedAt": "2022-03-09T12:00:00.000Z"
  },
  {
    "airportIcao": "CYDL",
    "metar": "CYDL 091200Z AUTO 06004KT 9SM CLR M22/M25 A3039 RMK SLP348",
    "updatedAt": "2022-03-09T12:00:00.000Z"
  },
  {
    "airportIcao": "CYDN",
    "metar": "CYDN 091200Z AUTO 27004KT 9SM BKN046 M22/M26 A3015 RMK SLP245",
    "updatedAt": "2022-03-09T12:00:00.000Z"
  },
  {
    "airportIcao": "CYDP",
    "metar": "CYDP 091200Z 29018G26KT 15SM -SHSN OVC023 M14/M19 A2965 RMK SC8 SLP042",
    "updatedAt": "2022-03-09T12:00:00.000Z"
  },
  {
    "airportIcao": "CYDQ",
    "metar": "CYDQ 091200Z AUTO 00000KT 9SM FEW043 M21/M23 A3040 RMK SLP357",
    "updatedAt": "2022-03-09T12:00:00.000Z"
  },
  {
    "airportIcao": "CYED",
    "metar": "CYED 090535Z 32002KT 15SM SCT030 M15/M20 A3040 RMK SC4 DA-1881FT LAST OBS/NEXT 091700 UTC SLP346",
    "updatedAt": "2022-03-09T05:35:00.000Z"
  },
  {
    "airportIcao": "CYEG",
    "metar": "CYEG 091200Z 30006KT 10SM -SN OVC036 M18/M20 A3035 RMK SC8 SLP339",
    "updatedAt": "2022-03-09T12:00:00.000Z"
  },
  {
    "airportIcao": "CYEK",
    "metar": "CYEK 091233Z AUTO 33017KT 1SM BR OVC025 M24/M27 A2987 RMK SLP117",
    "updatedAt": "2022-03-09T12:33:00.000Z"
  },
  {
    "airportIcao": "CYEN",
    "metar": "CYEN 091210Z AUTO /////KT 9SM CLR M20/M23 A3015 RMK WIND MISG SLP274",
    "updatedAt": "2022-03-09T12:10:00.000Z"
  },
  {
    "airportIcao": "CYER",
    "metar": "CYER 091200Z AUTO 27007KT 9SM -SN OVC021 M23/M26 A2982 RMK SLP101",
    "updatedAt": "2022-03-09T12:00:00.000Z"
  },
  {
    "airportIcao": "CYET",
    "metar": "CYET 091200Z AUTO 29004KT 9SM BKN044 M19/M21 A3033 RMK SLP347",
    "updatedAt": "2022-03-09T12:00:00.000Z"
  },
  {
    "airportIcao": "CYEV",
    "metar": "CYEV 091200Z 02005KT 5SM -SN BR BKN004 OVC008 M22/M24 A3041 RMK ST5SC3 VIS E-S 1 SLP308",
    "updatedAt": "2022-03-09T12:00:00.000Z"
  },
  {
    "airportIcao": "CYFB",
    "metar": "CYFB 091200Z 33005KT 30SM BKN016 M29/M32 A2957 RMK SC6 SLP022",
    "updatedAt": "2022-03-09T12:00:00.000Z"
  },
  {
    "airportIcao": "CYFC",
    "metar": "CYFC 091200Z AUTO 23005KT 9SM CLR M10/M13 A3018 RMK ICE INTMT SLP223",
    "updatedAt": "2022-03-09T12:00:00.000Z"
  },
  {
    "airportIcao": "CYFO",
    "metar": "CYFO 091200Z 30008KT 4SM -SN DRSN VV031 M21/M25 A3010 RMK SN8 SNW CVR/MUCH LOOSE SLP229",
    "updatedAt": "2022-03-09T12:00:00.000Z"
  },
  {
    "airportIcao": "CYFS",
    "metar": "CYFS 091200Z 11003KT 070V140 15SM FEW250 M22/M24 A3026 RMK CI1 CI TR SLP270",
    "updatedAt": "2022-03-09T12:00:00.000Z"
  },
  {
    "airportIcao": "CYFT",
    "metar": "CYFT 091200Z 28016KT 2 1/4SM -SN OVC005 M12/M14 A2963 RMK ST8 SLP043",
    "updatedAt": "2022-03-09T12:00:00.000Z"
  },
  {
    "airportIcao": "CYGK",
    "metar": "CYGK 091200Z 13005KT 15SM BKN240 M02/M04 A3005 RMK CI7 SLP182",
    "updatedAt": "2022-03-09T12:00:00.000Z"
  },
  {
    "airportIcao": "CYGL",
    "metar": "CYGL 091200Z 08006KT 1 1/2SM -SN OVC024 M10/M11 A2952 RMK SN4SC4 /S01/ SLP015",
    "updatedAt": "2022-03-09T12:00:00.000Z"
  },
  {
    "airportIcao": "CYGP",
    "metar": "CYGP 091200Z 27009KT 15SM FEW050 BKN280 M11/M17 A3006 RMK CU2CI3 SLP184",
    "updatedAt": "2022-03-09T12:00:00.000Z"
  },
  {
    "airportIcao": "CYGQ",
    "metar": "CYGQ 091233Z AUTO 21003KT 3SM -SN SCT018 BKN023 OVC028 M09/M10 A2961 RMK SLP055",
    "updatedAt": "2022-03-09T12:33:00.000Z"
  },
  {
    "airportIcao": "CYGR",
    "metar": "CYGR 091200Z 29014G20KT 20SM FEW027 FEW270 M09/M12 A3007 RMK SC1CI1 CI TR SLP185",
    "updatedAt": "2022-03-09T12:00:00.000Z"
  },
  {
    "airportIcao": "CYGT",
    "metar": "CYGT 091200Z 01013KT 15SM -SN DRSN FEW035 SCT058 SCT068 M31/M35 A2953 RMK SC2SC1AC1 SLP012",
    "updatedAt": "2022-03-09T12:00:00.000Z"
  },
  {
    "airportIcao": "CYGV",
    "metar": "CYGV 091200Z AUTO 28012KT 9SM CLR M14/M19 A2998 RMK SLP157",
    "updatedAt": "2022-03-09T12:00:00.000Z"
  },
  {
    "airportIcao": "CYGW",
    "metar": "CYGW 091238Z AUTO 34002KT 5SM -SN OVC010 M16/M17 A2962 RMK SLP035",
    "updatedAt": "2022-03-09T12:38:00.000Z"
  },
  {
    "airportIcao": "CYGX",
    "metar": "CYGX 091200Z 29008KT 15SM -SN FEW022 M27/M30 A2994 RMK SC1 SC TR SLP160",
    "updatedAt": "2022-03-09T12:00:00.000Z"
  },
  {
    "airportIcao": "CYHD",
    "metar": "CYHD 091236Z AUTO 31011G17KT 280V340 2 1/2SM -SN BKN046 OVC071 M16/M20 A2986 RMK SLP157",
    "updatedAt": "2022-03-09T12:36:00.000Z"
  },
  {
    "airportIcao": "CYHE",
    "metar": "CYHE 091200Z AUTO VRB02KT 9SM CLR M01/M07 A3032 RMK SLP270",
    "updatedAt": "2022-03-09T12:00:00.000Z"
  },
  {
    "airportIcao": "CYHI",
    "metar": "CYHI 090100Z VRB02KT 15SM BCFG BKN029 BKN120 M25/M28 A3038 RMK FG1SC4AC1 VIS N-E 5/FG BNK N-E OF STTN/LST STFD OBS/NXT 091500Z SLP296",
    "updatedAt": "2022-03-09T01:00:00.000Z"
  },
  {
    "airportIcao": "CYHK",
    "metar": "CYHK 091200Z AUTO 34020G25KT 3/4SM -SN FEW014 OVC055 M27/M30 A2971 RMK PRESFR SLP071",
    "updatedAt": "2022-03-09T12:00:00.000Z"
  },
  {
    "airportIcao": "CYHM",
    "metar": "CYHM 091200Z CCA 05004KT 15SM BKN033 OVC140 M03/M06 A2995 RMK SC5AC3 SLP154",
    "updatedAt": "2022-03-09T12:00:00.000Z"
  },
  {
    "airportIcao": "CYHU",
    "metar": "CYHU 091200Z AUTO 16002KT 9SM BKN050 M04/M08 A3010 RMK SLP197",
    "updatedAt": "2022-03-09T12:00:00.000Z"
  },
  {
    "airportIcao": "CYHY",
    "metar": "CYHY 091200Z 16003KT 15SM FEW020 M30/M33 A3033 RMK SC1 SC TR SLP297",
    "updatedAt": "2022-03-09T12:00:00.000Z"
  },
  {
    "airportIcao": "CYHZ",
    "metar": "CYHZ 091200Z CCA 32010KT 15SM BKN240 M06/M11 A3016 RMK CS7 CS ASOCTD HALO SLP224",
    "updatedAt": "2022-03-09T12:00:00.000Z"
  },
  {
    "airportIcao": "CYIN",
    "metar": "CYIN 091200Z AUTO 29003KT 9SM CLR M12/M19 A3021 RMK SLP292",
    "updatedAt": "2022-03-09T12:00:00.000Z"
  },
  {
    "airportIcao": "CYIO",
    "metar": "CYIO 091200Z AUTO 25004KT 9SM OVC071 M32/M36 A2959 RMK SLP033",
    "updatedAt": "2022-03-09T12:00:00.000Z"
  },
  {
    "airportIcao": "CYIV",
    "metar": "CYIV 091200Z AUTO 30007KT 9SM -SN OVC047 M22/M25 A2994 RMK SLP167",
    "updatedAt": "2022-03-09T12:00:00.000Z"
  },
  {
    "airportIcao": "CYJT",
    "metar": "CYJT 091200Z 29018G28KT 15SM BKN025 M04/M09 A2982 RMK SC7 PRESRR SLP103",
    "updatedAt": "2022-03-09T12:00:00.000Z"
  },
  {
    "airportIcao": "CYKA",
    "metar": "CYKA 091200Z VRB02KT 40SM SKC M05/M15 A3035 RMK SLP296",
    "updatedAt": "2022-03-09T12:00:00.000Z"
  },
  {
    "airportIcao": "CYKF",
    "metar": "CYKF 091200Z AUTO 10002KT 9SM BKN030 M04/M06 A2993 RMK SLP153",
    "updatedAt": "2022-03-09T12:00:00.000Z"
  },
  {
    "airportIcao": "CYKJ",
    "metar": "CYKJ 091200Z AUTO 29010KT 9SM CLR M24/M26 A3011 RMK SLP257",
    "updatedAt": "2022-03-09T12:00:00.000Z"
  },
  {
    "airportIcao": "CYKL",
    "metar": "CYKL 091200Z AUTO 21005KT 190V260 9SM OVC030 M18/M21 A2966 RMK SLP097",
    "updatedAt": "2022-03-09T12:00:00.000Z"
  },
  {
    "airportIcao": "CYKP",
    "metar": "CYKP 091208Z AUTO 33008KT 6SM -SN BKN032 OVC071 M16/M17 A2968 RMK SLP078",
    "updatedAt": "2022-03-09T12:08:00.000Z"
  },
  {
    "airportIcao": "CYKY",
    "metar": "CYKY 091200Z 33011KT 15SM SCT240 M22/M26 A3026 RMK CI4 SLP313",
    "updatedAt": "2022-03-09T12:00:00.000Z"
  },
  {
    "airportIcao": "CYLD",
    "metar": "CYLD 090200Z 21009KT 170V240 15SM SCT220 M05/M08 A2978 RMK CC4 LAST STFD OBS NEXT 09 1100 UTC SLP120",
    "updatedAt": "2022-03-09T02:00:00.000Z"
  },
  {
    "airportIcao": "CYLH",
    "metar": "CYLH 091200Z AUTO 34003KT 310V040 6SM -SN BKN036 BKN086 M17/M19 A2974 RMK SLP098",
    "updatedAt": "2022-03-09T12:00:00.000Z"
  },
  {
    "airportIcao": "CYLJ",
    "metar": "CYLJ 091200Z 28007KT 15SM BKN110 M23/M26 A3031 RMK AC7 FROIN SLP316",
    "updatedAt": "2022-03-09T12:00:00.000Z"
  },
  {
    "airportIcao": "CYLK",
    "metar": "CYLK 090100Z 30010G16KT 15SM SCT029 M19/M24 A3048 RMK SC4 /LAST STFD OBS/ NXT 091500Z/ SLP348",
    "updatedAt": "2022-03-09T01:00:00.000Z"
  },
  {
    "airportIcao": "CYLL",
    "metar": "CYLL 091232Z AUTO 30007KT 9SM OVC040 M20/M22 A3027 RMK SLP323",
    "updatedAt": "2022-03-09T12:32:00.000Z"
  },
  {
    "airportIcao": "CYLT",
    "metar": "CYLT 091233Z 25002KT 2SM -SN BR OVC060 M21/M25 A3009 RMK SC8 SLP196",
    "updatedAt": "2022-03-09T12:33:00.000Z"
  },
  {
    "airportIcao": "CYLW",
    "metar": "CYLW 091200Z AUTO 06004KT 9SM CLR M06/M15 A3029 RMK SLP278",
    "updatedAt": "2022-03-09T12:00:00.000Z"
  },
  {
    "airportIcao": "CYMA",
    "metar": "CYMA 091200Z VRB02KT 20SM OVC110 M16/M19 A3030 RMK AC8 CLIMAT -12.0/-17.2/0.0 SOG 74 SLP311",
    "updatedAt": "2022-03-09T12:00:00.000Z"
  },
  {
    "airportIcao": "CYMH",
    "metar": "CYMH 091213Z AUTO 30020G28KT 1 1/2SM -SN CLR M08/M12 A2950 RMK VIS VRB 1/2-3 SLP993",
    "updatedAt": "2022-03-09T12:13:00.000Z"
  },
  {
    "airportIcao": "CYMJ",
    "metar": "CYMJ 091200Z 29010KT 2SM -SN BR BKN033 OVC065 M19/M21 A3022 RMK SN3SC3SC2 SLP286",
    "updatedAt": "2022-03-09T12:00:00.000Z"
  },
  {
    "airportIcao": "CYMM",
    "metar": "CYMM 091200Z AUTO 23004KT 9SM FEW049 M23/M26 A3037 RMK SLP327",
    "updatedAt": "2022-03-09T12:00:00.000Z"
  },
  {
    "airportIcao": "CYMO",
    "metar": "CYMO 091234Z AUTO 21011KT 3SM -SN FEW018 BKN023 BKN028 OVC044 M02/M03 A2956 RMK SLP013",
    "updatedAt": "2022-03-09T12:34:00.000Z"
  },
  {
    "airportIcao": "CYMT",
    "metar": "CYMT 091209Z AUTO 19013G23KT 9SM -SN OVC013 M07/M09 A2976 RMK SLP106",
    "updatedAt": "2022-03-09T12:09:00.000Z"
  },
  {
    "airportIcao": "CYMX",
    "metar": "CYMX 091200Z 00000KT 30SM BKN052 OVC220 M07/M11 A3008 RMK SC7CI1 SLP194",
    "updatedAt": "2022-03-09T12:00:00.000Z"
  },
  {
    "airportIcao": "CYNA",
    "metar": "CYNA 091200Z AUTO 29013G18KT 9SM CLR M10/M15 A2990 RMK SLP128",
    "updatedAt": "2022-03-09T12:00:00.000Z"
  },
  {
    "airportIcao": "CYND",
    "metar": "CYND 091200Z 06002KT 15SM FEW050 BKN240 M10/M11 A3005 RMK SC1CI5 SLP181",
    "updatedAt": "2022-03-09T12:00:00.000Z"
  },
  {
    "airportIcao": "CYNE",
    "metar": "CYNE 091200Z AUTO 30004KT 9SM FEW066 M26/M28 A3004 RMK SLP202",
    "updatedAt": "2022-03-09T12:00:00.000Z"
  },
  {
    "airportIcao": "CYNM",
    "metar": "CYNM 091243Z AUTO 19013KT 1 1/4SM -SN OVC022 M06/M07 A2968 RMK SLP071",
    "updatedAt": "2022-03-09T12:43:00.000Z"
  },
  {
    "airportIcao": "CYOD",
    "metar": "CYOD 091200Z 00000KT 15SM FEW110 M23/M27 A3033 RMK AC1 DA-3551FT SLP326",
    "updatedAt": "2022-03-09T12:00:00.000Z"
  },
  {
    "airportIcao": "CYOJ",
    "metar": "CYOJ 091200Z AUTO 17003KT 9SM BKN026 M19/M21 A3034 RMK SLP312",
    "updatedAt": "2022-03-09T12:00:00.000Z"
  },
  {
    "airportIcao": "CYOO",
    "metar": "CYOO 091200Z AUTO 10005KT 9SM OVC038 M02/M04 A2999 RMK SLP163",
    "updatedAt": "2022-03-09T12:00:00.000Z"
  },
  {
    "airportIcao": "CYOW",
    "metar": "CYOW 091200Z 15005KT 15SM FEW040 SCT230 M05/M06 A3004 RMK SC1CI3 SC TR SLP181",
    "updatedAt": "2022-03-09T12:00:00.000Z"
  },
  {
    "airportIcao": "CYOY",
    "metar": "CYOY 091200Z 31002KT 15SM -SN OVC047 M13/M14 A3011 RMK SC8 DA-3098FT PCPN VRY LGT SLP210",
    "updatedAt": "2022-03-09T12:00:00.000Z"
  },
  {
    "airportIcao": "CYPA",
    "metar": "CYPA 091200Z 30009KT 15SM FEW050 M22/M25 A3025 RMK SC2 SLP290",
    "updatedAt": "2022-03-09T12:00:00.000Z"
  },
  {
    "airportIcao": "CYPD",
    "metar": "CYPD 091241Z AUTO 28013G18KT 9SM -SN OVC020 M07/M11 A3011 RMK SLP208",
    "updatedAt": "2022-03-09T12:41:00.000Z"
  },
  {
    "airportIcao": "CYPE",
    "metar": "CYPE 091239Z 27013KT 15SM OVC038 M14/M19 A3035 RMK SC8 SLP329",
    "updatedAt": "2022-03-09T12:39:00.000Z"
  },
  {
    "airportIcao": "CYPG",
    "metar": "CYPG 091200Z 30009KT 15SM FEW035 M20/M25 A3015 RMK SC1 FST OBS SLP236",
    "updatedAt": "2022-03-09T12:00:00.000Z"
  },
  {
    "airportIcao": "CYPH",
    "metar": "CYPH 091200Z AUTO 26006KT 9SM -SN OVC016 M20/M23 A2966 RMK SLP048",
    "updatedAt": "2022-03-09T12:00:00.000Z"
  },
  {
    "airportIcao": "CYPL",
    "metar": "CYPL 091244Z AUTO 35007G15KT 290V020 2SM -SN OVC033 M18/M21 A2978 RMK SLP128",
    "updatedAt": "2022-03-09T12:44:00.000Z"
  },
  {
    "airportIcao": "CYPO",
    "metar": "CYPO 091230Z AUTO 30006KT 9SM -SN FEW014 BKN066 BKN083 M21/M23 A2976 RMK SLP090",
    "updatedAt": "2022-03-09T12:30:00.000Z"
  },
  {
    "airportIcao": "CYPQ",
    "metar": "CYPQ 091200Z AUTO 00000KT 9SM CLR M09/M10 A2999 RMK SLP167",
    "updatedAt": "2022-03-09T12:00:00.000Z"
  },
  {
    "airportIcao": "CYPR",
    "metar": "CYPR 091200Z AUTO 08007KT 9SM CLR 01/M04 A3039 RMK SLP293",
    "updatedAt": "2022-03-09T12:00:00.000Z"
  },
  {
    "airportIcao": "CYPW",
    "metar": "CYPW 090300Z 00000KT 25SM FEW045 FEW075 05/03 A3017 RMK SC1AC1 SC TR AC TR LAST STFD OBS NEXT OBS 091500 UTC SLP224",
    "updatedAt": "2022-03-09T03:00:00.000Z"
  },
  {
    "airportIcao": "CYPX",
    "metar": "CYPX 091215Z AUTO 22010KT 7SM -SN OVC013 M22/M24 A2963 RMK SLP039",
    "updatedAt": "2022-03-09T12:15:00.000Z"
  },
  {
    "airportIcao": "CYPY",
    "metar": "CYPY 091200Z AUTO 26003KT 9SM CLR M26/M29 A3035 RMK SLP309",
    "updatedAt": "2022-03-09T12:00:00.000Z"
  },
  {
    "airportIcao": "CYQA",
    "metar": "CYQA 091235Z AUTO 15006KT 9SM CLR M09/M10 A2991 RMK ICE SLP151",
    "updatedAt": "2022-03-09T12:35:00.000Z"
  },
  {
    "airportIcao": "CYQB",
    "metar": "CYQB 091231Z 04002KT 25SM -SHSN FEW010 OVC055 M10/M13 A3012 RMK SC1SC8 SC TR CVCTV CLD EMBD SLP209",
    "updatedAt": "2022-03-09T12:31:00.000Z"
  },
  {
    "airportIcao": "CYQD",
    "metar": "CYQD 091223Z AUTO 28009KT 9SM FEW038 SCT050 BKN071 OVC085 M22/M25 A3011 RMK SLP233",
    "updatedAt": "2022-03-09T12:23:00.000Z"
  },
  {
    "airportIcao": "CYQF",
    "metar": "CYQF 091200Z AUTO 30007KT 9SM SCT055 M18/M21 A3030 RMK PCPN MISG SLP337",
    "updatedAt": "2022-03-09T12:00:00.000Z"
  },
  {
    "airportIcao": "CYQG",
    "metar": "CYQG 091200Z AUTO 27003KT 7SM FEW036 SCT140 M02/M03 A2997 RMK SLP158",
    "updatedAt": "2022-03-09T12:00:00.000Z"
  },
  {
    "airportIcao": "CYQH",
    "metar": "CYQH 091100Z VRB02KT 20SM SKC M27/M29 A3037 RMK SLP352",
    "updatedAt": "2022-03-09T11:00:00.000Z"
  },
  {
    "airportIcao": "CYQI",
    "metar": "CYQI 091200Z 03005KT 15SM OVC240 M03/M08 A3021 RMK CI8 SLP233",
    "updatedAt": "2022-03-09T12:00:00.000Z"
  },
  {
    "airportIcao": "CYQK",
    "metar": "CYQK 091200Z 32006KT 20SM -SN BKN029 M17/M20 A2993 RMK SC7 /S01/ SLP172",
    "updatedAt": "2022-03-09T12:00:00.000Z"
  },
  {
    "airportIcao": "CYQL",
    "metar": "CYQL 091200Z AUTO 29005KT 9SM CLR M17/M19 A3029 RMK SLP333",
    "updatedAt": "2022-03-09T12:00:00.000Z"
  },
  {
    "airportIcao": "CYQM",
    "metar": "CYQM 091200Z 26009KT 15SM BKN240 M08/M12 A3015 RMK CI6 SLP215",
    "updatedAt": "2022-03-09T12:00:00.000Z"
  },
  {
    "airportIcao": "CYQQ",
    "metar": "CYQQ 091200Z 29005KT 20SM FEW080 03/M09 A3028 RMK AC1 SLP255",
    "updatedAt": "2022-03-09T12:00:00.000Z"
  },
  {
    "airportIcao": "CYQR",
    "metar": "CYQR 091208Z 33006KT 15SM -SN SCT042 OVC065 M22/M25 A3019 RMK SC3SC5 SLP282",
    "updatedAt": "2022-03-09T12:08:00.000Z"
  },
  {
    "airportIcao": "CYQT",
    "metar": "CYQT 091200Z 26010KT 20SM BKN075 BKN096 M07/M11 A2976 RMK AC6AC1 SLP093",
    "updatedAt": "2022-03-09T12:00:00.000Z"
  },
  {
    "airportIcao": "CYQU",
    "metar": "CYQU 091200Z 04003KT 25SM BKN040 M20/M22 A3041 RMK SC5 SLP360",
    "updatedAt": "2022-03-09T12:00:00.000Z"
  },
  {
    "airportIcao": "CYQV",
    "metar": "CYQV 091214Z AUTO 30012KT 9SM FEW033 BKN042 M19/M22 A3013 RMK SLP258",
    "updatedAt": "2022-03-09T12:14:00.000Z"
  },
  {
    "airportIcao": "CYQW",
    "metar": "CYQW 091200Z AUTO 32009KT 9SM FEW027 M23/M26 A3030 RMK SLP319",
    "updatedAt": "2022-03-09T12:00:00.000Z"
  },
  {
    "airportIcao": "CYQX",
    "metar": "CYQX 091200Z 31017G33KT 20SM FEW030 SCT062 M05/M10 A2952 RMK SC1SC3 PRESRR SLP007",
    "updatedAt": "2022-03-09T12:00:00.000Z"
  },
  {
    "airportIcao": "CYQY",
    "metar": "CYQY 091200Z 29015G21KT 15SM SCT029 SCT240 M06/M12 A3004 RMK CU3CI1 SLP179",
    "updatedAt": "2022-03-09T12:00:00.000Z"
  },
  {
    "airportIcao": "CYQZ",
    "metar": "CYQZ 091200Z AUTO 32006KT 9SM CLR M08/M15 A3042 RMK SLP338",
    "updatedAt": "2022-03-09T12:00:00.000Z"
  },
  {
    "airportIcao": "CYRA",
    "metar": "CYRA 090100Z 32006KT 15SM BKN026 M20/M24 A3059 RMK SC7 LAST STFD OBS/NEXT 091500 Z SLP390",
    "updatedAt": "2022-03-09T01:00:00.000Z"
  },
  {
    "airportIcao": "CYRB",
    "metar": "CYRB 091200Z 31005KT 220V330 15SM IC BKN091 M26/M30 A2976 RMK AC7 SLP093",
    "updatedAt": "2022-03-09T12:00:00.000Z"
  },
  {
    "airportIcao": "CYRJ",
    "metar": "CYRJ 091200Z 22015G21KT 40SM SCT043 M09/M12 A2997 RMK SC3 SLP164",
    "updatedAt": "2022-03-09T12:00:00.000Z"
  },
  {
    "airportIcao": "CYRL",
    "metar": "CYRL 091200Z 29004KT 15SM -SN OVC025 M18/M21 A2990 RMK SC8 SLP161",
    "updatedAt": "2022-03-09T12:00:00.000Z"
  },
  {
    "airportIcao": "CYRQ",
    "metar": "CYRQ 091219Z AUTO 02005KT 9SM -SN OVC050 M11/M12 A3010 RMK PRESFR SLP200",
    "updatedAt": "2022-03-09T12:19:00.000Z"
  },
  {
    "airportIcao": "CYRT",
    "metar": "CYRT 091219Z 33020G28KT 1SM IC BLSN BKN055 M26/M30 A2973 RMK BLSN2SC5 SLP076",
    "updatedAt": "2022-03-09T12:19:00.000Z"
  },
  {
    "airportIcao": "CYRV",
    "metar": "CYRV 091200Z AUTO 33008G16KT 9SM CLR M06/M18 A3031 RMK SLP291",
    "updatedAt": "2022-03-09T12:00:00.000Z"
  },
  {
    "airportIcao": "CYSB",
    "metar": "CYSB 091236Z 17008KT 10SM FEW022 BKN054 M07/M07 A2982 RMK SC2SC3 SLP120",
    "updatedAt": "2022-03-09T12:36:00.000Z"
  },
  {
    "airportIcao": "CYSC",
    "metar": "CYSC 091200Z AUTO 00000KT 9SM FEW034 BKN046 OVC250 M07/M10 A3008 RMK SLP204",
    "updatedAt": "2022-03-09T12:00:00.000Z"
  },
  {
    "airportIcao": "CYSF",
    "metar": "CYSF 091244Z AUTO 26009KT 3SM -SN OVC044 M21/M24 A3019 RMK SLP256",
    "updatedAt": "2022-03-09T12:44:00.000Z"
  },
  {
    "airportIcao": "CYSJ",
    "metar": "CYSJ 091200Z 31005KT 15SM BKN240 M07/M12 A3018 RMK CI7 SLP228",
    "updatedAt": "2022-03-09T12:00:00.000Z"
  },
  {
    "airportIcao": "CYSM",
    "metar": "CYSM 091200Z 22005KT 15SM SKC M25/M28 A3031 RMK SLP294",
    "updatedAt": "2022-03-09T12:00:00.000Z"
  },
  {
    "airportIcao": "CYSN",
    "metar": "CYSN 091200Z 09003KT 15SM FEW100 BKN170 M02/M06 A2997 RMK AC1AC6 SLP156",
    "updatedAt": "2022-03-09T12:00:00.000Z"
  },
  {
    "airportIcao": "CYTE",
    "metar": "CYTE 091234Z AUTO 00000KT 9SM -SN OVC013 M18/M20 A2950 RMK SLP997",
    "updatedAt": "2022-03-09T12:34:00.000Z"
  },
  {
    "airportIcao": "CYTH",
    "metar": "CYTH 091200Z 30005KT 10SM -SN OVC078 M23/M26 A2999 RMK AC8 SLP187",
    "updatedAt": "2022-03-09T12:00:00.000Z"
  },
  {
    "airportIcao": "CYTL",
    "metar": "CYTL 091212Z AUTO /////KT 9SM -SN CLR M24/M26 A2985 RMK WIND MISG SLP139",
    "updatedAt": "2022-03-09T12:12:00.000Z"
  },
  {
    "airportIcao": "CYTR",
    "metar": "CYTR 091200Z CCA 00000KT 15SM BKN040 BKN220 M03/M04 A3003 RMK SC6CI1 DA-1999FT SLP174",
    "updatedAt": "2022-03-09T12:00:00.000Z"
  },
  {
    "airportIcao": "CYTS",
    "metar": "CYTS 091200Z 20009KT 15SM -SN BKN060 OVC080 M05/M07 A2969 RMK SC6AC2 SLP073",
    "updatedAt": "2022-03-09T12:00:00.000Z"
  },
  {
    "airportIcao": "CYTZ",
    "metar": "CYTZ 091200Z AUTO 15002KT 9SM OVC041 01/M04 A2999 RMK SLP161",
    "updatedAt": "2022-03-09T12:00:00.000Z"
  },
  {
    "airportIcao": "CYUA",
    "metar": "CYUA 091227Z AUTO 01006KT 340V040 ////SM FEW016 OVC065 M21/M24 A3049",
    "updatedAt": "2022-03-09T12:27:00.000Z"
  },
  {
    "airportIcao": "CYUB",
    "metar": "CYUB 090600Z 07008KT 2 1/2SM BR OVC004 M22/M25 A3048 RMK ST8 LAST STFD OBS/NXT 091400Z SLP324",
    "updatedAt": "2022-03-09T06:00:00.000Z"
  },
  {
    "airportIcao": "CYUL",
    "metar": "CYUL 091226Z 15005KT 15SM -SN OVC055 M02/M07 A3009 RMK SC8 SLP194",
    "updatedAt": "2022-03-09T12:26:00.000Z"
  },
  {
    "airportIcao": "CYUS",
    "metar": "CYUS 091200Z AUTO 34009KT ////SM //// FEW042 FEW050 OVC055 M31/M35 A2967",
    "updatedAt": "2022-03-09T12:00:00.000Z"
  },
  {
    "airportIcao": "CYUX",
    "metar": "CYUX 091200Z 36016KT 1/2SM -SN BLSN FEW006 BKN017 M23/M26 A2951 RMK SF1SC6 S02 AFT 0000Z/SNW CVR/MUCH LOOSE SLP996",
    "updatedAt": "2022-03-09T12:00:00.000Z"
  },
  {
    "airportIcao": "CYUY",
    "metar": "CYUY 091234Z 20010G19KT 12SM -SN OVC008 M06/M07 A2978 RMK SF8 SLP106",
    "updatedAt": "2022-03-09T12:34:00.000Z"
  },
  {
    "airportIcao": "CYVC",
    "metar": "CYVC 091241Z 28008KT 12SM IC FEW070 M23/M26 A3022 RMK AC2 SLP276",
    "updatedAt": "2022-03-09T12:41:00.000Z"
  },
  {
    "airportIcao": "CYVL",
    "metar": "CYVL 091200Z AUTO 35004KT 9SM FEW230 M20/M21 A3018 RMK SLP256",
    "updatedAt": "2022-03-09T12:00:00.000Z"
  },
  {
    "airportIcao": "CYVM",
    "metar": "CYVM 091200Z AUTO VRB02KT 9SM OVC038 M20/M23 A2952 RMK SLP000",
    "updatedAt": "2022-03-09T12:00:00.000Z"
  },
  {
    "airportIcao": "CYVO",
    "metar": "CYVO 091234Z 18011KT 15SM SCT009 M07/M09 A2981 RMK SC4 SLP121",
    "updatedAt": "2022-03-09T12:34:00.000Z"
  },
  {
    "airportIcao": "CYVP",
    "metar": "CYVP 091200Z 20005KT 15SM -SN FEW030 SCT075 BKN110 M23/M26 A2971 RMK SC2AS2AC2 SLP068",
    "updatedAt": "2022-03-09T12:00:00.000Z"
  },
  {
    "airportIcao": "CYVQ",
    "metar": "CYVQ 091200Z 00000KT 30SM SCT150 BKN190 BKN220 M26/M29 A3028 RMK AC3AC2CI2 FROIN SLP266",
    "updatedAt": "2022-03-09T12:00:00.000Z"
  },
  {
    "airportIcao": "CYVR",
    "metar": "CYVR 091200Z 08006KT 20SM BKN100 01/M08 A3027 RMK AC7 SLP252",
    "updatedAt": "2022-03-09T12:00:00.000Z"
  },
  {
    "airportIcao": "CYVT",
    "metar": "CYVT 091200Z AUTO 32011KT 9SM OVC076 M23/M26 A3028 RMK SLP304",
    "updatedAt": "2022-03-09T12:00:00.000Z"
  },
  {
    "airportIcao": "CYVV",
    "metar": "CYVV 091200Z 17007KT 6SM BR FEW020 SCT250 M05/M06 A2990 RMK SC1CI4 SC TR SLP139",
    "updatedAt": "2022-03-09T12:00:00.000Z"
  },
  {
    "airportIcao": "CYWA",
    "metar": "CYWA 091200Z 14005KT 20SM BKN050 M08/M09 A3000 RMK SC7 DA-2409FT FST OBS SLP166",
    "updatedAt": "2022-03-09T12:00:00.000Z"
  },
  {
    "airportIcao": "CYWE",
    "metar": "CYWE 091218Z AUTO 27010KT 5SM -SN OVC019 M21/M23 A3006 RMK SLP232",
    "updatedAt": "2022-03-09T12:18:00.000Z"
  },
  {
    "airportIcao": "CYWG",
    "metar": "CYWG 091200Z 30012KT 15SM FEW230 M22/M26 A3012 RMK CI1 SLP228",
    "updatedAt": "2022-03-09T12:00:00.000Z"
  },
  {
    "airportIcao": "CYWH",
    "metar": "CYWH 090500Z VRB02KT 15SM FEW100 06/02 A3018 RMK AC2 /LAST STFD OBS/NEXT 091400UTC SLP222",
    "updatedAt": "2022-03-09T05:00:00.000Z"
  },
  {
    "airportIcao": "CYWK",
    "metar": "CYWK 091200Z 22006KT 15SM OVC031 M16/M20 A2973 RMK SC8 SLP119",
    "updatedAt": "2022-03-09T12:00:00.000Z"
  },
  {
    "airportIcao": "CYWL",
    "metar": "CYWL 091200Z 31008KT 15SM SKC M11/M18 A3027 RMK SLP311",
    "updatedAt": "2022-03-09T12:00:00.000Z"
  },
  {
    "airportIcao": "CYXC",
    "metar": "CYXC 091200Z 15002KT 15SM SCT072 M11/M17 A3023 RMK AC4 SLP289",
    "updatedAt": "2022-03-09T12:00:00.000Z"
  },
  {
    "airportIcao": "CYXE",
    "metar": "CYXE 091200Z 28011KT 15SM SCT025 BKN070 M25/M28 A3026 RMK SC4AC1 SLP302",
    "updatedAt": "2022-03-09T12:00:00.000Z"
  },
  {
    "airportIcao": "CYXH",
    "metar": "CYXH 091243Z AUTO 30007KT 9SM -SN BKN100 M18/M21 A3032 RMK SLP334",
    "updatedAt": "2022-03-09T12:43:00.000Z"
  },
  {
    "airportIcao": "CYXJ",
    "metar": "CYXJ 091218Z 23006KT 15SM IC FEW045 M17/M18 A3036 RMK SC1 SLP341",
    "updatedAt": "2022-03-09T12:18:00.000Z"
  },
  {
    "airportIcao": "CYXL",
    "metar": "CYXL 091200Z 33015G22KT 6SM -SN DRSN FEW016 OVC034 M16/M19 A2983 RMK SF1SC7 SLP136",
    "updatedAt": "2022-03-09T12:00:00.000Z"
  },
  {
    "airportIcao": "CYXP",
    "metar": "CYXP 091200Z 24004KT 15SM -SN OVC022 M21/M23 A2951 RMK SC8 SNW CVR/MUCH LOOSE SLP999",
    "updatedAt": "2022-03-09T12:00:00.000Z"
  },
  {
    "airportIcao": "CYXR",
    "metar": "CYXR 091242Z AUTO 19012KT 9SM BKN086 M06/M08 A2979 RMK SLP106",
    "updatedAt": "2022-03-09T12:42:00.000Z"
  },
  {
    "airportIcao": "CYXS",
    "metar": "CYXS 091200Z AUTO 34005KT 9SM CLR M11/M16 A3040 RMK SLP345",
    "updatedAt": "2022-03-09T12:00:00.000Z"
  },
  {
    "airportIcao": "CYXT",
    "metar": "CYXT 091200Z 02010G15KT 20SM SKC M01/M11 A3045 RMK SLP322",
    "updatedAt": "2022-03-09T12:00:00.000Z"
  },
  {
    "airportIcao": "CYXU",
    "metar": "CYXU 091200Z 14004KT 15SM OVC029 M02/M04 A2993 RMK SC8 SLP150",
    "updatedAt": "2022-03-09T12:00:00.000Z"
  },
  {
    "airportIcao": "CYXX",
    "metar": "CYXX 091200Z 03017G26KT 15SM SKC 04/M15 A3025 RMK SLP247",
    "updatedAt": "2022-03-09T12:00:00.000Z"
  },
  {
    "airportIcao": "CYXY",
    "metar": "CYXY 091200Z 18015KT 15SM FEW240 M12/M17 A3025 RMK CI2 SLP302",
    "updatedAt": "2022-03-09T12:00:00.000Z"
  },
  {
    "airportIcao": "CYXZ",
    "metar": "CYXZ 091200Z 25006KT 210V300 15SM -SN OVC029 M03/M05 A2970 RMK SC8 SLP075",
    "updatedAt": "2022-03-09T12:00:00.000Z"
  },
  {
    "airportIcao": "CYYB",
    "metar": "CYYB 091231Z 16005KT 15SM -SG OVC007 M05/M06 A2985 RMK ST8 SLP132",
    "updatedAt": "2022-03-09T12:31:00.000Z"
  },
  {
    "airportIcao": "CYYC",
    "metar": "CYYC 091200Z 34006KT 7SM -SN SCT018 M16/M19 A3024 RMK SC4 SLP326",
    "updatedAt": "2022-03-09T12:00:00.000Z"
  },
  {
    "airportIcao": "CYYD",
    "metar": "CYYD 091200Z AUTO 00000KT 9SM CLR M07/M11 A3044 RMK SLP334",
    "updatedAt": "2022-03-09T12:00:00.000Z"
  },
  {
    "airportIcao": "CYYE",
    "metar": "CYYE 091200Z 18006KT 15SM SKC M17/M18 A3032 RMK SLP303",
    "updatedAt": "2022-03-09T12:00:00.000Z"
  },
  {
    "airportIcao": "CYYF",
    "metar": "CYYF 091200Z 33006KT 15SM FEW120 M03/M16 A3028 RMK AC2 SLP272",
    "updatedAt": "2022-03-09T12:00:00.000Z"
  },
  {
    "airportIcao": "CYYG",
    "metar": "CYYG 091200Z 31011G19KT 15SM FEW025 SCT250 M08/M13 A3013 RMK SC1CI3 SC TR SLP207",
    "updatedAt": "2022-03-09T12:00:00.000Z"
  },
  {
    "airportIcao": "CYYH",
    "metar": "CYYH 091200Z 07002KT 12SM -SN BKN056 BKN067 M28/M31 A2968 RMK SC5AC2 SLP059",
    "updatedAt": "2022-03-09T12:00:00.000Z"
  },
  {
    "airportIcao": "CYYJ",
    "metar": "CYYJ 091200Z 05017G24KT 20SM FEW090 05/M10 A3024 RMK AC1 SLP244",
    "updatedAt": "2022-03-09T12:00:00.000Z"
  },
  {
    "airportIcao": "CYYL",
    "metar": "CYYL 091230Z AUTO 32007KT 2 1/4SM -SN BKN024 BKN028 M22/M25 A3000 RMK SLP204",
    "updatedAt": "2022-03-09T12:30:00.000Z"
  },
  {
    "airportIcao": "CYYN",
    "metar": "CYYN 091239Z AUTO 34005KT 5SM -SN SCT010 SCT018 BKN030 OVC039 M19/M21 A3017 RMK SLP292",
    "updatedAt": "2022-03-09T12:39:00.000Z"
  },
  {
    "airportIcao": "CYYQ",
    "metar": "CYYQ 091200Z 32018G23KT 8SM -SN DRSN OVC130 M20/M23 A2989 RMK AC8 SLP127",
    "updatedAt": "2022-03-09T12:00:00.000Z"
  },
  {
    "airportIcao": "CYYR",
    "metar": "CYYR 091200Z 29014KT 15SM FEW050 FEW070 BKN240 M12/M16 A2976 RMK SC1AC1CI3 SH DIST NW SLP081",
    "updatedAt": "2022-03-09T12:00:00.000Z"
  },
  {
    "airportIcao": "CYYT",
    "metar": "CYYT 091200Z 31033G45KT 15SM FEW030 M03/M08 A2946 RMK SC2 PRESRR SLP985",
    "updatedAt": "2022-03-09T12:00:00.000Z"
  },
  {
    "airportIcao": "CYYU",
    "metar": "CYYU 091200Z 22007KT 12SM FEW042 SCT052 OVC062 M03/M05 A2963 RMK SC2SC2SC4 SLP049",
    "updatedAt": "2022-03-09T12:00:00.000Z"
  },
  {
    "airportIcao": "CYYW",
    "metar": "CYYW 091200Z AUTO 32007G16KT 9SM -SN BKN081 OVC097 M12/M14 A2969 RMK SLP086",
    "updatedAt": "2022-03-09T12:00:00.000Z"
  },
  {
    "airportIcao": "CYYY",
    "metar": "CYYY 091200Z 20011KT 30SM R06/3000VP6000FT/N FEW035 M09/M14 A3009 RMK SC1 SLP197",
    "updatedAt": "2022-03-09T12:00:00.000Z"
  },
  {
    "airportIcao": "CYYZ",
    "metar": "CYYZ 091200Z 16003KT 15SM BKN036 M01/M05 A2997 RMK SC7 SLP158",
    "updatedAt": "2022-03-09T12:00:00.000Z"
  },
  {
    "airportIcao": "CYZE",
    "metar": "CYZE 091200Z AUTO 20012G19KT 160V220 9SM FEW060 M02/M05 A2983 RMK SLP114",
    "updatedAt": "2022-03-09T12:00:00.000Z"
  },
  {
    "airportIcao": "CYZF",
    "metar": "CYZF 091200Z 24003KT 15SM -SN BKN018 M22/M25 A3026 RMK SC7 SLP276",
    "updatedAt": "2022-03-09T12:00:00.000Z"
  },
  {
    "airportIcao": "CYZH",
    "metar": "CYZH 091236Z AUTO 30004KT 270V330 5SM -SN SCT029 OVC050 M16/M19 A3035 RMK SLP334",
    "updatedAt": "2022-03-09T12:36:00.000Z"
  },
  {
    "airportIcao": "CYZP",
    "metar": "CYZP 091200Z AUTO 25005KT 9SM CLR 01/M00 A3038 RMK SLP289",
    "updatedAt": "2022-03-09T12:00:00.000Z"
  },
  {
    "airportIcao": "CYZR",
    "metar": "CYZR 091200Z AUTO 18005KT 9SM SCT160 BKN180 M03/M04 A2995 RMK SLP152",
    "updatedAt": "2022-03-09T12:00:00.000Z"
  },
  {
    "airportIcao": "CYZS",
    "metar": "CYZS 091200Z 33014KT 15SM IC FEW030 BKN082 M29/M31 A2949 RMK SC1AC4 SLP999",
    "updatedAt": "2022-03-09T12:00:00.000Z"
  },
  {
    "airportIcao": "CYZT",
    "metar": "CYZT 091200Z 12005KT 080V160 15SM FEW011 03/M01 A3026 RMK SF1 SF TR SLP251",
    "updatedAt": "2022-03-09T12:00:00.000Z"
  },
  {
    "airportIcao": "CYZU",
    "metar": "CYZU 090500Z 29005KT 15SM FEW060 M14/M18 A3039 RMK SC1 LAST STFD OBS/NXT 191300Z SLP352",
    "updatedAt": "2022-03-09T05:00:00.000Z"
  },
  {
    "airportIcao": "CYZV",
    "metar": "CYZV 091200Z 28007KT 30SM FEW100 M16/M21 A3005 RMK AC1 SLP182",
    "updatedAt": "2022-03-09T12:00:00.000Z"
  },
  {
    "airportIcao": "CYZX",
    "metar": "CYZX 091200Z 22004KT 15SM FEW027 BKN250 M05/M10 A3020 RMK SC2CI5 SLP229",
    "updatedAt": "2022-03-09T12:00:00.000Z"
  },
  {
    "airportIcao": "CYZY",
    "metar": "CYZY 091200Z AUTO VRB02KT 7SM CLR M21/M24 A3044 RMK SLP370",
    "updatedAt": "2022-03-09T12:00:00.000Z"
  },
  {
    "airportIcao": "CZBF",
    "metar": "CZBF 091200Z AUTO 28009G15KT 250V310 9SM CLR M08/M15 A3013 RMK SLP208",
    "updatedAt": "2022-03-09T12:00:00.000Z"
  },
  {
    "airportIcao": "CZCP",
    "metar": "CZCP 091200Z AUTO 31009G15KT 280V040 ////SM //// NCD M25/M28 A3027",
    "updatedAt": "2022-03-09T12:00:00.000Z"
  },
  {
    "airportIcao": "CZCR",
    "metar": "CZCR 091200Z AUTO 22004KT M09/M14 RMK AO1 SOG 91 1021 SLP202 T10871143 50002",
    "updatedAt": "2022-03-09T12:00:00.000Z"
  },
  {
    "airportIcao": "CZDB",
    "metar": "CZDB 091200Z AUTO 28005KT M07/M12 RMK AO1 SOG 22 1027 SLP230 T10711124",
    "updatedAt": "2022-03-09T12:00:00.000Z"
  },
  {
    "airportIcao": "CZEL",
    "metar": "CZEL 091200Z AUTO 13004KT M05/M07 RMK AO1 SOG 15 8012 SLP153 T10531068",
    "updatedAt": "2022-03-09T12:00:00.000Z"
  },
  {
    "airportIcao": "CZEV",
    "metar": "CZEV 091200Z AUTO 03005KT M22/M25 RMK AO1 SOG 47 0006 SLP308 T12241247",
    "updatedAt": "2022-03-09T12:00:00.000Z"
  },
  {
    "airportIcao": "CZFS",
    "metar": "CZFS 091200Z AUTO 10003KT M23/M25 RMK AO1 SOG 46 8042 SLP267 T12281250",
    "updatedAt": "2022-03-09T12:00:00.000Z"
  },
  {
    "airportIcao": "CZHY",
    "metar": "CZHY 091200Z AUTO 17004KT M30/M33 RMK AO1 SOG 35 8042 SLP291 T12971330",
    "updatedAt": "2022-03-09T12:00:00.000Z"
  },
  {
    "airportIcao": "CZKD",
    "metar": "CZKD 091200Z AUTO 29003KT M27/M30 RMK AO1 SOG 55 8008 SLP166 T12721299 50002",
    "updatedAt": "2022-03-09T12:00:00.000Z"
  },
  {
    "airportIcao": "CZMD",
    "metar": "CZMD 091200Z AUTO 22003KT 210V280 9SM -SN CLR M24/M27 A2986 RMK SLP144",
    "updatedAt": "2022-03-09T12:00:00.000Z"
  },
  {
    "airportIcao": "CZMJ",
    "metar": "CZMJ 091200Z AUTO 29011KT M19/M21 RMK AO1 SOG 08 3001 SLP295 T11861209 50002",
    "updatedAt": "2022-03-09T12:00:00.000Z"
  },
  {
    "airportIcao": "CZMT",
    "metar": "CZMT 090200Z VRB02KT 15SM FEW260 05/M03 A3042 RMK CI2 LAST STFD OBS/NEXT 091500 UTC SLP302",
    "updatedAt": "2022-03-09T02:00:00.000Z"
  },
  {
    "airportIcao": "CZMU",
    "metar": "CZMU 091200Z AUTO 32008KT M19/M21 RMK AO1 SOG 12 T11861207",
    "updatedAt": "2022-03-09T12:00:00.000Z"
  },
  {
    "airportIcao": "CZOL",
    "metar": "CZOL 091200Z AUTO 32003KT M19/M19 RMK AO1 T11861186",
    "updatedAt": "2022-03-09T12:00:00.000Z"
  },
  {
    "airportIcao": "CZPC",
    "metar": "CZPC 091200Z AUTO 25004KT 140V260 9SM CLR M21/M23 A3023 RMK SLP341",
    "updatedAt": "2022-03-09T12:00:00.000Z"
  },
  {
    "airportIcao": "CZPS",
    "metar": "CZPS 091200Z AUTO 30006KT M18/M18 RMK AO1 4PAST HR M P0002 T11841175 50004",
    "updatedAt": "2022-03-09T12:00:00.000Z"
  },
  {
    "airportIcao": "CZSJ",
    "metar": "CZSJ 091200Z AUTO 29006KT 9SM SCT036 M21/M24 A2989 RMK SLP156",
    "updatedAt": "2022-03-09T12:00:00.000Z"
  },
  {
    "airportIcao": "CZSM",
    "metar": "CZSM 091200Z AUTO 22004KT M25/M27 RMK AO1 SOG 61 8032 SLP291 T12501274",
    "updatedAt": "2022-03-09T12:00:00.000Z"
  },
  {
    "airportIcao": "CZSP",
    "metar": "CZSP 091200Z AUTO M06/M11 RMK AO1 23 SOG 10 1038 SLP209 T10611106",
    "updatedAt": "2022-03-09T12:00:00.000Z"
  },
  {
    "airportIcao": "CZST",
    "metar": "CZST 090100Z 03004KT 360V060 15SM FEW200 05/M12 A3050 RMK CI1 LAST STFD OBS/NEXT 091500Z/ SLP331",
    "updatedAt": "2022-03-09T01:00:00.000Z"
  },
  {
    "airportIcao": "CZTB",
    "metar": "CZTB 091200Z AUTO 27010G15KT M07/M12 RMK AO1 SOG 47 3007 SLP095 T10741118",
    "updatedAt": "2022-03-09T12:00:00.000Z"
  },
  {
    "airportIcao": "CZUM",
    "metar": "CZUM 091200Z AUTO 29008KT 9SM CLR M19/M22 A2976 RMK SLP121",
    "updatedAt": "2022-03-09T12:00:00.000Z"
  },
  {
    "airportIcao": "CZVL",
    "metar": "CZVL 091234Z AUTO 29005KT 9SM -SN OVC036 M17/M19 A3035 RMK SLP343",
    "updatedAt": "2022-03-09T12:34:00.000Z"
  },
  {
    "airportIcao": "CZZJ",
    "metar": "CZZJ 091200Z AUTO 30004KT M19/M21 RMK AO1 SOG 41 8008 SLP343 T11881210",
    "updatedAt": "2022-03-09T12:00:00.000Z"
  },
  {
    "airportIcao": "DAAD",
    "metar": "DAAD 091200Z 35007KT 9999 BKN026 14/05 Q1024",
    "updatedAt": "2022-03-09T12:00:00.000Z"
  },
  {
    "airportIcao": "DAAE",
    "metar": "DAAE 091200Z 33006KT 9999 FEW020 FEW023TCU SCT090 16/10 Q1023",
    "updatedAt": "2022-03-09T12:00:00.000Z"
  },
  {
    "airportIcao": "DAAG",
    "metar": "DAAG 091230Z VRB02KT 9999 FEW023TCU SCT040 16/08 Q1024",
    "updatedAt": "2022-03-09T12:30:00.000Z"
  },
  {
    "airportIcao": "DAAJ",
    "metar": "DAAJ 091200Z 02008KT CAVOK 21/M04 Q1018",
    "updatedAt": "2022-03-09T12:00:00.000Z"
  },
  {
    "airportIcao": "DAAP",
    "metar": "DAAP 091200Z 36004KT 9999 SCT040 20/01 Q1020",
    "updatedAt": "2022-03-09T12:00:00.000Z"
  },
  {
    "airportIcao": "DAAS",
    "metar": "DAAS 091200Z 30009KT 8000 FEW010 FEW026TCU SCT026 08/04 Q1022",
    "updatedAt": "2022-03-09T12:00:00.000Z"
  },
  {
    "airportIcao": "DAAT",
    "metar": "DAAT 091230Z 27006KT 230V300 7000 NSC 24/// Q1019",
    "updatedAt": "2022-03-09T12:30:00.000Z"
  },
  {
    "airportIcao": "DAAV",
    "metar": "DAAV 091200Z 31006KT 270V340 9999 FEW020TCU FEW023CB 15/09 Q1023",
    "updatedAt": "2022-03-09T12:00:00.000Z"
  },
  {
    "airportIcao": "DAAY",
    "metar": "DAAY 091200Z 18010KT CAVOK 14/00 Q1024",
    "updatedAt": "2022-03-09T12:00:00.000Z"
  },
  {
    "airportIcao": "DABB",
    "metar": "DABB 091230Z 05005KT 9999 FEW020 SCT033 15/09 Q1022",
    "updatedAt": "2022-03-09T12:30:00.000Z"
  },
  {
    "airportIcao": "DABC",
    "metar": "DABC 091230Z 01006KT 9999 FEW026TCU BKN030 11/05 Q1022",
    "updatedAt": "2022-03-09T12:30:00.000Z"
  },
  {
    "airportIcao": "DABS",
    "metar": "DABS 091200Z 31009KT 9999 FEW026 BKN033 10/03 Q1022",
    "updatedAt": "2022-03-09T12:00:00.000Z"
  },
  {
    "airportIcao": "DABT",
    "metar": "DABT 091200Z 30004KT 9999 FEW010 BKN020 11/04 Q1023",
    "updatedAt": "2022-03-09T12:00:00.000Z"
  },
  {
    "airportIcao": "DAFH",
    "metar": "DAFH 091200Z 35008KT 9999 FEW030 14/02 Q1023",
    "updatedAt": "2022-03-09T12:00:00.000Z"
  },
  {
    "airportIcao": "DAOB",
    "metar": "DAOB 091200Z 26006KT 9999 FEW020 SCT023 11/02 Q1024",
    "updatedAt": "2022-03-09T12:00:00.000Z"
  },
  {
    "airportIcao": "DAOF",
    "metar": "DAOF 091200Z 20004KT CAVOK 23/M02 Q1020",
    "updatedAt": "2022-03-09T12:00:00.000Z"
  },
  {
    "airportIcao": "DAOI",
    "metar": "DAOI 091200Z 22004KT 9999 FEW023 SCT026 17/08 Q1024",
    "updatedAt": "2022-03-09T12:00:00.000Z"
  },
  {
    "airportIcao": "DAOL",
    "metar": "DAOL 091200Z 04004KT 9999 FEW026 19/09 Q1022",
    "updatedAt": "2022-03-09T12:00:00.000Z"
  },
  {
    "airportIcao": "DAON",
    "metar": "DAON 091230Z VRB02KT 9999 FEW026 19/05 Q1021",
    "updatedAt": "2022-03-09T12:30:00.000Z"
  },
  {
    "airportIcao": "DAOO",
    "metar": "DAOO 091230Z 15003KT 9999 FEW026 20/06 Q1021",
    "updatedAt": "2022-03-09T12:30:00.000Z"
  },
  {
    "airportIcao": "DAOR",
    "metar": "DAOR 091200Z 17006KT 8000 NSC 19/M01 Q1023",
    "updatedAt": "2022-03-09T12:00:00.000Z"
  },
  {
    "airportIcao": "DAOV",
    "metar": "DAOV 091200Z 15003KT 090V180 9999 FEW023 17/02 Q1022",
    "updatedAt": "2022-03-09T12:00:00.000Z"
  },
  {
    "airportIcao": "DAOY",
    "metar": "DAOY 091200Z 33003KT 9999 FEW023 10/M02 Q1023",
    "updatedAt": "2022-03-09T12:00:00.000Z"
  },
  {
    "airportIcao": "DATM",
    "metar": "DATM 091200Z 04018KT 2000 DRSA NSC 28/M07 Q1014",
    "updatedAt": "2022-03-09T12:00:00.000Z"
  },
  {
    "airportIcao": "DAUA",
    "metar": "DAUA 091200Z 06018KT CAVOK 24/M01 Q1020",
    "updatedAt": "2022-03-09T12:00:00.000Z"
  },
  {
    "airportIcao": "DAUB",
    "metar": "DAUB 091200Z VRB02KT 9999 FEW030 SCT033 19/07 Q1022",
    "updatedAt": "2022-03-09T12:00:00.000Z"
  },
  {
    "airportIcao": "DAUE",
    "metar": "DAUE 091200Z 08005KT CAVOK 18/02 Q1023",
    "updatedAt": "2022-03-09T12:00:00.000Z"
  },
  {
    "airportIcao": "DAUG",
    "metar": "DAUG 091200Z 35005KT 270V050 9999 FEW040 17/01 Q1023",
    "updatedAt": "2022-03-09T12:00:00.000Z"
  },
  {
    "airportIcao": "DAUH",
    "metar": "DAUH 091230Z VRB02KT 9999 SCT040 20/04 Q1021",
    "updatedAt": "2022-03-09T12:30:00.000Z"
  },
  {
    "airportIcao": "DAUI",
    "metar": "DAUI 091200Z 05017KT 8000 DRSA NSC 24/M03 Q1020",
    "updatedAt": "2022-03-09T12:00:00.000Z"
  },
  {
    "airportIcao": "DAUK",
    "metar": "DAUK 091200Z 33004KT 9999 SCT040 19/06 Q1022",
    "updatedAt": "2022-03-09T12:00:00.000Z"
  },
  {
    "airportIcao": "DAUL",
    "metar": "DAUL 091200Z 35010KT 9999 FEW033 13/05 Q1022",
    "updatedAt": "2022-03-09T12:00:00.000Z"
  },
  {
    "airportIcao": "DAUO",
    "metar": "DAUO 091200Z 27005KT 230V320 9999 SCT030 19/06 Q1022",
    "updatedAt": "2022-03-09T12:00:00.000Z"
  },
  {
    "airportIcao": "DAUT",
    "metar": "DAUT 091200Z 10009KT CAVOK 22/M00 Q1021",
    "updatedAt": "2022-03-09T12:00:00.000Z"
  },
  {
    "airportIcao": "DAUU",
    "metar": "DAUU 091200Z VRB04KT 9999 SCT046 19/04 Q1021",
    "updatedAt": "2022-03-09T12:00:00.000Z"
  },
  {
    "airportIcao": "DAUZ",
    "metar": "DAUZ 091200Z 30006KT 220V330 9999 BKN040 20/01 Q1020",
    "updatedAt": "2022-03-09T12:00:00.000Z"
  },
  {
    "airportIcao": "DBBB",
    "metar": "DBBB 091200Z 22012KT 9999 SCT013 32/26 Q1007 NOSIG",
    "updatedAt": "2022-03-09T12:00:00.000Z"
  },
  {
    "airportIcao": "DFFD",
    "metar": "DFFD 090900Z 03011KT 8000 NSC 29/M05 Q1010 NOSIG",
    "updatedAt": "2022-03-09T09:00:00.000Z"
  },
  {
    "airportIcao": "DFOO",
    "metar": "DFOO 091200Z 02006KT 310V090 CAVOK 34/M07 Q1010",
    "updatedAt": "2022-03-09T12:00:00.000Z"
  },
  {
    "airportIcao": "DGAA",
    "metar": "DGAA 091200Z 17010KT 9999 SCT017 32/25 Q1008 NOSIG",
    "updatedAt": "2022-03-09T12:00:00.000Z"
  },
  {
    "airportIcao": "DIAP",
    "metar": "DIAP 091230Z 24012KT 9999 FEW015 31/26 Q1008 NOSIG",
    "updatedAt": "2022-03-09T12:30:00.000Z"
  },
  {
    "airportIcao": "DIBK",
    "metar": "DIBK 091200Z 30006KT 9999 BKN015 31/22 Q1011 NOSIG",
    "updatedAt": "2022-03-09T12:00:00.000Z"
  },
  {
    "airportIcao": "DIYO",
    "metar": "DIYO 091200Z 28004KT 9999 BKN015 31/23 Q1010 NOSIG",
    "updatedAt": "2022-03-09T12:00:00.000Z"
  },
  {
    "airportIcao": "DNAA",
    "metar": "DNAA 091200Z 29004KT 9999 FEW015 35/18 Q1008 NOSIG",
    "updatedAt": "2022-03-09T12:00:00.000Z"
  },
  {
    "airportIcao": "DNEN",
    "metar": "DNEN 090800Z 14003KT 9999 BKN011 28/25 Q1009 NOSIG",
    "updatedAt": "2022-03-09T08:00:00.000Z"
  },
  {
    "airportIcao": "DNGO",
    "metar": "DNGO 091100Z 06011KT 4400 HZ NSC 37/M02 Q1008",
    "updatedAt": "2022-03-09T11:00:00.000Z"
  },
  {
    "airportIcao": "DNIL",
    "metar": "DNIL 091000Z 24006KT 9999 FEW012 32/21 Q1010",
    "updatedAt": "2022-03-09T10:00:00.000Z"
  },
  {
    "airportIcao": "DNJO",
    "metar": "DNJO 091000Z 08012KT 8000 NSC 29/13 Q1017",
    "updatedAt": "2022-03-09T10:00:00.000Z"
  },
  {
    "airportIcao": "DNKA",
    "metar": "DNKA 090800Z VRB02KT 6000 NSC 28/07 Q1012",
    "updatedAt": "2022-03-09T08:00:00.000Z"
  },
  {
    "airportIcao": "DNKN",
    "metar": "DNKN 091200Z 03006KT 3000 HZ NSC 38/01 Q1010 NOSIG",
    "updatedAt": "2022-03-09T12:00:00.000Z"
  },
  {
    "airportIcao": "DNKT",
    "metar": "DNKT 091200Z 07003KT 3500 HZ NSC 37/08 Q1010",
    "updatedAt": "2022-03-09T12:00:00.000Z"
  },
  {
    "airportIcao": "DNMA",
    "metar": "DNMA 091200Z 09009KT CAVOK 41/10 Q1005",
    "updatedAt": "2022-03-09T12:00:00.000Z"
  },
  {
    "airportIcao": "DNMM",
    "metar": "DNMM 091200Z 16007KT 9999 BKN016 35/27 Q1008 NOSIG",
    "updatedAt": "2022-03-09T12:00:00.000Z"
  },
  {
    "airportIcao": "DNMN",
    "metar": "DNMN 091000Z 20004KT CAVOK 32/19 Q1009",
    "updatedAt": "2022-03-09T10:00:00.000Z"
  },
  {
    "airportIcao": "DNSO",
    "metar": "DNSO 090800Z 03009KT CAVOK 28/08 Q1010",
    "updatedAt": "2022-03-09T08:00:00.000Z"
  },
  {
    "airportIcao": "DNYO",
    "metar": "DNYO 091200Z 30010KT 8000NSC39/21 Q1007",
    "updatedAt": "2022-03-09T12:00:00.000Z"
  },
  {
    "airportIcao": "DRRM",
    "metar": "DRRM 091200Z VRB06KT 1500 DU NSC 36/M08 Q1008",
    "updatedAt": "2022-03-09T12:00:00.000Z"
  },
  {
    "airportIcao": "DRRN",
    "metar": "DRRN 091200Z 06007KT 030V120 7000 NSC 36/M12 Q1008 NOSIG",
    "updatedAt": "2022-03-09T12:00:00.000Z"
  },
  {
    "airportIcao": "DRRT",
    "metar": "DRRT 091200Z 05005KT 360V110 4800 NSC 36/M16 Q1009",
    "updatedAt": "2022-03-09T12:00:00.000Z"
  },
  {
    "airportIcao": "DRZA",
    "metar": "DRZA 091200Z 10020KT 3500 DU NSC 34/M05 Q1009",
    "updatedAt": "2022-03-09T12:00:00.000Z"
  },
  {
    "airportIcao": "DRZR",
    "metar": "DRZR 091200Z 04010KT 010V090 2800 DU NSC 37/01 Q1009",
    "updatedAt": "2022-03-09T12:00:00.000Z"
  },
  {
    "airportIcao": "DTKA",
    "metar": "DTKA 091200Z 33007KT 290V010 9999 FEW020 14/04 Q1022 NOSIG",
    "updatedAt": "2022-03-09T12:00:00.000Z"
  },
  {
    "airportIcao": "DTMB",
    "metar": "DTMB 091230Z 02008KT 360V060 9999 SCT026 14/04 Q1022",
    "updatedAt": "2022-03-09T12:30:00.000Z"
  },
  {
    "airportIcao": "DTNH",
    "metar": "DTNH 091230Z AUTO 06007KT 030V090 9999NDV SCT050 14/05 Q1022 NOSIG",
    "updatedAt": "2022-03-09T12:30:00.000Z"
  },
  {
    "airportIcao": "DTTA",
    "metar": "DTTA 091230Z 36010KT 9999 SCT023 BKN046 13/06 Q1022",
    "updatedAt": "2022-03-09T12:30:00.000Z"
  },
  {
    "airportIcao": "DTTB",
    "metar": "DTTB 091200Z 35007KT 310V030 9999 SCT020 SCT030 14/07 Q1023",
    "updatedAt": "2022-03-09T12:00:00.000Z"
  },
  {
    "airportIcao": "DTTD",
    "metar": "DTTD 091200Z 06004KT 360V130 9999 SCT026 15/04 Q1022",
    "updatedAt": "2022-03-09T12:00:00.000Z"
  },
  {
    "airportIcao": "DTTF",
    "metar": "DTTF 091200Z 20006KT 150V240 8000 SCT026 SCT033 13/08 Q1022 NOSIG",
    "updatedAt": "2022-03-09T12:00:00.000Z"
  },
  {
    "airportIcao": "DTTG",
    "metar": "DTTG 091200Z VRB03KT 8000 BKN020 16/06 Q1022 NOSIG",
    "updatedAt": "2022-03-09T12:00:00.000Z"
  },
  {
    "airportIcao": "DTTJ",
    "metar": "DTTJ 091230Z 33006KT 270V040 9999 FEW026 16/04 Q1022 NOSIG",
    "updatedAt": "2022-03-09T12:30:00.000Z"
  },
  {
    "airportIcao": "DTTK",
    "metar": "DTTK 091200Z 34005KT 270V060 9999 SCT023 17/00 Q1022",
    "updatedAt": "2022-03-09T12:00:00.000Z"
  },
  {
    "airportIcao": "DTTL",
    "metar": "DTTL 091200Z 35007KT 9999 SCT020 SCT030 14/04 Q1022",
    "updatedAt": "2022-03-09T12:00:00.000Z"
  },
  {
    "airportIcao": "DTTN",
    "metar": "DTTN 091200Z 30003KT 9999 SCT020 16/06 Q1022",
    "updatedAt": "2022-03-09T12:00:00.000Z"
  },
  {
    "airportIcao": "DTTR",
    "metar": "DTTR 091200Z 10004KT 9999 FEW020 17/04 Q1022",
    "updatedAt": "2022-03-09T12:00:00.000Z"
  },
  {
    "airportIcao": "DTTX",
    "metar": "DTTX 091200Z 30007KT 250V330 9999 FEW020 SCT030 16/03 Q1022",
    "updatedAt": "2022-03-09T12:00:00.000Z"
  },
  {
    "airportIcao": "DTTZ",
    "metar": "DTTZ 091200Z 08013KT 8000 BKN040 16/07 Q1022",
    "updatedAt": "2022-03-09T12:00:00.000Z"
  },
  {
    "airportIcao": "DXNG",
    "metar": "DXNG 091200Z 10005KT 030V160 8000 NSC 35/M09 Q1011",
    "updatedAt": "2022-03-09T12:00:00.000Z"
  },
  {
    "airportIcao": "DXSK",
    "metar": "DXSK 091200Z 04004KT 7000 NSC 37/24 Q////",
    "updatedAt": "2022-03-09T12:00:00.000Z"
  },
  {
    "airportIcao": "DXXX",
    "metar": "DXXX 091200Z 20012KT 180V240 9999 FEW017 33/25 Q1008 NOSIG",
    "updatedAt": "2022-03-09T12:00:00.000Z"
  },
  {
    "airportIcao": "EBAW",
    "metar": "EBAW 091220Z 14006KT 100V180 CAVOK 13/M02 Q1021 NOSIG",
    "updatedAt": "2022-03-09T12:20:00.000Z"
  },
  {
    "airportIcao": "EBBE",
    "metar": "EBBE 091225Z 18008KT 9999 SKC 13/M03 Q1021 BLU BLU",
    "updatedAt": "2022-03-09T12:25:00.000Z"
  },
  {
    "airportIcao": "EBBL",
    "metar": "EBBL 091225Z 15004KT 9999 SKC 13/M04 Q1022 BLU BLU",
    "updatedAt": "2022-03-09T12:25:00.000Z"
  },
  {
    "airportIcao": "EBBR",
    "metar": "EBBR 091220Z 18005KT 140V220 CAVOK 13/M01 Q1021 NOSIG",
    "updatedAt": "2022-03-09T12:20:00.000Z"
  },
  {
    "airportIcao": "EBCI",
    "metar": "EBCI 091220Z 19007KT 150V230 CAVOK 13/M03 Q1021 NOSIG",
    "updatedAt": "2022-03-09T12:20:00.000Z"
  },
  {
    "airportIcao": "EBCV",
    "metar": "EBCV 091225Z AUTO 20008KT 9999 NCD 13/03 Q1021 BLU",
    "updatedAt": "2022-03-09T12:25:00.000Z"
  },
  {
    "airportIcao": "EBDT",
    "metar": "EBDT 091225Z AUTO 16005KT 9999 NCD 13/M02 Q1021 BLU",
    "updatedAt": "2022-03-09T12:25:00.000Z"
  },
  {
    "airportIcao": "EBFN",
    "metar": "EBFN 091225Z 18011KT 9999 FEW032 14/05 Q1019 BLU BLU",
    "updatedAt": "2022-03-09T12:25:00.000Z"
  },
  {
    "airportIcao": "EBFS",
    "metar": "EBFS 091225Z 16005KT 9999 SKC 12/M05 Q1021 BLU BLU",
    "updatedAt": "2022-03-09T12:25:00.000Z"
  },
  {
    "airportIcao": "EBLB",
    "metar": "EBLB 091225Z AUTO 20006KT 9999 NCD 10/M05 Q1022 BLU",
    "updatedAt": "2022-03-09T12:25:00.000Z"
  },
  {
    "airportIcao": "EBLG",
    "metar": "EBLG 091220Z 19007KT 150V210 CAVOK 13/M05 Q1022 NOSIG",
    "updatedAt": "2022-03-09T12:20:00.000Z"
  },
  {
    "airportIcao": "EBOS",
    "metar": "EBOS 091220Z 17010KT 140V200 CAVOK 13/04 Q1020 NOSIG",
    "updatedAt": "2022-03-09T12:20:00.000Z"
  },
  {
    "airportIcao": "EDAC",
    "metar": "EDAC 091020Z VRB03KT CAVOK 07/M04 Q1026",
    "updatedAt": "2022-03-09T10:20:00.000Z"
  },
  {
    "airportIcao": "EDDB",
    "metar": "EDDB 091220Z 33004KT 280V040 CAVOK 11/M03 Q1026 NOSIG",
    "updatedAt": "2022-03-09T12:20:00.000Z"
  },
  {
    "airportIcao": "EDDC",
    "metar": "EDDC 091220Z 32005KT 270V340 CAVOK 09/M02 Q1025 NOSIG",
    "updatedAt": "2022-03-09T12:20:00.000Z"
  },
  {
    "airportIcao": "EDDE",
    "metar": "EDDE 091220Z 05005KT 360V100 CAVOK 09/M05 Q1024 NOSIG",
    "updatedAt": "2022-03-09T12:20:00.000Z"
  },
  {
    "airportIcao": "EDDF",
    "metar": "EDDF 091220Z VRB04KT CAVOK 11/M06 Q1024 NOSIG",
    "updatedAt": "2022-03-09T12:20:00.000Z"
  },
  {
    "airportIcao": "EDDG",
    "metar": "EDDG 091220Z 14008KT 090V190 CAVOK 12/M06 Q1023 NOSIG",
    "updatedAt": "2022-03-09T12:20:00.000Z"
  },
  {
    "airportIcao": "EDDH",
    "metar": "EDDH 091220Z AUTO 15007KT 100V180 CAVOK 12/M04 Q1025 NOSIG",
    "updatedAt": "2022-03-09T12:20:00.000Z"
  },
  {
    "airportIcao": "EDDK",
    "metar": "EDDK 091220Z 13009KT 090V170 CAVOK 12/M06 Q1023 NOSIG",
    "updatedAt": "2022-03-09T12:20:00.000Z"
  },
  {
    "airportIcao": "EDDL",
    "metar": "EDDL 091220Z 17009KT 130V210 CAVOK 13/M05 Q1023 NOSIG",
    "updatedAt": "2022-03-09T12:20:00.000Z"
  },
  {
    "airportIcao": "EDDM",
    "metar": "EDDM 091220Z 10006KT 030V140 CAVOK 09/M07 Q1023 NOSIG",
    "updatedAt": "2022-03-09T12:20:00.000Z"
  },
  {
    "airportIcao": "EDDN",
    "metar": "EDDN 091220Z 14005KT 070V200 CAVOK 11/M07 Q1024 NOSIG",
    "updatedAt": "2022-03-09T12:20:00.000Z"
  },
  {
    "airportIcao": "EDDP",
    "metar": "EDDP 091220Z 26003KT 210V320 CAVOK 11/M03 Q1025 NOSIG",
    "updatedAt": "2022-03-09T12:20:00.000Z"
  },
  {
    "airportIcao": "EDDR",
    "metar": "EDDR 091220Z 17004KT 090V230 CAVOK 11/M01 Q1022 NOSIG",
    "updatedAt": "2022-03-09T12:20:00.000Z"
  },
  {
    "airportIcao": "EDDS",
    "metar": "EDDS 091220Z VRB03KT CAVOK 10/M08 Q1023 NOSIG",
    "updatedAt": "2022-03-09T12:20:00.000Z"
  },
  {
    "airportIcao": "EDDV",
    "metar": "EDDV 091220Z 16007KT 110V200 CAVOK 12/M05 Q1025 NOSIG",
    "updatedAt": "2022-03-09T12:20:00.000Z"
  },
  {
    "airportIcao": "EDDW",
    "metar": "EDDW 091220Z 13007KT 090V170 CAVOK 11/M03 Q1024 NOSIG",
    "updatedAt": "2022-03-09T12:20:00.000Z"
  },
  {
    "airportIcao": "EDFH",
    "metar": "EDFH 091220Z 13008KT CAVOK 09/M06 Q1022",
    "updatedAt": "2022-03-09T12:20:00.000Z"
  },
  {
    "airportIcao": "EDFM",
    "metar": "EDFM 091220Z VRB03KT CAVOK 10/M08 Q1024",
    "updatedAt": "2022-03-09T12:20:00.000Z"
  },
  {
    "airportIcao": "EDGS",
    "metar": "EDGS 091220Z 14011KT CAVOK 09/M11 Q1022",
    "updatedAt": "2022-03-09T12:20:00.000Z"
  },
  {
    "airportIcao": "EDHI",
    "metar": "EDHI 091220Z 08006KT 050V120 CAVOK 11/M02 Q1025",
    "updatedAt": "2022-03-09T12:20:00.000Z"
  },
  {
    "airportIcao": "EDHK",
    "metar": "EDHK 091220Z 16007KT 130V190 CAVOK 10/M04 Q1026",
    "updatedAt": "2022-03-09T12:20:00.000Z"
  },
  {
    "airportIcao": "EDHL",
    "metar": "EDHL 091220Z 12005KT 070V200 CAVOK 10/M03 Q1026",
    "updatedAt": "2022-03-09T12:20:00.000Z"
  },
  {
    "airportIcao": "EDJA",
    "metar": "EDJA 091220Z VRB02KT CAVOK 09/M08 Q1023",
    "updatedAt": "2022-03-09T12:20:00.000Z"
  },
  {
    "airportIcao": "EDLN",
    "metar": "EDLN 091220Z 15005KT 100V230 CAVOK 12/M03 Q1022",
    "updatedAt": "2022-03-09T12:20:00.000Z"
  },
  {
    "airportIcao": "EDLP",
    "metar": "EDLP 091220Z 14010KT 110V170 CAVOK 11/M09 Q1023",
    "updatedAt": "2022-03-09T12:20:00.000Z"
  },
  {
    "airportIcao": "EDLV",
    "metar": "EDLV 091220Z 14008KT 120V180 CAVOK 12/M03 Q1022",
    "updatedAt": "2022-03-09T12:20:00.000Z"
  },
  {
    "airportIcao": "EDLW",
    "metar": "EDLW 091220Z 17005KT 120V240 CAVOK 13/M09 Q1023",
    "updatedAt": "2022-03-09T12:20:00.000Z"
  },
  {
    "airportIcao": "EDMA",
    "metar": "EDMA 091220Z 15005KT 090V260 CAVOK 09/M08 Q1023",
    "updatedAt": "2022-03-09T12:20:00.000Z"
  },
  {
    "airportIcao": "EDMO",
    "metar": "EDMO 091220Z 33004KT 250V020 CAVOK 09/M11 Q1023",
    "updatedAt": "2022-03-09T12:20:00.000Z"
  },
  {
    "airportIcao": "EDNY",
    "metar": "EDNY 091220Z VRB03KT CAVOK 09/M03 Q1023",
    "updatedAt": "2022-03-09T12:20:00.000Z"
  },
  {
    "airportIcao": "EDQM",
    "metar": "EDQM 091220Z VRB02KT CAVOK 09/M07 Q1024",
    "updatedAt": "2022-03-09T12:20:00.000Z"
  },
  {
    "airportIcao": "EDSB",
    "metar": "EDSB 091220Z VRB02KT CAVOK 10/M05 Q1024",
    "updatedAt": "2022-03-09T12:20:00.000Z"
  },
  {
    "airportIcao": "EDTL",
    "metar": "EDTL 091220Z VRB02KT CAVOK 11/M04 Q1023",
    "updatedAt": "2022-03-09T12:20:00.000Z"
  },
  {
    "airportIcao": "EDTY",
    "metar": "EDTY 091220Z 28003KT 210V360 CAVOK 10/M06 Q1023",
    "updatedAt": "2022-03-09T12:20:00.000Z"
  },
  {
    "airportIcao": "EDVE",
    "metar": "EDVE 091220Z VRB04KT CAVOK 12/M06 Q1025",
    "updatedAt": "2022-03-09T12:20:00.000Z"
  },
  {
    "airportIcao": "EDVK",
    "metar": "EDVK 091220Z 14009KT CAVOK 11/M07 Q1024",
    "updatedAt": "2022-03-09T12:20:00.000Z"
  },
  {
    "airportIcao": "EDWE",
    "metar": "EDWE 090650Z AUTO 15004KT 120V190 9999 // NCD 00/M04 Q1023",
    "updatedAt": "2022-03-09T06:50:00.000Z"
  },
  {
    "airportIcao": "EDXW",
    "metar": "EDXW 091220Z 15012KT CAVOK 09/M01 Q1025",
    "updatedAt": "2022-03-09T12:20:00.000Z"
  },
  {
    "airportIcao": "EEEI",
    "metar": "EEEI 091150Z 12006KT 090V150 9999 SCT037 M01/M06 Q1031 NOSIG",
    "updatedAt": "2022-03-09T11:50:00.000Z"
  },
  {
    "airportIcao": "EEKA",
    "metar": "EEKA 090820Z 11006KT 9999 BKN007 M01/M02 Q1028",
    "updatedAt": "2022-03-09T08:20:00.000Z"
  },
  {
    "airportIcao": "EEKE",
    "metar": "EEKE 091220Z 09007KT 9999 OVC009 M01/M02 Q1030",
    "updatedAt": "2022-03-09T12:20:00.000Z"
  },
  {
    "airportIcao": "EEPU",
    "metar": "EEPU 091220Z AUTO 07010KT 9999 NCD M01/M08 Q1030",
    "updatedAt": "2022-03-09T12:20:00.000Z"
  },
  {
    "airportIcao": "EETN",
    "metar": "EETN 091220Z 10008KT CAVOK M01/M10 Q1031 NOSIG",
    "updatedAt": "2022-03-09T12:20:00.000Z"
  },
  {
    "airportIcao": "EETU",
    "metar": "EETU 091220Z 12007KT CAVOK M01/M15 Q1031",
    "updatedAt": "2022-03-09T12:20:00.000Z"
  },
  {
    "airportIcao": "EFET",
    "metar": "EFET 091220Z AUTO 20011KT 7000 OVC003 M06/M06 Q1020",
    "updatedAt": "2022-03-09T12:20:00.000Z"
  },
  {
    "airportIcao": "EFHA",
    "metar": "EFHA 091220Z 16006KT 9999 OVC015 M04/M07 Q1031",
    "updatedAt": "2022-03-09T12:20:00.000Z"
  },
  {
    "airportIcao": "EFHK",
    "metar": "EFHK 091220Z 12010KT 070V140 9999 FEW040 M02/M11 Q1032 NOSIG",
    "updatedAt": "2022-03-09T12:20:00.000Z"
  },
  {
    "airportIcao": "EFIV",
    "metar": "EFIV 091220Z 21009KT 170V240 8000 3500SW OVC009 M07/M08 Q1023",
    "updatedAt": "2022-03-09T12:20:00.000Z"
  },
  {
    "airportIcao": "EFJO",
    "metar": "EFJO 091220Z AUTO 17005KT CAVOK M06/M10 Q1032",
    "updatedAt": "2022-03-09T12:20:00.000Z"
  },
  {
    "airportIcao": "EFJY",
    "metar": "EFJY 091220Z AUTO 20007KT 9999 OVC017 M04/M08 Q1032",
    "updatedAt": "2022-03-09T12:20:00.000Z"
  },
  {
    "airportIcao": "EFKE",
    "metar": "EFKE 091220Z AUTO 19013KT 9999 OVC010 M05/M08 Q1030",
    "updatedAt": "2022-03-09T12:20:00.000Z"
  },
  {
    "airportIcao": "EFKI",
    "metar": "EFKI 091220Z AUTO 21005KT 9999 OVC011 M05/M08 Q1031",
    "updatedAt": "2022-03-09T12:20:00.000Z"
  },
  {
    "airportIcao": "EFKK",
    "metar": "EFKK 091220Z AUTO 19009KT 9999 OVC014 M04/M07 Q1031",
    "updatedAt": "2022-03-09T12:20:00.000Z"
  },
  {
    "airportIcao": "EFKS",
    "metar": "EFKS 091220Z 24007KT 200V260 9999 BKN008 M08/M10 Q1027",
    "updatedAt": "2022-03-09T12:20:00.000Z"
  },
  {
    "airportIcao": "EFKT",
    "metar": "EFKT 091220Z AUTO 20010KT 170V230 9999 OVC004 M06/M07 Q1023",
    "updatedAt": "2022-03-09T12:20:00.000Z"
  },
  {
    "airportIcao": "EFKU",
    "metar": "EFKU 091220Z 14006KT 9999 BKN010 M06/M08 Q1032",
    "updatedAt": "2022-03-09T12:20:00.000Z"
  },
  {
    "airportIcao": "EFLP",
    "metar": "EFLP 091220Z AUTO VRB02KT CAVOK M03/M15 Q1032",
    "updatedAt": "2022-03-09T12:20:00.000Z"
  },
  {
    "airportIcao": "EFMA",
    "metar": "EFMA 091220Z 15007KT 110V180 9999 OVC015 02/M03 Q1031",
    "updatedAt": "2022-03-09T12:20:00.000Z"
  },
  {
    "airportIcao": "EFMI",
    "metar": "EFMI 091220Z AUTO 16003KT 130V190 CAVOK M03/M09 Q1032",
    "updatedAt": "2022-03-09T12:20:00.000Z"
  },
  {
    "airportIcao": "EFOU",
    "metar": "EFOU 091220Z AUTO 11007KT CAVOK M04/M08 Q1030",
    "updatedAt": "2022-03-09T12:20:00.000Z"
  },
  {
    "airportIcao": "EFPO",
    "metar": "EFPO 091220Z AUTO 12008KT 9999 OVC018 M02/M06 Q1031",
    "updatedAt": "2022-03-09T12:20:00.000Z"
  },
  {
    "airportIcao": "EFRO",
    "metar": "EFRO 091220Z 21014KT 9999 BKN005 M07/M08 Q1027",
    "updatedAt": "2022-03-09T12:20:00.000Z"
  },
  {
    "airportIcao": "EFSA",
    "metar": "EFSA 091220Z AUTO 24005KT CAVOK M04/M11 Q1032",
    "updatedAt": "2022-03-09T12:20:00.000Z"
  },
  {
    "airportIcao": "EFSI",
    "metar": "EFSI 091220Z AUTO 17008KT 130V220 9999 BKN016 M03/M07 Q1031",
    "updatedAt": "2022-03-09T12:20:00.000Z"
  },
  {
    "airportIcao": "EFTP",
    "metar": "EFTP 091220Z 17007KT 140V210 9999 BKN015 M03/M07 Q1031",
    "updatedAt": "2022-03-09T12:20:00.000Z"
  },
  {
    "airportIcao": "EFTU",
    "metar": "EFTU 091220Z AUTO 12008KT 9999 OVC016 M02/M05 Q1031",
    "updatedAt": "2022-03-09T12:20:00.000Z"
  },
  {
    "airportIcao": "EFUT",
    "metar": "EFUT 091220Z 21005KT 180V260 CAVOK M03/M12 Q1032",
    "updatedAt": "2022-03-09T12:20:00.000Z"
  },
  {
    "airportIcao": "EFVA",
    "metar": "EFVA 091220Z AUTO 19005KT 160V220 9999 SCT018 M01/M06 Q1031",
    "updatedAt": "2022-03-09T12:20:00.000Z"
  },
  {
    "airportIcao": "EGAA",
    "metar": "EGAA 091220Z 32006KT 280V340 3900 RA SCT005 BKN012 06/05 Q1004",
    "updatedAt": "2022-03-09T12:20:00.000Z"
  },
  {
    "airportIcao": "EGAC",
    "metar": "EGAC 091220Z 27005G10KT 220V330 4000 R22/1000N +RA SCT011 BKN016 OVC034 07/05 Q1004",
    "updatedAt": "2022-03-09T12:20:00.000Z"
  },
  {
    "airportIcao": "EGAE",
    "metar": "EGAE 091220Z 27005KT 9999 -RA FEW010 BKN035 06/05 Q1004",
    "updatedAt": "2022-03-09T12:20:00.000Z"
  },
  {
    "airportIcao": "EGBB",
    "metar": "EGBB 091220Z 18016KT 9999 BKN034 11/04 Q1013",
    "updatedAt": "2022-03-09T12:20:00.000Z"
  },
  {
    "airportIcao": "EGBJ",
    "metar": "EGBJ 091220Z 17016G27KT 9999 FEW024 SCT030 12/06 Q1013",
    "updatedAt": "2022-03-09T12:20:00.000Z"
  },
  {
    "airportIcao": "EGCC",
    "metar": "EGCC 091220Z AUTO 18010KT 130V230 9999 BKN035 BKN044 11/03 Q1011 NOSIG",
    "updatedAt": "2022-03-09T12:20:00.000Z"
  },
  {
    "airportIcao": "EGCK",
    "metar": "EGCK 091220Z 17023G35KT 9999 FEW029 11/05 Q1007",
    "updatedAt": "2022-03-09T12:20:00.000Z"
  },
  {
    "airportIcao": "EGCN",
    "metar": "EGCN 091220Z 16014G25KT 9999 SCT033 13/05 Q1014",
    "updatedAt": "2022-03-09T12:20:00.000Z"
  },
  {
    "airportIcao": "EGDM",
    "metar": "EGDM 091150Z 18015KT 9999 FEW018 BKN022 10/05 Q1014 BECMG SCT025 RMK WHT BECMG BLU",
    "updatedAt": "2022-03-09T11:50:00.000Z"
  },
  {
    "airportIcao": "EGDR",
    "metar": "EGDR 091219Z 16022G36KT 7000 -RADZ FEW007 SCT010 BKN020 10/08 Q1007 NOSIG RMK GRN GRN",
    "updatedAt": "2022-03-09T12:19:00.000Z"
  },
  {
    "airportIcao": "EGDY",
    "metar": "EGDY 091220Z 17016KT 9999 FEW020 SCT022 BKN200 11/06 Q1012 BECMG BKN035 RMK WHT BECMG BLU",
    "updatedAt": "2022-03-09T12:20:00.000Z"
  },
  {
    "airportIcao": "EGEC",
    "metar": "EGEC 091150Z 24014KT 3700 RA BKN012 SCT021 06/06 Q1003",
    "updatedAt": "2022-03-09T11:50:00.000Z"
  },
  {
    "airportIcao": "EGEO",
    "metar": "EGEO 091220Z 23012KT 5000 -RADZ FEW012 BKN018 07/06 Q1003",
    "updatedAt": "2022-03-09T12:20:00.000Z"
  },
  {
    "airportIcao": "EGFF",
    "metar": "EGFF 091220Z AUTO 17012KT 9999 SCT024 OVC029 10/07 Q1012",
    "updatedAt": "2022-03-09T12:20:00.000Z"
  },
  {
    "airportIcao": "EGGD",
    "metar": "EGGD 091220Z AUTO 16016KT 9999 BKN018 OVC027 09/05 Q1012",
    "updatedAt": "2022-03-09T12:20:00.000Z"
  },
  {
    "airportIcao": "EGGP",
    "metar": "EGGP 091220Z 16020KT 9999 FEW026 BKN032 11/05 Q1010",
    "updatedAt": "2022-03-09T12:20:00.000Z"
  },
  {
    "airportIcao": "EGGW",
    "metar": "EGGW 091220Z AUTO 19012KT 150V220 9999 SCT028 BKN036 11/05 Q1015",
    "updatedAt": "2022-03-09T12:20:00.000Z"
  },
  {
    "airportIcao": "EGHC",
    "metar": "EGHC 091220Z 17031KT 7000 -RADZ FEW005 SCT008 BKN016 09/08 Q1006",
    "updatedAt": "2022-03-09T12:20:00.000Z"
  },
  {
    "airportIcao": "EGHE",
    "metar": "EGHE 091220Z 17036G46KT 5000 -RADZ FEW008 BKN014 10/09 Q1004",
    "updatedAt": "2022-03-09T12:20:00.000Z"
  },
  {
    "airportIcao": "EGHH",
    "metar": "EGHH 091220Z 18014KT 9999 FEW016 SCT022 11/08 Q1015",
    "updatedAt": "2022-03-09T12:20:00.000Z"
  },
  {
    "airportIcao": "EGHI",
    "metar": "EGHI 091220Z 16010KT 120V200 9999 SCT022 11/06 Q1016",
    "updatedAt": "2022-03-09T12:20:00.000Z"
  },
  {
    "airportIcao": "EGHQ",
    "metar": "EGHQ 091220Z 16024KT 9000 -RA BKN013 10/08 Q1007",
    "updatedAt": "2022-03-09T12:20:00.000Z"
  },
  {
    "airportIcao": "EGJA",
    "metar": "EGJA 091220Z 16021KT 9999 FEW010 10/07 Q1014",
    "updatedAt": "2022-03-09T12:20:00.000Z"
  },
  {
    "airportIcao": "EGJB",
    "metar": "EGJB 091220Z 15016KT 9999 FEW012 11/08 Q1013",
    "updatedAt": "2022-03-09T12:20:00.000Z"
  },
  {
    "airportIcao": "EGJJ",
    "metar": "EGJJ 091220Z 14018KT 9999 FEW010 10/09 Q1014",
    "updatedAt": "2022-03-09T12:20:00.000Z"
  },
  {
    "airportIcao": "EGKA",
    "metar": "EGKA 091220Z 16012KT 9999 FEW018 11/07 Q1017",
    "updatedAt": "2022-03-09T12:20:00.000Z"
  },
  {
    "airportIcao": "EGKB",
    "metar": "EGKB 091220Z 18016KT 9999 BKN019 09/05 Q1016",
    "updatedAt": "2022-03-09T12:20:00.000Z"
  },
  {
    "airportIcao": "EGKK",
    "metar": "EGKK 091220Z 18009KT 9999 BKN020 10/06 Q1016",
    "updatedAt": "2022-03-09T12:20:00.000Z"
  },
  {
    "airportIcao": "EGLC",
    "metar": "EGLC 091220Z AUTO 19011KT 150V220 9999 SCT027 BKN036 12/05 Q1017",
    "updatedAt": "2022-03-09T12:20:00.000Z"
  },
  {
    "airportIcao": "EGLF",
    "metar": "EGLF 091220Z 16013KT 130V200 9999 SCT023 BKN029 11/05 Q1015",
    "updatedAt": "2022-03-09T12:20:00.000Z"
  },
  {
    "airportIcao": "EGLL",
    "metar": "EGLL 091220Z AUTO 19017KT 9999 BKN027 12/05 Q1016 NOSIG",
    "updatedAt": "2022-03-09T12:20:00.000Z"
  },
  {
    "airportIcao": "EGMC",
    "metar": "EGMC 091220Z 17017KT 9999 BKN027 11/07 Q1017",
    "updatedAt": "2022-03-09T12:20:00.000Z"
  },
  {
    "airportIcao": "EGMD",
    "metar": "EGMD 091220Z 18016KT 9999 FEW009 11/08 Q1019",
    "updatedAt": "2022-03-09T12:20:00.000Z"
  },
  {
    "airportIcao": "EGNH",
    "metar": "EGNH 091220Z 18021G32KT 9999 SCT033 12/06 Q1010",
    "updatedAt": "2022-03-09T12:20:00.000Z"
  },
  {
    "airportIcao": "EGNJ",
    "metar": "EGNJ 091220Z 18018KT 9999 SCT025 13/06 Q1014",
    "updatedAt": "2022-03-09T12:20:00.000Z"
  },
  {
    "airportIcao": "EGNM",
    "metar": "EGNM 091220Z 17017G27KT 9999 SCT028 11/03 Q1011",
    "updatedAt": "2022-03-09T12:20:00.000Z"
  },
  {
    "airportIcao": "EGNO",
    "metar": "EGNO 091220Z 17017KT 9999 FEW031 SCT043 11/06 Q1010",
    "updatedAt": "2022-03-09T12:20:00.000Z"
  },
  {
    "airportIcao": "EGNR",
    "metar": "EGNR 091220Z 16016G26KT 9999 SCT014 SCT031 12/05 Q1010",
    "updatedAt": "2022-03-09T12:20:00.000Z"
  },
  {
    "airportIcao": "EGNS",
    "metar": "EGNS 091220Z 17023KT 140V200 9999 FEW016 10/06 Q1006 NOSIG",
    "updatedAt": "2022-03-09T12:20:00.000Z"
  },
  {
    "airportIcao": "EGNT",
    "metar": "EGNT 091220Z 17012KT 120V200 9999 FEW030 10/04 Q1010",
    "updatedAt": "2022-03-09T12:20:00.000Z"
  },
  {
    "airportIcao": "EGNV",
    "metar": "EGNV 091220Z 16019KT 9999 FEW030 11/04 Q1011",
    "updatedAt": "2022-03-09T12:20:00.000Z"
  },
  {
    "airportIcao": "EGNX",
    "metar": "EGNX 091220Z 17018KT 9999 BKN031 11/03 Q1013",
    "updatedAt": "2022-03-09T12:20:00.000Z"
  },
  {
    "airportIcao": "EGOM",
    "metar": "EGOM 091150Z 19021G31KT 9999 SCT026 BKN070 BKN180 09/03 Q1008 BLU",
    "updatedAt": "2022-03-09T11:50:00.000Z"
  },
  {
    "airportIcao": "EGOP",
    "metar": "EGOP 091150Z AUTO 16021KT 9000 // BKN028/// SCT033/// BKN070/// 11/07 Q1009",
    "updatedAt": "2022-03-09T11:50:00.000Z"
  },
  {
    "airportIcao": "EGOS",
    "metar": "EGOS 091150Z 17017KT 9999 SCT028 BKN035 11/04 Q1011 TEMPO 17018G28KT RMK BLU TEMPO BLU",
    "updatedAt": "2022-03-09T11:50:00.000Z"
  },
  {
    "airportIcao": "EGOV",
    "metar": "EGOV 091220Z 16026KT 9999 BKN033 BKN042 11/06 Q1006 NOSIG RMK BLU BLU",
    "updatedAt": "2022-03-09T12:20:00.000Z"
  },
  {
    "airportIcao": "EGOW",
    "metar": "EGOW 091150Z 16020KT 9999 BKN022 12/04 Q1010 RMK WHT",
    "updatedAt": "2022-03-09T11:50:00.000Z"
  },
  {
    "airportIcao": "EGPA",
    "metar": "EGPA 091220Z 16027KT 9999 FEW013 08/04 Q1001",
    "updatedAt": "2022-03-09T12:20:00.000Z"
  },
  {
    "airportIcao": "EGPB",
    "metar": "EGPB 091220Z 18031G47KT 5000 HZ FEW009 BKN014 08/05 Q1004 NOSIG",
    "updatedAt": "2022-03-09T12:20:00.000Z"
  },
  {
    "airportIcao": "EGPC",
    "metar": "EGPC 091220Z 15021KT 9999 FEW024 08/04 Q1001",
    "updatedAt": "2022-03-09T12:20:00.000Z"
  },
  {
    "airportIcao": "EGPD",
    "metar": "EGPD 091220Z AUTO 16026KT 9999 FEW018 BKN046 08/05 Q1006",
    "updatedAt": "2022-03-09T12:20:00.000Z"
  },
  {
    "airportIcao": "EGPE",
    "metar": "EGPE 091220Z 22018KT 9999 FEW022 SCT038 11/04 Q1001",
    "updatedAt": "2022-03-09T12:20:00.000Z"
  },
  {
    "airportIcao": "EGPF",
    "metar": "EGPF 091220Z AUTO 16017KT 9999 -RA OVC021/// //////TCU 09/05 Q1005",
    "updatedAt": "2022-03-09T12:20:00.000Z"
  },
  {
    "airportIcao": "EGPH",
    "metar": "EGPH 091220Z 20015KT 160V230 9999 SCT031 10/03 Q1007",
    "updatedAt": "2022-03-09T12:20:00.000Z"
  },
  {
    "airportIcao": "EGPI",
    "metar": "EGPI 091220Z 29011KT 9999 FEW012 SCT016 BKN039 07/05 Q1003",
    "updatedAt": "2022-03-09T12:20:00.000Z"
  },
  {
    "airportIcao": "EGPK",
    "metar": "EGPK 091220Z 17022G34KT 9999 FEW023 BKN027 10/05 Q1004",
    "updatedAt": "2022-03-09T12:20:00.000Z"
  },
  {
    "airportIcao": "EGPL",
    "metar": "EGPL 091220Z 23014KT 9999 FEW018 SCT022 07/03 Q1000",
    "updatedAt": "2022-03-09T12:20:00.000Z"
  },
  {
    "airportIcao": "EGPN",
    "metar": "EGPN 091220Z 22014KT 9999 SCT038 10/05 Q1006",
    "updatedAt": "2022-03-09T12:20:00.000Z"
  },
  {
    "airportIcao": "EGPO",
    "metar": "EGPO 091220Z 24012KT 9999 FEW012 06/04 Q0999",
    "updatedAt": "2022-03-09T12:20:00.000Z"
  },
  {
    "airportIcao": "EGPU",
    "metar": "EGPU 091220Z 26009KT 9999 FEW031 BKN046 07/04 Q1002",
    "updatedAt": "2022-03-09T12:20:00.000Z"
  },
  {
    "airportIcao": "EGQA",
    "metar": "EGQA 091050Z 17019KT 9999 FEW015 SCT140 11/// Q1000 RMK BLU",
    "updatedAt": "2022-03-09T10:50:00.000Z"
  },
  {
    "airportIcao": "EGQK",
    "metar": "EGQK 091150Z AUTO 18015G25KT 9999 BKN041/// BKN050/// 12/03 Q1001",
    "updatedAt": "2022-03-09T11:50:00.000Z"
  },
  {
    "airportIcao": "EGQL",
    "metar": "EGQL 091150Z AUTO 19009KT 9999 SCT039/// BKN050/// 10/04 Q1006",
    "updatedAt": "2022-03-09T11:50:00.000Z"
  },
  {
    "airportIcao": "EGQM",
    "metar": "EGQM 091150Z AUTO 16019KT 9999 NCD 10/05 Q1009",
    "updatedAt": "2022-03-09T11:50:00.000Z"
  },
  {
    "airportIcao": "EGQS",
    "metar": "EGQS 091220Z 18026G41KT 9999 SCT042 SCT130 BKN220 12/03 Q1001 NOSIG RMK BLU BLU",
    "updatedAt": "2022-03-09T12:20:00.000Z"
  },
  {
    "airportIcao": "EGSC",
    "metar": "EGSC 091220Z 18016G26KT 9999 BKN019 13/05 Q1016",
    "updatedAt": "2022-03-09T12:20:00.000Z"
  },
  {
    "airportIcao": "EGSH",
    "metar": "EGSH 091220Z 20012KT 160V230 9000 SCT020 BKN025 11/07 Q1017 NOSIG",
    "updatedAt": "2022-03-09T12:20:00.000Z"
  },
  {
    "airportIcao": "EGSS",
    "metar": "EGSS 091220Z AUTO 17015KT 9999 SCT025 BKN031 12/06 Q1016",
    "updatedAt": "2022-03-09T12:20:00.000Z"
  },
  {
    "airportIcao": "EGSY",
    "metar": "EGSY 091220Z 16012G22KT 130V210 9999 BKN026 10/06 Q1011",
    "updatedAt": "2022-03-09T12:20:00.000Z"
  },
  {
    "airportIcao": "EGTC",
    "metar": "EGTC 091220Z 17010KT 140V200 9999 SCT031 12/04 Q1014",
    "updatedAt": "2022-03-09T12:20:00.000Z"
  },
  {
    "airportIcao": "EGTE",
    "metar": "EGTE 091220Z 15023KT 9999 BKN014 11/08 Q1012",
    "updatedAt": "2022-03-09T12:20:00.000Z"
  },
  {
    "airportIcao": "EGTK",
    "metar": "EGTK 091220Z 18018KT 9999 SCT030 12/05 Q1014",
    "updatedAt": "2022-03-09T12:20:00.000Z"
  },
  {
    "airportIcao": "EGUB",
    "metar": "EGUB 091220Z 17016KT 9999 SCT027 11/04 Q1014 NOSIG RMK BLU BLU",
    "updatedAt": "2022-03-09T12:20:00.000Z"
  },
  {
    "airportIcao": "EGUL",
    "metar": "EGUL 091156Z 17009KT 9999 SCT024 BKN036 12/08 A3000 RMK AO2A SLP163 T01150078 10115 20059 57002 $",
    "updatedAt": "2022-03-09T11:56:00.000Z"
  },
  {
    "airportIcao": "EGUN",
    "metar": "EGUN 091156Z 18015G22KT 9999 BKN030 BKN040 12/06 A3000",
    "updatedAt": "2022-03-09T11:56:00.000Z"
  },
  {
    "airportIcao": "EGUW",
    "metar": "EGUW 091150Z 18013KT 9999 BKN013 10/06 Q1017 BECMG BKN018 RMK GRN BECMG WHT",
    "updatedAt": "2022-03-09T11:50:00.000Z"
  },
  {
    "airportIcao": "EGVA",
    "metar": "EGVA 091156Z AUTO 16019G25KT 9999 FEW033 11/05 A2992 RMK AO2 SLP137 T01120053 10113 20071 58001 FZRANO $",
    "updatedAt": "2022-03-09T11:56:00.000Z"
  },
  {
    "airportIcao": "EGVN",
    "metar": "EGVN 091220Z 17015KT 9999 SCT032 11/03 Q1014 NOSIG RMK BLU BLU",
    "updatedAt": "2022-03-09T12:20:00.000Z"
  },
  {
    "airportIcao": "EGVO",
    "metar": "EGVO 091224Z 17015G25KT 9999 SCT021 10/05 Q1015 BECMG FEW025 RMK WHT BECMG BLU",
    "updatedAt": "2022-03-09T12:24:00.000Z"
  },
  {
    "airportIcao": "EGVP",
    "metar": "EGVP 091221Z 19016KT 9999 BKN022 10/05 Q1014 BECMG BKN025 RMK WHT BECMG BLU",
    "updatedAt": "2022-03-09T12:21:00.000Z"
  },
  {
    "airportIcao": "EGWC",
    "metar": "EGWC 090950Z 18016KT 9999 FEW018 BKN020 09/06 Q1012 RMK WHT",
    "updatedAt": "2022-03-09T09:50:00.000Z"
  },
  {
    "airportIcao": "EGWU",
    "metar": "EGWU 091220Z 18016KT 9999 FEW030 12/04 Q1015 NOSIG RMK BLU BLU",
    "updatedAt": "2022-03-09T12:20:00.000Z"
  },
  {
    "airportIcao": "EGXC",
    "metar": "EGXC 091219Z 18016KT 9999 FEW028 13/06 Q1014 NOSIG RMK BLU BLU",
    "updatedAt": "2022-03-09T12:19:00.000Z"
  },
  {
    "airportIcao": "EGXE",
    "metar": "EGXE 091220Z 16016KT 9999 FEW038 BKN250 12/04 Q1011 NOSIG RMK BLU BLU",
    "updatedAt": "2022-03-09T12:20:00.000Z"
  },
  {
    "airportIcao": "EGXP",
    "metar": "EGXP 091150Z 18017KT 9999 FEW030 12/04 Q1013",
    "updatedAt": "2022-03-09T11:50:00.000Z"
  },
  {
    "airportIcao": "EGXS",
    "metar": "EGXS 091150Z 17014G24KT 9999 FEW019 BKN023 11/06 Q1015 WHT",
    "updatedAt": "2022-03-09T11:50:00.000Z"
  },
  {
    "airportIcao": "EGXT",
    "metar": "EGXT 091150Z AUTO 17016KT 9999 SCT028/// 12/05 Q1014",
    "updatedAt": "2022-03-09T11:50:00.000Z"
  },
  {
    "airportIcao": "EGXV",
    "metar": "EGXV 091150Z AUTO 18013G23KT 9999 SCT028/// 12/05 Q1013",
    "updatedAt": "2022-03-09T11:50:00.000Z"
  },
  {
    "airportIcao": "EGXW",
    "metar": "EGXW 091220Z 17023KT 9999 FEW028 12/04 Q1013 NOSIG RMK BLU BLU",
    "updatedAt": "2022-03-09T12:20:00.000Z"
  },
  {
    "airportIcao": "EGXZ",
    "metar": "EGXZ 091150Z AUTO 16016KT 9999 SCT031/// 11/05 Q1012",
    "updatedAt": "2022-03-09T11:50:00.000Z"
  },
  {
    "airportIcao": "EGYD",
    "metar": "EGYD 091220Z 17018KT 9999 FEW028 12/04 Q1014 NOSIG RMK BLU BLU",
    "updatedAt": "2022-03-09T12:20:00.000Z"
  },
  {
    "airportIcao": "EGYE",
    "metar": "EGYE 090950Z 17015KT 9999 SCT015 BKN025 ///// Q1014 RMK WHT",
    "updatedAt": "2022-03-09T09:50:00.000Z"
  },
  {
    "airportIcao": "EGYH",
    "metar": "EGYH 091150Z 19021KT 9999 SCT025 13/06 Q1015 RMK BLU",
    "updatedAt": "2022-03-09T11:50:00.000Z"
  },
  {
    "airportIcao": "EGYM",
    "metar": "EGYM 091222Z 17016KT 9999 SCT026 SCT033 12/07 Q1016 NOSIG RMK BLU BLU",
    "updatedAt": "2022-03-09T12:22:00.000Z"
  },
  {
    "airportIcao": "EGYP",
    "metar": "EGYP 091231Z 07025G38KT 6000 RA BKN006 OVC008 10/10 Q0986 TEMPO 9999 -RA FEW006 OVC008",
    "updatedAt": "2022-03-09T12:31:00.000Z"
  },
  {
    "airportIcao": "EHAK",
    "metar": "EHAK 091225Z AUTO 16024KT 9999 NCD 07/03 Q1019",
    "updatedAt": "2022-03-09T12:25:00.000Z"
  },
  {
    "airportIcao": "EHAM",
    "metar": "EHAM 091225Z 14011KT 120V180 CAVOK 12/M01 Q1021 NOSIG",
    "updatedAt": "2022-03-09T12:25:00.000Z"
  },
  {
    "airportIcao": "EHBK",
    "metar": "EHBK 091225Z AUTO 17007KT 100V230 9999 NCD 13/M04 Q1022 NOSIG",
    "updatedAt": "2022-03-09T12:25:00.000Z"
  },
  {
    "airportIcao": "EHDL",
    "metar": "EHDL 091225Z AUTO 14011KT 070V230 9999 NCD 12/M04 Q1022 BLU",
    "updatedAt": "2022-03-09T12:25:00.000Z"
  },
  {
    "airportIcao": "EHDV",
    "metar": "EHDV 091225Z AUTO 15023KT 9999 NCD ///// Q1018",
    "updatedAt": "2022-03-09T12:25:00.000Z"
  },
  {
    "airportIcao": "EHEH",
    "metar": "EHEH 091225Z AUTO 12007KT 080V210 9999 NCD 13/M02 Q1022 BLU NOSIG",
    "updatedAt": "2022-03-09T12:25:00.000Z"
  },
  {
    "airportIcao": "EHFD",
    "metar": "EHFD 091225Z AUTO 15020KT 9999 // NCD 07/02 Q1020 RE//",
    "updatedAt": "2022-03-09T12:25:00.000Z"
  },
  {
    "airportIcao": "EHFS",
    "metar": "EHFS 091225Z AUTO 11011KT 080V140 9999 NCD 11/05 Q1020",
    "updatedAt": "2022-03-09T12:25:00.000Z"
  },
  {
    "airportIcao": "EHGG",
    "metar": "EHGG 091225Z AUTO 13009KT 070V170 9999 NCD 11/M05 Q1022 NOSIG",
    "updatedAt": "2022-03-09T12:25:00.000Z"
  },
  {
    "airportIcao": "EHGR",
    "metar": "EHGR 091225Z AUTO 17007KT 130V240 9999 NCD 14/M02 Q1021 BLU NOSIG",
    "updatedAt": "2022-03-09T12:25:00.000Z"
  },
  {
    "airportIcao": "EHHW",
    "metar": "EHHW 091225Z AUTO 15010KT 100V200 //// // NCD 06/M01 Q1022 RE//",
    "updatedAt": "2022-03-09T12:25:00.000Z"
  },
  {
    "airportIcao": "EHJA",
    "metar": "EHJA 091225Z AUTO 15019KT 9999 NCD 07/04 Q////",
    "updatedAt": "2022-03-09T12:25:00.000Z"
  },
  {
    "airportIcao": "EHKD",
    "metar": "EHKD 091225Z AUTO 15012KT 110V180 9999 NCD 11/M01 Q1021 BLU NOSIG",
    "updatedAt": "2022-03-09T12:25:00.000Z"
  },
  {
    "airportIcao": "EHKV",
    "metar": "EHKV 091225Z AUTO 18015KT 9999 NCD 07/03 Q1019",
    "updatedAt": "2022-03-09T12:25:00.000Z"
  },
  {
    "airportIcao": "EHLE",
    "metar": "EHLE 091225Z AUTO 17012KT 9999 NCD 13/M04 Q1022 NOSIG",
    "updatedAt": "2022-03-09T12:25:00.000Z"
  },
  {
    "airportIcao": "EHLW",
    "metar": "EHLW 091225Z AUTO 16009KT 110V180 9999 NCD 11/M02 Q1022 BLU NOSIG",
    "updatedAt": "2022-03-09T12:25:00.000Z"
  },
  {
    "airportIcao": "EHMA",
    "metar": "EHMA 091225Z AUTO 13013KT 9999 NCD 09/M03 Q1022",
    "updatedAt": "2022-03-09T12:25:00.000Z"
  },
  {
    "airportIcao": "EHMG",
    "metar": "EHMG 091225Z AUTO 16019KT 9999 NCD 07/M00 Q1022",
    "updatedAt": "2022-03-09T12:25:00.000Z"
  },
  {
    "airportIcao": "EHPG",
    "metar": "EHPG 091225Z AUTO 14018KT 090V160 9999 NCD 07/03 Q1019",
    "updatedAt": "2022-03-09T12:25:00.000Z"
  },
  {
    "airportIcao": "EHQE",
    "metar": "EHQE 091225Z AUTO 15018KT 9999 NCD 08/// Q1020",
    "updatedAt": "2022-03-09T12:25:00.000Z"
  },
  {
    "airportIcao": "EHRD",
    "metar": "EHRD 091225Z AUTO 14009KT 100V170 9999 NCD 13/M00 Q1021 NOSIG",
    "updatedAt": "2022-03-09T12:25:00.000Z"
  },
  {
    "airportIcao": "EHSA",
    "metar": "EHSA 091225Z AUTO 13015KT 9999 ///////// 08/02 Q1020 W07/H7",
    "updatedAt": "2022-03-09T12:25:00.000Z"
  },
  {
    "airportIcao": "EHSC",
    "metar": "EHSC 091225Z AUTO 15022KT 9999 ///////// 09/02 Q1020 W07/H5",
    "updatedAt": "2022-03-09T12:25:00.000Z"
  },
  {
    "airportIcao": "EHVK",
    "metar": "EHVK 091225Z AUTO 16009KT 090V170 9999 NCD 13/M03 Q1022 BLU BECMG 16007KT",
    "updatedAt": "2022-03-09T12:25:00.000Z"
  },
  {
    "airportIcao": "EHVL",
    "metar": "EHVL 091225Z AUTO 15015KT 9999 NCD 07/M00 Q1021 BLU",
    "updatedAt": "2022-03-09T12:25:00.000Z"
  },
  {
    "airportIcao": "EHWO",
    "metar": "EHWO 091225Z AUTO 16006KT 130V210 9999 NCD 14/M02 Q1021 BLU NOSIG",
    "updatedAt": "2022-03-09T12:25:00.000Z"
  },
  {
    "airportIcao": "EICK",
    "metar": "EICK 091230Z 34020KT 9999 -RA BKN005 OVC022 02/02 Q1003 NOSIG",
    "updatedAt": "2022-03-09T12:30:00.000Z"
  },
  {
    "airportIcao": "EIDL",
    "metar": "EIDL 091230Z 21004KT 170V240 9999 FEW041 08/04 Q1004",
    "updatedAt": "2022-03-09T12:30:00.000Z"
  },
  {
    "airportIcao": "EIDW",
    "metar": "EIDW 091230Z 29010KT 210V320 6000 RA FEW006 SCT012 BKN017 07/06 Q1003 NOSIG",
    "updatedAt": "2022-03-09T12:30:00.000Z"
  },
  {
    "airportIcao": "EIKN",
    "metar": "EIKN 091230Z 27004KT 220V330 9999 FEW030 BKN085 06/02 Q1004 NOSIG",
    "updatedAt": "2022-03-09T12:30:00.000Z"
  },
  {
    "airportIcao": "EIKY",
    "metar": "EIKY 091230Z 03004KT 280V080 9999 FEW015 BKN029 OVC044 07/04 Q1005",
    "updatedAt": "2022-03-09T12:30:00.000Z"
  },
  {
    "airportIcao": "EIME",
    "metar": "EIME 091230Z 28009KT 3000 RA SCT006 BKN020 06/06 Q1003",
    "updatedAt": "2022-03-09T12:30:00.000Z"
  },
  {
    "airportIcao": "EINN",
    "metar": "EINN 091230Z 07007KT 9999 FEW030 BKN050 BKN080 06/04 Q1005 NOSIG",
    "updatedAt": "2022-03-09T12:30:00.000Z"
  },
  {
    "airportIcao": "EISG",
    "metar": "EISG 091230Z 24004KT CAVOK 07/03 Q1005",
    "updatedAt": "2022-03-09T12:30:00.000Z"
  },
  {
    "airportIcao": "EIWF",
    "metar": "EIWF 091230Z 19016G28KT 160V220 5000 RA BKN006 09/08 Q1003 R21/2/////",
    "updatedAt": "2022-03-09T12:30:00.000Z"
  },
  {
    "airportIcao": "EKAH",
    "metar": "EKAH 091220Z AUTO 14003KT 3400 BR OVC003/// 02/02 Q1028",
    "updatedAt": "2022-03-09T12:20:00.000Z"
  },
  {
    "airportIcao": "EKBI",
    "metar": "EKBI 091220Z AUTO 11008KT 080V150 9999 NCD 07/01 Q1026",
    "updatedAt": "2022-03-09T12:20:00.000Z"
  },
  {
    "airportIcao": "EKCH",
    "metar": "EKCH 091220Z 03003KT 1400 R22L/1300N R04L/P1500N R12/P1500N BR BKN003 00/M00 Q1028 BECMG 3000 SCT004",
    "updatedAt": "2022-03-09T12:20:00.000Z"
  },
  {
    "airportIcao": "EKEB",
    "metar": "EKEB 091220Z AUTO 14010KT 110V170 9999 NCD 10/M03 Q1025",
    "updatedAt": "2022-03-09T12:20:00.000Z"
  },
  {
    "airportIcao": "EKKA",
    "metar": "EKKA 091220Z AUTO 13010KT 9999 NCD 08/M00 Q1025 NOSIG",
    "updatedAt": "2022-03-09T12:20:00.000Z"
  },
  {
    "airportIcao": "EKOD",
    "metar": "EKOD 091220Z 08007KT 9999 FEW003 04/03 Q1027",
    "updatedAt": "2022-03-09T12:20:00.000Z"
  },
  {
    "airportIcao": "EKRK",
    "metar": "EKRK 091220Z AUTO 13003KT 9999 NCD 03/00 Q1027",
    "updatedAt": "2022-03-09T12:20:00.000Z"
  },
  {
    "airportIcao": "EKRN",
    "metar": "EKRN 091220Z AUTO 19003KT 9999 NCD 07/02 Q1027",
    "updatedAt": "2022-03-09T12:20:00.000Z"
  },
  {
    "airportIcao": "EKRS",
    "metar": "EKRS 091220Z AUTO VRB03KT 9999 OVC003/// 02/02 Q1027",
    "updatedAt": "2022-03-09T12:20:00.000Z"
  },
  {
    "airportIcao": "EKSB",
    "metar": "EKSB 091220Z 12008KT CAVOK 09/M03 Q1026",
    "updatedAt": "2022-03-09T12:20:00.000Z"
  },
  {
    "airportIcao": "EKSP",
    "metar": "EKSP 091220Z 11009KT 080V140 CAVOK 09/M00 Q1025 NOSIG",
    "updatedAt": "2022-03-09T12:20:00.000Z"
  },
  {
    "airportIcao": "EKVD",
    "metar": "EKVD 091150Z 12009KT CAVOK 08/01 Q1026",
    "updatedAt": "2022-03-09T11:50:00.000Z"
  },
  {
    "airportIcao": "EKVG",
    "metar": "EKVG 091220Z 17028G41KT 9999 -RA FEW006 BKN010 BKN014 05/03 Q0988 RMK WIND SKEID 16036G54KT",
    "updatedAt": "2022-03-09T12:20:00.000Z"
  },
  {
    "airportIcao": "EKVJ",
    "metar": "EKVJ 091150Z 15012KT 120V180 CAVOK 07/02 Q1026",
    "updatedAt": "2022-03-09T11:50:00.000Z"
  },
  {
    "airportIcao": "EKYT",
    "metar": "EKYT 091220Z AUTO 14010KT 9999 BKN006/// 03/02 Q1027",
    "updatedAt": "2022-03-09T12:20:00.000Z"
  },
  {
    "airportIcao": "ELLX",
    "metar": "ELLX 091220Z 17007KT 130V210 CAVOK 09/M02 Q1022 NOSIG",
    "updatedAt": "2022-03-09T12:20:00.000Z"
  },
  {
    "airportIcao": "ENAL",
    "metar": "ENAL 091220Z 18010KT CAVOK 11/M05 Q1014",
    "updatedAt": "2022-03-09T12:20:00.000Z"
  },
  {
    "airportIcao": "ENAN",
    "metar": "ENAN 091220Z 19012KT CAVOK 03/M01 Q1015",
    "updatedAt": "2022-03-09T12:20:00.000Z"
  },
  {
    "airportIcao": "ENAT",
    "metar": "ENAT 091220Z 15011KT CAVOK M02/M09 Q1019 RMK WIND 700FT 14014KT",
    "updatedAt": "2022-03-09T12:20:00.000Z"
  },
  {
    "airportIcao": "ENBL",
    "metar": "ENBL 091150Z 18011KT CAVOK 08/M08 Q1017",
    "updatedAt": "2022-03-09T11:50:00.000Z"
  },
  {
    "airportIcao": "ENBN",
    "metar": "ENBN 091220Z 11004KT 060V200 CAVOK 09/M04 Q1018",
    "updatedAt": "2022-03-09T12:20:00.000Z"
  },
  {
    "airportIcao": "ENBO",
    "metar": "ENBO 091220Z 10017KT CAVOK 07/M05 Q1017",
    "updatedAt": "2022-03-09T12:20:00.000Z"
  },
  {
    "airportIcao": "ENBR",
    "metar": "ENBR 091220Z 17021KT CAVOK 11/M05 Q1018 NOSIG RMK WIND 1200FT 16037G47KT",
    "updatedAt": "2022-03-09T12:20:00.000Z"
  },
  {
    "airportIcao": "ENBS",
    "metar": "ENBS 091220Z 19018KT CAVOK M05/M07 Q1018",
    "updatedAt": "2022-03-09T12:20:00.000Z"
  },
  {
    "airportIcao": "ENBV",
    "metar": "ENBV 091220Z 22016KT CAVOK M01/M07 Q1017",
    "updatedAt": "2022-03-09T12:20:00.000Z"
  },
  {
    "airportIcao": "ENCN",
    "metar": "ENCN 091220Z 05008KT 020V080 9999 BKN011 03/M00 Q1027",
    "updatedAt": "2022-03-09T12:20:00.000Z"
  },
  {
    "airportIcao": "ENDR",
    "metar": "ENDR 091220Z AUTO 17012KT 07/01 Q1015",
    "updatedAt": "2022-03-09T12:20:00.000Z"
  },
  {
    "airportIcao": "ENDU",
    "metar": "ENDU 091220Z VRB02KT CAVOK 00/M07 Q1017 NOSIG RMK WIND 1100FT 15008KT WIND 2200FT 19014KT",
    "updatedAt": "2022-03-09T12:20:00.000Z"
  },
  {
    "airportIcao": "ENEV",
    "metar": "ENEV 091220Z 22012KT CAVOK 01/M03 Q1017 RMK WIND 1400FT 14016KT",
    "updatedAt": "2022-03-09T12:20:00.000Z"
  },
  {
    "airportIcao": "ENFB",
    "metar": "ENFB 091220Z AUTO 16056KT 9999NDV FEW045/// 08/04 Q1008 W///S6",
    "updatedAt": "2022-03-09T12:20:00.000Z"
  },
  {
    "airportIcao": "ENFL",
    "metar": "ENFL 091220Z 15019KT CAVOK 10/M05 Q1016",
    "updatedAt": "2022-03-09T12:20:00.000Z"
  },
  {
    "airportIcao": "ENGC",
    "metar": "ENGC 091220Z 18054KT 8000 FEW020 BKN045 07/03 Q1008 W06/S7",
    "updatedAt": "2022-03-09T12:20:00.000Z"
  },
  {
    "airportIcao": "ENGM",
    "metar": "ENGM 091220Z 19004KT 150V230 9999 7000SE FEW003 M01/M04 Q1027 NOSIG",
    "updatedAt": "2022-03-09T12:20:00.000Z"
  },
  {
    "airportIcao": "ENHD",
    "metar": "ENHD 091220Z 15022G34KT CAVOK 10/M03 Q1020",
    "updatedAt": "2022-03-09T12:20:00.000Z"
  },
  {
    "airportIcao": "ENHE",
    "metar": "ENHE 091220Z 19019KT CAVOK 08/04 Q1014 W///S6",
    "updatedAt": "2022-03-09T12:20:00.000Z"
  },
  {
    "airportIcao": "ENHF",
    "metar": "ENHF 091220Z VRB03KT CAVOK 01/M06 Q1016 RMK WIND 1254FT 18005KT",
    "updatedAt": "2022-03-09T12:20:00.000Z"
  },
  {
    "airportIcao": "ENHK",
    "metar": "ENHK 091220Z 10011KT CAVOK 01/M04 Q1016",
    "updatedAt": "2022-03-09T12:20:00.000Z"
  },
  {
    "airportIcao": "ENHM",
    "metar": "ENHM 091220Z AUTO 15045KT 9999NDV FEW048/// 07/03 Q1013 W07/S/",
    "updatedAt": "2022-03-09T12:20:00.000Z"
  },
  {
    "airportIcao": "ENHV",
    "metar": "ENHV 091220Z 18025KT CAVOK M01/M05 Q1017",
    "updatedAt": "2022-03-09T12:20:00.000Z"
  },
  {
    "airportIcao": "ENKB",
    "metar": "ENKB 091220Z 11004KT 050V180 CAVOK 11/M07 Q1015 RMK WIND 745FT 15012KT",
    "updatedAt": "2022-03-09T12:20:00.000Z"
  },
  {
    "airportIcao": "ENKR",
    "metar": "ENKR 091220Z 21011KT CAVOK M06/M09 Q1022 RMK WIND 731FT 23018KT",
    "updatedAt": "2022-03-09T12:20:00.000Z"
  },
  {
    "airportIcao": "ENLA",
    "metar": "ENLA 091220Z AUTO 15027KT 8000NDV NCD 07/04 Q1015 W///S4",
    "updatedAt": "2022-03-09T12:20:00.000Z"
  },
  {
    "airportIcao": "ENLE",
    "metar": "ENLE 091220Z 15032KT CAVOK 06/03 Q1016 W06/S4",
    "updatedAt": "2022-03-09T12:20:00.000Z"
  },
  {
    "airportIcao": "ENLK",
    "metar": "ENLK 091220Z 21007KT 170V250 9999 FEW007 06/M01 Q1016",
    "updatedAt": "2022-03-09T12:20:00.000Z"
  },
  {
    "airportIcao": "ENMH",
    "metar": "ENMH 091150Z 19021KT CAVOK M00/M06 Q1017",
    "updatedAt": "2022-03-09T11:50:00.000Z"
  },
  {
    "airportIcao": "ENML",
    "metar": "ENML 091220Z 05003KT CAVOK 07/M00 Q1016",
    "updatedAt": "2022-03-09T12:20:00.000Z"
  },
  {
    "airportIcao": "ENMS",
    "metar": "ENMS 091220Z 18006KT CAVOK 05/M05 Q1019 RMK WIND 412FT 16008KT",
    "updatedAt": "2022-03-09T12:20:00.000Z"
  },
  {
    "airportIcao": "ENNA",
    "metar": "ENNA 091220Z 16014KT CAVOK M04/M09 Q1019 RMK WIND 1800FT 21020KT",
    "updatedAt": "2022-03-09T12:20:00.000Z"
  },
  {
    "airportIcao": "ENNE",
    "metar": "ENNE 091220Z 18022KT CAVOK 07/03 Q1013 W///S6",
    "updatedAt": "2022-03-09T12:20:00.000Z"
  },
  {
    "airportIcao": "ENNM",
    "metar": "ENNM 091220Z 08013KT CAVOK 06/M05 Q1018",
    "updatedAt": "2022-03-09T12:20:00.000Z"
  },
  {
    "airportIcao": "ENNO",
    "metar": "ENNO 091220Z 13008KT CAVOK 02/M04 Q1027",
    "updatedAt": "2022-03-09T12:20:00.000Z"
  },
  {
    "airportIcao": "ENOA",
    "metar": "ENOA 091220Z 16053KT 8000 FEW120 07/03 Q1011 W///S6",
    "updatedAt": "2022-03-09T12:20:00.000Z"
  },
  {
    "airportIcao": "ENOL",
    "metar": "ENOL 091220Z 13019KT CAVOK 07/M05 Q1016 NOSIG",
    "updatedAt": "2022-03-09T12:20:00.000Z"
  },
  {
    "airportIcao": "ENOV",
    "metar": "ENOV 091150Z VRB06KT CAVOK 11/M12 Q1015 RMK WIND THR24 03006G20KT 2090FT 16033KT",
    "updatedAt": "2022-03-09T11:50:00.000Z"
  },
  {
    "airportIcao": "ENQA",
    "metar": "ENQA 091220Z AUTO 16053G63KT 9999NDV SCT062/// 07/02 Q1013 W08/S5",
    "updatedAt": "2022-03-09T12:20:00.000Z"
  },
  {
    "airportIcao": "ENQC",
    "metar": "ENQC 091220Z AUTO 15047KT 9999NDV FEW063/// 07/02 Q1012 W///S5",
    "updatedAt": "2022-03-09T12:20:00.000Z"
  },
  {
    "airportIcao": "ENQR",
    "metar": "ENQR 091220Z AUTO 15052KT 8000NDV BKN044/// 08/03 Q1008 W08/S6",
    "updatedAt": "2022-03-09T12:20:00.000Z"
  },
  {
    "airportIcao": "ENRA",
    "metar": "ENRA 091220Z VRB01KT CAVOK 03/M02 Q1019",
    "updatedAt": "2022-03-09T12:20:00.000Z"
  },
  {
    "airportIcao": "ENRM",
    "metar": "ENRM 091220Z 13009KT 100V190 CAVOK 07/M07 Q1017",
    "updatedAt": "2022-03-09T12:20:00.000Z"
  },
  {
    "airportIcao": "ENRO",
    "metar": "ENRO 091220Z 33006KT 270V020 CAVOK 05/M11 Q1020",
    "updatedAt": "2022-03-09T12:20:00.000Z"
  },
  {
    "airportIcao": "ENRS",
    "metar": "ENRS 091220Z 109017KT CAVOK 06/01 Q1015",
    "updatedAt": "2022-03-09T12:20:00.000Z"
  },
  {
    "airportIcao": "ENRY",
    "metar": "ENRY 091220Z VRB02KT 9999 OVC005 M02/M03 Q1028 NOSIG",
    "updatedAt": "2022-03-09T12:20:00.000Z"
  },
  {
    "airportIcao": "ENSB",
    "metar": "ENSB 091220Z 25003KT 230V280 9999 FEW010 BKN070 M00/M05 Q1000 RMK WIND 1400FT 14004KT",
    "updatedAt": "2022-03-09T12:20:00.000Z"
  },
  {
    "airportIcao": "ENSD",
    "metar": "ENSD 091220Z 20009KT CAVOK 11/M09 Q1017 RMK WIND 1138FT VRB02KT",
    "updatedAt": "2022-03-09T12:20:00.000Z"
  },
  {
    "airportIcao": "ENSE",
    "metar": "ENSE 091220Z AUTO 17053G63KT 9000NDV BKN042/// 08/04 Q1009 W///S7",
    "updatedAt": "2022-03-09T12:20:00.000Z"
  },
  {
    "airportIcao": "ENSF",
    "metar": "ENSF 091220Z AUTO 17054KT //// BKN021/// BKN045/// ///// Q//// W///S6",
    "updatedAt": "2022-03-09T12:20:00.000Z"
  },
  {
    "airportIcao": "ENSG",
    "metar": "ENSG 091220Z VRB01KT CAVOK 09/M08 Q1019 RMK WIND 3806FT 17021KT",
    "updatedAt": "2022-03-09T12:20:00.000Z"
  },
  {
    "airportIcao": "ENSH",
    "metar": "ENSH 091220Z 11010KT CAVOK 05/M03 Q1016 RMK WIND 150FT 14011KT",
    "updatedAt": "2022-03-09T12:20:00.000Z"
  },
  {
    "airportIcao": "ENSK",
    "metar": "ENSK 091220Z 16015KT CAVOK 06/M03 Q1015",
    "updatedAt": "2022-03-09T12:20:00.000Z"
  },
  {
    "airportIcao": "ENSL",
    "metar": "ENSL 091220Z AUTO 16041KT 5000NDV FEW058/// 07/05 Q1012 W05/S5",
    "updatedAt": "2022-03-09T12:20:00.000Z"
  },
  {
    "airportIcao": "ENSO",
    "metar": "ENSO 091220Z 17022G34KT CAVOK 10/M05 Q1019",
    "updatedAt": "2022-03-09T12:20:00.000Z"
  },
  {
    "airportIcao": "ENSR",
    "metar": "ENSR 091220Z 15016KT CAVOK M03/M09 Q1018 RMK WIND 1119FT 14016KT",
    "updatedAt": "2022-03-09T12:20:00.000Z"
  },
  {
    "airportIcao": "ENSS",
    "metar": "ENSS 091220Z 23020KT CAVOK M04/M06 Q1020 RMK WIND 500FT 23026KT",
    "updatedAt": "2022-03-09T12:20:00.000Z"
  },
  {
    "airportIcao": "ENST",
    "metar": "ENST 091220Z VRB02KT CAVOK 08/01 Q1017 RMK WIND 300FT 32003KT",
    "updatedAt": "2022-03-09T12:20:00.000Z"
  },
  {
    "airportIcao": "ENTC",
    "metar": "ENTC 091220Z 21013KT CAVOK 02/M03 Q1017 NOSIG RMK WIND 2600FT 18016KT",
    "updatedAt": "2022-03-09T12:20:00.000Z"
  },
  {
    "airportIcao": "ENTO",
    "metar": "ENTO 091220Z VRB03KT 9999 OVC006 M01/M01 Q1028 TEMPO OVC004",
    "updatedAt": "2022-03-09T12:20:00.000Z"
  },
  {
    "airportIcao": "ENUG",
    "metar": "ENUG 091220Z AUTO 22019KT 9999NDV NCD 04/M02 Q1014 W///S5",
    "updatedAt": "2022-03-09T12:20:00.000Z"
  },
  {
    "airportIcao": "ENUN",
    "metar": "ENUN 091220Z AUTO 20032KT 9999NDV OVC018/// 07/03 Q1011 W07/S6",
    "updatedAt": "2022-03-09T12:20:00.000Z"
  },
  {
    "airportIcao": "ENVA",
    "metar": "ENVA 091220Z 12008KT 090V150 CAVOK 10/M09 Q1018 NOSIG RMK WIND 670FT 15015KT",
    "updatedAt": "2022-03-09T12:20:00.000Z"
  },
  {
    "airportIcao": "ENVD",
    "metar": "ENVD 091220Z 23013KT CAVOK M03/M07 Q1021",
    "updatedAt": "2022-03-09T12:20:00.000Z"
  },
  {
    "airportIcao": "ENVR",
    "metar": "ENVR 090650Z 15004KT CAVOK 04/02 Q1017",
    "updatedAt": "2022-03-09T06:50:00.000Z"
  },
  {
    "airportIcao": "ENWV",
    "metar": "ENWV 091220Z AUTO 16032KT 8000NDV NCD 07/04 Q1017 W///S4",
    "updatedAt": "2022-03-09T12:20:00.000Z"
  },
  {
    "airportIcao": "ENZV",
    "metar": "ENZV 091220Z 15020KT CAVOK 10/M03 Q1021 NOSIG",
    "updatedAt": "2022-03-09T12:20:00.000Z"
  },
  {
    "airportIcao": "EPBY",
    "metar": "EPBY 091230Z 32007KT 290V010 CAVOK 06/M03 Q1025",
    "updatedAt": "2022-03-09T12:30:00.000Z"
  },
  {
    "airportIcao": "EPGD",
    "metar": "EPGD 091230Z 02009KT 350V050 CAVOK 08/M02 Q1025",
    "updatedAt": "2022-03-09T12:30:00.000Z"
  },
  {
    "airportIcao": "EPKK",
    "metar": "EPKK 091230Z 29010KT 9999 SCT060 07/M03 Q1021",
    "updatedAt": "2022-03-09T12:30:00.000Z"
  },
  {
    "airportIcao": "EPKT",
    "metar": "EPKT 091230Z 35009KT 290V020 CAVOK 07/M06 Q1022",
    "updatedAt": "2022-03-09T12:30:00.000Z"
  },
  {
    "airportIcao": "EPLB",
    "metar": "EPLB 091230Z 08005KT 9999 -SN OVC011 00/M00 Q1022",
    "updatedAt": "2022-03-09T12:30:00.000Z"
  },
  {
    "airportIcao": "EPLL",
    "metar": "EPLL 091230Z 30010KT 270V350 CAVOK 08/M05 Q1022",
    "updatedAt": "2022-03-09T12:30:00.000Z"
  },
  {
    "airportIcao": "EPMO",
    "metar": "EPMO 091230Z 02009KT 9999 BKN044 07/M01 Q1023",
    "updatedAt": "2022-03-09T12:30:00.000Z"
  },
  {
    "airportIcao": "EPPO",
    "metar": "EPPO 091230Z 34008KT 330V030 CAVOK 09/M04 Q1025",
    "updatedAt": "2022-03-09T12:30:00.000Z"
  },
  {
    "airportIcao": "EPRA",
    "metar": "EPRA 091200Z 35008KT 320V030 9999 SCT031 BKN040 06/00 Q1021",
    "updatedAt": "2022-03-09T12:00:00.000Z"
  },
  {
    "airportIcao": "EPRZ",
    "metar": "EPRZ 091230Z 08003KT 5000 -SN BR BKN006 OVC011 M00/M02 Q1021",
    "updatedAt": "2022-03-09T12:30:00.000Z"
  },
  {
    "airportIcao": "EPSC",
    "metar": "EPSC 091230Z 34005KT 310V030 CAVOK 09/M01 Q1026",
    "updatedAt": "2022-03-09T12:30:00.000Z"
  },
  {
    "airportIcao": "EPSY",
    "metar": "EPSY 091230Z 02014KT 9999 BKN026 06/M00 Q1023",
    "updatedAt": "2022-03-09T12:30:00.000Z"
  },
  {
    "airportIcao": "EPWA",
    "metar": "EPWA 091230Z 34010KT 9999 SCT036 07/M02 Q1022 NOSIG",
    "updatedAt": "2022-03-09T12:30:00.000Z"
  },
  {
    "airportIcao": "EPWR",
    "metar": "EPWR 091230Z 33011KT 310V010 CAVOK 09/M05 Q1024",
    "updatedAt": "2022-03-09T12:30:00.000Z"
  },
  {
    "airportIcao": "EPZG",
    "metar": "EPZG 091230Z 34005KT 310V030 CAVOK 09/M05 Q1026",
    "updatedAt": "2022-03-09T12:30:00.000Z"
  },
  {
    "airportIcao": "EQBK",
    "metar": "EQBK 091156Z AUTO 31009G18KT 9999 FEW040 BKN050 01/M07 A3004 RMK AO2 LTG DSNT S PRESRR SLP191 WND DATA ESTMD 70001 T00141075 10019 20006",
    "updatedAt": "2022-03-09T11:56:00.000Z"
  },
  {
    "airportIcao": "EQPH",
    "metar": "EQPH 091230Z AUTO 29014G26KT 250V330 9999 FEW055/// 21/05 Q1006",
    "updatedAt": "2022-03-09T12:30:00.000Z"
  },
  {
    "airportIcao": "EQYA",
    "metar": "EQYA 091156Z AUTO 19004KT 9999 CLR 08/M09 A3025 RMK AO2 SLP248 T00751094 10075 21010 58006 $",
    "updatedAt": "2022-03-09T11:56:00.000Z"
  },
  {
    "airportIcao": "EQYB",
    "metar": "EQYB 091156Z AUTO 00000KT 1200 HZ M 09/M07 A3034 RMK AO2 VIS 0800V9999 SLP277 T00881066 10093 21045 58008 RVRNO $",
    "updatedAt": "2022-03-09T11:56:00.000Z"
  },
  {
    "airportIcao": "EQYC",
    "metar": "EQYC 091156Z AUTO 00000KT 9999 CLR 08/M08 A3026 RMK AO2 SLP260 T00791082 10079 21038 58007 $",
    "updatedAt": "2022-03-09T11:56:00.000Z"
  },
  {
    "airportIcao": "EQYD",
    "metar": "EQYD 091156Z AUTO 10003KT 9999 CLR 09/M10 A3024 RMK AO2 SLP256 T00871098 10091 21066 56005 $",
    "updatedAt": "2022-03-09T11:56:00.000Z"
  },
  {
    "airportIcao": "EQYE",
    "metar": "EQYE 091156Z AUTO 00000KT 9999 CLR 08/M06 A3025 RMK AO2 SLP277 T00841058 10084 21071 57010 $",
    "updatedAt": "2022-03-09T11:56:00.000Z"
  },
  {
    "airportIcao": "EQYF",
    "metar": "EQYF 091156Z AUTO 00000KT 9999 CLR 09/M08 A3023 RMK AO2 SLP236 T00921079 10092 21076 58007 $",
    "updatedAt": "2022-03-09T11:56:00.000Z"
  },
  {
    "airportIcao": "EQYK",
    "metar": "EQYK 091156Z AUTO 17008KT 9999 SCT038 BKN050 BKN160 18/09 A2965 RMK AO2 SLP043 60000 70026 T01790093 10195 20106 57013 $",
    "updatedAt": "2022-03-09T11:56:00.000Z"
  },
  {
    "airportIcao": "EQYL",
    "metar": "EQYL 091156Z AUTO 19009KT 9999 CLR 17/11 A3006 RMK AO2 SLP182 70033 T01670105 10168 20096 50002 $",
    "updatedAt": "2022-03-09T11:56:00.000Z"
  },
  {
    "airportIcao": "EQYT",
    "metar": "EQYT 091156Z AUTO 05007KT 9999 CLR 10/M10 A3018 RMK AO2 SLP245 T00991097 10100 21065 58006 FZRANO $",
    "updatedAt": "2022-03-09T11:56:00.000Z"
  },
  {
    "airportIcao": "EQYV",
    "metar": "EQYV 091156Z AUTO 00000KT 9999 CLR 11/M05 A3019 RMK AO2 SLP230 T01101055 10111 21021 58009 $",
    "updatedAt": "2022-03-09T11:56:00.000Z"
  },
  {
    "airportIcao": "ESCF",
    "metar": "ESCF 091220Z VRB03KT CAVOK 07/00 Q1028",
    "updatedAt": "2022-03-09T12:20:00.000Z"
  },
  {
    "airportIcao": "ESCM",
    "metar": "ESCM 091220Z 34003KT 310V010 CAVOK 06/01 Q1029",
    "updatedAt": "2022-03-09T12:20:00.000Z"
  },
  {
    "airportIcao": "ESDF",
    "metar": "ESDF 091220Z 11005KT 060V170 CAVOK 10/M01 Q1027",
    "updatedAt": "2022-03-09T12:20:00.000Z"
  },
  {
    "airportIcao": "ESGG",
    "metar": "ESGG 091220Z 15006KT CAVOK 05/M03 Q1027",
    "updatedAt": "2022-03-09T12:20:00.000Z"
  },
  {
    "airportIcao": "ESGJ",
    "metar": "ESGJ 091220Z 09004KT CAVOK 03/02 Q1027",
    "updatedAt": "2022-03-09T12:20:00.000Z"
  },
  {
    "airportIcao": "ESGP",
    "metar": "ESGP 091220Z VRB03KT CAVOK 05/M02 Q1027",
    "updatedAt": "2022-03-09T12:20:00.000Z"
  },
  {
    "airportIcao": "ESGR",
    "metar": "ESGR 091220Z AUTO VRB01KT 9999 SCT110/// BKN150/// 02/01 Q1028",
    "updatedAt": "2022-03-09T12:20:00.000Z"
  },
  {
    "airportIcao": "ESGT",
    "metar": "ESGT 091220Z VRB03KT 9999 SCT007 01/M01 Q1028",
    "updatedAt": "2022-03-09T12:20:00.000Z"
  },
  {
    "airportIcao": "ESIA",
    "metar": "ESIA 091220Z VRB02KT CAVOK 02/M01 Q1028",
    "updatedAt": "2022-03-09T12:20:00.000Z"
  },
  {
    "airportIcao": "ESIB",
    "metar": "ESIB 091220Z 04004KT 340V110 9999 FEW009 01/M01 Q1028",
    "updatedAt": "2022-03-09T12:20:00.000Z"
  },
  {
    "airportIcao": "ESKM",
    "metar": "ESKM 091220Z AUTO VRB01KT 9999 NCD 03/M06 Q1027",
    "updatedAt": "2022-03-09T12:20:00.000Z"
  },
  {
    "airportIcao": "ESKN",
    "metar": "ESKN 091220Z VRB02KT 9999 FEW040 09/M01 Q1028",
    "updatedAt": "2022-03-09T12:20:00.000Z"
  },
  {
    "airportIcao": "ESKS",
    "metar": "ESKS 091220Z AUTO 16010KT 9999 NCD 03/M08 Q1024",
    "updatedAt": "2022-03-09T12:20:00.000Z"
  },
  {
    "airportIcao": "ESMK",
    "metar": "ESMK 091220Z 09004KT 050V130 CAVOK 07/M01 Q1028",
    "updatedAt": "2022-03-09T12:20:00.000Z"
  },
  {
    "airportIcao": "ESMQ",
    "metar": "ESMQ 091220Z 04008KT CAVOK 07/00 Q1028",
    "updatedAt": "2022-03-09T12:20:00.000Z"
  },
  {
    "airportIcao": "ESMS",
    "metar": "ESMS 091220Z 09005KT CAVOK 08/M02 Q1027",
    "updatedAt": "2022-03-09T12:20:00.000Z"
  },
  {
    "airportIcao": "ESMT",
    "metar": "ESMT 091220Z VRB03KT CAVOK 06/M01 Q1027",
    "updatedAt": "2022-03-09T12:20:00.000Z"
  },
  {
    "airportIcao": "ESMX",
    "metar": "ESMX 091220Z AUTO 15002KT 9999 NCD 10/M05 Q1027",
    "updatedAt": "2022-03-09T12:20:00.000Z"
  },
  {
    "airportIcao": "ESND",
    "metar": "ESND 091220Z AUTO 06003KT 9999 NCD 03/M07 Q1024",
    "updatedAt": "2022-03-09T12:20:00.000Z"
  },
  {
    "airportIcao": "ESNG",
    "metar": "ESNG 091220Z 19008KT 140V250 7000 SG OVC008 M02/M05 Q1021",
    "updatedAt": "2022-03-09T12:20:00.000Z"
  },
  {
    "airportIcao": "ESNK",
    "metar": "ESNK 091220Z 15011KT 9999 OVC008 M00/M02 Q1028",
    "updatedAt": "2022-03-09T12:20:00.000Z"
  },
  {
    "airportIcao": "ESNL",
    "metar": "ESNL 091220Z AUTO 13009KT 9999 OVC010/// M00/M02 Q1025",
    "updatedAt": "2022-03-09T12:20:00.000Z"
  },
  {
    "airportIcao": "ESNN",
    "metar": "ESNN 091220Z AUTO 13009KT 9000 OVC004/// M01/M02 Q1029 RESG REFZUP REDZ",
    "updatedAt": "2022-03-09T12:20:00.000Z"
  },
  {
    "airportIcao": "ESNO",
    "metar": "ESNO 091220Z 16010KT 9999 OVC005 M02/M02 Q1028",
    "updatedAt": "2022-03-09T12:20:00.000Z"
  },
  {
    "airportIcao": "ESNQ",
    "metar": "ESNQ 091220Z 21013KT 9999 BKN007 M03/M05 Q1019",
    "updatedAt": "2022-03-09T12:20:00.000Z"
  },
  {
    "airportIcao": "ESNS",
    "metar": "ESNS 091220Z 18008KT 160V220 9999 BKN008 M03/M04 Q1028",
    "updatedAt": "2022-03-09T12:20:00.000Z"
  },
  {
    "airportIcao": "ESNU",
    "metar": "ESNU 091220Z 19010KT 9999 OVC009 M02/M03 Q1029",
    "updatedAt": "2022-03-09T12:20:00.000Z"
  },
  {
    "airportIcao": "ESNV",
    "metar": "ESNV 091220Z AUTO 16010KT 130V190 9999 FEW011/// M01/M04 Q1022",
    "updatedAt": "2022-03-09T12:20:00.000Z"
  },
  {
    "airportIcao": "ESNX",
    "metar": "ESNX 091220Z 14007KT 3000 SG VV008 M01/M02 Q1023",
    "updatedAt": "2022-03-09T12:20:00.000Z"
  },
  {
    "airportIcao": "ESNZ",
    "metar": "ESNZ 091220Z AUTO 17012KT 9999 NCD 04/M09 Q1021",
    "updatedAt": "2022-03-09T12:20:00.000Z"
  },
  {
    "airportIcao": "ESOE",
    "metar": "ESOE 091220Z VRB02KT CAVOK 08/M02 Q1028",
    "updatedAt": "2022-03-09T12:20:00.000Z"
  },
  {
    "airportIcao": "ESOH",
    "metar": "ESOH 091220Z AUTO 16003KT 070V200 9999 NCD 06/M03 Q1027",
    "updatedAt": "2022-03-09T12:20:00.000Z"
  },
  {
    "airportIcao": "ESOK",
    "metar": "ESOK 091220Z 14003KT 1600 BR OVC002 M02/// Q1028",
    "updatedAt": "2022-03-09T12:20:00.000Z"
  },
  {
    "airportIcao": "ESOW",
    "metar": "ESOW 091220Z 00000KT CAVOK 08/M01 Q1029",
    "updatedAt": "2022-03-09T12:20:00.000Z"
  },
  {
    "airportIcao": "ESPA",
    "metar": "ESPA 091220Z 18013KT 9999 BKN006 M04/M05 Q1027",
    "updatedAt": "2022-03-09T12:20:00.000Z"
  },
  {
    "airportIcao": "ESPE",
    "metar": "ESPE 091220Z AUTO 18004KT 160V220 9999 -SHRA OVC012/// M00/M02 Q1025",
    "updatedAt": "2022-03-09T12:20:00.000Z"
  },
  {
    "airportIcao": "ESSA",
    "metar": "ESSA 091220Z 11005KT 080V140 CAVOK 07/M00 Q1029 BECMG BKN006",
    "updatedAt": "2022-03-09T12:20:00.000Z"
  },
  {
    "airportIcao": "ESSB",
    "metar": "ESSB 091220Z 06007KT CAVOK 08/M00 Q1029",
    "updatedAt": "2022-03-09T12:20:00.000Z"
  },
  {
    "airportIcao": "ESSD",
    "metar": "ESSD 091220Z 11004KT CAVOK 05/M01 Q1028",
    "updatedAt": "2022-03-09T12:20:00.000Z"
  },
  {
    "airportIcao": "ESSL",
    "metar": "ESSL 091220Z 10005KT 070V140 CAVOK 08/M00 Q1028",
    "updatedAt": "2022-03-09T12:20:00.000Z"
  },
  {
    "airportIcao": "ESSP",
    "metar": "ESSP 091220Z 11003KT 010V140 CAVOK 09/M01 Q1029",
    "updatedAt": "2022-03-09T12:20:00.000Z"
  },
  {
    "airportIcao": "ESST",
    "metar": "ESST 091220Z AUTO 15008KT 9999 NCD ///// Q1027",
    "updatedAt": "2022-03-09T12:20:00.000Z"
  },
  {
    "airportIcao": "ESSV",
    "metar": "ESSV 091220Z 35005KT 9999 SCT028 06/03 Q1028",
    "updatedAt": "2022-03-09T12:20:00.000Z"
  },
  {
    "airportIcao": "ESTA",
    "metar": "ESTA 091220Z 21004KT 150V250 CAVOK 06/M01 Q1027",
    "updatedAt": "2022-03-09T12:20:00.000Z"
  },
  {
    "airportIcao": "ESTL",
    "metar": "ESTL 091220Z 15003KT 090V190 CAVOK 08/00 Q1027",
    "updatedAt": "2022-03-09T12:20:00.000Z"
  },
  {
    "airportIcao": "ESUP",
    "metar": "ESUP 091220Z AUTO 19010KT 160V220 9999 // OVC005/// M05/M05 Q1024",
    "updatedAt": "2022-03-09T12:20:00.000Z"
  },
  {
    "airportIcao": "ESUT",
    "metar": "ESUT 091220Z AUTO 15008KT 9999 NCD M01/M04 Q1019",
    "updatedAt": "2022-03-09T12:20:00.000Z"
  },
  {
    "airportIcao": "ETAD",
    "metar": "ETAD 091156Z AUTO 00000KT 9999 CLR 10/M08 A3018 RMK AO2 SLP224 T00991078 10099 21042 58003 FZRANO",
    "updatedAt": "2022-03-09T11:56:00.000Z"
  },
  {
    "airportIcao": "ETAR",
    "metar": "ETAR 091156Z AUTO 00000KT 9999 CLR 10/M06 A3021 RMK AO2 SLP245 T00981057 10098 21091 58008 FZRANO",
    "updatedAt": "2022-03-09T11:56:00.000Z"
  },
  {
    "airportIcao": "ETEB",
    "metar": "ETEB 091156Z AUTO 13006KT 9999 CLR 09/M07 A3023 RMK AO2 SLP268 T00881074 10088 21043 57007 $",
    "updatedAt": "2022-03-09T11:56:00.000Z"
  },
  {
    "airportIcao": "ETEK",
    "metar": "ETEK 091156Z AUTO 18004KT 9999 CLR M M RMK AO2 SLPNO $",
    "updatedAt": "2022-03-09T11:56:00.000Z"
  },
  {
    "airportIcao": "ETGG",
    "metar": "ETGG 091220Z AUTO 15008KT 9999 // ////// 11/M04 Q1025 ///",
    "updatedAt": "2022-03-09T12:20:00.000Z"
  },
  {
    "airportIcao": "ETHA",
    "metar": "ETHA 091220Z 06004KT 9999 08/M10 Q1023 BLU+BLU+",
    "updatedAt": "2022-03-09T12:20:00.000Z"
  },
  {
    "airportIcao": "ETHB",
    "metar": "ETHB 091220Z 14007KT 9999 FEW280 12/M07 Q1024 BLU+BLU+",
    "updatedAt": "2022-03-09T12:20:00.000Z"
  },
  {
    "airportIcao": "ETHC",
    "metar": "ETHC 091220Z 09008KT 9999 FEW280 11/M05 Q1025 BLU+BLU+",
    "updatedAt": "2022-03-09T12:20:00.000Z"
  },
  {
    "airportIcao": "ETHF",
    "metar": "ETHF 091220Z 14005KT 9999 FEW150 10/M05 Q1024 BLU+BLU+",
    "updatedAt": "2022-03-09T12:20:00.000Z"
  },
  {
    "airportIcao": "ETHL",
    "metar": "ETHL 091220Z VRB02KT 9999 08/M08 Q1023 BLU+BLU+",
    "updatedAt": "2022-03-09T12:20:00.000Z"
  },
  {
    "airportIcao": "ETHN",
    "metar": "ETHN 091220Z 12005KT 9999 10/M09 Q1023 BLU+BLU+",
    "updatedAt": "2022-03-09T12:20:00.000Z"
  },
  {
    "airportIcao": "ETHS",
    "metar": "ETHS 091220Z 23003KT 9999 12/M07 Q1025 BLU+BLU+",
    "updatedAt": "2022-03-09T12:20:00.000Z"
  },
  {
    "airportIcao": "ETIC",
    "metar": "ETIC 091156Z AUTO 00000KT 9999 CLR 09/M12 A3022 RMK AO2 SLP255 T00921120 10093 21083 57012 FZRANO $",
    "updatedAt": "2022-03-09T11:56:00.000Z"
  },
  {
    "airportIcao": "ETIH",
    "metar": "ETIH 091156Z AUTO 00000KT 9999 CLR 08/M09 A3024 RMK AO2 SLP265 T00791086 10084 21081 58008",
    "updatedAt": "2022-03-09T11:56:00.000Z"
  },
  {
    "airportIcao": "ETIK",
    "metar": "ETIK 091156Z AUTO 16004KT 9999 CLR 10/M08 A3025 RMK AO2 SLP261 T01011081 10102 21089 57007",
    "updatedAt": "2022-03-09T11:56:00.000Z"
  },
  {
    "airportIcao": "ETMN",
    "metar": "ETMN 091220Z 12008KT 9999 FEW280 11/M06 Q1024 BLU+BLU+",
    "updatedAt": "2022-03-09T12:20:00.000Z"
  },
  {
    "airportIcao": "ETND",
    "metar": "ETND 091220Z 12008KT 9999 FEW300 11/M06 Q1024 BLU+BLU+",
    "updatedAt": "2022-03-09T12:20:00.000Z"
  },
  {
    "airportIcao": "ETNG",
    "metar": "ETNG 091150Z 10008KT CAVOK 13/M01 Q1022 NOSIG",
    "updatedAt": "2022-03-09T11:50:00.000Z"
  },
  {
    "airportIcao": "ETNH",
    "metar": "ETNH 091220Z 13007KT 9999 11/M03 Q1025 BLU+BLU+",
    "updatedAt": "2022-03-09T12:20:00.000Z"
  },
  {
    "airportIcao": "ETNL",
    "metar": "ETNL 091220Z 08004KT 9999 FEW240 10/M02 Q1026 BLU+BLU+",
    "updatedAt": "2022-03-09T12:20:00.000Z"
  },
  {
    "airportIcao": "ETNN",
    "metar": "ETNN 091220Z 14006KT 9999 FEW260 12/M05 Q1022 BLU+BLU+",
    "updatedAt": "2022-03-09T12:20:00.000Z"
  },
  {
    "airportIcao": "ETNS",
    "metar": "ETNS 091220Z 12006KT 9999 FEW280 11/M03 Q1025 BLU+BLU+",
    "updatedAt": "2022-03-09T12:20:00.000Z"
  },
  {
    "airportIcao": "ETNT",
    "metar": "ETNT 091220Z 13008KT 9999 FEW300 11/M05 Q1023 BLACKBLU+",
    "updatedAt": "2022-03-09T12:20:00.000Z"
  },
  {
    "airportIcao": "ETNW",
    "metar": "ETNW 091220Z 14008KT 9999 FEW280 12/M05 Q1024 BLU+BLU+",
    "updatedAt": "2022-03-09T12:20:00.000Z"
  },
  {
    "airportIcao": "ETOU",
    "metar": "ETOU 091156Z AUTO 00000KT 9999 CLR 10/M07 A3026 RMK AO2 SLP254 T00961071 10097 21005 57005",
    "updatedAt": "2022-03-09T11:56:00.000Z"
  },
  {
    "airportIcao": "ETSB",
    "metar": "ETSB 091220Z 20007KT 9999 FEW270 10/M06 Q1022 BLU+BLU+",
    "updatedAt": "2022-03-09T12:20:00.000Z"
  },
  {
    "airportIcao": "ETSH",
    "metar": "ETSH 091220Z 17004KT 9999 10/M04 Q1026 BLU+BLU+",
    "updatedAt": "2022-03-09T12:20:00.000Z"
  },
  {
    "airportIcao": "ETSI",
    "metar": "ETSI 091220Z 04004KT 9999 10/M09 Q1024 BLU+BLU+",
    "updatedAt": "2022-03-09T12:20:00.000Z"
  },
  {
    "airportIcao": "ETSL",
    "metar": "ETSL 091220Z 31004KT 9999 09/M08 Q1023 BLU+BLU+",
    "updatedAt": "2022-03-09T12:20:00.000Z"
  },
  {
    "airportIcao": "ETSN",
    "metar": "ETSN 091220Z 06003KT 9999 09/M07 Q1024 BLU+BLU+",
    "updatedAt": "2022-03-09T12:20:00.000Z"
  },
  {
    "airportIcao": "ETWM",
    "metar": "ETWM 091220Z AUTO 14007KT //// // ////// 12/M08 Q1023 ///",
    "updatedAt": "2022-03-09T12:20:00.000Z"
  },
  {
    "airportIcao": "EVGA",
    "metar": "EVGA 091220Z 08007KT 050V130 CAVOK 01/M11 Q1028 NOSIG",
    "updatedAt": "2022-03-09T12:20:00.000Z"
  },
  {
    "airportIcao": "EVLA",
    "metar": "EVLA 091220Z AUTO 10009KT 9999 OVC022/// 04/M01 Q1027",
    "updatedAt": "2022-03-09T12:20:00.000Z"
  },
  {
    "airportIcao": "EVRA",
    "metar": "EVRA 091220Z 09004KT 020V130 9999 SCT030 01/M06 Q1029 NOSIG",
    "updatedAt": "2022-03-09T12:20:00.000Z"
  },
  {
    "airportIcao": "EVVA",
    "metar": "EVVA 091220Z AUTO 09005KT 070V130 9999 OVC024 04/M01 Q1028",
    "updatedAt": "2022-03-09T12:20:00.000Z"
  },
  {
    "airportIcao": "EYKA",
    "metar": "EYKA 091220Z 08008KT 060V120 9999 FEW032 01/M05 Q1026",
    "updatedAt": "2022-03-09T12:20:00.000Z"
  },
  {
    "airportIcao": "EYPA",
    "metar": "EYPA 091220Z 09007KT 040V140 9999 BKN020 04/M01 Q1027",
    "updatedAt": "2022-03-09T12:20:00.000Z"
  },
  {
    "airportIcao": "EYSA",
    "metar": "EYSA 091220Z 04008KT 9999 SCT017 M00/M03 Q1027 NOSIG",
    "updatedAt": "2022-03-09T12:20:00.000Z"
  },
  {
    "airportIcao": "EYVI",
    "metar": "EYVI 091220Z 05009KT 020V090 CAVOK 01/M14 Q1025 NOSIG",
    "updatedAt": "2022-03-09T12:20:00.000Z"
  },
  {
    "airportIcao": "FABL",
    "metar": "FABL 091200Z 01006KT 330V050 9999 SCT035 FEW040TCU 24/15 Q1019 NOSIG",
    "updatedAt": "2022-03-09T12:00:00.000Z"
  },
  {
    "airportIcao": "FACT",
    "metar": "FACT 091200Z 17018KT CAVOK 25/18 Q1011 NOSIG",
    "updatedAt": "2022-03-09T12:00:00.000Z"
  },
  {
    "airportIcao": "FACV",
    "metar": "FACV 091112Z 34007KT 9999 TS FEW050TCU SCT060CB 32/11 Q1013",
    "updatedAt": "2022-03-09T11:12:00.000Z"
  },
  {
    "airportIcao": "FAEL",
    "metar": "FAEL 091200Z 07018KT 9999 FEW025 26/21 Q1012",
    "updatedAt": "2022-03-09T12:00:00.000Z"
  },
  {
    "airportIcao": "FAEO",
    "metar": "FAEO 090846Z 10007KT 9999 SCT020 20/14 Q1024",
    "updatedAt": "2022-03-09T08:46:00.000Z"
  },
  {
    "airportIcao": "FAGG",
    "metar": "FAGG 091200Z 14007KT 110V190 9999 FEW070TCU 32/17 Q1008",
    "updatedAt": "2022-03-09T12:00:00.000Z"
  },
  {
    "airportIcao": "FAHS",
    "metar": "FAHS 091200Z AUTO 18008G19KT //// // ////// 31/17 Q1015",
    "updatedAt": "2022-03-09T12:00:00.000Z"
  },
  {
    "airportIcao": "FAJB",
    "metar": "FAJB 090800Z AUTO 00000KT //// // ////// 16/15 Q////",
    "updatedAt": "2022-03-09T08:00:00.000Z"
  },
  {
    "airportIcao": "FAKM",
    "metar": "FAKM 091200Z 32006KT 9999 SCT040 FEW050TCU 28/16 Q1017",
    "updatedAt": "2022-03-09T12:00:00.000Z"
  },
  {
    "airportIcao": "FAKN",
    "metar": "FAKN 091200Z 13005KT 9999 SCT030 26/14 Q1018 NOSIG",
    "updatedAt": "2022-03-09T12:00:00.000Z"
  },
  {
    "airportIcao": "FALA",
    "metar": "FALA 091200Z VRB02KT 9999 BKN015 20/15 Q1021 NOSIG",
    "updatedAt": "2022-03-09T12:00:00.000Z"
  },
  {
    "airportIcao": "FALE",
    "metar": "FALE 091200Z 15004KT 120V180 9999 SCT030 25/20 Q1015 NOSIG",
    "updatedAt": "2022-03-09T12:00:00.000Z"
  },
  {
    "airportIcao": "FALW",
    "metar": "FALW 091200Z AUTO /////KT //// // ////// 27/16 Q1009",
    "updatedAt": "2022-03-09T12:00:00.000Z"
  },
  {
    "airportIcao": "FAMM",
    "metar": "FAMM 091200Z 03007KT 9999 OVC020 21/16 Q1020 NOSIG",
    "updatedAt": "2022-03-09T12:00:00.000Z"
  },
  {
    "airportIcao": "FAOB",
    "metar": "FAOB 091200Z AUTO 26012KT //// // ////// 31/17 Q1008",
    "updatedAt": "2022-03-09T12:00:00.000Z"
  },
  {
    "airportIcao": "FAOR",
    "metar": "FAOR 091230Z 28005KT 250V320 9999 SCT014 BKN026 18/15 Q1022 NOSIG",
    "updatedAt": "2022-03-09T12:30:00.000Z"
  },
  {
    "airportIcao": "FAPE",
    "metar": "FAPE 091200Z 08017KT CAVOK 26/18 Q1010 NOSIG",
    "updatedAt": "2022-03-09T12:00:00.000Z"
  },
  {
    "airportIcao": "FAPP",
    "metar": "FAPP 091200Z 08007KT 9999 FEW035 26/12 Q1018 NOSIG",
    "updatedAt": "2022-03-09T12:00:00.000Z"
  },
  {
    "airportIcao": "FASB",
    "metar": "FASB 090749Z 03003KT CAVOK 29/09 Q1016",
    "updatedAt": "2022-03-09T07:49:00.000Z"
  },
  {
    "airportIcao": "FAUP",
    "metar": "FAUP 091200Z 09006KT 9999 SCT040 FEW050CB 31/15 Q1013 NOSIG",
    "updatedAt": "2022-03-09T12:00:00.000Z"
  },
  {
    "airportIcao": "FAUT",
    "metar": "FAUT 091200Z 07009KT 9999 FEW025 27/20 Q1015",
    "updatedAt": "2022-03-09T12:00:00.000Z"
  },
  {
    "airportIcao": "FAWB",
    "metar": "FAWB 091200Z 27006KT 9999 OVC020 24/16 Q1019",
    "updatedAt": "2022-03-09T12:00:00.000Z"
  },
  {
    "airportIcao": "FAWK",
    "metar": "FAWK 091200Z AUTO 25005KT //// // ////// 21/15 Q1022",
    "updatedAt": "2022-03-09T12:00:00.000Z"
  },
  {
    "airportIcao": "FBKE",
    "metar": "FBKE 091100Z 11009KT 070V160 9999 BKN030 FEW035TCU 30/20 Q1013",
    "updatedAt": "2022-03-09T11:00:00.000Z"
  },
  {
    "airportIcao": "FBPM",
    "metar": "FBPM 091200Z 09010KT 030V120 9999 SCT030 30/15 Q1015",
    "updatedAt": "2022-03-09T12:00:00.000Z"
  },
  {
    "airportIcao": "FBSK",
    "metar": "FBSK 091200Z 15007KT 9999 FEW007 SCT020 OVC065 21/19 Q1018 NOSIG",
    "updatedAt": "2022-03-09T12:00:00.000Z"
  },
  {
    "airportIcao": "FCBB",
    "metar": "FCBB 091200Z 25007KT 210V300 9999 BKN020 30/23 Q1009 NOSIG",
    "updatedAt": "2022-03-09T12:00:00.000Z"
  },
  {
    "airportIcao": "FCPP",
    "metar": "FCPP 091200Z 19012KT 9999 SCT018 FEW030CB 31/26 Q1007 NOSIG",
    "updatedAt": "2022-03-09T12:00:00.000Z"
  },
  {
    "airportIcao": "FDBB",
    "metar": "FDBB 091000Z AUTO 04003G34KT //// // ////// 30/21 Q1014",
    "updatedAt": "2022-03-09T10:00:00.000Z"
  },
  {
    "airportIcao": "FDMY",
    "metar": "FDMY 091100Z AUTO 30003KT //// // ////// 29/19 Q1026",
    "updatedAt": "2022-03-09T11:00:00.000Z"
  },
  {
    "airportIcao": "FDPP",
    "metar": "FDPP 091000Z AUTO 00000KT //// // ////// 13/09 Q1017",
    "updatedAt": "2022-03-09T10:00:00.000Z"
  },
  {
    "airportIcao": "FDSK",
    "metar": "FDSK 091200Z 18005KT 9999 NCD 27/19 Q1015",
    "updatedAt": "2022-03-09T12:00:00.000Z"
  },
  {
    "airportIcao": "FDST",
    "metar": "FDST 091100Z AUTO 35005KT //// // ////// 42/35 Q1016",
    "updatedAt": "2022-03-09T11:00:00.000Z"
  },
  {
    "airportIcao": "FEFF",
    "metar": "FEFF 091200Z VRB05KT CAVOK 37/20 Q1005 NOSIG",
    "updatedAt": "2022-03-09T12:00:00.000Z"
  },
  {
    "airportIcao": "FEFT",
    "metar": "FEFT 091000Z 28012KT 9999 SCT022 31/20 Q1011",
    "updatedAt": "2022-03-09T10:00:00.000Z"
  },
  {
    "airportIcao": "FGBT",
    "metar": "FGBT 091100Z 26005KT 9999 SCT008 31/26 Q1007",
    "updatedAt": "2022-03-09T11:00:00.000Z"
  },
  {
    "airportIcao": "FGSL",
    "metar": "FGSL 091200Z 06007KT 030V090 8000 -TSRA BKN009 FEW020CB BKN030 29/27 Q1008 TEMPO 4000 TSRA",
    "updatedAt": "2022-03-09T12:00:00.000Z"
  },
  {
    "airportIcao": "FHAW",
    "metar": "FHAW 091150Z 16016KT 9999 FEW018 29/22 Q1010",
    "updatedAt": "2022-03-09T11:50:00.000Z"
  },
  {
    "airportIcao": "FIMP",
    "metar": "FIMP 091200Z 13007KT 9999 VCSH FEW014CB SCT015 29/25 Q1010",
    "updatedAt": "2022-03-09T12:00:00.000Z"
  },
  {
    "airportIcao": "FJDG",
    "metar": "FJDG 091155Z 27007KT 9999 FEW023 BKN110 BKN230 30/27 A2976 RMK SLP075 70022 8/132 T03030271 10316 20303 56007",
    "updatedAt": "2022-03-09T11:55:00.000Z"
  },
  {
    "airportIcao": "FKKD",
    "metar": "FKKD 091200Z VRB05KT 9999 -TSRA BKN013 SCT016CB 29/26 Q1007 TEMPO 4000 TSRA",
    "updatedAt": "2022-03-09T12:00:00.000Z"
  },
  {
    "airportIcao": "FKKL",
    "metar": "FKKL 091200Z /////KT 7000 NSC 40/03 Q////",
    "updatedAt": "2022-03-09T12:00:00.000Z"
  },
  {
    "airportIcao": "FKKR",
    "metar": "FKKR 091200Z 26010KT 240V300 8000 NSC 41/11 Q1004 NOSIG",
    "updatedAt": "2022-03-09T12:00:00.000Z"
  },
  {
    "airportIcao": "FKYS",
    "metar": "FKYS 091200Z 18004KT 8000 BKN020 31/24 Q1011 NOSIG",
    "updatedAt": "2022-03-09T12:00:00.000Z"
  },
  {
    "airportIcao": "FMCH",
    "metar": "FMCH 091200Z 28009KT 9999 FEW020TCU BKN030 30/26 Q1007 NOSIG",
    "updatedAt": "2022-03-09T12:00:00.000Z"
  },
  {
    "airportIcao": "FMCZ",
    "metar": "FMCZ 091230Z AUTO 28007KT 9999 FEW029 SCT035 BKN220 28/24 Q1006 TEMPO 4000 SHRA BKN018TCU",
    "updatedAt": "2022-03-09T12:30:00.000Z"
  },
  {
    "airportIcao": "FMEE",
    "metar": "FMEE 091230Z AUTO 24003KT 210V300 9999 FEW032/// SCT044/// BKN078/// ///TCU 26/24 Q1009 TEMPO VRB15KT 3000 SHRA",
    "updatedAt": "2022-03-09T12:30:00.000Z"
  },
  {
    "airportIcao": "FMEP",
    "metar": "FMEP 091230Z AUTO 26005KT 210V290 9999 FEW038 OVC098 29/24 Q1009 TEMPO 3000 SHRA SCT020TCU",
    "updatedAt": "2022-03-09T12:30:00.000Z"
  },
  {
    "airportIcao": "FMMI",
    "metar": "FMMI 091230Z 11010KT 090V150 9999 SCT023CB 28/18 Q1014 NOSIG",
    "updatedAt": "2022-03-09T12:30:00.000Z"
  },
  {
    "airportIcao": "FMMS",
    "metar": "FMMS 091200Z 16002KT 9999 VCSH FEW020 BKN250 29/25 Q1007",
    "updatedAt": "2022-03-09T12:00:00.000Z"
  },
  {
    "airportIcao": "FMMT",
    "metar": "FMMT 091200Z 12006KT 080V160 9999 SCT017TCU 30/25 Q1007 NOSIG",
    "updatedAt": "2022-03-09T12:00:00.000Z"
  },
  {
    "airportIcao": "FMNA",
    "metar": "FMNA 091200Z 28008KT 9999 SCT020 29/24 Q1006",
    "updatedAt": "2022-03-09T12:00:00.000Z"
  },
  {
    "airportIcao": "FMNM",
    "metar": "FMNM 091200Z 03018KT 010V070 9999 FEW010 SCT017TCU BKN033 27/25 Q1005 NOSIG",
    "updatedAt": "2022-03-09T12:00:00.000Z"
  },
  {
    "airportIcao": "FMNN",
    "metar": "FMNN 091200Z 04004KT 9999 BKN020CB 30/// Q1006",
    "updatedAt": "2022-03-09T12:00:00.000Z"
  },
  {
    "airportIcao": "FMSD",
    "metar": "FMSD 091200Z 10023KT 9999 FEW020 31/24 Q1008",
    "updatedAt": "2022-03-09T12:00:00.000Z"
  },
  {
    "airportIcao": "FNCA",
    "metar": "FNCA 091200Z 20007KT 9999 FEW016 31/25 Q1007",
    "updatedAt": "2022-03-09T12:00:00.000Z"
  },
  {
    "airportIcao": "FNCT",
    "metar": "FNCT 091200Z 27012KT 9999 SCT015 31/24 Q1007",
    "updatedAt": "2022-03-09T12:00:00.000Z"
  },
  {
    "airportIcao": "FNDU",
    "metar": "FNDU 090800Z 00000KT CAVOK ///// Q////",
    "updatedAt": "2022-03-09T08:00:00.000Z"
  },
  {
    "airportIcao": "FNGI",
    "metar": "FNGI 090800Z 05004KT CAVOK 28/17 Q1014",
    "updatedAt": "2022-03-09T08:00:00.000Z"
  },
  {
    "airportIcao": "FNHU",
    "metar": "FNHU 091200Z 00000KT 9999 SCT014 BKN060 26/17 Q1018",
    "updatedAt": "2022-03-09T12:00:00.000Z"
  },
  {
    "airportIcao": "FNKU",
    "metar": "FNKU 091200Z 07003KT 9999 BKN035 24/17 Q1018",
    "updatedAt": "2022-03-09T12:00:00.000Z"
  },
  {
    "airportIcao": "FNLU",
    "metar": "FNLU 091200Z 27009KT 9999 SCT022 30/24 Q1007 NOSIG",
    "updatedAt": "2022-03-09T12:00:00.000Z"
  },
  {
    "airportIcao": "FNMO",
    "metar": "FNMO 091200Z 27013KT 9999 FEW012 25/19 Q1006",
    "updatedAt": "2022-03-09T12:00:00.000Z"
  },
  {
    "airportIcao": "FNSO",
    "metar": "FNSO 091200Z 28005KT 9999 BKN012 32/25 Q////",
    "updatedAt": "2022-03-09T12:00:00.000Z"
  },
  {
    "airportIcao": "FNSU",
    "metar": "FNSU 090800Z 25004KT 9999 OVC013 29/24 Q1008",
    "updatedAt": "2022-03-09T08:00:00.000Z"
  },
  {
    "airportIcao": "FNUB",
    "metar": "FNUB 090800Z 18006KT CAVOK 25/08 Q1022",
    "updatedAt": "2022-03-09T08:00:00.000Z"
  },
  {
    "airportIcao": "FNUE",
    "metar": "FNUE 091200Z 18006KT 9999 SCT030 FEW032TCU 24/20 Q1018",
    "updatedAt": "2022-03-09T12:00:00.000Z"
  },
  {
    "airportIcao": "FNUG",
    "metar": "FNUG 091200Z 24006KT 9999 FEW025 30/20 Q1010",
    "updatedAt": "2022-03-09T12:00:00.000Z"
  },
  {
    "airportIcao": "FOOG",
    "metar": "FOOG 091200Z 18012KT 9999 SCT013 32/25 Q1007",
    "updatedAt": "2022-03-09T12:00:00.000Z"
  },
  {
    "airportIcao": "FOOL",
    "metar": "FOOL 091200Z 23005KT 9999 SCT010 31/25 Q1007 NOSIG",
    "updatedAt": "2022-03-09T12:00:00.000Z"
  },
  {
    "airportIcao": "FOON",
    "metar": "FOON 091200Z /////KT 9999 BKN018 32/24 Q1008",
    "updatedAt": "2022-03-09T12:00:00.000Z"
  },
  {
    "airportIcao": "FQBR",
    "metar": "FQBR 091200Z 15013KT 9999 SCT018 BKN030 30/20 Q1009",
    "updatedAt": "2022-03-09T12:00:00.000Z"
  },
  {
    "airportIcao": "FQCH",
    "metar": "FQCH 091200Z 21009KT 9999 SCT015 27/17 Q1015",
    "updatedAt": "2022-03-09T12:00:00.000Z"
  },
  {
    "airportIcao": "FQIN",
    "metar": "FQIN 091200Z 17008KT 9999 SCT020 31/21 Q1011",
    "updatedAt": "2022-03-09T12:00:00.000Z"
  },
  {
    "airportIcao": "FQLC",
    "metar": "FQLC 091200Z 16007KT 9999 SCT010 BKN014 FEW020CB 25/18 Q1017 RMK CB TO N/W",
    "updatedAt": "2022-03-09T12:00:00.000Z"
  },
  {
    "airportIcao": "FQMA",
    "metar": "FQMA 091200Z 10011KT 9999 BKN020 30/21 Q1013",
    "updatedAt": "2022-03-09T12:00:00.000Z"
  },
  {
    "airportIcao": "FQNC",
    "metar": "FQNC 091200Z /////KT 9999 BKN020 BKN100 28/// Q////",
    "updatedAt": "2022-03-09T12:00:00.000Z"
  },
  {
    "airportIcao": "FQNP",
    "metar": "FQNP 091200Z 20010KT 160V240 9999 BKN020 SCT/// 30/20 Q1009",
    "updatedAt": "2022-03-09T12:00:00.000Z"
  },
  {
    "airportIcao": "FQPB",
    "metar": "FQPB 091200Z 14007KT 100V180 9999 BKN020 FEW025CB BKN/// 30/25 Q1006 RMK CB TO SW/W/NW",
    "updatedAt": "2022-03-09T12:00:00.000Z"
  },
  {
    "airportIcao": "FQQL",
    "metar": "FQQL 091200Z 14008KT 090V230 9999 SCT018 31/23 Q1008",
    "updatedAt": "2022-03-09T12:00:00.000Z"
  },
  {
    "airportIcao": "FQTT",
    "metar": "FQTT 091200Z 10007KT 9999 BKN020 33/21 Q1008",
    "updatedAt": "2022-03-09T12:00:00.000Z"
  },
  {
    "airportIcao": "FQVL",
    "metar": "FQVL 091200Z 12017KT 9999 FEW020 32/23 Q1010",
    "updatedAt": "2022-03-09T12:00:00.000Z"
  },
  {
    "airportIcao": "FQXA",
    "metar": "FQXA 091200Z 15011KT 110V200 9999 SCT020 31/20 Q1013",
    "updatedAt": "2022-03-09T12:00:00.000Z"
  },
  {
    "airportIcao": "FSIA",
    "metar": "FSIA 091200Z 35012KT 9999 FEW021 30/24 Q1007 NOSIG",
    "updatedAt": "2022-03-09T12:00:00.000Z"
  },
  {
    "airportIcao": "FTTA",
    "metar": "FTTA 091200Z 18004KT CAVOK 39/19 Q1005",
    "updatedAt": "2022-03-09T12:00:00.000Z"
  },
  {
    "airportIcao": "FTTD",
    "metar": "FTTD 091100Z 24010KT 8000 NSC 41/21 Q1006",
    "updatedAt": "2022-03-09T11:00:00.000Z"
  },
  {
    "airportIcao": "FTTJ",
    "metar": "FTTJ 091200Z 01014KT 010V070 4000 DU NSC 42/M03 Q1004 NOSIG",
    "updatedAt": "2022-03-09T12:00:00.000Z"
  },
  {
    "airportIcao": "FTTY",
    "metar": "FTTY 091100Z 04019KT 3000 BLSA 32/13 Q1009",
    "updatedAt": "2022-03-09T11:00:00.000Z"
  },
  {
    "airportIcao": "FVFA",
    "metar": "FVFA 090600Z 11009KT CAVOK 21/19 Q1015 NOSIG",
    "updatedAt": "2022-03-09T06:00:00.000Z"
  },
  {
    "airportIcao": "FVJN",
    "metar": "FVJN 091200Z 15010KT CAVOK 27/17 Q1017 NOSIG",
    "updatedAt": "2022-03-09T12:00:00.000Z"
  },
  {
    "airportIcao": "FVRG",
    "metar": "FVRG 091100Z VRB04KT 9999 BKN035 25/16 Q1018 NOSIG",
    "updatedAt": "2022-03-09T11:00:00.000Z"
  },
  {
    "airportIcao": "FVWN",
    "metar": "FVWN 090600Z 10008KT CAVOK 22/19 Q1017",
    "updatedAt": "2022-03-09T06:00:00.000Z"
  },
  {
    "airportIcao": "FWCL",
    "metar": "FWCL 091100Z 08008KT 9999 FEW030CB BKN032 26/18 Q1015 NOSIG",
    "updatedAt": "2022-03-09T11:00:00.000Z"
  },
  {
    "airportIcao": "FWKI",
    "metar": "FWKI 091200Z 08006KT 9999 FEW030CB BKN032 26/19 Q1014 NOSIG",
    "updatedAt": "2022-03-09T12:00:00.000Z"
  },
  {
    "airportIcao": "FYGF",
    "metar": "FYGF 091100Z AUTO 12006KT //// // ////// 28/17 Q1018",
    "updatedAt": "2022-03-09T11:00:00.000Z"
  },
  {
    "airportIcao": "FYKM",
    "metar": "FYKM 091100Z 05007KT 9999 SCT025TCU 30/21 Q1011",
    "updatedAt": "2022-03-09T11:00:00.000Z"
  },
  {
    "airportIcao": "FYKT",
    "metar": "FYKT 091100Z 04005KT 9999 FEW040TCU 31/14 Q1015",
    "updatedAt": "2022-03-09T11:00:00.000Z"
  },
  {
    "airportIcao": "FYLZ",
    "metar": "FYLZ 091100Z AUTO 20021KT //// // ////// 25/17 Q1009",
    "updatedAt": "2022-03-09T11:00:00.000Z"
  },
  {
    "airportIcao": "FYOA",
    "metar": "FYOA 091000Z 04007KT 9999 FEW030 33/17 Q1012",
    "updatedAt": "2022-03-09T10:00:00.000Z"
  },
  {
    "airportIcao": "FYRU",
    "metar": "FYRU 091100Z 14004KT 9999 FEW025 SCT040 FEW045TCU 27/19 Q1017",
    "updatedAt": "2022-03-09T11:00:00.000Z"
  },
  {
    "airportIcao": "FYWB",
    "metar": "FYWB 091100Z AUTO 31006KT //// // ////// 22/15 Q1011",
    "updatedAt": "2022-03-09T11:00:00.000Z"
  },
  {
    "airportIcao": "FYWE",
    "metar": "FYWE 091100Z 15005KT 120V200 9999 FEW050CB SCT060TCU 26/06 Q1020",
    "updatedAt": "2022-03-09T11:00:00.000Z"
  },
  {
    "airportIcao": "FYWH",
    "metar": "FYWH 091100Z 00000KT 9999 SCT040 28/14 Q1020 NOSIG",
    "updatedAt": "2022-03-09T11:00:00.000Z"
  },
  {
    "airportIcao": "FYWW",
    "metar": "FYWW 091100Z 00000KT 9999 BKN050TCU 27/09 Q1019",
    "updatedAt": "2022-03-09T11:00:00.000Z"
  },
  {
    "airportIcao": "FZAA",
    "metar": "FZAA 090700Z 00000KT 6000 BKN018 27/23 Q1010 NOSIG",
    "updatedAt": "2022-03-09T07:00:00.000Z"
  },
  {
    "airportIcao": "GABS",
    "metar": "GABS 091230Z 05008KT 360V110 CAVOK 33/M05 Q1011 NOSIG",
    "updatedAt": "2022-03-09T12:30:00.000Z"
  },
  {
    "airportIcao": "GAKD",
    "metar": "GAKD 091200Z 12010KT 8000 NSC 33/M03 Q1011",
    "updatedAt": "2022-03-09T12:00:00.000Z"
  },
  {
    "airportIcao": "GAMB",
    "metar": "GAMB 091200Z 02006KT 8000 NSC 31/M02 Q1010",
    "updatedAt": "2022-03-09T12:00:00.000Z"
  },
  {
    "airportIcao": "GANR",
    "metar": "GANR 091200Z 10006KT CAVOK 31/M03 Q1013",
    "updatedAt": "2022-03-09T12:00:00.000Z"
  },
  {
    "airportIcao": "GATB",
    "metar": "GATB 090630Z N",
    "updatedAt": "2022-03-09T06:30:00.000Z"
  },
  {
    "airportIcao": "GBYD",
    "metar": "GBYD 091200Z 01009KT CAVOK 30/03 Q1009",
    "updatedAt": "2022-03-09T12:00:00.000Z"
  },
  {
    "airportIcao": "GCFV",
    "metar": "GCFV 091230Z 07009KT 9999 FEW022 20/15 Q1020",
    "updatedAt": "2022-03-09T12:30:00.000Z"
  },
  {
    "airportIcao": "GCGM",
    "metar": "GCGM 091230Z 23008KT 180V270 9999 FEW020 20/12 Q1021 RMK R09/24007KT 170V280 ARP/24007KT 170V280",
    "updatedAt": "2022-03-09T12:30:00.000Z"
  },
  {
    "airportIcao": "GCHI",
    "metar": "GCHI 091230Z 05004KT 030V100 9999 FEW026 21/13 Q1021",
    "updatedAt": "2022-03-09T12:30:00.000Z"
  },
  {
    "airportIcao": "GCLA",
    "metar": "GCLA 091230Z 06005KT 010V100 9999 FEW030 22/13 Q1021",
    "updatedAt": "2022-03-09T12:30:00.000Z"
  },
  {
    "airportIcao": "GCLP",
    "metar": "GCLP 091230Z 03016KT 9999 FEW030 21/14 Q1021 NOSIG",
    "updatedAt": "2022-03-09T12:30:00.000Z"
  },
  {
    "airportIcao": "GCRR",
    "metar": "GCRR 091230Z 06008KT 020V140 9999 FEW040 20/15 Q1020",
    "updatedAt": "2022-03-09T12:30:00.000Z"
  },
  {
    "airportIcao": "GCTS",
    "metar": "GCTS 091230Z 10016KT 060V120 9999 FEW023 21/13 Q1021 NOSIG",
    "updatedAt": "2022-03-09T12:30:00.000Z"
  },
  {
    "airportIcao": "GCXO",
    "metar": "GCXO 091230Z 30007KT 270V330 9999 FEW001 SCT012 15/14 Q1022 NOSIG",
    "updatedAt": "2022-03-09T12:30:00.000Z"
  },
  {
    "airportIcao": "GECE",
    "metar": "GECE 091230Z AUTO 10008KT 020V170 9999 FEW017/// BKN038/// 17/11 Q1021",
    "updatedAt": "2022-03-09T12:30:00.000Z"
  },
  {
    "airportIcao": "GEML",
    "metar": "GEML 091230Z 09007KT 040V120 9999 FEW015 17/12 Q1021",
    "updatedAt": "2022-03-09T12:30:00.000Z"
  },
  {
    "airportIcao": "GFLL",
    "metar": "GFLL 091000Z 30004KT 7000 HZ BKN011 27/23 Q1009",
    "updatedAt": "2022-03-09T10:00:00.000Z"
  },
  {
    "airportIcao": "GGOV",
    "metar": "GGOV 091200Z 06004KT 330V120 CAVOK 33/01 Q1009 NOSIG",
    "updatedAt": "2022-03-09T12:00:00.000Z"
  },
  {
    "airportIcao": "GLRB",
    "metar": "GLRB 091230Z 30010KT 9000 VCHZ BKN018 32/25 Q1008 NOSIG",
    "updatedAt": "2022-03-09T12:30:00.000Z"
  },
  {
    "airportIcao": "GMAD",
    "metar": "GMAD 091230Z 29004KT 200V350 CAVOK 21/10 Q1018 NOSIG",
    "updatedAt": "2022-03-09T12:30:00.000Z"
  },
  {
    "airportIcao": "GMAG",
    "metar": "GMAG 091200Z 20003KT CAVOK 18/10 Q1019",
    "updatedAt": "2022-03-09T12:00:00.000Z"
  },
  {
    "airportIcao": "GMAT",
    "metar": "GMAT 091200Z 03009KT 8000 NSC 19/10 Q1019 NOSIG",
    "updatedAt": "2022-03-09T12:00:00.000Z"
  },
  {
    "airportIcao": "GMFF",
    "metar": "GMFF 091230Z 35004KT 320V030 CAVOK 19/07 Q1019 NOSIG",
    "updatedAt": "2022-03-09T12:30:00.000Z"
  },
  {
    "airportIcao": "GMFK",
    "metar": "GMFK 091200Z 10007KT 050V190 CAVOK 17/M02 Q1023 NOSIG",
    "updatedAt": "2022-03-09T12:00:00.000Z"
  },
  {
    "airportIcao": "GMFM",
    "metar": "GMFM 091200Z 04005KT 350V080 CAVOK 18/08 Q1018 NOSIG",
    "updatedAt": "2022-03-09T12:00:00.000Z"
  },
  {
    "airportIcao": "GMFO",
    "metar": "GMFO 091230Z 04007KT 010V100 9999 FEW023 SCT200 18/07 Q1020 NOSIG",
    "updatedAt": "2022-03-09T12:30:00.000Z"
  },
  {
    "airportIcao": "GMMB",
    "metar": "GMMB 091200Z 35009KT 320V020 6000 FEW013 BKN200 19/12 Q1019 NOSIG",
    "updatedAt": "2022-03-09T12:00:00.000Z"
  },
  {
    "airportIcao": "GMMC",
    "metar": "GMMC 091200Z 04008KT 9999 FEW016 SCT200 17/12 Q1019",
    "updatedAt": "2022-03-09T12:00:00.000Z"
  },
  {
    "airportIcao": "GMMD",
    "metar": "GMMD 091200Z 18003KT CAVOK 20/03 Q1018 NOSIG",
    "updatedAt": "2022-03-09T12:00:00.000Z"
  },
  {
    "airportIcao": "GMME",
    "metar": "GMME 091230Z 36008KT 320V030 5000 FEW006 BKN166 18/12 Q1018 NOSIG",
    "updatedAt": "2022-03-09T12:30:00.000Z"
  },
  {
    "airportIcao": "GMMH",
    "metar": "GMMH 091200Z 06017KT 010V080 8000 NSC 19/11 Q1018 NOSIG",
    "updatedAt": "2022-03-09T12:00:00.000Z"
  },
  {
    "airportIcao": "GMMI",
    "metar": "GMMI 091200Z 23011KT 8000 NSC 20/11 Q1019 NOSIG",
    "updatedAt": "2022-03-09T12:00:00.000Z"
  },
  {
    "airportIcao": "GMML",
    "metar": "GMML 091200Z 04013KT 9999 FEW020 SCT200 21/11 Q1020 NOSIG",
    "updatedAt": "2022-03-09T12:00:00.000Z"
  },
  {
    "airportIcao": "GMMN",
    "metar": "GMMN 091230Z VRB05KT CAVOK 19/10 Q1019 NOSIG",
    "updatedAt": "2022-03-09T12:30:00.000Z"
  },
  {
    "airportIcao": "GMMW",
    "metar": "GMMW 091200Z 04011KT 010V070 CAVOK 18/07 Q1020 NOSIG",
    "updatedAt": "2022-03-09T12:00:00.000Z"
  },
  {
    "airportIcao": "GMMX",
    "metar": "GMMX 091230Z VRB03KT CAVOK 22/07 Q1018 NOSIG",
    "updatedAt": "2022-03-09T12:30:00.000Z"
  },
  {
    "airportIcao": "GMMZ",
    "metar": "GMMZ 091200Z VRB02KT CAVOK 19/M06 Q1021 NOSIG",
    "updatedAt": "2022-03-09T12:00:00.000Z"
  },
  {
    "airportIcao": "GMTA",
    "metar": "GMTA 091200Z 36007KT 310V040 CAVOK 19/10 Q1019 NOSIG",
    "updatedAt": "2022-03-09T12:00:00.000Z"
  },
  {
    "airportIcao": "GMTN",
    "metar": "GMTN 091200Z 09009KT 060V140 9999 FEW020 SCT200 18/12 Q1021 NOSIG",
    "updatedAt": "2022-03-09T12:00:00.000Z"
  },
  {
    "airportIcao": "GMTT",
    "metar": "GMTT 091230Z 09011KT 050V110 CAVOK 21/08 Q1019 NOSIG",
    "updatedAt": "2022-03-09T12:30:00.000Z"
  },
  {
    "airportIcao": "GOBD",
    "metar": "GOBD 091230Z 36011KT CAVOK 29/12 Q1011 NOSIG",
    "updatedAt": "2022-03-09T12:30:00.000Z"
  },
  {
    "airportIcao": "GOGG",
    "metar": "GOGG 091200Z 04004KT CAVOK 33/10 Q1010",
    "updatedAt": "2022-03-09T12:00:00.000Z"
  },
  {
    "airportIcao": "GOGK",
    "metar": "GOGK 091200Z 04006KT CAVOK 36/02 Q1008",
    "updatedAt": "2022-03-09T12:00:00.000Z"
  },
  {
    "airportIcao": "GOGS",
    "metar": "GOGS 091200Z 36008KT CAVOK 30/10 Q1010",
    "updatedAt": "2022-03-09T12:00:00.000Z"
  },
  {
    "airportIcao": "GOOD",
    "metar": "GOOD 091200Z 04004KT CAVOK 32/08 Q1011",
    "updatedAt": "2022-03-09T12:00:00.000Z"
  },
  {
    "airportIcao": "GOOG",
    "metar": "GOOG 091200Z 10004KT CAVOK 34/14 Q1009",
    "updatedAt": "2022-03-09T12:00:00.000Z"
  },
  {
    "airportIcao": "GOOK",
    "metar": "GOOK 091200Z 08006KT CAVOK 33/09 Q1011",
    "updatedAt": "2022-03-09T12:00:00.000Z"
  },
  {
    "airportIcao": "GOOY",
    "metar": "GOOY 091200Z 32012KT CAVOK 21/17 Q1012",
    "updatedAt": "2022-03-09T12:00:00.000Z"
  },
  {
    "airportIcao": "GOSM",
    "metar": "GOSM 091200Z 10004KT CAVOK 34/03 Q1010",
    "updatedAt": "2022-03-09T12:00:00.000Z"
  },
  {
    "airportIcao": "GOSP",
    "metar": "GOSP 091200Z 04002KT CAVOK 32/06 Q1011",
    "updatedAt": "2022-03-09T12:00:00.000Z"
  },
  {
    "airportIcao": "GOSS",
    "metar": "GOSS 091200Z VRB04KT CAVOK 29/14 Q1012",
    "updatedAt": "2022-03-09T12:00:00.000Z"
  },
  {
    "airportIcao": "GOTK",
    "metar": "GOTK 091200Z 10006KT CAVOK 35/02 Q1008",
    "updatedAt": "2022-03-09T12:00:00.000Z"
  },
  {
    "airportIcao": "GOTT",
    "metar": "GOTT 091200Z 08008KT CAVOK 36/M07 Q1009",
    "updatedAt": "2022-03-09T12:00:00.000Z"
  },
  {
    "airportIcao": "GQNI",
    "metar": "GQNI 091200Z 04015KT 6000 BLDU NSC 30/M03 Q1013",
    "updatedAt": "2022-03-09T12:00:00.000Z"
  },
  {
    "airportIcao": "GQNO",
    "metar": "GQNO 091230Z 09013KT 8000 NSC 31/M06 Q1011 NOSIG",
    "updatedAt": "2022-03-09T12:30:00.000Z"
  },
  {
    "airportIcao": "GQPA",
    "metar": "GQPA 090900Z 35012KT 5000 DU NSC 19/M03 Q1017",
    "updatedAt": "2022-03-09T09:00:00.000Z"
  },
  {
    "airportIcao": "GQPP",
    "metar": "GQPP 091200Z 03018KT 8000 NSC 23/08 Q1016 NOSIG",
    "updatedAt": "2022-03-09T12:00:00.000Z"
  },
  {
    "airportIcao": "GQPZ",
    "metar": "GQPZ 091200Z 02010KT CAVOK 26/08 Q1017",
    "updatedAt": "2022-03-09T12:00:00.000Z"
  },
  {
    "airportIcao": "GUCY",
    "metar": "GUCY 091200Z 19010KT 4000 HZ NSC 31/21 Q1009 NOSIG",
    "updatedAt": "2022-03-09T12:00:00.000Z"
  },
  {
    "airportIcao": "GVAC",
    "metar": "GVAC 091200Z 04018KT 9999 BKN014 BKN200 22/14 Q1016 NOSIG",
    "updatedAt": "2022-03-09T12:00:00.000Z"
  },
  {
    "airportIcao": "GVBA",
    "metar": "GVBA 091200Z 03020KT 9999 BKN015 BKN200 23/14 Q1016 NOSIG",
    "updatedAt": "2022-03-09T12:00:00.000Z"
  },
  {
    "airportIcao": "GVNP",
    "metar": "GVNP 091200Z 02023KT 9999 SCT016 BKN200 23/15 Q1015 N0SIG",
    "updatedAt": "2022-03-09T12:00:00.000Z"
  },
  {
    "airportIcao": "GVSV",
    "metar": "GVSV 091200Z 04028KT 9999 SCT022 23/14 Q1015 NOSIG",
    "updatedAt": "2022-03-09T12:00:00.000Z"
  },
  {
    "airportIcao": "HBBA",
    "metar": "HBBA 091200Z 00000KT 9999 SCT025TCU31/19 Q1008 NOSIG",
    "updatedAt": "2022-03-09T12:00:00.000Z"
  },
  {
    "airportIcao": "HCMF",
    "metar": "HCMF 091200Z 36025KT CAVOK 27/22 Q1008",
    "updatedAt": "2022-03-09T12:00:00.000Z"
  },
  {
    "airportIcao": "HCMM",
    "metar": "HCMM 091200Z 09019KT 9999 FEW026 30/24 Q1006",
    "updatedAt": "2022-03-09T12:00:00.000Z"
  },
  {
    "airportIcao": "HEAT",
    "metar": "HEAT 091200Z 35016KT CAVOK 26/05 Q1010 NOSIG",
    "updatedAt": "2022-03-09T12:00:00.000Z"
  },
  {
    "airportIcao": "HEAX",
    "metar": "HEAX 091200Z 31012KT 9999 SCT020 19/11 Q1010 NOSIG",
    "updatedAt": "2022-03-09T12:00:00.000Z"
  },
  {
    "airportIcao": "HEBA",
    "metar": "HEBA 091200Z 30009KT 9999 SCT020 18/10 Q1010 NOSIG",
    "updatedAt": "2022-03-09T12:00:00.000Z"
  },
  {
    "airportIcao": "HEBL",
    "metar": "HEBL 091200Z 31012KT CAVOK 35/04 Q1006 NOSIG",
    "updatedAt": "2022-03-09T12:00:00.000Z"
  },
  {
    "airportIcao": "HECA",
    "metar": "HECA 091230Z 29012KT CAVOK 21/11 Q1009 NOSIG",
    "updatedAt": "2022-03-09T12:30:00.000Z"
  },
  {
    "airportIcao": "HECP",
    "metar": "HECP 091200Z 33012KT 9999 SCT025 21/10 Q1008 NOSIG",
    "updatedAt": "2022-03-09T12:00:00.000Z"
  },
  {
    "airportIcao": "HEGN",
    "metar": "HEGN 091200Z 06006KT CAVOK 26/18 Q1004 NOSIG",
    "updatedAt": "2022-03-09T12:00:00.000Z"
  },
  {
    "airportIcao": "HEIS",
    "metar": "HEIS 091200Z 36012KT 9999 SCT025 22/05 Q1008",
    "updatedAt": "2022-03-09T12:00:00.000Z"
  },
  {
    "airportIcao": "HELX",
    "metar": "HELX 091200Z 29011KT 5000 SA NSC 35/03 Q1005 NOSIG",
    "updatedAt": "2022-03-09T12:00:00.000Z"
  },
  {
    "airportIcao": "HEMA",
    "metar": "HEMA 091200Z 11013KT CAVOK 27/19 Q1004 NOSIG",
    "updatedAt": "2022-03-09T12:00:00.000Z"
  },
  {
    "airportIcao": "HEMM",
    "metar": "HEMM 091200Z 29015KT 9999 SCT020 BKN022 17/10 Q1012 NOSIG",
    "updatedAt": "2022-03-09T12:00:00.000Z"
  },
  {
    "airportIcao": "HEOC",
    "metar": "HEOC 091200Z 33020KT 9999 BKN025 22/10 Q1010 NOSIG",
    "updatedAt": "2022-03-09T12:00:00.000Z"
  },
  {
    "airportIcao": "HEPS",
    "metar": "HEPS 091200Z 33013KT 9999 SCT025 SCT200 17/13 Q1009 NOSIG",
    "updatedAt": "2022-03-09T12:00:00.000Z"
  },
  {
    "airportIcao": "HESC",
    "metar": "HESC 091200Z 26020KT 8000 NSC 22/01 Q1012 NOSIG",
    "updatedAt": "2022-03-09T12:00:00.000Z"
  },
  {
    "airportIcao": "HESG",
    "metar": "HESG 091200Z 29016KT 7000 NSC 33/01 Q1005 NOSIG",
    "updatedAt": "2022-03-09T12:00:00.000Z"
  },
  {
    "airportIcao": "HESH",
    "metar": "HESH 091200Z 18011KT CAVOK 25/16 Q1005 NOSIG",
    "updatedAt": "2022-03-09T12:00:00.000Z"
  },
  {
    "airportIcao": "HESN",
    "metar": "HESN 091200Z 30015KT CAVOK 37/M05 Q1005 NOSIG",
    "updatedAt": "2022-03-09T12:00:00.000Z"
  },
  {
    "airportIcao": "HESW",
    "metar": "HESW 091200Z 30014KT 9999 BKN025 19/06 Q1013",
    "updatedAt": "2022-03-09T12:00:00.000Z"
  },
  {
    "airportIcao": "HETR",
    "metar": "HETR 091200Z 25019KT 3000 SA NSC 26/15 Q1005",
    "updatedAt": "2022-03-09T12:00:00.000Z"
  },
  {
    "airportIcao": "HKEL",
    "metar": "HKEL 091200Z 07009KT 9999 FEW023CB SCT024 28/03 Q1019",
    "updatedAt": "2022-03-09T12:00:00.000Z"
  },
  {
    "airportIcao": "HKJK",
    "metar": "HKJK 091200Z 07012KT 9999 SCT029 29/13 Q1016 NOSIG",
    "updatedAt": "2022-03-09T12:00:00.000Z"
  },
  {
    "airportIcao": "HKKI",
    "metar": "HKKI 091200Z 23016KT 9999 FEW029CB SCT080 30/20 Q1010",
    "updatedAt": "2022-03-09T12:00:00.000Z"
  },
  {
    "airportIcao": "HKML",
    "metar": "HKML 091200Z 09015KT 9999 FEW024 31/23 Q1007",
    "updatedAt": "2022-03-09T12:00:00.000Z"
  },
  {
    "airportIcao": "HKMO",
    "metar": "HKMO 091200Z 08013KT 9999 FEW027 32/24 Q1007 NOSIG",
    "updatedAt": "2022-03-09T12:00:00.000Z"
  },
  {
    "airportIcao": "HKNW",
    "metar": "HKNW 091200Z 10016KT 9999 BKN030 28/11 Q1015",
    "updatedAt": "2022-03-09T12:00:00.000Z"
  },
  {
    "airportIcao": "HKWJ",
    "metar": "HKWJ 091200Z 00000KT 9999 SCT037 37/16 Q1004",
    "updatedAt": "2022-03-09T12:00:00.000Z"
  },
  {
    "airportIcao": "HRYR",
    "metar": "HRYR 091230Z 31008KT 9999 -RA BKN025 BKN100 18/15 Q1018 NOSIG",
    "updatedAt": "2022-03-09T12:30:00.000Z"
  },
  {
    "airportIcao": "HSSK",
    "metar": "HSSK 091200Z 34015KT CAVOK 42/03 Q1004 NOSIG",
    "updatedAt": "2022-03-09T12:00:00.000Z"
  },
  {
    "airportIcao": "HTAR",
    "metar": "HTAR 090600Z 12005KT 9999 FEW025 22/16 Q1019 NOSIG",
    "updatedAt": "2022-03-09T06:00:00.000Z"
  },
  {
    "airportIcao": "HTDA",
    "metar": "HTDA 091200Z 03013KT 9999 FEW033 33/23 Q1007 NOSIG",
    "updatedAt": "2022-03-09T12:00:00.000Z"
  },
  {
    "airportIcao": "HTDO",
    "metar": "HTDO 090600Z 10006KT 9999 FEW022 23/19 Q1016 NOSIG",
    "updatedAt": "2022-03-09T06:00:00.000Z"
  },
  {
    "airportIcao": "HTIB",
    "metar": "HTIB 090600Z 00000KT 9999 FEW021 FEW022CB BKN090 22/19 Q1014",
    "updatedAt": "2022-03-09T06:00:00.000Z"
  },
  {
    "airportIcao": "HTIR",
    "metar": "HTIR 090600Z 00000KT 9999 BKN022 BKN080 20/18 Q1018",
    "updatedAt": "2022-03-09T06:00:00.000Z"
  },
  {
    "airportIcao": "HTJN",
    "metar": "HTJN 090600Z AUTO 02410KT //// 29/23 Q1011",
    "updatedAt": "2022-03-09T06:00:00.000Z"
  },
  {
    "airportIcao": "HTKA",
    "metar": "HTKA 090600Z 00000KT 9999 FEW019 FEW020CB 23/21 Q1012 NOSIG",
    "updatedAt": "2022-03-09T06:00:00.000Z"
  },
  {
    "airportIcao": "HTKJ",
    "metar": "HTKJ 091200Z 09013KT 9999 FEW034CB 33/15 Q1011 NOSIG",
    "updatedAt": "2022-03-09T12:00:00.000Z"
  },
  {
    "airportIcao": "HTMG",
    "metar": "HTMG 090600Z 05012KT 9999 BKN022 24/21 Q1012",
    "updatedAt": "2022-03-09T06:00:00.000Z"
  },
  {
    "airportIcao": "HTMP",
    "metar": "HTMP 090600Z 00000KT 9999 SCT018 FEW019CB SCT080 23/21 Q1016",
    "updatedAt": "2022-03-09T06:00:00.000Z"
  },
  {
    "airportIcao": "HTMT",
    "metar": "HTMT 090600Z 30010KT 9999 FEW022 FEW023CB 29/25 Q1010 NOSIG",
    "updatedAt": "2022-03-09T06:00:00.000Z"
  },
  {
    "airportIcao": "HTMU",
    "metar": "HTMU 090600Z 00000KT 9999 FEW020 FEW022CB 24/20 Q1016",
    "updatedAt": "2022-03-09T06:00:00.000Z"
  },
  {
    "airportIcao": "HTMW",
    "metar": "HTMW 091200Z 30013KT 9999 SCT024 FEW025CB BKN080 24/21 Q1013 NOSIG",
    "updatedAt": "2022-03-09T12:00:00.000Z"
  },
  {
    "airportIcao": "HTSO",
    "metar": "HTSO 090600Z 00000KT 9999 BKN018 FEW019CB BKN080 21/20 Q1017",
    "updatedAt": "2022-03-09T06:00:00.000Z"
  },
  {
    "airportIcao": "HTSU",
    "metar": "HTSU 090600Z 00000KT 9999 FEW015 FEW019CB BKN080 17/16 Q1021",
    "updatedAt": "2022-03-09T06:00:00.000Z"
  },
  {
    "airportIcao": "HTTB",
    "metar": "HTTB 090600Z 00000KT 9999 SCT020 BKN070 21/19 Q1017 NOSIG",
    "updatedAt": "2022-03-09T06:00:00.000Z"
  },
  {
    "airportIcao": "HTZA",
    "metar": "HTZA 091200Z 03010KT 9999 SCT024 33/22 Q1006 NOSIG",
    "updatedAt": "2022-03-09T12:00:00.000Z"
  },
  {
    "airportIcao": "HUEN",
    "metar": "HUEN 091100Z 18020KT 9999 SCT023 FEW025CB 27/21 Q1014",
    "updatedAt": "2022-03-09T11:00:00.000Z"
  },
  {
    "airportIcao": "K00U",
    "metar": "K00U 090615Z AUTO 36005KT 10SM OVC060 M14/M17 A3024 RMK A01",
    "updatedAt": "2022-03-09T06:15:00.000Z"
  },
  {
    "airportIcao": "K04V",
    "metar": "K04V 091235Z AUTO 31009KT 10SM M12/M17 A2985 RMK AO2",
    "updatedAt": "2022-03-09T12:35:00.000Z"
  },
  {
    "airportIcao": "K04W",
    "metar": "K04W 091235Z AUTO 28008KT 10SM SCT020 M12/M16 A3001 RMK AO2",
    "updatedAt": "2022-03-09T12:35:00.000Z"
  },
  {
    "airportIcao": "K05U",
    "metar": "K05U 090615Z AUTO 00000KT 10SM FEW040 SCT060 OVC070 M00/M03 A3001 RMK A01",
    "updatedAt": "2022-03-09T06:15:00.000Z"
  },
  {
    "airportIcao": "K06C",
    "metar": "K06C 091235Z AUTO 25004KT 10SM SCT120 M01/M04 A2995 RMK AO2 T10101040",
    "updatedAt": "2022-03-09T12:35:00.000Z"
  },
  {
    "airportIcao": "K06D",
    "metar": "K06D 091235Z AUTO 31012KT 10SM FEW005 SCT008 OVC040 M16/M19 A3009 RMK AO2",
    "updatedAt": "2022-03-09T12:35:00.000Z"
  },
  {
    "airportIcao": "K08D",
    "metar": "K08D 091235Z AUTO 30008KT 10SM -SN FEW019 FEW031 SCT043 M18/M20 A3013 RMK AO2",
    "updatedAt": "2022-03-09T12:35:00.000Z"
  },
  {
    "airportIcao": "K0A0",
    "metar": "K0A0 090615Z AUTO 35004KT 10SM CLR M04/M23 A2996 RMK AO2",
    "updatedAt": "2022-03-09T06:15:00.000Z"
  },
  {
    "airportIcao": "K0A9",
    "metar": "K0A9 090615Z AUTO 11004KT 4SM BR BKN008 BKN035 OVC050 09/09 A2995 RMK A01",
    "updatedAt": "2022-03-09T06:15:00.000Z"
  },
  {
    "airportIcao": "K0CO",
    "metar": "K0CO 091235Z AUTO 28032G48KT BKN009 BKN018 OVC029 M16/M18 A2959 RMK AO2 PWINO",
    "updatedAt": "2022-03-09T12:35:00.000Z"
  },
  {
    "airportIcao": "K0E0",
    "metar": "K0E0 091235Z AUTO 00000KT 10SM CLR M13/M20 A2993 RMK AO2 T11321196 TSNO",
    "updatedAt": "2022-03-09T12:35:00.000Z"
  },
  {
    "airportIcao": "K0F2",
    "metar": "K0F2 091235Z AUTO 00000KT 10SM CLR M04/M06 A3010 RMK AO2 T10431060",
    "updatedAt": "2022-03-09T12:35:00.000Z"
  },
  {
    "airportIcao": "K0J6",
    "metar": "K0J6 091235Z AUTO 22006G13KT 10SM BKN032 OVC039 21/20 A2985 RMK AO2 LTG DSNT SE-SW",
    "updatedAt": "2022-03-09T12:35:00.000Z"
  },
  {
    "airportIcao": "K0R0",
    "metar": "K0R0 090615Z AUTO 00000KT 5SM -RA BR FEW004 FEW020 OVC028 09/08 A2992 RMK AO2 LTG DSNT N-E",
    "updatedAt": "2022-03-09T06:15:00.000Z"
  },
  {
    "airportIcao": "K0R4",
    "metar": "K0R4 091235Z AUTO 36010KT 10SM OVC010 06/04 A3004 RMK AO2 T00600042",
    "updatedAt": "2022-03-09T12:35:00.000Z"
  },
  {
    "airportIcao": "K0S9",
    "metar": "K0S9 091235Z AUTO 00000KT 10SM OVC080 01/00 A3021 RMK AO2",
    "updatedAt": "2022-03-09T12:35:00.000Z"
  },
  {
    "airportIcao": "K0V4",
    "metar": "K0V4 091235Z AUTO 05007KT 7SM OVC006 06/06 A2994 RMK AO1 T00550055",
    "updatedAt": "2022-03-09T12:35:00.000Z"
  },
  {
    "airportIcao": "K11R",
    "metar": "K11R 091235Z AUTO 35007KT 10SM CLR 04/03 A3008 RMK AO2 T00420030",
    "updatedAt": "2022-03-09T12:35:00.000Z"
  },
  {
    "airportIcao": "K12N",
    "metar": "K12N 091154Z AUTO 00000KT 01/M05 A3008 RMK AO1 SLP195 T00111050 10017 20006 56010",
    "updatedAt": "2022-03-09T11:54:00.000Z"
  },
  {
    "airportIcao": "K13K",
    "metar": "K13K 091235Z AUTO 36007KT 7SM BKN014 M03/M04 A3009 RMK AO2 T10331037",
    "updatedAt": "2022-03-09T12:35:00.000Z"
  },
  {
    "airportIcao": "K14Y",
    "metar": "K14Y 091235Z AUTO 31013G18KT 10SM SCT017 SCT050 M15/M18 A3006 RMK AO2",
    "updatedAt": "2022-03-09T12:35:00.000Z"
  },
  {
    "airportIcao": "K17J",
    "metar": "K17J 091235Z AUTO 22009KT 7SM -TSRA BR SCT011 BKN050 OVC110 21/20 A2987 RMK AO2 LTG DSNT E SW AND W P0016 T02110203",
    "updatedAt": "2022-03-09T12:35:00.000Z"
  },
  {
    "airportIcao": "K18A",
    "metar": "K18A 091235Z AUTO 14008KT 3 1/2SM RA BR SCT011 BKN065 OVC095 11/11 A2985 RMK AO2 P0001 T01090107",
    "updatedAt": "2022-03-09T12:35:00.000Z"
  },
  {
    "airportIcao": "K18H",
    "metar": "K18H 091235Z AUTO 02008G18KT 5SM BR OVC012 22/20 A2987 RMK A01",
    "updatedAt": "2022-03-09T12:35:00.000Z"
  },
  {
    "airportIcao": "K19S",
    "metar": "K19S 091235Z AUTO 00000KT 1/4SM FZFG OVC001 M09/M10 A3000 RMK AO2 T10941103",
    "updatedAt": "2022-03-09T12:35:00.000Z"
  },
  {
    "airportIcao": "K1A5",
    "metar": "K1A5 091235Z AUTO 00000KT 4SM DZ BKN008 BKN012 OVC028 10/10 A2987 RMK AO2 P0001 T01020096",
    "updatedAt": "2022-03-09T12:35:00.000Z"
  },
  {
    "airportIcao": "K1A6",
    "metar": "K1A6 091235Z AUTO 00000KT 7SM DZ OVC015 06/05 A2989 RMK AO2 P0001 T00580051",
    "updatedAt": "2022-03-09T12:35:00.000Z"
  },
  {
    "airportIcao": "K1A9",
    "metar": "K1A9 091235Z AUTO 29007KT 10SM OVC005 10/10 A2991 RMK AO2 T01010101",
    "updatedAt": "2022-03-09T12:35:00.000Z"
  },
  {
    "airportIcao": "K1AM",
    "metar": "K1AM 091158Z AUTO 24007KT 10SM -SHSN OVC014 M14/M17 A3017 RMK AO2 SNE57SHSNB57 SLP263 70002 T11431172 11139 21220 56005 $",
    "updatedAt": "2022-03-09T11:58:00.000Z"
  },
  {
    "airportIcao": "K1AN",
    "metar": "K1AN 091156Z AUTO 32011KT 10SM M M A3010 RMK AO2 SLPNO ALSTG ESTMD 60000 53002 $",
    "updatedAt": "2022-03-09T11:56:00.000Z"
  },
  {
    "airportIcao": "K1AW",
    "metar": "K1AW 091158Z AUTO 04011KT 3SM BLSN OVC022 M12/M14 A2988 RMK AO2 SNE40 SLP193 P0000 60000 T11231142 11100 21123 53003 $",
    "updatedAt": "2022-03-09T11:58:00.000Z"
  },
  {
    "airportIcao": "K1BW",
    "metar": "K1BW 091158Z AUTO 05012KT 1SM BLSN VV018 M13/M15 A2990 RMK AO2 SLP197 60000 T11341154 11102 21134 53004 RVRNO $",
    "updatedAt": "2022-03-09T11:58:00.000Z"
  },
  {
    "airportIcao": "K1CM",
    "metar": "K1CM 091158Z AUTO 29012KT 10SM FEW038 M18/M21 A3011 RMK AO2 SLP314 T11831209 11159 21192 56007 $",
    "updatedAt": "2022-03-09T11:58:00.000Z"
  },
  {
    "airportIcao": "K1CN",
    "metar": "K1CN 091156Z AUTO 30009KT 10SM CLR M19/M21 M RMK AO2 SLPNO 60000 T11871211 11157 21187 $",
    "updatedAt": "2022-03-09T11:56:00.000Z"
  },
  {
    "airportIcao": "K1CW",
    "metar": "K1CW 091158Z AUTO 07009KT 6SM -SN SCT017 OVC033 M12/M13 A3002 RMK AO2 SLP217 T11171131 11083 21117 53005 $",
    "updatedAt": "2022-03-09T11:58:00.000Z"
  },
  {
    "airportIcao": "K1DM",
    "metar": "K1DM 091158Z AUTO 31009KT M M BKN016 M15/M17 A3014 RMK AO2 SLP309 T11531174 11140 21199 55004 PWINO FZRANO $",
    "updatedAt": "2022-03-09T11:58:00.000Z"
  },
  {
    "airportIcao": "K1DW",
    "metar": "K1DW 091158Z AUTO 06010KT 1 7/8SM -SN OVC015 M12/M14 A2996 RMK AO2 VIS 1 3/8V1 7/8 SLP204 T11231140 11093 21123 53004 $",
    "updatedAt": "2022-03-09T11:58:00.000Z"
  },
  {
    "airportIcao": "K1EM",
    "metar": "K1EM 091158Z AUTO 27009KT 9SM -SN OVC010 M14/M16 A3015 RMK AO2 SLP307 T11421157 11142 21172 55006 $",
    "updatedAt": "2022-03-09T11:58:00.000Z"
  },
  {
    "airportIcao": "K1F0",
    "metar": "K1F0 091235Z AUTO 00000KT 10SM CLR M05/M07 A3011 RMK AO2 T10541065",
    "updatedAt": "2022-03-09T12:35:00.000Z"
  },
  {
    "airportIcao": "K1FM",
    "metar": "K1FM 091158Z AUTO 33008KT 10SM CLR M22/M25 A3014 RMK AO2 SLP334 T12231248 11161 21224 56007 $",
    "updatedAt": "2022-03-09T11:58:00.000Z"
  },
  {
    "airportIcao": "K1FN",
    "metar": "K1FN 091156Z AUTO 30009KT 10SM CLR M18/M20 M RMK AO2 SLPNO 60000 T11761197 11144 21176 $",
    "updatedAt": "2022-03-09T11:56:00.000Z"
  },
  {
    "airportIcao": "K1GM",
    "metar": "K1GM 091158Z AUTO 00000KT 10SM -SHSN BKN018 M20/M22 A3014 RMK AO2 SHSNE55SHSNB57 CIG 015V019 SLP320 T11961219 11175 21204 56005 $",
    "updatedAt": "2022-03-09T11:58:00.000Z"
  },
  {
    "airportIcao": "K1GN",
    "metar": "K1GN 091156Z AUTO 31007KT 10SM CLR M17/M19 A3009 RMK AO2 SLP255 60000 T11721189 11133 21172 55000 $",
    "updatedAt": "2022-03-09T11:56:00.000Z"
  },
  {
    "airportIcao": "K1GW",
    "metar": "K1GW 091158Z AUTO 05013KT M M OVC012 M10/M12 A2995 RMK AO2 SLP191 T11031119 11057 21103 53004 RVRNO PWINO $",
    "updatedAt": "2022-03-09T11:58:00.000Z"
  },
  {
    "airportIcao": "K1H2",
    "metar": "K1H2 091235Z AUTO 00000KT M01/M02 A3004 RMK AO2 T10121019 PWINO",
    "updatedAt": "2022-03-09T12:35:00.000Z"
  },
  {
    "airportIcao": "K1HM",
    "metar": "K1HM 091158Z AUTO 31005KT 10SM CLR M19/M22 A3018 RMK AO2 SLP317 T11861219 11168 21190 56006 $",
    "updatedAt": "2022-03-09T11:58:00.000Z"
  },
  {
    "airportIcao": "K1HN",
    "metar": "K1HN 091156Z AUTO 31006KT 10SM SCT049 M15/M18 A3014 RMK AO2 SLP259 60000 T11531183 11124 21153 55002 $",
    "updatedAt": "2022-03-09T11:56:00.000Z"
  },
  {
    "airportIcao": "K1HW",
    "metar": "K1HW 091158Z AUTO 05014KT 1 3/4SM BLSN OVC015 M10/M11 A2996 RMK AO2 VIS 1 3/4V2 1/4 SNE46 SLP196 P0000 60000 T11001112 11069 21100 53001 $",
    "updatedAt": "2022-03-09T11:58:00.000Z"
  },
  {
    "airportIcao": "K1IM",
    "metar": "K1IM 091158Z AUTO 15004KT 10SM CLR M21/M23 A3021 RMK AO2 SLP341 70005 T12121231 11165 21215 56005 $",
    "updatedAt": "2022-03-09T11:58:00.000Z"
  },
  {
    "airportIcao": "K1IN",
    "metar": "K1IN 091156Z AUTO 31008KT 8SM -SN SCT023 M18/M20 M RMK AO2 SNB40 SLPNO P0000 60000 T11781203 11136 21183 $",
    "updatedAt": "2022-03-09T11:56:00.000Z"
  },
  {
    "airportIcao": "K1IW",
    "metar": "K1IW 091158Z AUTO 06011KT 1SM -SN VV008 M09/M11 A2995 RMK AO2 CIG 008V010 SLP190 P0000 60000 T10951111 11064 21095 53001 RVRNO $",
    "updatedAt": "2022-03-09T11:58:00.000Z"
  },
  {
    "airportIcao": "K1JM",
    "metar": "K1JM 091158Z AUTO 33010KT 10SM CLR M20/M23 A3018 RMK AO2 SLP330 70002 T12031227 11186 21233 55004 $",
    "updatedAt": "2022-03-09T11:58:00.000Z"
  },
  {
    "airportIcao": "K1JN",
    "metar": "K1JN 091156Z AUTO 29011KT 10SM CLR M18/M19 A3009 RMK AO2 SLP252 60000 T11781194 11138 21183 53001 $",
    "updatedAt": "2022-03-09T11:56:00.000Z"
  },
  {
    "airportIcao": "K1JW",
    "metar": "K1JW 091158Z AUTO 07009KT 1 1/8SM -SN OVC007 M09/M11 A2979 RMK AO2 CIG 007V009 SLP131 P0000 60000 T10911107 11064 21091 55002 $",
    "updatedAt": "2022-03-09T11:58:00.000Z"
  },
  {
    "airportIcao": "K1K1",
    "metar": "K1K1 091235Z AUTO 03004KT 10SM OVC005 M01/M02 A3008 RMK AO2 T10111018",
    "updatedAt": "2022-03-09T12:35:00.000Z"
  },
  {
    "airportIcao": "K1KM",
    "metar": "K1KM 091158Z AUTO 32006KT 10SM BKN049 M18/M21 A3011 RMK AO2 SLP307 T11781213 11148 21206 57006 $",
    "updatedAt": "2022-03-09T11:58:00.000Z"
  },
  {
    "airportIcao": "K1LN",
    "metar": "K1LN 091156Z AUTO 29009KT 9SM -SN FEW022 FEW029 SCT034 BKN049 BKN055 M19/M21 A3014 RMK AO2 SNB09 SLP261 P0000 60000 T11931207 11135 21194 53002 $",
    "updatedAt": "2022-03-09T11:56:00.000Z"
  },
  {
    "airportIcao": "K1M4",
    "metar": "K1M4 091230Z AUTO 34011G15KT 3SM -RA BR BKN005 OVC011 04/04 A3000 RMK AO2 CIG 004V009 P0000",
    "updatedAt": "2022-03-09T12:30:00.000Z"
  },
  {
    "airportIcao": "K1M5",
    "metar": "K1M5 090615Z AUTO 34005KT 2 1/2SM BR SCT022 BKN026 OVC047 04/04 A2991 RMK A01",
    "updatedAt": "2022-03-09T06:15:00.000Z"
  },
  {
    "airportIcao": "K1MW",
    "metar": "K1MW 091158Z AUTO 09015KT 8SM -SN OVC005 M09/ A2992 RMK AO2 SHSNE01SNB01 SLP174 11062 21086 55005 $",
    "updatedAt": "2022-03-09T11:58:00.000Z"
  },
  {
    "airportIcao": "K1NN",
    "metar": "K1NN 091156Z AUTO 30011KT 10SM CLR M A3015 RMK AO2 SLPNO ALSTG ESTMD 53004 PWINO $",
    "updatedAt": "2022-03-09T11:56:00.000Z"
  },
  {
    "airportIcao": "K1NW",
    "metar": "K1NW 091158Z AUTO 09015KT 5SM -SN OVC003 M09/M10 A2988 RMK AO2 SNE07FZDZB07E52SNB52 SLP157 T10891096 11067 21089 55001 $",
    "updatedAt": "2022-03-09T11:58:00.000Z"
  },
  {
    "airportIcao": "K1OM",
    "metar": "K1OM 091158Z AUTO 28015KT 10SM BKN040 M14/M17 A3013 RMK AO2 SNB1059E13SHSNB13E25 SLP289 T11401172 11135 21175 55008 $",
    "updatedAt": "2022-03-09T11:58:00.000Z"
  },
  {
    "airportIcao": "K1ON",
    "metar": "K1ON 091156Z AUTO 31010KT 10SM CLR M21/M23 A3015 RMK AO2 SLP257 60000 T12081233 11142 21209 53004 $",
    "updatedAt": "2022-03-09T11:56:00.000Z"
  },
  {
    "airportIcao": "K1P1",
    "metar": "K1P1 091235Z AUTO 00000KT 10SM CLR M06/M08 A3018 RMK AO2 T10571077",
    "updatedAt": "2022-03-09T12:35:00.000Z"
  },
  {
    "airportIcao": "K1R7",
    "metar": "K1R7 091235Z AUTO 35008KT 10SM OVC008 06/06 A3002 RMK AO2 PWINO",
    "updatedAt": "2022-03-09T12:35:00.000Z"
  },
  {
    "airportIcao": "K1R8",
    "metar": "K1R8 091235Z AUTO 34012G18KT 10SM OVC005 12/11 A2992 RMK AO2",
    "updatedAt": "2022-03-09T12:35:00.000Z"
  },
  {
    "airportIcao": "K1S3",
    "metar": "K1S3 091230Z AUTO 25007KT 10SM M16/M18 A3022",
    "updatedAt": "2022-03-09T12:30:00.000Z"
  },
  {
    "airportIcao": "K1S5",
    "metar": "K1S5 091235Z AUTO 00000KT 10SM OVC100 01/M06 A3019 RMK AO2 T00121059",
    "updatedAt": "2022-03-09T12:35:00.000Z"
  },
  {
    "airportIcao": "K1U7",
    "metar": "K1U7 090620Z AUTO 32008KT 2 1/2SM BR BKN003 BKN011 OVC040 M03/M03 A2979 RMK A01",
    "updatedAt": "2022-03-09T06:20:00.000Z"
  },
  {
    "airportIcao": "K1V4",
    "metar": "K1V4 091154Z AUTO M08/M11 A3012 RMK AO1 SLP215 T10831111 11072 21083 56009",
    "updatedAt": "2022-03-09T11:54:00.000Z"
  },
  {
    "airportIcao": "K1V6",
    "metar": "K1V6 091235Z AUTO 36003KT 10SM CLR M06/M10 A2979 RMK AO2",
    "updatedAt": "2022-03-09T12:35:00.000Z"
  },
  {
    "airportIcao": "K1YT",
    "metar": "K1YT 091158Z AUTO 06010KT 10SM BKN095 M00/M08 A3016 RMK AO2 SLPNO 70009 T10011082 10027 21004 52011 $",
    "updatedAt": "2022-03-09T11:58:00.000Z"
  },
  {
    "airportIcao": "K20U",
    "metar": "K20U 091235Z AUTO 31010KT 10SM -SN OVC033 M15/M17 A3015 RMK AO2",
    "updatedAt": "2022-03-09T12:35:00.000Z"
  },
  {
    "airportIcao": "K20V",
    "metar": "K20V 091235Z AUTO 25012G16KT 10SM CLR M06/M10 A2972 RMK AO2",
    "updatedAt": "2022-03-09T12:35:00.000Z"
  },
  {
    "airportIcao": "K21D",
    "metar": "K21D 091235Z AUTO 29009KT 10SM SCT021 M08/M12 A3004 RMK AO2",
    "updatedAt": "2022-03-09T12:35:00.000Z"
  },
  {
    "airportIcao": "K22N",
    "metar": "K22N 091235Z AUTO 00000KT 10SM BKN036 OVC042 01/M05 A3007 RMK AO2",
    "updatedAt": "2022-03-09T12:35:00.000Z"
  },
  {
    "airportIcao": "K24A",
    "metar": "K24A 091235Z AUTO 16003KT 1 3/4SM -RA BR BKN018 OVC026 10/09 A2985 RMK AO2 P0001 T00960094",
    "updatedAt": "2022-03-09T12:35:00.000Z"
  },
  {
    "airportIcao": "K27K",
    "metar": "K27K 091235Z AUTO 33005KT 7SM OVC005 01/01 A2993 RMK AO1",
    "updatedAt": "2022-03-09T12:35:00.000Z"
  },
  {
    "airportIcao": "K28J",
    "metar": "K28J 091235Z AUTO VRB06KT 6SM BR OVC007 20/19 A2996 RMK AO2",
    "updatedAt": "2022-03-09T12:35:00.000Z"
  },
  {
    "airportIcao": "K2A0",
    "metar": "K2A0 090615Z AUTO 00000KT 4SM BR BKN006 OVC009 08/08 A2990 RMK A01",
    "updatedAt": "2022-03-09T06:15:00.000Z"
  },
  {
    "airportIcao": "K2C8",
    "metar": "K2C8 091235Z AUTO 31009KT 10SM BKN050 BKN065 M18/M23 A3016 RMK AO2",
    "updatedAt": "2022-03-09T12:35:00.000Z"
  },
  {
    "airportIcao": "K2D5",
    "metar": "K2D5 091235Z AUTO 31008KT 10SM SCT008 OVC037 M14/M17 A3017 RMK AO2",
    "updatedAt": "2022-03-09T12:35:00.000Z"
  },
  {
    "airportIcao": "K2DP",
    "metar": "K2DP 091238Z AUTO 25005KT 10SM BKN006 BKN018 BKN027 BKN075 M A2984 RMK AO2 RAB06E32 CIG 006V011 BKN006 V SCT SLPNO ALSTG ESTMD $",
    "updatedAt": "2022-03-09T12:38:00.000Z"
  },
  {
    "airportIcao": "K2G4",
    "metar": "K2G4 091235Z AUTO 11010KT 1 1/4SM OVC003 M01/M01 A2983 RMK AO1",
    "updatedAt": "2022-03-09T12:35:00.000Z"
  },
  {
    "airportIcao": "K2G9",
    "metar": "K2G9 091235Z AUTO 14008KT 2SM -SN OVC007 00/00 A2986 RMK AO2 P0001",
    "updatedAt": "2022-03-09T12:35:00.000Z"
  },
  {
    "airportIcao": "K2I0",
    "metar": "K2I0 091235Z AUTO 34004KT 7SM BKN060 BKN095 OVC110 03/00 A3002 RMK AO2 T00280001",
    "updatedAt": "2022-03-09T12:35:00.000Z"
  },
  {
    "airportIcao": "K2IS",
    "metar": "K2IS 091235Z AUTO 16006KT 7SM BR SCT046 SCT055 21/21 A3003 RMK AO2 T02080206",
    "updatedAt": "2022-03-09T12:35:00.000Z"
  },
  {
    "airportIcao": "K2J3",
    "metar": "K2J3 091235Z AUTO 16004KT 7SM SCT022 15/14 A2986 RMK AO2 T01520143",
    "updatedAt": "2022-03-09T12:35:00.000Z"
  },
  {
    "airportIcao": "K2J5",
    "metar": "K2J5 091235Z AUTO 16008KT 10SM BKN018 19/18 A2985 RMK AO2 T01890178",
    "updatedAt": "2022-03-09T12:35:00.000Z"
  },
  {
    "airportIcao": "K2J9",
    "metar": "K2J9 091235Z AUTO 16004KT 4SM VCTS RA SCT007 BKN011 OVC020 21/21 A2991 RMK AO2 LTG DSNT SW AND W",
    "updatedAt": "2022-03-09T12:35:00.000Z"
  },
  {
    "airportIcao": "K2M2",
    "metar": "K2M2 090615Z AUTO 34006KT 1 1/4SM BR OVC004 05/04 A2987 RMK A01",
    "updatedAt": "2022-03-09T06:15:00.000Z"
  },
  {
    "airportIcao": "K2P2",
    "metar": "K2P2 091235Z AUTO 29008KT 10SM BKN033 OVC040 M02/M06 A2982 RMK AO2 T10171056",
    "updatedAt": "2022-03-09T12:35:00.000Z"
  },
  {
    "airportIcao": "K2R9",
    "metar": "K2R9 091235Z AUTO 02006KT 10SM CLR 05/02 A3007 RMK AO2 T00540021",
    "updatedAt": "2022-03-09T12:35:00.000Z"
  },
  {
    "airportIcao": "K2V5",
    "metar": "K2V5 091235Z AUTO 09009KT 10SM SCT014 OVC022 M06/M08 A3000 RMK AO2",
    "updatedAt": "2022-03-09T12:35:00.000Z"
  },
  {
    "airportIcao": "K2V6",
    "metar": "K2V6 091234Z AUTO 11014G17KT 4SM BR OVC004 M07/M08 A2994 RMK AO2",
    "updatedAt": "2022-03-09T12:34:00.000Z"
  },
  {
    "airportIcao": "K2W6",
    "metar": "K2W6 091235Z AUTO 01003KT 7SM OVC004 05/05 A3001 RMK AO1 P0002",
    "updatedAt": "2022-03-09T12:35:00.000Z"
  },
  {
    "airportIcao": "K2WX",
    "metar": "K2WX 091156Z AUTO 28007KT M16/M18 A3011 RMK AO1 SLP261 T11561178 11122 21156 53001",
    "updatedAt": "2022-03-09T11:56:00.000Z"
  },
  {
    "airportIcao": "K33N",
    "metar": "K33N 090615Z AUTO 00000KT 10SM 05/M01 A3017 RMK A01",
    "updatedAt": "2022-03-09T06:15:00.000Z"
  },
  {
    "airportIcao": "K33V",
    "metar": "K33V 091235Z AUTO 18007KT 7SM SCT012 BKN042 OVC055 M08/M10 A2967 RMK AO1",
    "updatedAt": "2022-03-09T12:35:00.000Z"
  },
  {
    "airportIcao": "K38S",
    "metar": "K38S 091230Z AUTO 36003KT 10SM M18/M23 A3015",
    "updatedAt": "2022-03-09T12:30:00.000Z"
  },
  {
    "airportIcao": "K3AU",
    "metar": "K3AU 091235Z AUTO 34006KT 5SM BR OVC003 M01/M02 A3008 RMK AO2",
    "updatedAt": "2022-03-09T12:35:00.000Z"
  },
  {
    "airportIcao": "K3D2",
    "metar": "K3D2 091235Z AUTO 26006KT 10SM SCT034 SCT120 M03/M09 A2983 RMK AO2 T10301087",
    "updatedAt": "2022-03-09T12:35:00.000Z"
  },
  {
    "airportIcao": "K3F3",
    "metar": "K3F3 091235Z AUTO 01004KT 10SM OVC010 05/03 A3012 RMK AO2 T00450030",
    "updatedAt": "2022-03-09T12:35:00.000Z"
  },
  {
    "airportIcao": "K3I2",
    "metar": "K3I2 091235Z AUTO 00000KT 3SM -RA SCT006 BKN019 OVC025 03/03 A2990 RMK AO2 T00270027",
    "updatedAt": "2022-03-09T12:35:00.000Z"
  },
  {
    "airportIcao": "K3J7",
    "metar": "K3J7 091235Z AUTO 33003KT 4SM RA OVC002 12/12 A2987 RMK AO2",
    "updatedAt": "2022-03-09T12:35:00.000Z"
  },
  {
    "airportIcao": "K3K3",
    "metar": "K3K3 091235Z AUTO 10008KT 1 1/4SM BR OVC003 M06/M07 A2998 RMK AO2",
    "updatedAt": "2022-03-09T12:35:00.000Z"
  },
  {
    "airportIcao": "K3K8",
    "metar": "K3K8 090615Z AUTO 00000KT 10SM CLR M03/M06 A3006 RMK AO2",
    "updatedAt": "2022-03-09T06:15:00.000Z"
  },
  {
    "airportIcao": "K3LF",
    "metar": "K3LF 091235Z AUTO 26004KT 10SM CLR 00/M01 A3003 RMK AO2 T00001012",
    "updatedAt": "2022-03-09T12:35:00.000Z"
  },
  {
    "airportIcao": "K3N8",
    "metar": "K3N8 091235Z AUTO 32014KT 10SM BKN023 M17/M20 A3009 RMK AO2 T11661199",
    "updatedAt": "2022-03-09T12:35:00.000Z"
  },
  {
    "airportIcao": "K3R7",
    "metar": "K3R7 091235Z AUTO 01016G20KT 10SM OVC009 06/06 A3001 RMK AO2 T00610055",
    "updatedAt": "2022-03-09T12:35:00.000Z"
  },
  {
    "airportIcao": "K3S8",
    "metar": "K3S8 090615Z AUTO 00000KT 10SM OVC075 07/01 A3025 RMK AO2",
    "updatedAt": "2022-03-09T06:15:00.000Z"
  },
  {
    "airportIcao": "K3T5",
    "metar": "K3T5 091235Z AUTO 34009KT 7SM CLR 04/04 A3006 RMK AO2 T00400036",
    "updatedAt": "2022-03-09T12:35:00.000Z"
  },
  {
    "airportIcao": "K3U3",
    "metar": "K3U3 091230Z AUTO 23005KT 10SM M24/M27 A3010",
    "updatedAt": "2022-03-09T12:30:00.000Z"
  },
  {
    "airportIcao": "K40B",
    "metar": "K40B 091216Z AUTO 00000KT M18/M20 A3008 RMK AO1 SLP227 T11761196 11139 21187 57008 70002",
    "updatedAt": "2022-03-09T12:16:00.000Z"
  },
  {
    "airportIcao": "K41U",
    "metar": "K41U 091235Z AUTO 16004KT 10SM SCT038 BKN046 OVC055 00/M03 A2984 RMK AO1 T00001026 PNO",
    "updatedAt": "2022-03-09T12:35:00.000Z"
  },
  {
    "airportIcao": "K42J",
    "metar": "K42J 091235Z AUTO 21008G15KT 4SM BR OVC009 22/22 A2995 RMK A01",
    "updatedAt": "2022-03-09T12:35:00.000Z"
  },
  {
    "airportIcao": "K46D",
    "metar": "K46D 091235Z AUTO 30013KT 10SM OVC042 M14/M16 A3015 RMK AO2",
    "updatedAt": "2022-03-09T12:35:00.000Z"
  },
  {
    "airportIcao": "K46U",
    "metar": "K46U 090615Z AUTO 30011KT 2SM BR BKN003 BKN012 OVC023 M04/M05 A2981 RMK A01",
    "updatedAt": "2022-03-09T06:15:00.000Z"
  },
  {
    "airportIcao": "K48A",
    "metar": "K48A 091235Z AUTO 25003KT 10SM OVC010 19/18 A2984 RMK AO2 T01930180",
    "updatedAt": "2022-03-09T12:35:00.000Z"
  },
  {
    "airportIcao": "K49A",
    "metar": "K49A 091235Z AUTO 30004KT 2SM RA BKN003 OVC009 12/11 A2989 RMK AO2 T01150107",
    "updatedAt": "2022-03-09T12:35:00.000Z"
  },
  {
    "airportIcao": "K4A6",
    "metar": "K4A6 091235Z AUTO 00000KT 10SM BKN020 BKN033 OVC046 08/08 A2992 RMK AO2",
    "updatedAt": "2022-03-09T12:35:00.000Z"
  },
  {
    "airportIcao": "K4A9",
    "metar": "K4A9 091235Z AUTO 34004KT 10SM SCT010 BKN024 OVC037 08/07 A2989 RMK AO2 T00830069",
    "updatedAt": "2022-03-09T12:35:00.000Z"
  },
  {
    "airportIcao": "K4BM",
    "metar": "K4BM 091235Z AUTO 18014G20KT 10SM CLR M14/M17 A2968 RMK AO2",
    "updatedAt": "2022-03-09T12:35:00.000Z"
  },
  {
    "airportIcao": "K4F2",
    "metar": "K4F2 091235Z AUTO 36004KT 10SM OVC013 03/02 A3009 RMK AO2 T00270024",
    "updatedAt": "2022-03-09T12:35:00.000Z"
  },
  {
    "airportIcao": "K4I3",
    "metar": "K4I3 091235Z AUTO 00000KT 10SM CLR 01/M02 A2991 RMK AO2",
    "updatedAt": "2022-03-09T12:35:00.000Z"
  },
  {
    "airportIcao": "K4M9",
    "metar": "K4M9 091235Z AUTO 28004KT 5SM BR CLR 02/02 A3007 RMK AO2 PWINO",
    "updatedAt": "2022-03-09T12:35:00.000Z"
  },
  {
    "airportIcao": "K4MR",
    "metar": "K4MR 091158Z AUTO 21008KT 10SM CLR M04/M17 A2990 RMK AO2 SLP125 T10421171 11006 21061 56003",
    "updatedAt": "2022-03-09T11:58:00.000Z"
  },
  {
    "airportIcao": "K4O4",
    "metar": "K4O4 091235Z AUTO 00000KT 9SM CLR M02/M02 A3010 RMK AO2",
    "updatedAt": "2022-03-09T12:35:00.000Z"
  },
  {
    "airportIcao": "K4R5",
    "metar": "K4R5 091235Z AUTO 27009G16KT 10SM CLR M10/M14 A2991 RMK AO2 T10961137",
    "updatedAt": "2022-03-09T12:35:00.000Z"
  },
  {
    "airportIcao": "K4S1",
    "metar": "K4S1 091235Z AUTO 05005KT 7SM CLR 06/03 A3019 RMK AO2",
    "updatedAt": "2022-03-09T12:35:00.000Z"
  },
  {
    "airportIcao": "K4S2",
    "metar": "K4S2 091235Z AUTO 20006KT 10SM -RA SCT003 SCT041 OVC070 01/01 A3020 RMK AO2",
    "updatedAt": "2022-03-09T12:35:00.000Z"
  },
  {
    "airportIcao": "K4V0",
    "metar": "K4V0 091235Z AUTO 00000KT 10SM BKN055 BKN075 OVC085 M02/M03 A2975 RMK AO2 T10171034",
    "updatedAt": "2022-03-09T12:35:00.000Z"
  },
  {
    "airportIcao": "K4V1",
    "metar": "K4V1 091235Z AUTO 28014KT 7SM CLR M02/M10 A2979 RMK AO2 T10171101",
    "updatedAt": "2022-03-09T12:35:00.000Z"
  },
  {
    "airportIcao": "K54A",
    "metar": "K54A 090615Z AUTO 14004KT 10SM CLR 22/22 A3000 RMK AO2",
    "updatedAt": "2022-03-09T06:15:00.000Z"
  },
  {
    "airportIcao": "K54J",
    "metar": "K54J 091235Z AUTO 00000KT 10SM BKN018 BKN023 OVC028 19/19 A2987 RMK AO2 LTG DSNT SE THRU SW T01940186",
    "updatedAt": "2022-03-09T12:35:00.000Z"
  },
  {
    "airportIcao": "K57C",
    "metar": "K57C 091235Z AUTO 25004KT 10SM CLR M03/M05 A2994 RMK AO2 T10321051",
    "updatedAt": "2022-03-09T12:35:00.000Z"
  },
  {
    "airportIcao": "K5A6",
    "metar": "K5A6 091235Z AUTO 01004KT 10SM OVC008 05/04 A3003 RMK AO2 T00470040",
    "updatedAt": "2022-03-09T12:35:00.000Z"
  },
  {
    "airportIcao": "K5C1",
    "metar": "K5C1 091235Z AUTO 00000KT 10SM CLR 02/00 A3006 RMK AO1",
    "updatedAt": "2022-03-09T12:35:00.000Z"
  },
  {
    "airportIcao": "K5H4",
    "metar": "K5H4 091235Z AUTO 30011KT 10SM BKN003 BKN007 OVC041 M15/M17 A3016 RMK AO2",
    "updatedAt": "2022-03-09T12:35:00.000Z"
  },
  {
    "airportIcao": "K5M9",
    "metar": "K5M9 091235Z AUTO 00000KT 7SM OVC090 01/M01 A3001 RMK AO2 T00071006",
    "updatedAt": "2022-03-09T12:35:00.000Z"
  },
  {
    "airportIcao": "K5R8",
    "metar": "K5R8 091235Z AUTO 35007KT 10SM OVC011 06/04 A3004 RMK AO2 T00550036",
    "updatedAt": "2022-03-09T12:35:00.000Z"
  },
  {
    "airportIcao": "K5SM",
    "metar": "K5SM 091235Z AUTO 23014G22KT 5SM -SN OVC006 M12/M14 A2973 RMK AO2",
    "updatedAt": "2022-03-09T12:35:00.000Z"
  },
  {
    "airportIcao": "K5T9",
    "metar": "K5T9 090610Z AUTO 11008KT CLR 11/01 A3002 RMK A01",
    "updatedAt": "2022-03-09T06:10:00.000Z"
  },
  {
    "airportIcao": "K63S",
    "metar": "K63S 090615Z AUTO 00000KT 10SM FEW023 SCT043 BKN050 M01/M06 A3018 RMK A01",
    "updatedAt": "2022-03-09T06:15:00.000Z"
  },
  {
    "airportIcao": "K65S",
    "metar": "K65S 090610Z AUTO 09006KT 10SM OVC070 M04/M18 A3023 RMK AO2",
    "updatedAt": "2022-03-09T06:10:00.000Z"
  },
  {
    "airportIcao": "K66R",
    "metar": "K66R 091235Z AUTO 35008KT 10SM CLR 04/03 A3005 RMK AO2 T00420031",
    "updatedAt": "2022-03-09T12:35:00.000Z"
  },
  {
    "airportIcao": "K6A1",
    "metar": "K6A1 091235Z AUTO 24005KT 4SM -RA OVC004 17/17 A2984 RMK AO2 T01670167",
    "updatedAt": "2022-03-09T12:35:00.000Z"
  },
  {
    "airportIcao": "K6A2",
    "metar": "K6A2 091235Z AUTO 33003KT 1 3/4SM OVC002 13/12 A2987 RMK AO2",
    "updatedAt": "2022-03-09T12:35:00.000Z"
  },
  {
    "airportIcao": "K6B0",
    "metar": "K6B0 091235Z AUTO 00000KT 10SM CLR M02/M09 A3013 RMK AO2 T10181088",
    "updatedAt": "2022-03-09T12:35:00.000Z"
  },
  {
    "airportIcao": "K6B9",
    "metar": "K6B9 091235Z AUTO 12006KT 10SM CLR M01/M04 A2999 RMK AO2",
    "updatedAt": "2022-03-09T12:35:00.000Z"
  },
  {
    "airportIcao": "K6I2",
    "metar": "K6I2 091235Z AUTO 31009KT 3SM BR OVC003 02/02 A2997 RMK AO2",
    "updatedAt": "2022-03-09T12:35:00.000Z"
  },
  {
    "airportIcao": "K6L4",
    "metar": "K6L4 091235Z AUTO M1/4SM -RA OVC002 03/03 A2981 RMK AO2",
    "updatedAt": "2022-03-09T12:35:00.000Z"
  },
  {
    "airportIcao": "K6P9",
    "metar": "K6P9 091235Z AUTO 22005KT 10SM CLR M02/M03 A3011 RMK AO2 T10201028",
    "updatedAt": "2022-03-09T12:35:00.000Z"
  },
  {
    "airportIcao": "K6R3",
    "metar": "K6R3 091235Z AUTO 02004KT 7SM OVC009 06/05 A3005 RMK AO2 T00560048",
    "updatedAt": "2022-03-09T12:35:00.000Z"
  },
  {
    "airportIcao": "K6R6",
    "metar": "K6R6 091151Z AUTO 03007KT 03/M04 A3004 RMK AO1 SLP159 T00331039 10083 20033 53001",
    "updatedAt": "2022-03-09T11:51:00.000Z"
  },
  {
    "airportIcao": "K6S0",
    "metar": "K6S0 090615Z AUTO 07007KT 2SM BR OVC003 M14/M16 A3016 RMK A01",
    "updatedAt": "2022-03-09T06:15:00.000Z"
  },
  {
    "airportIcao": "K6S2",
    "metar": "K6S2 091235Z AUTO 20005KT 2SM UP BR BKN004 BKN007 OVC017 07/07 A3018 RMK AO2",
    "updatedAt": "2022-03-09T12:35:00.000Z"
  },
  {
    "airportIcao": "K6S8",
    "metar": "K6S8 091225Z AUTO 30005KT 10SM M15/M17 A3019 RMK A01 LAUREL",
    "updatedAt": "2022-03-09T12:25:00.000Z"
  },
  {
    "airportIcao": "K77S",
    "metar": "K77S 091235Z AUTO 21006KT 9SM OVC019 06/05 A3016 RMK A01",
    "updatedAt": "2022-03-09T12:35:00.000Z"
  },
  {
    "airportIcao": "K79J",
    "metar": "K79J 091216Z AUTO 30008KT 10SM SCT006 SCT011 OVC018 18/16 A2987 RMK AO2 WSHFT 1139 RAE1156 P0000 T01830156",
    "updatedAt": "2022-03-09T12:16:00.000Z"
  },
  {
    "airportIcao": "K79S",
    "metar": "K79S 090200Z AUTO 19005KT 10SM M12/M17 A3029",
    "updatedAt": "2022-03-09T02:00:00.000Z"
  },
  {
    "airportIcao": "K7BM",
    "metar": "K7BM 091235Z AUTO 34006KT 10SM BKN035 OVC041 M08/M13 A2972 RMK AO2",
    "updatedAt": "2022-03-09T12:35:00.000Z"
  },
  {
    "airportIcao": "K7L2",
    "metar": "K7L2 091235Z AUTO 30005KT 10SM BKN044 M16/M17 A3019 RMK AO2",
    "updatedAt": "2022-03-09T12:35:00.000Z"
  },
  {
    "airportIcao": "K7N0",
    "metar": "K7N0 091156Z AUTO 36010G16KT 10SM OVC009 11/08 A2997 RMK AO2 SLP148 60000 70007 T01110083 10161 20111 53026",
    "updatedAt": "2022-03-09T11:56:00.000Z"
  },
  {
    "airportIcao": "K7W4",
    "metar": "K7W4 091235Z AUTO 36003KT 7SM SCT004 OVC010 05/04 A2998 RMK AO1 P0001 T00450038",
    "updatedAt": "2022-03-09T12:35:00.000Z"
  },
  {
    "airportIcao": "K7W6",
    "metar": "K7W6 091235Z AUTO 22003KT 7SM BKN004 BKN016 OVC025 13/12 A2986 RMK AO2 T01280122",
    "updatedAt": "2022-03-09T12:35:00.000Z"
  },
  {
    "airportIcao": "K81R",
    "metar": "K81R 091235Z AUTO 35006KT 10SM CLR M03/M05 A3012 RMK AO2 T10301049",
    "updatedAt": "2022-03-09T12:35:00.000Z"
  },
  {
    "airportIcao": "K82C",
    "metar": "K82C 091235Z AUTO 32013G19KT 7SM OVC032 M03/M10 A2995 RMK AO2 T10351100",
    "updatedAt": "2022-03-09T12:35:00.000Z"
  },
  {
    "airportIcao": "K82V",
    "metar": "K82V 091155Z AUTO 05012KT 2 1/2SM -SN OVC005 M11/M13 A2991 RMK AO2 VIS 2V5",
    "updatedAt": "2022-03-09T11:55:00.000Z"
  },
  {
    "airportIcao": "K8A0",
    "metar": "K8A0 091235Z AUTO 34008KT 10SM OVC004 06/06 A2991 RMK AO2",
    "updatedAt": "2022-03-09T12:35:00.000Z"
  },
  {
    "airportIcao": "K8A3",
    "metar": "K8A3 090615Z AUTO 05008KT 4SM BR BKN004 BKN007 OVC018 05/04 A2985 RMK A01",
    "updatedAt": "2022-03-09T06:15:00.000Z"
  },
  {
    "airportIcao": "K8B0",
    "metar": "K8B0 091235Z AUTO 00000KT 10SM FEW022 SCT027 OVC032 M11/M12 A3006 RMK AO2",
    "updatedAt": "2022-03-09T12:35:00.000Z"
  },
  {
    "airportIcao": "K8D3",
    "metar": "K8D3 091156Z AUTO 31011KT M12/M16 A3015 RMK AO1 SLP245 T11221156 11100 21122 53018",
    "updatedAt": "2022-03-09T11:56:00.000Z"
  },
  {
    "airportIcao": "K8T6",
    "metar": "K8T6 091235Z AUTO 01006KT 10SM CLR 06/03 A3005 RMK AO2",
    "updatedAt": "2022-03-09T12:35:00.000Z"
  },
  {
    "airportIcao": "K8W2",
    "metar": "K8W2 091235Z AUTO 08006KT 10SM SCT009 OVC019 04/03 A2990 RMK AO1 P0001 T00360030",
    "updatedAt": "2022-03-09T12:35:00.000Z"
  },
  {
    "airportIcao": "K96D",
    "metar": "K96D 091235Z AUTO 31005KT 10SM OVC047 M18/M24 A3016 RMK AO2",
    "updatedAt": "2022-03-09T12:35:00.000Z"
  },
  {
    "airportIcao": "K9A5",
    "metar": "K9A5 091235Z AUTO 33004KT 10SM OVC029 09/09 A2989 RMK AO2 T00900090",
    "updatedAt": "2022-03-09T12:35:00.000Z"
  },
  {
    "airportIcao": "K9D7",
    "metar": "K9D7 091155Z AUTO 30007KT 10SM FEW013 OVC043 M15/M15 A3013 RMK AO2 TSNO",
    "updatedAt": "2022-03-09T11:55:00.000Z"
  },
  {
    "airportIcao": "K9L2",
    "metar": "K9L2 091158Z AUTO 00000KT 10SM CLR M02/M08 A2996 RMK AO2 SLP147 T10161083 10099 21016 56007 FZRANO",
    "updatedAt": "2022-03-09T11:58:00.000Z"
  },
  {
    "airportIcao": "K9MN",
    "metar": "K9MN 091235Z AUTO 29011G17KT 250V350 10SM OVC018 M08/M12 A3002 RMK AO1 T10791121",
    "updatedAt": "2022-03-09T12:35:00.000Z"
  },
  {
    "airportIcao": "K9S2",
    "metar": "K9S2 091055Z AUTO 30007KT M16/M22 A3012 RMK Scobey",
    "updatedAt": "2022-03-09T10:55:00.000Z"
  },
  {
    "airportIcao": "K9S5",
    "metar": "K9S5 091155Z AUTO 01007KT 10SM M13/M20 A3010 RMK Three Fork",
    "updatedAt": "2022-03-09T11:55:00.000Z"
  },
  {
    "airportIcao": "K9S9",
    "metar": "K9S9 090610Z AUTO 00000KT 3SM -SN FEW001 BKN009 OVC018 01/01 A3014 RMK AO2",
    "updatedAt": "2022-03-09T06:10:00.000Z"
  },
  {
    "airportIcao": "K9V9",
    "metar": "K9V9 091235Z AUTO 36008G16KT 10SM M12/M16 A3021 RMK AO2 T11211160",
    "updatedAt": "2022-03-09T12:35:00.000Z"
  },
  {
    "airportIcao": "KA39",
    "metar": "KA39 091235Z AUTO 12009KT 10SM CLR 03/M11 A2999 RMK AO2",
    "updatedAt": "2022-03-09T12:35:00.000Z"
  },
  {
    "airportIcao": "KAAA",
    "metar": "KAAA 091235Z AUTO 00000KT 10SM CLR M01/M02 A3002 RMK AO2 T10111018",
    "updatedAt": "2022-03-09T12:35:00.000Z"
  },
  {
    "airportIcao": "KAAF",
    "metar": "KAAF 091224Z AUTO 18010KT 1/2SM FG VV002 22/22 A2988",
    "updatedAt": "2022-03-09T12:24:00.000Z"
  },
  {
    "airportIcao": "KAAO",
    "metar": "KAAO 091238Z AUTO 01006KT 7SM OVC004 01/M02 A3008 RMK AO2 T00111017",
    "updatedAt": "2022-03-09T12:38:00.000Z"
  },
  {
    "airportIcao": "KAAS",
    "metar": "KAAS 091235Z AUTO 00000KT 4SM OVC005 A3001 RMK AO1",
    "updatedAt": "2022-03-09T12:35:00.000Z"
  },
  {
    "airportIcao": "KAAT",
    "metar": "KAAT 091155Z AUTO 00000KT 10SM OVC060 01/M06 A3004 RMK AO2 SLP172 T00061061 10022 21006 55010 TSNO",
    "updatedAt": "2022-03-09T11:55:00.000Z"
  },
  {
    "airportIcao": "KABE",
    "metar": "KABE 091151Z 05008KT 10SM OVC035 02/M05 A3007 RMK AO2 SLP184 T00171050 10022 20006 56015",
    "updatedAt": "2022-03-09T11:51:00.000Z"
  },
  {
    "airportIcao": "KABH",
    "metar": "KABH 091158Z AUTO 11003KT 10SM CLR M10/M13 A2981 RMK AO2 SLP156 T10961127 11058 21099 55016",
    "updatedAt": "2022-03-09T11:58:00.000Z"
  },
  {
    "airportIcao": "KABI",
    "metar": "KABI 091152Z 18006KT 10SM CLR M02/M06 A3008 RMK AO2 SLP188 T10221056 10017 21039 53010",
    "updatedAt": "2022-03-09T11:52:00.000Z"
  },
  {
    "airportIcao": "KABQ",
    "metar": "KABQ 091152Z 17003KT 10SM SCT220 M05/M16 A2993 RMK AO2 SLP139 T10501156 10022 21056 56010",
    "updatedAt": "2022-03-09T11:52:00.000Z"
  },
  {
    "airportIcao": "KABR",
    "metar": "KABR 091153Z AUTO 31009KT 10SM CLR M13/M18 A3019 RMK AO2 SLP249 T11331178 11100 21133 51012",
    "updatedAt": "2022-03-09T11:53:00.000Z"
  },
  {
    "airportIcao": "KABY",
    "metar": "KABY 091218Z AUTO 17008KT 10SM SCT014 BKN043 BKN055 22/19 A2986 RMK AO2 RAB1156E10 P0000 T02170189",
    "updatedAt": "2022-03-09T12:18:00.000Z"
  },
  {
    "airportIcao": "KACB",
    "metar": "KACB 091235Z AUTO 21003KT 10SM SCT035 BKN047 OVC070 M03/M05 A2985 RMK AO2 T10331047",
    "updatedAt": "2022-03-09T12:35:00.000Z"
  },
  {
    "airportIcao": "KACJ",
    "metar": "KACJ 091235Z AUTO 21004KT 7SM OVC007 21/20 A2987 RMK AO2 LTG DSNT NW",
    "updatedAt": "2022-03-09T12:35:00.000Z"
  },
  {
    "airportIcao": "KACK",
    "metar": "KACK 091153Z 13005KT 10SM OVC110 03/M02 A3019 RMK AO2 SLP223 T00281017 10033 20000 58003",
    "updatedAt": "2022-03-09T11:53:00.000Z"
  },
  {
    "airportIcao": "KACP",
    "metar": "KACP 091235Z AUTO 36004KT OVC008 06/04 A3003 RMK AO2 PWINO",
    "updatedAt": "2022-03-09T12:35:00.000Z"
  },
  {
    "airportIcao": "KACQ",
    "metar": "KACQ 091235Z AUTO 30015G19KT 7SM -SN OVC020 M08/M12 A3009 RMK AO2",
    "updatedAt": "2022-03-09T12:35:00.000Z"
  },
  {
    "airportIcao": "KACT",
    "metar": "KACT 091151Z AUTO 24003KT 5SM BR CLR M02/M04 A3011 RMK AO2 SLP196 T10221039 10011 21039 53006",
    "updatedAt": "2022-03-09T11:51:00.000Z"
  },
  {
    "airportIcao": "KACV",
    "metar": "KACV 091153Z AUTO 00000KT 10SM OVC090 02/01 A3019 RMK AO2 SLP228 T00220006 10056 20017 56005",
    "updatedAt": "2022-03-09T11:53:00.000Z"
  },
  {
    "airportIcao": "KACY",
    "metar": "KACY 091216Z 11006KT 4SM RA BR BKN012 OVC022 03/02 A3011 RMK AO2 P0006 T00330022",
    "updatedAt": "2022-03-09T12:16:00.000Z"
  },
  {
    "airportIcao": "KADC",
    "metar": "KADC 091235Z AUTO 31010KT 10SM OVC016 M17/M19 A3005 RMK AO2",
    "updatedAt": "2022-03-09T12:35:00.000Z"
  },
  {
    "airportIcao": "KADF",
    "metar": "KADF 091234Z AUTO 00000KT 1/2SM FZFG OVC002 M01/M02 A3012 RMK AO2 VIS 1/4V5 FZRANO",
    "updatedAt": "2022-03-09T12:34:00.000Z"
  },
  {
    "airportIcao": "KADG",
    "metar": "KADG 091153Z AUTO 00000KT 7SM CLR M03/M05 A2997 RMK AO2 SLP161 T10331050 11011 21033 56003",
    "updatedAt": "2022-03-09T11:53:00.000Z"
  },
  {
    "airportIcao": "KADH",
    "metar": "KADH 091235Z AUTO 28005KT 10SM CLR M02/M06 A3010 RMK AO2",
    "updatedAt": "2022-03-09T12:35:00.000Z"
  },
  {
    "airportIcao": "KADM",
    "metar": "KADM 091235Z AUTO 00000KT 8SM CLR M06/M07 A3012 RMK AO2",
    "updatedAt": "2022-03-09T12:35:00.000Z"
  },
  {
    "airportIcao": "KADS",
    "metar": "KADS 091159Z 00000KT 10SM SKC 00/M02 A3012",
    "updatedAt": "2022-03-09T11:59:00.000Z"
  },
  {
    "airportIcao": "KADT",
    "metar": "KADT 091230Z AUTO 10003KT 10SM OVC031 M06/M08 A3012 RMK AO2 T10601077",
    "updatedAt": "2022-03-09T12:30:00.000Z"
  },
  {
    "airportIcao": "KADU",
    "metar": "KADU 091235Z AUTO 33004KT 10SM CLR M06/M09 A3010 RMK AO2",
    "updatedAt": "2022-03-09T12:35:00.000Z"
  },
  {
    "airportIcao": "KADW",
    "metar": "KADW 091228Z 00000KT 4SM -RA BKN005 OVC010 04/03 A3002 RMK AO2A CIG 005V008 SLP174 $",
    "updatedAt": "2022-03-09T12:28:00.000Z"
  },
  {
    "airportIcao": "KAEG",
    "metar": "KAEG 091235Z AUTO 00000KT 10SM CLR M06/M16 A2992 RMK AO2 T10651162",
    "updatedAt": "2022-03-09T12:35:00.000Z"
  },
  {
    "airportIcao": "KAEJ",
    "metar": "KAEJ 091235Z AUTO 21004G14KT 10SM SCT050 SCT060 SCT070 M07/M14 A2977 RMK AO2 T10711137",
    "updatedAt": "2022-03-09T12:35:00.000Z"
  },
  {
    "airportIcao": "KAEL",
    "metar": "KAEL 091235Z AUTO 32013G17KT 10SM OVC022 M08/M12 A3005 RMK AO2",
    "updatedAt": "2022-03-09T12:35:00.000Z"
  },
  {
    "airportIcao": "KAEX",
    "metar": "KAEX 091153Z 35009KT 10SM OVC011 06/04 A3004 RMK AO2 SLP178 60000 70229 T00610039 10061 20056 53014",
    "updatedAt": "2022-03-09T11:53:00.000Z"
  },
  {
    "airportIcao": "KAFF",
    "metar": "KAFF 091158Z AUTO 35006KT 10SM CLR M11/M14 A2975 RMK AO2 SLP125 T11101140 11079 21118 57015",
    "updatedAt": "2022-03-09T11:58:00.000Z"
  },
  {
    "airportIcao": "KAFJ",
    "metar": "KAFJ 091222Z AUTO 35005KT 1 1/2SM -SN BR FEW004 OVC025 00/M01 A2991 RMK AO2 P0001 FZRANO",
    "updatedAt": "2022-03-09T12:22:00.000Z"
  },
  {
    "airportIcao": "KAFK",
    "metar": "KAFK 091235Z AUTO 34007KT 10SM CLR M07/M10 A3013 RMK AO2 T10671100",
    "updatedAt": "2022-03-09T12:35:00.000Z"
  },
  {
    "airportIcao": "KAFN",
    "metar": "KAFN 091152Z AUTO 00000KT 10SM CLR M03/M07 A3012 RMK AO2 SLP218 T10281067 11028 21044 56002",
    "updatedAt": "2022-03-09T11:52:00.000Z"
  },
  {
    "airportIcao": "KAFO",
    "metar": "KAFO 091235Z AUTO 34007KT 1 3/4SM BKN014 OVC020 M07/M09 A2977 RMK AO2",
    "updatedAt": "2022-03-09T12:35:00.000Z"
  },
  {
    "airportIcao": "KAFP",
    "metar": "KAFP 091235Z AUTO 00000KT 2 1/2SM BR OVC003 11/10 A2989 RMK AO2 T01100103",
    "updatedAt": "2022-03-09T12:35:00.000Z"
  },
  {
    "airportIcao": "KAFW",
    "metar": "KAFW 091153Z 00000KT 9SM CLR M03/M04 A3010 RMK AO2 SLP202 70001 T10281044 10011 21028 53010",
    "updatedAt": "2022-03-09T11:53:00.000Z"
  },
  {
    "airportIcao": "KAGC",
    "metar": "KAGC 091209Z 35005KT 2 1/2SM -SN BR OVC028 01/M01 A2987 RMK AO2 FZRAE1154SNB1154 P0001 I1000 T00061011",
    "updatedAt": "2022-03-09T12:09:00.000Z"
  },
  {
    "airportIcao": "KAGI",
    "metar": "KAGI 091235Z AUTO 19004KT 10SM CLR 17/14 A2992 RMK AO2 LTG DSNT NE AND SW T01720135",
    "updatedAt": "2022-03-09T12:35:00.000Z"
  },
  {
    "airportIcao": "KAGR",
    "metar": "KAGR 091158Z AUTO 19005KT 9SM BKN001 20/M38 A3001 RMK AO2 LTG DSNT E SLP164 T01981381 10210 20191 52014 $",
    "updatedAt": "2022-03-09T11:58:00.000Z"
  },
  {
    "airportIcao": "KAGS",
    "metar": "KAGS 091153Z 18006KT 10SM OVC019 17/16 A2984 RMK AO2 SLP102 60000 T01670156 10167 20139 55005 $",
    "updatedAt": "2022-03-09T11:53:00.000Z"
  },
  {
    "airportIcao": "KAHN",
    "metar": "KAHN 091223Z AUTO 00000KT 3SM +RA BR BKN021 OVC026 11/11 A2987 RMK AO2 P0016 T01110106",
    "updatedAt": "2022-03-09T12:23:00.000Z"
  },
  {
    "airportIcao": "KAHQ",
    "metar": "KAHQ 091235Z AUTO 33007KT 10SM SCT110 M08/M10 A3015 RMK AO2 T10801105",
    "updatedAt": "2022-03-09T12:35:00.000Z"
  },
  {
    "airportIcao": "KAIA",
    "metar": "KAIA 091153Z AUTO 03011KT 1 3/4SM -SN BR OVC022 M12/M14 A3004 RMK AO2 SLP221 P0000 60000 T11221144 11089 21122 53009",
    "updatedAt": "2022-03-09T11:53:00.000Z"
  },
  {
    "airportIcao": "KAID",
    "metar": "KAID 091235Z AUTO 00000KT 10SM OVC080 00/M03 A2997 RMK AO2 T00001035",
    "updatedAt": "2022-03-09T12:35:00.000Z"
  },
  {
    "airportIcao": "KAIG",
    "metar": "KAIG 091235Z AUTO 28008KT 10SM OVC031 M06/M11 A2984 RMK AO2 T10601107",
    "updatedAt": "2022-03-09T12:35:00.000Z"
  },
  {
    "airportIcao": "KAIK",
    "metar": "KAIK 091235Z AUTO 21008KT 10SM SCT010 OVC015 18/17 A2988 RMK AO2 T01790165",
    "updatedAt": "2022-03-09T12:35:00.000Z"
  },
  {
    "airportIcao": "KAIO",
    "metar": "KAIO 091235Z AUTO 35010KT 10SM CLR M06/M06 A3011 RMK AO2",
    "updatedAt": "2022-03-09T12:35:00.000Z"
  },
  {
    "airportIcao": "KAIT",
    "metar": "KAIT 091235Z AUTO 00000KT 10SM CLR M15/M17 A3000 RMK AO2",
    "updatedAt": "2022-03-09T12:35:00.000Z"
  },
  {
    "airportIcao": "KAIZ",
    "metar": "KAIZ 091156Z AUTO 26003KT CLR M04/M05 A3006 RMK AO2 SLP188 T10441050 10011 21050 53005 FZRANO $",
    "updatedAt": "2022-03-09T11:56:00.000Z"
  },
  {
    "airportIcao": "KAJG",
    "metar": "KAJG 091235Z AUTO 30003KT 10SM SCT110 02/M01 A3002 RMK AO2 T00191012",
    "updatedAt": "2022-03-09T12:35:00.000Z"
  },
  {
    "airportIcao": "KAJO",
    "metar": "KAJO 091156Z AUTO 00000KT 10SM CLR 02/M02 A3001 RMK AO2 SLP157 7//// T00221017 10094 20022 55003 FZRANO",
    "updatedAt": "2022-03-09T11:56:00.000Z"
  },
  {
    "airportIcao": "KAJR",
    "metar": "KAJR 091235Z AUTO 00000KT 5SM RA SCT004 BKN030 OVC075 12/11 A2985 RMK AO2 T01200108",
    "updatedAt": "2022-03-09T12:35:00.000Z"
  },
  {
    "airportIcao": "KAJZ",
    "metar": "KAJZ 091235Z AUTO 01010KT 10SM BKN085 OVC110 01/M06 A2986 RMK AO2 T00101058",
    "updatedAt": "2022-03-09T12:35:00.000Z"
  },
  {
    "airportIcao": "KAKH",
    "metar": "KAKH 091236Z AUTO 08008G18KT 1 3/4SM +RA BR FEW004 BKN008 OVC029 09/08 A2989 RMK AO2 LTG DSNT SW AND W RAB08 P0012 T00940083",
    "updatedAt": "2022-03-09T12:36:00.000Z"
  },
  {
    "airportIcao": "KAKO",
    "metar": "KAKO 091225Z AUTO 11015G23KT 1 3/4SM BR OVC002 M07/M09 A2989 RMK AO2 I1001 T10721089",
    "updatedAt": "2022-03-09T12:25:00.000Z"
  },
  {
    "airportIcao": "KAKQ",
    "metar": "KAKQ 091241Z AUTO 00000KT 1 3/4SM +RA BR SCT005 BKN010 OVC022 08/07 A2994",
    "updatedAt": "2022-03-09T12:41:00.000Z"
  },
  {
    "airportIcao": "KAKR",
    "metar": "KAKR 091154Z AUTO 06003KT 10SM OVC090 02/M03 A2989 RMK AO2 SLP130 T00171033 10028 20017 56020",
    "updatedAt": "2022-03-09T11:54:00.000Z"
  },
  {
    "airportIcao": "KALB",
    "metar": "KALB 091151Z 00000KT 10SM OVC140 M02/M06 A3013 RMK AO2 SLP207 VIRGA ALQDS T10221061 11022 21039 58005",
    "updatedAt": "2022-03-09T11:51:00.000Z"
  },
  {
    "airportIcao": "KALI",
    "metar": "KALI 091153Z AUTO 35007KT 10SM CLR 06/03 A3001 RMK AO2 SLP163 T00610028 10078 20050 58001",
    "updatedAt": "2022-03-09T11:53:00.000Z"
  },
  {
    "airportIcao": "KALK",
    "metar": "KALK 091156Z AUTO 24009KT 10SM CLR 00/M14 A2996 RMK AO2 SLP098 T00001139 10056 21017 55003",
    "updatedAt": "2022-03-09T11:56:00.000Z"
  },
  {
    "airportIcao": "KALM",
    "metar": "KALM 091235Z AUTO 00000KT 10SM CLR M03/M22 A2995 RMK AO2",
    "updatedAt": "2022-03-09T12:35:00.000Z"
  },
  {
    "airportIcao": "KALN",
    "metar": "KALN 091235Z AUTO 00000KT 5SM BR CLR M01/M02 A3004 RMK AO2 T10081016 TSNO",
    "updatedAt": "2022-03-09T12:35:00.000Z"
  },
  {
    "airportIcao": "KALO",
    "metar": "KALO 091154Z 31011KT 10SM CLR M04/M09 A3003 RMK AO2 SLP179 T10391094 10000 21039 53013 $",
    "updatedAt": "2022-03-09T11:54:00.000Z"
  },
  {
    "airportIcao": "KALS",
    "metar": "KALS 091152Z AUTO 23003KT 10SM OVC080 M12/M17 A2985 RMK AO2 SLP134 T11221167 11122 21161 55007",
    "updatedAt": "2022-03-09T11:52:00.000Z"
  },
  {
    "airportIcao": "KALW",
    "metar": "KALW 091242Z AUTO 00000KT 10SM FEW019 BKN030 00/M01 A3012 RMK AO2 T00001006 $",
    "updatedAt": "2022-03-09T12:42:00.000Z"
  },
  {
    "airportIcao": "KALX",
    "metar": "KALX 091235Z AUTO 32010G15KT 10SM OVC008 11/11 A2988 RMK AO2 T01060105",
    "updatedAt": "2022-03-09T12:35:00.000Z"
  },
  {
    "airportIcao": "KAMA",
    "metar": "KAMA 091153Z AUTO 20007KT 10SM CLR M05/M11 A2996 RMK AO2 SLP150 T10501106 11006 21061 56005",
    "updatedAt": "2022-03-09T11:53:00.000Z"
  },
  {
    "airportIcao": "KAMG",
    "metar": "KAMG 091225Z AUTO 18007KT 1 1/4SM BR OVC003 19/19 A2989 RMK AO2 T01940194",
    "updatedAt": "2022-03-09T12:25:00.000Z"
  },
  {
    "airportIcao": "KAMN",
    "metar": "KAMN 091235Z AUTO 22004KT 10SM SCT120 M02/M03 A2991 RMK AO2 T10201035",
    "updatedAt": "2022-03-09T12:35:00.000Z"
  },
  {
    "airportIcao": "KAMW",
    "metar": "KAMW 091153Z AUTO 33012KT 10SM BKN031 M03/M08 A3008 RMK AO2 SLP194 T10331078 10000 21033 53019",
    "updatedAt": "2022-03-09T11:53:00.000Z"
  },
  {
    "airportIcao": "KANB",
    "metar": "KANB 091153Z AUTO 24005KT 7SM OVC005 11/10 A2987 RMK AO2 RAE20 SLP119 P0001 60020 70063 T01060100 10106 20089 51021",
    "updatedAt": "2022-03-09T11:53:00.000Z"
  },
  {
    "airportIcao": "KAND",
    "metar": "KAND 091205Z AUTO 08008KT 7SM RA BKN060 OVC075 11/11 A2983 RMK AO2 LTG DSNT NE P0004 T01110106",
    "updatedAt": "2022-03-09T12:05:00.000Z"
  },
  {
    "airportIcao": "KANE",
    "metar": "KANE 091235Z AUTO 27011KT 10SM CLR M08/M12 A3003 RMK AO2",
    "updatedAt": "2022-03-09T12:35:00.000Z"
  },
  {
    "airportIcao": "KANJ",
    "metar": "KANJ 091155Z AUTO 27003KT 4SM -SN BKN020 OVC047 M01/M04 A2978 RMK AO2 SNB37 SLP092 P0000 60000 T10111044 11011 21022 56005",
    "updatedAt": "2022-03-09T11:55:00.000Z"
  },
  {
    "airportIcao": "KANK",
    "metar": "KANK 091235Z AUTO 23011G20KT 10SM CLR M03/M12 A2985 RMK AO1 T10291124",
    "updatedAt": "2022-03-09T12:35:00.000Z"
  },
  {
    "airportIcao": "KANQ",
    "metar": "KANQ 091235Z AUTO 00000KT 4SM BR FEW100 M04/M04 A2995 RMK AO2",
    "updatedAt": "2022-03-09T12:35:00.000Z"
  },
  {
    "airportIcao": "KANW",
    "metar": "KANW 091235Z AUTO 35014G21KT 10SM OVC080 M11/M16 A3013 RMK AO2 T11061165",
    "updatedAt": "2022-03-09T12:35:00.000Z"
  },
  {
    "airportIcao": "KAOH",
    "metar": "KAOH 091153Z AUTO 35004KT 10SM OVC080 00/M04 A2994 RMK AO2 SLP148 T00001039 10006 20000 55006",
    "updatedAt": "2022-03-09T11:53:00.000Z"
  },
  {
    "airportIcao": "KAOO",
    "metar": "KAOO 091229Z AUTO 00000KT 2SM -SN BR OVC008 01/M02 A2991 RMK AO2 RAB1154E1159SNB11 P0000 T00061017",
    "updatedAt": "2022-03-09T12:29:00.000Z"
  },
  {
    "airportIcao": "KAPA",
    "metar": "KAPA 091203Z 31005KT 10SM OVC010 M07/M09 A2980 RMK AO2 T10721094",
    "updatedAt": "2022-03-09T12:03:00.000Z"
  },
  {
    "airportIcao": "KAPC",
    "metar": "KAPC 091154Z AUTO 00000KT 10SM CLR 03/02 A3002 RMK AO2 SLP158 T00330022 10083 20022 58002",
    "updatedAt": "2022-03-09T11:54:00.000Z"
  },
  {
    "airportIcao": "KAPF",
    "metar": "KAPF 091153Z 14005KT 8SM CLR 23/21 A2999 RMK AO2 SLP155 T02280211 10239 20222 53013",
    "updatedAt": "2022-03-09T11:53:00.000Z"
  },
  {
    "airportIcao": "KAPG",
    "metar": "KAPG 091159Z 13005KT 5SM -RA BR BKN015 OVC040 03/02 A3005 RMK SLP180 P0002 60002 70002 T00330022 10058 20033 56009 $",
    "updatedAt": "2022-03-09T11:59:00.000Z"
  },
  {
    "airportIcao": "KAPN",
    "metar": "KAPN 091154Z AUTO 21007KT 10SM CLR M04/M07 A2986 RMK AO2 SLP120 T10391072 11022 21061 56014",
    "updatedAt": "2022-03-09T11:54:00.000Z"
  },
  {
    "airportIcao": "KAPS",
    "metar": "KAPS 091235Z AUTO 36015KT 10SM VCTS OVC013 08/06 A2996 RMK AO2 LTG DSNT SW T00800055",
    "updatedAt": "2022-03-09T12:35:00.000Z"
  },
  {
    "airportIcao": "KAQO",
    "metar": "KAQO 091235Z AUTO 35005KT 10SM SCT038 SCT044 02/M01 A3009 RMK AO2",
    "updatedAt": "2022-03-09T12:35:00.000Z"
  },
  {
    "airportIcao": "KAQP",
    "metar": "KAQP 091233Z AUTO 33015G21KT 10SM M11/M16 A3016 RMK AO2",
    "updatedAt": "2022-03-09T12:33:00.000Z"
  },
  {
    "airportIcao": "KAQV",
    "metar": "KAQV 091157Z AUTO 36007KT 9SM OVC006 05/03 A3002 RMK AO2 SLP167 6//// 7//// T00500033 10050 20050 53005 PNO $",
    "updatedAt": "2022-03-09T11:57:00.000Z"
  },
  {
    "airportIcao": "KAQW",
    "metar": "KAQW 091152Z AUTO 12006KT 10SM CLR M01/M07 A3012 RMK AO2 SLP209 T10111072 11011 21039 58004 TSNO",
    "updatedAt": "2022-03-09T11:52:00.000Z"
  },
  {
    "airportIcao": "KAQX",
    "metar": "KAQX 091235Z AUTO 00000KT 10SM FEW007 OVC017 19/19 A2987 RMK AO2",
    "updatedAt": "2022-03-09T12:35:00.000Z"
  },
  {
    "airportIcao": "KARA",
    "metar": "KARA 091153Z 01017G25KT 10SM OVC010 07/05 A2999 RMK AO2 SLP155 70003 T00720050 10083 20067 53014",
    "updatedAt": "2022-03-09T11:53:00.000Z"
  },
  {
    "airportIcao": "KARB",
    "metar": "KARB 091153Z AUTO 00000KT 5SM BR CLR M05/M07 A2996 RMK AO2 SLP155 I1000 I6000 T10501067 11017 21056 51001",
    "updatedAt": "2022-03-09T11:53:00.000Z"
  },
  {
    "airportIcao": "KARG",
    "metar": "KARG 091156Z AUTO 29005KT 4SM BR CLR 02/02 A3007 RMK AO2 SLP186 60000 70005 T00170017 10033 20011 53015 FZRANO",
    "updatedAt": "2022-03-09T11:56:00.000Z"
  },
  {
    "airportIcao": "KARM",
    "metar": "KARM 091235Z AUTO 01005KT 10SM BKN012 06/04 A3004 RMK AO2 T00570038",
    "updatedAt": "2022-03-09T12:35:00.000Z"
  },
  {
    "airportIcao": "KARR",
    "metar": "KARR 091152Z AUTO 24003KT 7SM BKN110 M02/M04 A2996 RMK AO2 SLP151 T10171039 11011 21039 56005",
    "updatedAt": "2022-03-09T11:52:00.000Z"
  },
  {
    "airportIcao": "KART",
    "metar": "KART 091156Z AUTO 15004KT 10SM CLR M02/M07 A3005 RMK AO2 SLP182 T10171072 11017 21028 56011 TSNO",
    "updatedAt": "2022-03-09T11:56:00.000Z"
  },
  {
    "airportIcao": "KARV",
    "metar": "KARV 091235Z AUTO 28011G17KT 10SM -SN OVC027 M06/M21 A2982 RMK AO2 T10571210",
    "updatedAt": "2022-03-09T12:35:00.000Z"
  },
  {
    "airportIcao": "KARW",
    "metar": "KARW 091235Z AUTO 00000KT 10SM BKN017 19/18 A2991 RMK AO2",
    "updatedAt": "2022-03-09T12:35:00.000Z"
  },
  {
    "airportIcao": "KASD",
    "metar": "KASD 091153Z AUTO 34007KT 10SM OVC009 10/07 A2995 RMK AO2 PRESRR SLP143 60004 70004 T01000072 10139 20100 51021 TSNO",
    "updatedAt": "2022-03-09T11:53:00.000Z"
  },
  {
    "airportIcao": "KASE",
    "metar": "KASE 091153Z AUTO 18005KT 10SM BKN060 OVC080 M07/M12 A2976 RMK AO2 SLP080 T10721122 11072 21083 56016",
    "updatedAt": "2022-03-09T11:53:00.000Z"
  },
  {
    "airportIcao": "KASG",
    "metar": "KASG 091148Z 00000KT 5SM BR CLR M02/M02 A3007",
    "updatedAt": "2022-03-09T11:48:00.000Z"
  },
  {
    "airportIcao": "KASH",
    "metar": "KASH 091156Z 00000KT 10SM CLR M03/M05 A3019 RMK AO2 SLP232 T10281050 11028 21044 53000",
    "updatedAt": "2022-03-09T11:56:00.000Z"
  },
  {
    "airportIcao": "KASJ",
    "metar": "KASJ 091235Z AUTO 02007KT 7SM RA OVC006 07/07 A2993 RMK AO2 T00650065",
    "updatedAt": "2022-03-09T12:35:00.000Z"
  },
  {
    "airportIcao": "KASL",
    "metar": "KASL 091235Z AUTO 00000KT 7SM OVC009 02/02 A3011 RMK AO1 T00240016",
    "updatedAt": "2022-03-09T12:35:00.000Z"
  },
  {
    "airportIcao": "KASN",
    "metar": "KASN 091235Z AUTO 32010KT 10SM BKN007 OVC022 10/09 A2991 RMK AO2 T00950087",
    "updatedAt": "2022-03-09T12:35:00.000Z"
  },
  {
    "airportIcao": "KAST",
    "metar": "KAST 091225Z AUTO 13004KT 1/4SM FG VV002 03/02 A3014",
    "updatedAt": "2022-03-09T12:25:00.000Z"
  },
  {
    "airportIcao": "KASW",
    "metar": "KASW 091235Z AUTO 00000KT 5SM BR BKN110 M02/M03 A2997 RMK AO2",
    "updatedAt": "2022-03-09T12:35:00.000Z"
  },
  {
    "airportIcao": "KASX",
    "metar": "KASX 091227Z AUTO 26015G22KT 10SM SCT020 M10/M14 A2992 RMK AO2 SNE10 P0000 T11001139",
    "updatedAt": "2022-03-09T12:27:00.000Z"
  },
  {
    "airportIcao": "KATL",
    "metar": "KATL 091204Z 12004KT 2SM -RA BR FEW005 SCT028 OVC037 12/11 A2985 RMK AO2 SFC VIS 5 TSE03 TS DSIPTD P0001 T01220111",
    "updatedAt": "2022-03-09T12:04:00.000Z"
  },
  {
    "airportIcao": "KATP",
    "metar": "KATP 091230Z AUTO 32014KT BKN009 OVC015 22/20 A2991 RMK A01",
    "updatedAt": "2022-03-09T12:30:00.000Z"
  },
  {
    "airportIcao": "KATS",
    "metar": "KATS 091235Z AUTO 00000KT 10SM CLR M04/M15 A2997 RMK AO2",
    "updatedAt": "2022-03-09T12:35:00.000Z"
  },
  {
    "airportIcao": "KATT",
    "metar": "KATT 091151Z AUTO 00000KT 9SM CLR 03/00 A3009 RMK AO2 SLP192 70001 T00280000 10061 20028 55005",
    "updatedAt": "2022-03-09T11:51:00.000Z"
  },
  {
    "airportIcao": "KATW",
    "metar": "KATW 091145Z 27010G15KT 10SM SCT031 M04/M09 A2987",
    "updatedAt": "2022-03-09T11:45:00.000Z"
  },
  {
    "airportIcao": "KATY",
    "metar": "KATY 091153Z AUTO 33015KT 10SM OVC027 M13/M16 A3010 RMK AO2 SLP223 60000 T11281161 11100 21128 53009",
    "updatedAt": "2022-03-09T11:53:00.000Z"
  },
  {
    "airportIcao": "KAUG",
    "metar": "KAUG 091153Z AUTO 00000KT 10SM CLR M04/M09 A3017 RMK AO2 SLP222 T10441089 11028 21056 56007",
    "updatedAt": "2022-03-09T11:53:00.000Z"
  },
  {
    "airportIcao": "KAUH",
    "metar": "KAUH 091235Z AUTO 35003KT 10SM CLR M12/M14 A3012 RMK AO2 T11211143",
    "updatedAt": "2022-03-09T12:35:00.000Z"
  },
  {
    "airportIcao": "KAUM",
    "metar": "KAUM 091235Z AUTO 30017G22KT 10SM UP BKN020 M08/M12 A3004 RMK AO2",
    "updatedAt": "2022-03-09T12:35:00.000Z"
  },
  {
    "airportIcao": "KAUN",
    "metar": "KAUN 091235Z AUTO 10003KT 10SM CLR 09/M02 A3000 RMK A01",
    "updatedAt": "2022-03-09T12:35:00.000Z"
  },
  {
    "airportIcao": "KAUO",
    "metar": "KAUO 091203Z AUTO 35004KT 10SM -RA FEW004 SCT008 OVC017 14/14 A2985 RMK AO2 LTG DSNT SE P0000",
    "updatedAt": "2022-03-09T12:03:00.000Z"
  },
  {
    "airportIcao": "KAUS",
    "metar": "KAUS 091153Z 36005KT 10SM BKN200 02/01 A3009 RMK AO2 SLP193 70001 T00220011 10044 20011 55002",
    "updatedAt": "2022-03-09T11:53:00.000Z"
  },
  {
    "airportIcao": "KAUW",
    "metar": "KAUW 091154Z AUTO 27011G18KT 10SM OVC035 M04/M12 A2986 RMK AO2 SLP129 60000 T10391117 11011 21039 53004",
    "updatedAt": "2022-03-09T11:54:00.000Z"
  },
  {
    "airportIcao": "KAVC",
    "metar": "KAVC 091235Z AUTO 03003KT 10SM OVC004 05/04 A2999 RMK AO2 T00510041",
    "updatedAt": "2022-03-09T12:35:00.000Z"
  },
  {
    "airportIcao": "KAVK",
    "metar": "KAVK 090615Z AUTO 22005KT 10SM OVC047 M01/M04 A3007 RMK AO2",
    "updatedAt": "2022-03-09T06:15:00.000Z"
  },
  {
    "airportIcao": "KAVL",
    "metar": "KAVL 091237Z 18012KT 10SM SCT006 BKN013 OVC046 09/08 A2987 RMK AO2 RAE22 PRESRR P0000 T00890083",
    "updatedAt": "2022-03-09T12:37:00.000Z"
  },
  {
    "airportIcao": "KAVP",
    "metar": "KAVP 091154Z 02003KT 10SM OVC048 02/M07 A3001 RMK AO2 SLP168 T00221067 10022 20000 58016",
    "updatedAt": "2022-03-09T11:54:00.000Z"
  },
  {
    "airportIcao": "KAVQ",
    "metar": "KAVQ 091235Z AUTO 12004KT 10SM CLR 04/M11 A2995 RMK AO2 T00371111",
    "updatedAt": "2022-03-09T12:35:00.000Z"
  },
  {
    "airportIcao": "KAVX",
    "metar": "KAVX 091151Z AUTO 15004KT 8SM CLR 09/05 A2999 RMK AO2 SLP150 T00940050 10133 20089 56009",
    "updatedAt": "2022-03-09T11:51:00.000Z"
  },
  {
    "airportIcao": "KAWG",
    "metar": "KAWG 091235Z AUTO 33008KT 10SM FEW018 BKN029 OVC035 M03/M02 A3004 RMK AO2",
    "updatedAt": "2022-03-09T12:35:00.000Z"
  },
  {
    "airportIcao": "KAWM",
    "metar": "KAWM 091229Z AUTO 33003KT 5SM BR SCT011 03/03 A3006 RMK AO2 T00280028",
    "updatedAt": "2022-03-09T12:29:00.000Z"
  },
  {
    "airportIcao": "KAWO",
    "metar": "KAWO 091156Z AUTO 00000KT 10SM CLR M04/M04 A3021 RMK AO2 SLP234 70016 T10391044 10006 21039 51006 FZRANO",
    "updatedAt": "2022-03-09T11:56:00.000Z"
  },
  {
    "airportIcao": "KAXA",
    "metar": "KAXA 091235Z AUTO 33015KT 10SM OVC020 M07/M10 A3006 RMK A01",
    "updatedAt": "2022-03-09T12:35:00.000Z"
  },
  {
    "airportIcao": "KAXH",
    "metar": "KAXH 091235Z AUTO 03005KT 10SM OVC015 07/04 A3004 RMK AO2 T00660044",
    "updatedAt": "2022-03-09T12:35:00.000Z"
  },
  {
    "airportIcao": "KAXN",
    "metar": "KAXN 091212Z AUTO 32012KT 10SM SCT016 M15/M18 A3006 RMK AO2 T11501178",
    "updatedAt": "2022-03-09T12:12:00.000Z"
  },
  {
    "airportIcao": "KAXS",
    "metar": "KAXS 091235Z AUTO 00000KT 10SM CLR M05/M08 A3011 RMK AO2 T10461085",
    "updatedAt": "2022-03-09T12:35:00.000Z"
  },
  {
    "airportIcao": "KAXV",
    "metar": "KAXV 091235Z AUTO 35005KT 10SM OVC070 00/M02 A2996 RMK AO2",
    "updatedAt": "2022-03-09T12:35:00.000Z"
  },
  {
    "airportIcao": "KAXX",
    "metar": "KAXX 091235Z AUTO 00000KT 10SM CLR M16/M19 A2985 RMK AO2 T11641190",
    "updatedAt": "2022-03-09T12:35:00.000Z"
  },
  {
    "airportIcao": "KAYS",
    "metar": "KAYS 091235Z AUTO 22008KT 4SM BR OVC003 21/20 A2991 RMK AO2 T02060200",
    "updatedAt": "2022-03-09T12:35:00.000Z"
  },
  {
    "airportIcao": "KAZC",
    "metar": "KAZC 091235Z AUTO 00000KT 10SM CLR M06/M07 A2994 RMK AO2",
    "updatedAt": "2022-03-09T12:35:00.000Z"
  },
  {
    "airportIcao": "KAZE",
    "metar": "KAZE 091235Z AUTO 18004KT 10SM BKN011 BKN014 BKN022 20/19 A2986 RMK AO2 T02030187",
    "updatedAt": "2022-03-09T12:35:00.000Z"
  },
  {
    "airportIcao": "KAZO",
    "metar": "KAZO 091153Z 20005KT 8SM BKN110 M02/M05 A2994 RMK AO2 SLP148 T10221050 11017 21044 56009",
    "updatedAt": "2022-03-09T11:53:00.000Z"
  },
  {
    "airportIcao": "KBAB",
    "metar": "KBAB 091158Z AUTO 12004KT 10SM CLR 06/01 A2999 RMK AO2 SLP158 T00620011 10116 20057 58006 $",
    "updatedAt": "2022-03-09T11:58:00.000Z"
  },
  {
    "airportIcao": "KBAC",
    "metar": "KBAC 091235Z AUTO 31010KT 7SM -SN OVC005 M14/M16 A3014 RMK AO2",
    "updatedAt": "2022-03-09T12:35:00.000Z"
  },
  {
    "airportIcao": "KBAD",
    "metar": "KBAD 091156Z AUTO 36005KT 10SM OVC013 04/02 A3008 RMK AO2 CIG 010 RWY15 SLP190 70075 T00430017 10049 20043 52016",
    "updatedAt": "2022-03-09T11:56:00.000Z"
  },
  {
    "airportIcao": "KBAF",
    "metar": "KBAF 091153Z 36004KT 10SM CLR M02/M06 A3015 RMK AO2 SLP216 T10221056 11022 21044 58002",
    "updatedAt": "2022-03-09T11:53:00.000Z"
  },
  {
    "airportIcao": "KBAK",
    "metar": "KBAK 091150Z 34008KT 10SM BKN060 OVC090 01/M02 A2998",
    "updatedAt": "2022-03-09T11:50:00.000Z"
  },
  {
    "airportIcao": "KBAM",
    "metar": "KBAM 091235Z AUTO 33009KT 10SM OVC070 02/00 A2993 RMK AO1",
    "updatedAt": "2022-03-09T12:35:00.000Z"
  },
  {
    "airportIcao": "KBAN",
    "metar": "KBAN 091152Z AUTO 00000KT 10SM CLR M06/M09 A2999 RMK AO2 SLP150 T10561094 11011 21067 56011 $",
    "updatedAt": "2022-03-09T11:52:00.000Z"
  },
  {
    "airportIcao": "KBAX",
    "metar": "KBAX 091235Z AUTO 18005KT 10SM SCT120 M04/M06 A2991 RMK AO2 T10451065",
    "updatedAt": "2022-03-09T12:35:00.000Z"
  },
  {
    "airportIcao": "KBAZ",
    "metar": "KBAZ 091151Z AUTO 02009KT 10SM CLR 04/01 A3006 RMK AO2 SLP177 70002 T00390011 10056 20039 55002",
    "updatedAt": "2022-03-09T11:51:00.000Z"
  },
  {
    "airportIcao": "KBBB",
    "metar": "KBBB 091236Z AUTO 35015KT 10SM SCT013 BKN019 BKN043 M13/M16 A3015 RMK AO2",
    "updatedAt": "2022-03-09T12:36:00.000Z"
  },
  {
    "airportIcao": "KBBD",
    "metar": "KBBD 091235Z AUTO 00000KT 10SM M01/M04 A3008 RMK AO2",
    "updatedAt": "2022-03-09T12:35:00.000Z"
  },
  {
    "airportIcao": "KBBG",
    "metar": "KBBG 091215Z AUTO 29003KT 10SM CLR M02/M02 A3006 RMK AO2",
    "updatedAt": "2022-03-09T12:15:00.000Z"
  },
  {
    "airportIcao": "KBBP",
    "metar": "KBBP 091235Z AUTO 05003KT 1 3/4SM BR OVC005 10/10 A2990 RMK AO2",
    "updatedAt": "2022-03-09T12:35:00.000Z"
  },
  {
    "airportIcao": "KBBW",
    "metar": "KBBW 091153Z AUTO 35011G20KT 10SM OVC035 M08/M12 A3009 RMK AO2 SNE45 SLP223 P0000 60000 T10831117 11050 21094 53006",
    "updatedAt": "2022-03-09T11:53:00.000Z"
  },
  {
    "airportIcao": "KBCB",
    "metar": "KBCB 091235Z AUTO 10010KT 10SM BKN004 OVC009 05/05 A2990 RMK AO2 P0001 T00520052",
    "updatedAt": "2022-03-09T12:35:00.000Z"
  },
  {
    "airportIcao": "KBCE",
    "metar": "KBCE 091153Z AUTO 27008KT 10SM CLR M09/M11 A2987 RMK AO2 SLP105 T10891111 11050 21089 56009 $",
    "updatedAt": "2022-03-09T11:53:00.000Z"
  },
  {
    "airportIcao": "KBCK",
    "metar": "KBCK 091235Z AUTO 28008G17KT 10SM OVC030 M04/M10 A2997 RMK AO2 T10431096",
    "updatedAt": "2022-03-09T12:35:00.000Z"
  },
  {
    "airportIcao": "KBCR",
    "metar": "KBCR 091213Z AUTO 17006KT 10SM FEW009 OVC013 21/20 A2984 RMK AO2 RAB00E11 P0000 T02110200",
    "updatedAt": "2022-03-09T12:13:00.000Z"
  },
  {
    "airportIcao": "KBCT",
    "metar": "KBCT 091145Z 18007G12KT 10SM SCT022 24/21 A3002",
    "updatedAt": "2022-03-09T11:45:00.000Z"
  },
  {
    "airportIcao": "KBDE",
    "metar": "KBDE 091239Z AUTO 29009KT 10SM BKN028 M16/M20 A3000 RMK AO2 T11561200 $",
    "updatedAt": "2022-03-09T12:39:00.000Z"
  },
  {
    "airportIcao": "KBDG",
    "metar": "KBDG 091235Z AUTO 03003KT 10SM M02/M08 A2995 RMK AO1 T10211084",
    "updatedAt": "2022-03-09T12:35:00.000Z"
  },
  {
    "airportIcao": "KBDH",
    "metar": "KBDH 091235Z AUTO 31016KT 10SM OVC042 M11/M16 A3014 RMK AO2",
    "updatedAt": "2022-03-09T12:35:00.000Z"
  },
  {
    "airportIcao": "KBDL",
    "metar": "KBDL 091151Z 02003KT 10SM BKN120 OVC150 M01/M06 A3015 RMK AO2 SLP212 VIRGA OHD T10111056 11006 21022 58005",
    "updatedAt": "2022-03-09T11:51:00.000Z"
  },
  {
    "airportIcao": "KBDN",
    "metar": "KBDN 090615Z AUTO 21004KT 10SM BKN042 OVC050 03/M05 A3010 RMK AO2",
    "updatedAt": "2022-03-09T06:15:00.000Z"
  },
  {
    "airportIcao": "KBDR",
    "metar": "KBDR 091152Z 09009KT 10SM OVC090 03/M03 A3013 RMK AO2 SLP204 T00281033 10028 20011 58012",
    "updatedAt": "2022-03-09T11:52:00.000Z"
  },
  {
    "airportIcao": "KBDU",
    "metar": "KBDU 091235Z AUTO 35011G15KT 3SM -SN OVC014 M07/M09 A2986 RMK AO2",
    "updatedAt": "2022-03-09T12:35:00.000Z"
  },
  {
    "airportIcao": "KBEA",
    "metar": "KBEA 091235Z AUTO 01007KT 10SM CLR 05/02 A3003 RMK AO2 T00450018",
    "updatedAt": "2022-03-09T12:35:00.000Z"
  },
  {
    "airportIcao": "KBEC",
    "metar": "KBEC 091235Z AUTO 02005KT 7SM OVC004 M01/M02 A3008 RMK AO2 T10121017",
    "updatedAt": "2022-03-09T12:35:00.000Z"
  },
  {
    "airportIcao": "KBED",
    "metar": "KBED 091151Z 00000KT 10SM CLR M02/M06 A3018 RMK AO2 SLP234 T10171056 11017 21044 56002",
    "updatedAt": "2022-03-09T11:51:00.000Z"
  },
  {
    "airportIcao": "KBEH",
    "metar": "KBEH 091153Z AUTO 00000KT 6SM BR OVC110 M02/M04 A2995 RMK AO2 SLP150 T10171039 11011 21033 55005",
    "updatedAt": "2022-03-09T11:53:00.000Z"
  },
  {
    "airportIcao": "KBFD",
    "metar": "KBFD 091153Z AUTO 13004KT 10SM BKN075 OVC090 M02/M06 A2988 RMK AO2 SLP137 T10171061 11017 21033 58019",
    "updatedAt": "2022-03-09T11:53:00.000Z"
  },
  {
    "airportIcao": "KBFF",
    "metar": "KBFF 091232Z AUTO 07010KT 1 1/2SM -SN OVC019 M11/M14 A3004",
    "updatedAt": "2022-03-09T12:32:00.000Z"
  },
  {
    "airportIcao": "KBFI",
    "metar": "KBFI 091153Z 00000KT 1 1/2SM BR OVC002 03/03 A3019 RMK AO2 SLP223 70001 T00330033 10039 20022 51002",
    "updatedAt": "2022-03-09T11:53:00.000Z"
  },
  {
    "airportIcao": "KBFL",
    "metar": "KBFL 091154Z AUTO 08007KT 10SM CLR 11/01 A3001 RMK AO2 SLP158 T01060006 10122 20089 56009 $",
    "updatedAt": "2022-03-09T11:54:00.000Z"
  },
  {
    "airportIcao": "KBFM",
    "metar": "KBFM 091153Z 32015G22KT 10SM BKN009 BKN029 BKN110 14/12 A2991 RMK AO2 SLP129 60007 70007 T01390117 10228 20139 53022",
    "updatedAt": "2022-03-09T11:53:00.000Z"
  },
  {
    "airportIcao": "KBGD",
    "metar": "KBGD 091151Z AUTO 00000KT 10SM CLR M01/M10 A2999 RMK AO2 SLP160 T10111100 10033 21022 56005",
    "updatedAt": "2022-03-09T11:51:00.000Z"
  },
  {
    "airportIcao": "KBGE",
    "metar": "KBGE 091235Z AUTO 20014KT 4SM -RA SCT045 SCT090 BKN120 21/ A2987 RMK AO2 P0006 T0210////",
    "updatedAt": "2022-03-09T12:35:00.000Z"
  },
  {
    "airportIcao": "KBGF",
    "metar": "KBGF 090615Z AUTO VRB04KT 7SM SCT017 BKN046 OVC075 09/08 A2982 RMK A01",
    "updatedAt": "2022-03-09T06:15:00.000Z"
  },
  {
    "airportIcao": "KBGM",
    "metar": "KBGM 091153Z 12005KT 10SM OVC055 M03/M07 A2998 RMK AO2 SLP173 70003 T10281072 11028 21039 58008",
    "updatedAt": "2022-03-09T11:53:00.000Z"
  },
  {
    "airportIcao": "KBGR",
    "metar": "KBGR 091153Z 00000KT 10SM OVC200 M06/M08 A3018 RMK AO2 SLP223 T10561083 11044 21067 58005",
    "updatedAt": "2022-03-09T11:53:00.000Z"
  },
  {
    "airportIcao": "KBHB",
    "metar": "KBHB 091156Z AUTO 00000KT 10SM CLR M04/M08 A3021 RMK AO2 SLP233 T10441083 11039 21056 55000 FZRANO $",
    "updatedAt": "2022-03-09T11:56:00.000Z"
  },
  {
    "airportIcao": "KBHC",
    "metar": "KBHC 091235Z AUTO 19008KT 3SM BR OVC004 18/18 A2988 RMK AO2",
    "updatedAt": "2022-03-09T12:35:00.000Z"
  },
  {
    "airportIcao": "KBHK",
    "metar": "KBHK 091238Z AUTO 27009KT 6SM -SN BKN021 OVC031 M15/M18 A3015 RMK AO2 SNB08 P0000 T11501178",
    "updatedAt": "2022-03-09T12:38:00.000Z"
  },
  {
    "airportIcao": "KBHM",
    "metar": "KBHM 091153Z 33007KT 10SM OVC007 08/06 A2993 RMK AO2 SLP133 60118 70131 T00780061 10111 20078 51030 $",
    "updatedAt": "2022-03-09T11:53:00.000Z"
  },
  {
    "airportIcao": "KBID",
    "metar": "KBID 091156Z AUTO 14009KT 10SM OVC075 03/M04 A3016 RMK AO2 SLP214 70001 T00281039 10028 20000 58014",
    "updatedAt": "2022-03-09T11:56:00.000Z"
  },
  {
    "airportIcao": "KBIE",
    "metar": "KBIE 091235Z AUTO 02004KT 10SM CLR M08/M10 A3014 RMK AO2 T10831105",
    "updatedAt": "2022-03-09T12:35:00.000Z"
  },
  {
    "airportIcao": "KBIF",
    "metar": "KBIF 091158Z AUTO 00000KT 10SM CLR M00/M16 A2991 RMK AO2 SLP110 T10011163 10033 21030 57012 $",
    "updatedAt": "2022-03-09T11:58:00.000Z"
  },
  {
    "airportIcao": "KBIH",
    "metar": "KBIH 091156Z AUTO 34005KT 10SM CLR M03/M09 A2997 RMK AO2 SLP136 T10281089 10067 21028 55009",
    "updatedAt": "2022-03-09T11:56:00.000Z"
  },
  {
    "airportIcao": "KBIJ",
    "metar": "KBIJ 091235Z AUTO 22010KT 7SM BKN010 OVC015 21/19 A2985 RMK AO2 LTG DSNT S AND SW",
    "updatedAt": "2022-03-09T12:35:00.000Z"
  },
  {
    "airportIcao": "KBIL",
    "metar": "KBIL 091153Z 22005KT 10SM FEW025 SCT038 SCT060 M16/M18 A3016 RMK AO2 SNE30 SLP280 4/004 P0000 60000 70014 T11561178 11122 21161 55007",
    "updatedAt": "2022-03-09T11:53:00.000Z"
  },
  {
    "airportIcao": "KBIS",
    "metar": "KBIS 091152Z 30008KT 10SM OVC031 M12/M16 A3018 RMK AO2 SLP254 60000 T11221156 11117 21128 58002",
    "updatedAt": "2022-03-09T11:52:00.000Z"
  },
  {
    "airportIcao": "KBIV",
    "metar": "KBIV 091153Z AUTO 25007KT 9SM FEW120 M01/M04 A2993 RMK AO2 SLP142 T10111039 11011 21028 56010",
    "updatedAt": "2022-03-09T11:53:00.000Z"
  },
  {
    "airportIcao": "KBIX",
    "metar": "KBIX 091221Z AUTO 35011KT 10SM OVC007 12/11 A2991 RMK AO2 SLP132",
    "updatedAt": "2022-03-09T12:21:00.000Z"
  },
  {
    "airportIcao": "KBJC",
    "metar": "KBJC 091235Z AUTO 36010KT 5SM -SN OVC011 M07/M08 A2985 RMK AO2",
    "updatedAt": "2022-03-09T12:35:00.000Z"
  },
  {
    "airportIcao": "KBJI",
    "metar": "KBJI 091235Z AUTO 30013KT 10SM BKN017 M16/M19 A3002 RMK AO2 T11631190",
    "updatedAt": "2022-03-09T12:35:00.000Z"
  },
  {
    "airportIcao": "KBJJ",
    "metar": "KBJJ 091156Z AUTO 36006KT 10SM BKN090 OVC100 00/M02 A2991 RMK AO2 SLP138 T00001022 10006 21006 56018",
    "updatedAt": "2022-03-09T11:56:00.000Z"
  },
  {
    "airportIcao": "KBKB",
    "metar": "KBKB 091154Z AUTO 01005KT 10SM OVC008 06/04 A3002 RMK AO2 SLP197 70200 T00560039 10056 20050 53013",
    "updatedAt": "2022-03-09T11:54:00.000Z"
  },
  {
    "airportIcao": "KBKD",
    "metar": "KBKD 091235Z AUTO 23003KT 10SM CLR M03/M04 A3011 RMK AO2 T10261041",
    "updatedAt": "2022-03-09T12:35:00.000Z"
  },
  {
    "airportIcao": "KBKE",
    "metar": "KBKE 091153Z AUTO 32009KT 10SM OVC070 M03/M07 A2999 RMK AO2 SLP176 60000 T10281067 11017 21039 55001",
    "updatedAt": "2022-03-09T11:53:00.000Z"
  },
  {
    "airportIcao": "KBKF",
    "metar": "KBKF 091209Z COR 33010KT 10SM OVC007 M07/M08 A2982 RMK AO2A SLP121 COR 1220",
    "updatedAt": "2022-03-09T12:09:00.000Z"
  },
  {
    "airportIcao": "KBKL",
    "metar": "KBKL 091153Z 00000KT 10SM OVC080 02/M03 A2994 RMK AO2 SLP143 T00221033 10022 20011 56018",
    "updatedAt": "2022-03-09T11:53:00.000Z"
  },
  {
    "airportIcao": "KBKN",
    "metar": "KBKN 091235Z AUTO 00000KT 10SM CLR M04/M06 A3009 RMK AO2",
    "updatedAt": "2022-03-09T12:35:00.000Z"
  },
  {
    "airportIcao": "KBKS",
    "metar": "KBKS 091235Z AUTO 01005KT 10SM OVC085 07/04 A3006 RMK AO2 SLP138 T00750043",
    "updatedAt": "2022-03-09T12:35:00.000Z"
  },
  {
    "airportIcao": "KBKT",
    "metar": "KBKT 091235Z AUTO 03006KT 10SM OVC004 05/05 A2995 RMK AO1 T00520052",
    "updatedAt": "2022-03-09T12:35:00.000Z"
  },
  {
    "airportIcao": "KBKV",
    "metar": "KBKV 091153Z 15007KT 10SM OVC023 22/21 A2997 RMK AO2 SLP148 T02170206 10217 20200 53005",
    "updatedAt": "2022-03-09T11:53:00.000Z"
  },
  {
    "airportIcao": "KBKW",
    "metar": "KBKW 091151Z AUTO 15011G22KT 10SM SCT009 BKN044 OVC050 07/05 A2975 RMK AO2 RAB1052E19 SLP083 P0001 60031 70032 T00670050 10067 20056 56015",
    "updatedAt": "2022-03-09T11:51:00.000Z"
  },
  {
    "airportIcao": "KBKX",
    "metar": "KBKX 091156Z AUTO 32012KT 5SM -SN OVC020 M12/M14 A3010 RMK AO2 SLP235 P0000 60000 T11171144 11078 21128 53006 FZRANO",
    "updatedAt": "2022-03-09T11:56:00.000Z"
  },
  {
    "airportIcao": "KBLF",
    "metar": "KBLF 091152Z AUTO 15006KT 10SM FEW011 SCT034 OVC080 06/05 A2979 RMK AO2 RAE11 SLP085 P0001 60047 70064 T00610050 10061 20044 58016",
    "updatedAt": "2022-03-09T11:52:00.000Z"
  },
  {
    "airportIcao": "KBLI",
    "metar": "KBLI 091153Z AUTO 04012G27KT 10SM CLR 03/M11 A3024 RMK AO2 PK WND 06031/1121 SLP247 T00331111 10067 20033 53012",
    "updatedAt": "2022-03-09T11:53:00.000Z"
  },
  {
    "airportIcao": "KBLM",
    "metar": "KBLM 091156Z AUTO 12006KT 10SM OVC090 06/02 A3012 RMK AO2 SLP199 70001 T00560017 10056 20039 55007",
    "updatedAt": "2022-03-09T11:56:00.000Z"
  },
  {
    "airportIcao": "KBLU",
    "metar": "KBLU 091152Z AUTO 05003KT 10SM CLR 04/M07 A3002 RMK AO2 SLP136 T00441067 10061 20028 58014 $",
    "updatedAt": "2022-03-09T11:52:00.000Z"
  },
  {
    "airportIcao": "KBLV",
    "metar": "KBLV 091156Z 23003KT 10SM CLR M01/M03 A3002 RMK AO2A SLP173 T10061028 10023 21008 53003 $",
    "updatedAt": "2022-03-09T11:56:00.000Z"
  },
  {
    "airportIcao": "KBMC",
    "metar": "KBMC 091235Z AUTO 17005KT 10SM SCT026 BKN040 OVC110 00/M02 A2985 RMK AO1 T10031020",
    "updatedAt": "2022-03-09T12:35:00.000Z"
  },
  {
    "airportIcao": "KBMG",
    "metar": "KBMG 091153Z 33004KT 10SM OVC100 01/M02 A2997 RMK AO2 SLP155 T00111022 10017 20011 53006",
    "updatedAt": "2022-03-09T11:53:00.000Z"
  },
  {
    "airportIcao": "KBMI",
    "metar": "KBMI 091156Z 21004KT 10SM FEW100 M02/M04 A2999 RMK AO2 SLP162 T10221039 11006 21022 56004",
    "updatedAt": "2022-03-09T11:56:00.000Z"
  },
  {
    "airportIcao": "KBML",
    "metar": "KBML 091152Z AUTO 00000KT 10SM CLR M09/M12 A3009 RMK AO2 SLP211 I6000 T10941117 11083 21106 56015 $",
    "updatedAt": "2022-03-09T11:52:00.000Z"
  },
  {
    "airportIcao": "KBMQ",
    "metar": "KBMQ 091153Z AUTO 35005KT 7SM CLR 02/M01 A3009 RMK AO2 SLP187 T00221006 10039 20017 58002",
    "updatedAt": "2022-03-09T11:53:00.000Z"
  },
  {
    "airportIcao": "KBMT",
    "metar": "KBMT 091235Z AUTO 01013G18KT 10SM OVC009 07/06 A3000 RMK AO2 T00690055",
    "updatedAt": "2022-03-09T12:35:00.000Z"
  },
  {
    "airportIcao": "KBNA",
    "metar": "KBNA 091214Z 32009KT 2 1/2SM -RA BR BKN006 BKN010 OVC015 03/01 A3000 RMK AO2 RAB01 P0000 T00330011 $",
    "updatedAt": "2022-03-09T12:14:00.000Z"
  },
  {
    "airportIcao": "KBNL",
    "metar": "KBNL 091235Z AUTO 20006KT 10SM BKN009 BKN014 OVC019 20/18 A2987 RMK AO2",
    "updatedAt": "2022-03-09T12:35:00.000Z"
  },
  {
    "airportIcao": "KBNO",
    "metar": "KBNO 091200Z AUTO 27007KT 10SM OVC029 M01/M04 A2995",
    "updatedAt": "2022-03-09T12:00:00.000Z"
  },
  {
    "airportIcao": "KBNW",
    "metar": "KBNW 091235Z AUTO 32013G18KT 10SM FEW024 M05/M07 A3010 RMK AO2",
    "updatedAt": "2022-03-09T12:35:00.000Z"
  },
  {
    "airportIcao": "KBOI",
    "metar": "KBOI 091153Z 30011KT 10SM OVC006 00/M02 A2995 RMK AO2 CIG 005V009 SLP151 60001 70002 T00001017 10039 20000 53000",
    "updatedAt": "2022-03-09T11:53:00.000Z"
  },
  {
    "airportIcao": "KBOK",
    "metar": "KBOK 091156Z AUTO VRB03KT 10SM BKN060 BKN080 OVC100 09/M01 A3019 RMK AO2 RAE29 SLP223 P0000 6//// 7//// T00941011 10100 20078 56004 $",
    "updatedAt": "2022-03-09T11:56:00.000Z"
  },
  {
    "airportIcao": "KBOS",
    "metar": "KBOS 091154Z 00000KT 10SM BKN160 OVC200 01/M07 A3019 RMK AO2 SLP221 T00111072 10022 20006 56002",
    "updatedAt": "2022-03-09T11:54:00.000Z"
  },
  {
    "airportIcao": "KBOW",
    "metar": "KBOW 091230Z 16008KT 8SM BKN005 21/21 A3001",
    "updatedAt": "2022-03-09T12:30:00.000Z"
  },
  {
    "airportIcao": "KBPC",
    "metar": "KBPC 091235Z AUTO 00000KT 10SM CLR M07/M10 A3001 RMK AO2",
    "updatedAt": "2022-03-09T12:35:00.000Z"
  },
  {
    "airportIcao": "KBPG",
    "metar": "KBPG 091235Z AUTO 10003KT 10SM CLR M01/M07 A3003 RMK AO2 T10141070",
    "updatedAt": "2022-03-09T12:35:00.000Z"
  },
  {
    "airportIcao": "KBPI",
    "metar": "KBPI 091223Z AUTO 20005KT 1SM -SN BR VV012 M13/M14 A2975 RMK AO2 P0000 T11281144 $",
    "updatedAt": "2022-03-09T12:23:00.000Z"
  },
  {
    "airportIcao": "KBPK",
    "metar": "KBPK 091153Z AUTO 00000KT 10SM CLR M02/M03 A3005 RMK AO2 SLP180 T10171028 10017 21017 53011 TSNO",
    "updatedAt": "2022-03-09T11:53:00.000Z"
  },
  {
    "airportIcao": "KBPT",
    "metar": "KBPT 091153Z 35015G24KT 10SM OVC011 06/04 A3000 RMK AO2 SLP159 70009 T00610044 10067 20061 50001",
    "updatedAt": "2022-03-09T11:53:00.000Z"
  },
  {
    "airportIcao": "KBQK",
    "metar": "KBQK 091235Z AUTO 21007KT 10SM OVC008 21/21 A2993 RMK AO2 T02130208",
    "updatedAt": "2022-03-09T12:35:00.000Z"
  },
  {
    "airportIcao": "KBQX",
    "metar": "KBQX 091235Z AUTO 03022KT 09/07 A3001 RMK A01",
    "updatedAt": "2022-03-09T12:35:00.000Z"
  },
  {
    "airportIcao": "KBRD",
    "metar": "KBRD 091153Z AUTO 29010KT 10SM CLR M14/M18 A3001 RMK AO2 SLP187 60000 T11391183 11067 21139 53012 TSNO",
    "updatedAt": "2022-03-09T11:53:00.000Z"
  },
  {
    "airportIcao": "KBRG",
    "metar": "KBRG 091235Z AUTO 00000KT 10SM CLR M08/M20 A2994 RMK AO2 T10841197",
    "updatedAt": "2022-03-09T12:35:00.000Z"
  },
  {
    "airportIcao": "KBRL",
    "metar": "KBRL 091153Z AUTO 32006KT 10SM CLR M02/M06 A3001 RMK AO2 SLP168 T10221056 11011 21028 53005",
    "updatedAt": "2022-03-09T11:53:00.000Z"
  },
  {
    "airportIcao": "KBRO",
    "metar": "KBRO 091153Z 30009KT 2SM -RA BR OVC005 11/09 A2999 RMK AO2 RAB47 CIG 004V008 SLP154 P0000 60000 T01060094 10122 20106 51004 $",
    "updatedAt": "2022-03-09T11:53:00.000Z"
  },
  {
    "airportIcao": "KBRY",
    "metar": "KBRY 091235Z AUTO 00000KT 5SM BKN007 BKN013 00/00 A2997 RMK AO1",
    "updatedAt": "2022-03-09T12:35:00.000Z"
  },
  {
    "airportIcao": "KBTA",
    "metar": "KBTA 091235Z AUTO 35008KT 10SM CLR M06/M10 A3012 RMK AO2 T10651104",
    "updatedAt": "2022-03-09T12:35:00.000Z"
  },
  {
    "airportIcao": "KBTL",
    "metar": "KBTL 091153Z 20005KT 8SM FEW120 M03/M06 A2993 RMK AO2 SLP147 T10331056 11022 21056 55008",
    "updatedAt": "2022-03-09T11:53:00.000Z"
  },
  {
    "airportIcao": "KBTM",
    "metar": "KBTM 091153Z AUTO 13003KT 10SM FEW004 M24/M28 A3004 RMK AO2 SLP285 60000 70002 I1000 I6000 T12441278 11150 21244 56001",
    "updatedAt": "2022-03-09T11:53:00.000Z"
  },
  {
    "airportIcao": "KBTN",
    "metar": "KBTN 090615Z AUTO 31010G16KT 8SM -SN BKN009 OVC013 M11/M13 A3009 RMK AO2",
    "updatedAt": "2022-03-09T06:15:00.000Z"
  },
  {
    "airportIcao": "KBTP",
    "metar": "KBTP 091156Z AUTO 03005KT 10SM OVC070 01/M03 A2990 RMK AO2 SLP139 60000 T00061033 10006 20000 57015 FZRANO",
    "updatedAt": "2022-03-09T11:56:00.000Z"
  },
  {
    "airportIcao": "KBTR",
    "metar": "KBTR 091206Z 01009G19KT 10SM OVC010 07/04 A3001",
    "updatedAt": "2022-03-09T12:06:00.000Z"
  },
  {
    "airportIcao": "KBTV",
    "metar": "KBTV 091154Z 00000KT 10SM BKN190 M04/M08 A3011 RMK AO2 SLP201 T10391078 11039 21044 56012",
    "updatedAt": "2022-03-09T11:54:00.000Z"
  },
  {
    "airportIcao": "KBUF",
    "metar": "KBUF 091154Z 04003KT 10SM BKN160 M01/M06 A2996 RMK AO2 SLP155 T10061061 11006 21011 58018",
    "updatedAt": "2022-03-09T11:54:00.000Z"
  },
  {
    "airportIcao": "KBUR",
    "metar": "KBUR 091153Z 34003KT 10SM CLR 10/M01 A2997 RMK AO2 SLP141 T01001006 10144 20100 55004",
    "updatedAt": "2022-03-09T11:53:00.000Z"
  },
  {
    "airportIcao": "KBUU",
    "metar": "KBUU 091235Z AUTO 22003KT 10SM M03/M05 A2995 RMK AO2 T10321051 PWINO",
    "updatedAt": "2022-03-09T12:35:00.000Z"
  },
  {
    "airportIcao": "KBUY",
    "metar": "KBUY 091221Z AUTO 07005KT 10SM BKN008 OVC022 07/06 A2990 RMK AO2 T00720056",
    "updatedAt": "2022-03-09T12:21:00.000Z"
  },
  {
    "airportIcao": "KBVI",
    "metar": "KBVI 091147Z AUTO 00000KT 10SM BKN032 OVC039 02/M03 A2989",
    "updatedAt": "2022-03-09T11:47:00.000Z"
  },
  {
    "airportIcao": "KBVN",
    "metar": "KBVN 091235Z AUTO 35006KT 10SM CLR M07/M11 A3012 RMK AO2 T10721110",
    "updatedAt": "2022-03-09T12:35:00.000Z"
  },
  {
    "airportIcao": "KBVO",
    "metar": "KBVO 091153Z AUTO 00000KT 10SM CLR M07/M08 A3011 RMK AO2 SLP198 I1000 I6000 T10671078 11033 21072 53010",
    "updatedAt": "2022-03-09T11:53:00.000Z"
  },
  {
    "airportIcao": "KBVS",
    "metar": "KBVS 091235Z AUTO 00000KT 10SM CLR 02/M11 A3023 RMK A01",
    "updatedAt": "2022-03-09T12:35:00.000Z"
  },
  {
    "airportIcao": "KBVU",
    "metar": "KBVU 091235Z AUTO 04007KT 10SM CLR 07/M10 A2991 RMK AO2",
    "updatedAt": "2022-03-09T12:35:00.000Z"
  },
  {
    "airportIcao": "KBVX",
    "metar": "KBVX 091156Z AUTO 32003KT 1/4SM FZFG OVC002 M01/M01 A3007 RMK AO2 SLP188 6//// 7//// T10061006 10022 21006 53018 FZRANO RVRNO",
    "updatedAt": "2022-03-09T11:56:00.000Z"
  },
  {
    "airportIcao": "KBVY",
    "metar": "KBVY 091153Z 35003KT 10SM CLR M02/M06 A3018 RMK AO2 SLP217 T10221056 11011 21039 56000",
    "updatedAt": "2022-03-09T11:53:00.000Z"
  },
  {
    "airportIcao": "KBWD",
    "metar": "KBWD 091215Z AUTO 03004KT 10SM FEW041 M03/M05 A3011 RMK AO1",
    "updatedAt": "2022-03-09T12:15:00.000Z"
  },
  {
    "airportIcao": "KBWG",
    "metar": "KBWG 091153Z AUTO 33005KT 8SM OVC006 03/01 A2999 RMK AO2 UPE1055 SLP159 P0001 60016 70018 T00280006 10050 20022 53024",
    "updatedAt": "2022-03-09T11:53:00.000Z"
  },
  {
    "airportIcao": "KBWI",
    "metar": "KBWI 091154Z 09010KT 5SM -RA BR FEW009 OVC014 04/03 A3001 RMK AO2 PRESFR SLP163 P0009 60017 70017 T00440033 10072 20044 58012",
    "updatedAt": "2022-03-09T11:54:00.000Z"
  },
  {
    "airportIcao": "KBWP",
    "metar": "KBWP 091235Z AUTO 31009KT 10SM OVC045 M15/M18 A3016 RMK AO2",
    "updatedAt": "2022-03-09T12:35:00.000Z"
  },
  {
    "airportIcao": "KBWW",
    "metar": "KBWW 091235Z AUTO 28011KT 10SM FEW022 OVC035 M15/M16 A3013 RMK AO2",
    "updatedAt": "2022-03-09T12:35:00.000Z"
  },
  {
    "airportIcao": "KBXA",
    "metar": "KBXA 091235Z AUTO 36012G15KT 10SM OVC010 09/07 A3001 RMK AO2 T00860065",
    "updatedAt": "2022-03-09T12:35:00.000Z"
  },
  {
    "airportIcao": "KBYG",
    "metar": "KBYG 091153Z AUTO 36010KT 5SM BR OVC033 M17/M19 A3001 RMK AO2 SLP239 60000 I1000 I6000 T11671189 11122 21167 56001",
    "updatedAt": "2022-03-09T11:53:00.000Z"
  },
  {
    "airportIcao": "KBYI",
    "metar": "KBYI 091233Z AUTO 07016G25KT 1 3/4SM -SN BR OVC025 M07/M09 A2988 RMK AO2 P0000 T10671089",
    "updatedAt": "2022-03-09T12:33:00.000Z"
  },
  {
    "airportIcao": "KBYL",
    "metar": "KBYL 091235Z AUTO 00000KT 1 3/4SM OVC005 04/04 A2991 RMK AO1 P0001",
    "updatedAt": "2022-03-09T12:35:00.000Z"
  },
  {
    "airportIcao": "KBYS",
    "metar": "KBYS 091158Z AUTO 03007KT 10SM CLR 04/M12 A2995 RMK AO2 SLP137 T00371116 10101 20030 57007 $",
    "updatedAt": "2022-03-09T11:58:00.000Z"
  },
  {
    "airportIcao": "KBYY",
    "metar": "KBYY 091235Z AUTO 01011G16KT 10SM OVC012 06/04 A3004 RMK AO2 T00680046",
    "updatedAt": "2022-03-09T12:35:00.000Z"
  },
  {
    "airportIcao": "KBZN",
    "metar": "KBZN 091156Z AUTO 16007KT 9SM OVC039 M15/M18 A3012 RMK AO2 SLP273 60000 70001 T11501178 11117 21150 55001",
    "updatedAt": "2022-03-09T11:56:00.000Z"
  },
  {
    "airportIcao": "KC07",
    "metar": "KC07 091235Z AUTO 26005KT 1SM -SN OVC002 A2965 RMK AO2",
    "updatedAt": "2022-03-09T12:35:00.000Z"
  },
  {
    "airportIcao": "KC09",
    "metar": "KC09 091235Z AUTO 26005KT 10SM SCT100 M01/M02 A2998 RMK AO2 T10121025",
    "updatedAt": "2022-03-09T12:35:00.000Z"
  },
  {
    "airportIcao": "KC29",
    "metar": "KC29 091235Z AUTO 29005KT 10SM CLR M04/M08 A2995 RMK AO1 T10421081",
    "updatedAt": "2022-03-09T12:35:00.000Z"
  },
  {
    "airportIcao": "KC35",
    "metar": "KC35 091235Z AUTO 27010KT 10SM SCT031 M05/M10 A2996 RMK AO2 T10481102 PWINO",
    "updatedAt": "2022-03-09T12:35:00.000Z"
  },
  {
    "airportIcao": "KC62",
    "metar": "KC62 091235Z AUTO 00000KT 5SM BR BKN110 M03/M03 A2996 RMK AO2 T10331035",
    "updatedAt": "2022-03-09T12:35:00.000Z"
  },
  {
    "airportIcao": "KC65",
    "metar": "KC65 091235Z AUTO 00000KT 7SM FEW120 M02/M04 A2996 RMK A01",
    "updatedAt": "2022-03-09T12:35:00.000Z"
  },
  {
    "airportIcao": "KC75",
    "metar": "KC75 091235Z AUTO 00000KT 10SM CLR M01/M03 A3001 RMK AO2 T10081033",
    "updatedAt": "2022-03-09T12:35:00.000Z"
  },
  {
    "airportIcao": "KC83",
    "metar": "KC83 090615Z AUTO 09004KT 10SM CLR 10/04 A3002 RMK AO2",
    "updatedAt": "2022-03-09T06:15:00.000Z"
  },
  {
    "airportIcao": "KC99",
    "metar": "KC99 091235Z AUTO 30016G27KT M13/M15 A2961 RMK AO2",
    "updatedAt": "2022-03-09T12:35:00.000Z"
  },
  {
    "airportIcao": "KCAD",
    "metar": "KCAD 091235Z AUTO 19005KT 7SM OVC018 M05/M06 A2984 RMK AO2 T10481063",
    "updatedAt": "2022-03-09T12:35:00.000Z"
  },
  {
    "airportIcao": "KCAE",
    "metar": "KCAE 091228Z 00000KT 1SM BR OVC014 17/16 A2985",
    "updatedAt": "2022-03-09T12:28:00.000Z"
  },
  {
    "airportIcao": "KCAG",
    "metar": "KCAG 091153Z AUTO 31006KT 10SM OVC036 M03/M07 A2973 RMK AO2 SNE27 SLP098 P0000 60000 70001 T10281067 11017 21033 58016",
    "updatedAt": "2022-03-09T11:53:00.000Z"
  },
  {
    "airportIcao": "KCAK",
    "metar": "KCAK 091151Z 03007KT 10SM OVC080 01/M03 A2989 RMK AO2 SLP132 T00111028 10017 20006 56023 $",
    "updatedAt": "2022-03-09T11:51:00.000Z"
  },
  {
    "airportIcao": "KCAO",
    "metar": "KCAO 091155Z AUTO 25005KT 10SM CLR M06/M11 A2989 RMK AO2 SLP137 T10611106 11039 21072 56012",
    "updatedAt": "2022-03-09T11:55:00.000Z"
  },
  {
    "airportIcao": "KCAR",
    "metar": "KCAR 091154Z AUTO 00000KT 10SM CLR M14/M16 A3012 RMK AO2 SLP215 I6000 T11391161 11117 21156 53001",
    "updatedAt": "2022-03-09T11:54:00.000Z"
  },
  {
    "airportIcao": "KCAV",
    "metar": "KCAV 091235Z AUTO 33013G22KT 10SM OVC023 M07/M07 A3009 RMK A01",
    "updatedAt": "2022-03-09T12:35:00.000Z"
  },
  {
    "airportIcao": "KCBE",
    "metar": "KCBE 091235Z AUTO 29003KT 3SM -SN BR OVC013 00/00 A2999 RMK AO2 P0002 T00050000",
    "updatedAt": "2022-03-09T12:35:00.000Z"
  },
  {
    "airportIcao": "KCBF",
    "metar": "KCBF 091235Z AUTO 36006KT 10SM CLR M06/M10 A3011 RMK AO2",
    "updatedAt": "2022-03-09T12:35:00.000Z"
  },
  {
    "airportIcao": "KCBG",
    "metar": "KCBG 091235Z AUTO 29013G17KT 10SM CLR M11/M17 A3005 RMK AO2",
    "updatedAt": "2022-03-09T12:35:00.000Z"
  },
  {
    "airportIcao": "KCBK",
    "metar": "KCBK 091235Z AUTO 07006KT 10SM OVC021 M07/M08 A3005 RMK AO2 T10731084",
    "updatedAt": "2022-03-09T12:35:00.000Z"
  },
  {
    "airportIcao": "KCBM",
    "metar": "KCBM 091232Z 34006KT 10SM BKN010 OVC013 06/05 A2999 RMK AO2A CIG 006V010 CIG 006 RWY31C SLP159 TSNO $",
    "updatedAt": "2022-03-09T12:32:00.000Z"
  },
  {
    "airportIcao": "KCCA",
    "metar": "KCCA 091235Z AUTO 00000KT M1/4SM FZFG OVC002 M01/M01 A3009 RMK AO2",
    "updatedAt": "2022-03-09T12:35:00.000Z"
  },
  {
    "airportIcao": "KCCB",
    "metar": "KCCB 090615Z AUTO 00000KT 10SM CLR 12/M06 A3002 RMK AO2",
    "updatedAt": "2022-03-09T06:15:00.000Z"
  },
  {
    "airportIcao": "KCCO",
    "metar": "KCCO 091235Z AUTO 00000KT 10SM +RA BKN013 BKN030 OVC038 11/11 A2986 RMK AO2 T01140110",
    "updatedAt": "2022-03-09T12:35:00.000Z"
  },
  {
    "airportIcao": "KCCR",
    "metar": "KCCR 091153Z AUTO 17003KT 10SM CLR 06/02 A3003 RMK AO2 SLP155 T00610017 10117 20061 50000",
    "updatedAt": "2022-03-09T11:53:00.000Z"
  },
  {
    "airportIcao": "KCCU",
    "metar": "KCCU 091235Z AUTO 24010G21KT 160V260 1 1/2SM -SN BKN007 OVC012 M11/M15 A2967 RMK AO2",
    "updatedAt": "2022-03-09T12:35:00.000Z"
  },
  {
    "airportIcao": "KCCY",
    "metar": "KCCY 091235Z AUTO 28012KT 10SM OVC021 M06/M09 A3004 RMK AO2",
    "updatedAt": "2022-03-09T12:35:00.000Z"
  },
  {
    "airportIcao": "KCDA",
    "metar": "KCDA 091235Z AUTO 00000KT 10SM CLR M09/M11 A3012 RMK AO2 T10901110",
    "updatedAt": "2022-03-09T12:35:00.000Z"
  },
  {
    "airportIcao": "KCDC",
    "metar": "KCDC 091153Z AUTO 14007KT 10SM CLR M01/M07 A2989 RMK AO2 SLP112 T10111067 10000 21028 56011",
    "updatedAt": "2022-03-09T11:53:00.000Z"
  },
  {
    "airportIcao": "KCDD",
    "metar": "KCDD 091233Z AUTO 28003KT 4SM -SN M15/M18 A2994 RMK AO2",
    "updatedAt": "2022-03-09T12:33:00.000Z"
  },
  {
    "airportIcao": "KCDH",
    "metar": "KCDH 091235Z AUTO 36005KT 10SM OVC011 03/03 A3010 RMK AO2",
    "updatedAt": "2022-03-09T12:35:00.000Z"
  },
  {
    "airportIcao": "KCDI",
    "metar": "KCDI 091235Z AUTO 00000KT 3/4SM -SN OVC003 00/00 A2992 RMK AO2 T00010000",
    "updatedAt": "2022-03-09T12:35:00.000Z"
  },
  {
    "airportIcao": "KCDJ",
    "metar": "KCDJ 091152Z AUTO 34005KT 00/M04 A3009 RMK AO1 SLP201 T00001039 10028 21017 53021",
    "updatedAt": "2022-03-09T11:52:00.000Z"
  },
  {
    "airportIcao": "KCDN",
    "metar": "KCDN 091235Z AUTO 00000KT 1/4SM FG OVC002 14/14 A2988 RMK AO2",
    "updatedAt": "2022-03-09T12:35:00.000Z"
  },
  {
    "airportIcao": "KCDR",
    "metar": "KCDR 091153Z AUTO 05009KT 1 1/2SM -SN OVC021 M12/M16 A3012 RMK AO2 SLP259 P0000 60000 70011 T11221156 11089 21122 53006",
    "updatedAt": "2022-03-09T11:53:00.000Z"
  },
  {
    "airportIcao": "KCDS",
    "metar": "KCDS 091153Z AUTO 00000KT 10SM CLR M01/M08 A3006 RMK AO2 SLP183 T10111083 10000 21033 53002",
    "updatedAt": "2022-03-09T11:53:00.000Z"
  },
  {
    "airportIcao": "KCDW",
    "metar": "KCDW 091234Z 14007KT 8SM OVC014 04/M01 A3010 RMK AO2 T00441006",
    "updatedAt": "2022-03-09T12:34:00.000Z"
  },
  {
    "airportIcao": "KCEC",
    "metar": "KCEC 091156Z AUTO 34007KT 7SM OVC055 08/04 A3019 RMK AO2 SLP222 T00830044 10083 20078 57006",
    "updatedAt": "2022-03-09T11:56:00.000Z"
  },
  {
    "airportIcao": "KCEF",
    "metar": "KCEF 091156Z 06003KT 10SM BKN100 OVC130 M03/M05 A3014 RMK AO2A SLP215 WND DATA ESTMD T10261053 11026 21047 58001 $",
    "updatedAt": "2022-03-09T11:56:00.000Z"
  },
  {
    "airportIcao": "KCEU",
    "metar": "KCEU 091205Z AUTO 27003KT 5SM BR FEW005 SCT060 OVC090 11/11 A2986 RMK AO2 LTG DSNT N AND NW TSE1159 PRESRR P0004 T01060106",
    "updatedAt": "2022-03-09T12:05:00.000Z"
  },
  {
    "airportIcao": "KCEW",
    "metar": "KCEW 091232Z AUTO 24003KT 10SM OVC014 19/19 A2987 RMK AO2 RAB13E23 P0006 T01940189",
    "updatedAt": "2022-03-09T12:32:00.000Z"
  },
  {
    "airportIcao": "KCEY",
    "metar": "KCEY 091235Z AUTO 04003KT 5SM BKN070 BKN100 02/01 A3001 RMK AO1",
    "updatedAt": "2022-03-09T12:35:00.000Z"
  },
  {
    "airportIcao": "KCEZ",
    "metar": "KCEZ 091153Z AUTO 00000KT 10SM FEW060 BKN085 OVC110 M04/M07 A2990 RMK AO2 SLP126 T10441072 11028 21056 56011 TSNO $",
    "updatedAt": "2022-03-09T11:53:00.000Z"
  },
  {
    "airportIcao": "KCFD",
    "metar": "KCFD 091235Z AUTO 36003KT 10SM CLR 02/02 A3011 RMK AO2 T00220018",
    "updatedAt": "2022-03-09T12:35:00.000Z"
  },
  {
    "airportIcao": "KCFE",
    "metar": "KCFE 091235Z AUTO 30011G18KT 10SM SCT014 SCT034 SCT046 M10/M14 A3006 RMK AO2",
    "updatedAt": "2022-03-09T12:35:00.000Z"
  },
  {
    "airportIcao": "KCFJ",
    "metar": "KCFJ 091235Z AUTO 00000KT 7SM SCT080 M03/M07 A3000 RMK AO2 T10261070",
    "updatedAt": "2022-03-09T12:35:00.000Z"
  },
  {
    "airportIcao": "KCFO",
    "metar": "KCFO 091235Z AUTO 31010G15KT 10SM OVC004 M06/M07 A2983 RMK AO2 T10581069",
    "updatedAt": "2022-03-09T12:35:00.000Z"
  },
  {
    "airportIcao": "KCFS",
    "metar": "KCFS 091235Z AUTO 00000KT 7SM SCT120 M04/M06 A2992 RMK AO2 T10451060",
    "updatedAt": "2022-03-09T12:35:00.000Z"
  },
  {
    "airportIcao": "KCFV",
    "metar": "KCFV 091152Z AUTO 00000KT 10SM CLR M04/M06 A3008 RMK AO2 SLP193 T10391056 10011 21044 53006",
    "updatedAt": "2022-03-09T11:52:00.000Z"
  },
  {
    "airportIcao": "KCGC",
    "metar": "KCGC 091235Z AUTO 00000KT 7SM SCT018 BKN022 BKN029 21/21 A2997 RMK AO2",
    "updatedAt": "2022-03-09T12:35:00.000Z"
  },
  {
    "airportIcao": "KCGE",
    "metar": "KCGE 091235Z AUTO 09012G18KT 8SM FEW007 FEW031 SCT090 05/05 A2994 RMK A01",
    "updatedAt": "2022-03-09T12:35:00.000Z"
  },
  {
    "airportIcao": "KCGF",
    "metar": "KCGF 091115Z AUTO 12003KT 10SM OVC110 00/M04 A2995 RMK AO2 T10031039",
    "updatedAt": "2022-03-09T11:15:00.000Z"
  },
  {
    "airportIcao": "KCGI",
    "metar": "KCGI 091153Z AUTO 33004KT 10SM CLR 02/M01 A3004 RMK AO2 SLP172 T00221011 10039 20017 53007",
    "updatedAt": "2022-03-09T11:53:00.000Z"
  },
  {
    "airportIcao": "KCGS",
    "metar": "KCGS 091235Z AUTO 07003KT 4SM SCT008 BKN012 OVC017 04/03 A3005 RMK AO1 T00400030",
    "updatedAt": "2022-03-09T12:35:00.000Z"
  },
  {
    "airportIcao": "KCGZ",
    "metar": "KCGZ 091156Z AUTO 06003KT 10SM CLR 03/M11 A2995 RMK AO2 SLP142 6//// 7//// T00281106 10094 20022",
    "updatedAt": "2022-03-09T11:56:00.000Z"
  },
  {
    "airportIcao": "KCHA",
    "metar": "KCHA 091238Z 29004KT 10SM SCT012 BKN032 BKN040 OVC200 10/08 A2990",
    "updatedAt": "2022-03-09T12:38:00.000Z"
  },
  {
    "airportIcao": "KCHD",
    "metar": "KCHD 090347Z 24006KT 10SM CLR 14/M10 A2996 RMK LAST",
    "updatedAt": "2022-03-09T03:47:00.000Z"
  },
  {
    "airportIcao": "KCHK",
    "metar": "KCHK 091235Z AUTO 00000KT 10SM CLR M07/M09 A3007 RMK AO2 T10731091",
    "updatedAt": "2022-03-09T12:35:00.000Z"
  },
  {
    "airportIcao": "KCHO",
    "metar": "KCHO 091153Z VRB04KT 2SM -RA BR FEW003 OVC009 06/04 A2999 RMK AO2 SLP156 P0008 60031 70033 T00560039 10061 20056 55003",
    "updatedAt": "2022-03-09T11:53:00.000Z"
  },
  {
    "airportIcao": "KCHS",
    "metar": "KCHS 091156Z 21005KT 8SM FEW020 FEW250 19/18 A2988 RMK AO2 RAE27 SLP118 P0000 60001 70035 T01890183 10200 20189 50007",
    "updatedAt": "2022-03-09T11:56:00.000Z"
  },
  {
    "airportIcao": "KCIC",
    "metar": "KCIC 091235Z AUTO 08003KT 10SM CLR 09/M02 A3001 RMK AO1",
    "updatedAt": "2022-03-09T12:35:00.000Z"
  },
  {
    "airportIcao": "KCID",
    "metar": "KCID 091152Z 33008KT 10SM CLR M04/M07 A3002 RMK AO2 SLP176 T10441072 11039 21067 53018",
    "updatedAt": "2022-03-09T11:52:00.000Z"
  },
  {
    "airportIcao": "KCII",
    "metar": "KCII 091225Z AUTO 32009KT 10SM M18/M21 A3017 RMK A01 Choteau",
    "updatedAt": "2022-03-09T12:25:00.000Z"
  },
  {
    "airportIcao": "KCIN",
    "metar": "KCIN 091235Z AUTO 32008KT 10SM CLR M07/M08 A3010 RMK AO2",
    "updatedAt": "2022-03-09T12:35:00.000Z"
  },
  {
    "airportIcao": "KCIU",
    "metar": "KCIU 091242Z AUTO VRB04KT 1 3/4SM -SN BR FEW026 BKN035 OVC050 M02/M03 A2979 RMK AO2 VIS 3/4V5 SNB1157 P0000 FZRANO",
    "updatedAt": "2022-03-09T12:42:00.000Z"
  },
  {
    "airportIcao": "KCJR",
    "metar": "KCJR 091235Z AUTO 00000KT 1SM RA SCT003 BKN044 OVC050 05/04 A3003 RMK AO2 P0006 T00500042",
    "updatedAt": "2022-03-09T12:35:00.000Z"
  },
  {
    "airportIcao": "KCKB",
    "metar": "KCKB 091233Z 01004KT 2SM -RA BR BKN003 BKN021 OVC041 03/02 A2984 RMK AO2 P0002 T00280017",
    "updatedAt": "2022-03-09T12:33:00.000Z"
  },
  {
    "airportIcao": "KCKC",
    "metar": "KCKC 091236Z AUTO 29005KT 4SM -SN M13/M16 A2973 RMK AO2",
    "updatedAt": "2022-03-09T12:36:00.000Z"
  },
  {
    "airportIcao": "KCKF",
    "metar": "KCKF 091235Z AUTO 21007KT 10SM OVC014 21/18 A2986 RMK AO2 T02050182",
    "updatedAt": "2022-03-09T12:35:00.000Z"
  },
  {
    "airportIcao": "KCKI",
    "metar": "KCKI 091235Z AUTO 00000KT 1 1/2SM BR OVC003 17/16 A2988 RMK AO2",
    "updatedAt": "2022-03-09T12:35:00.000Z"
  },
  {
    "airportIcao": "KCKM",
    "metar": "KCKM 091235Z AUTO 32005KT 6SM BR SCT009 BKN013 04/04 A3008 RMK A01",
    "updatedAt": "2022-03-09T12:35:00.000Z"
  },
  {
    "airportIcao": "KCKN",
    "metar": "KCKN 091235Z AUTO 34006KT 10SM CLR M19/ A3016 RMK AO2",
    "updatedAt": "2022-03-09T12:35:00.000Z"
  },
  {
    "airportIcao": "KCKP",
    "metar": "KCKP 091235Z AUTO 34008KT 10SM SCT110 M08/M12 A3012 RMK AO2 T10831125",
    "updatedAt": "2022-03-09T12:35:00.000Z"
  },
  {
    "airportIcao": "KCKV",
    "metar": "KCKV 091152Z AUTO 36007KT 5SM BR OVC008 03/01 A3000 RMK AO2 CIG 006V012 SLP160 60008 70013 T00280006 10039 20017 53019",
    "updatedAt": "2022-03-09T11:52:00.000Z"
  },
  {
    "airportIcao": "KCKZ",
    "metar": "KCKZ 091235Z AUTO 08004KT 10SM SCT030 OVC044 02/01 A3006 RMK AO2",
    "updatedAt": "2022-03-09T12:35:00.000Z"
  },
  {
    "airportIcao": "KCLE",
    "metar": "KCLE 091151Z 00000KT 10SM BKN080 OVC110 01/M04 A2991 RMK AO2 SLP153 T00111044 10011 20000 56018",
    "updatedAt": "2022-03-09T11:51:00.000Z"
  },
  {
    "airportIcao": "KCLI",
    "metar": "KCLI 091235Z AUTO 31008KT 10SM SCT037 BKN110 M03/M11 A2991 RMK AO2",
    "updatedAt": "2022-03-09T12:35:00.000Z"
  },
  {
    "airportIcao": "KCLK",
    "metar": "KCLK 091235Z AUTO 00000KT 10SM CLR M07/M08 A3007 RMK AO2",
    "updatedAt": "2022-03-09T12:35:00.000Z"
  },
  {
    "airportIcao": "KCLL",
    "metar": "KCLL 091153Z AUTO 01008KT 10SM CLR 04/01 A3007 RMK AO2 SLP182 70055 T00390011 10050 20028 55003",
    "updatedAt": "2022-03-09T11:53:00.000Z"
  },
  {
    "airportIcao": "KCLM",
    "metar": "KCLM 091153Z AUTO 20003KT 10SM OVC090 02/M02 A3023 RMK AO2 SLP238 70013 T00221017 10050 20017 53006",
    "updatedAt": "2022-03-09T11:53:00.000Z"
  },
  {
    "airportIcao": "KCLS",
    "metar": "KCLS 091235Z AUTO 36003KT 3/4SM BR OVC004 04/04 A3018 RMK AO2",
    "updatedAt": "2022-03-09T12:35:00.000Z"
  },
  {
    "airportIcao": "KCLT",
    "metar": "KCLT 091238Z 32011G17KT 3SM -RA BR OVC005 11/10 A2994 RMK AO2 LTG DSNT W P0003 T01060100",
    "updatedAt": "2022-03-09T12:38:00.000Z"
  },
  {
    "airportIcao": "KCLW",
    "metar": "KCLW 091235Z AUTO 18007G14KT 7SM -DZ OVC010 23/21 A2997 RMK AO2",
    "updatedAt": "2022-03-09T12:35:00.000Z"
  },
  {
    "airportIcao": "KCMA",
    "metar": "KCMA 091155Z 00000KT 10SM CLR 04/01 A2997 RMK AO2 SLP159 T00440006 10106 20033 55006",
    "updatedAt": "2022-03-09T11:55:00.000Z"
  },
  {
    "airportIcao": "KCMD",
    "metar": "KCMD 091235Z AUTO 33009G14KT 300V360 1 1/4SM UP BR OVC003 06/06 A2995 RMK AO2",
    "updatedAt": "2022-03-09T12:35:00.000Z"
  },
  {
    "airportIcao": "KCMH",
    "metar": "KCMH 091213Z 00000KT 9SM -SN BKN050 OVC070 03/M03 A2991 RMK AO2 SNB13 P0000 T00281028 $",
    "updatedAt": "2022-03-09T12:13:00.000Z"
  },
  {
    "airportIcao": "KCMI",
    "metar": "KCMI 091153Z 28003KT 9SM BKN085 M01/M02 A2999 RMK AO2 SLP163 T10061022 10006 21011 57002",
    "updatedAt": "2022-03-09T11:53:00.000Z"
  },
  {
    "airportIcao": "KCMR",
    "metar": "KCMR 091235Z AUTO 16005KT 10SM CLR M07/M10 A2993 RMK AO2",
    "updatedAt": "2022-03-09T12:35:00.000Z"
  },
  {
    "airportIcao": "KCMX",
    "metar": "KCMX 091207Z AUTO 28017KT 5SM -SN SCT014 OVC041 M05/M08 A2975 RMK AO2 P0000 T10501078",
    "updatedAt": "2022-03-09T12:07:00.000Z"
  },
  {
    "airportIcao": "KCMY",
    "metar": "KCMY 091158Z AUTO 28004KT 10SM BKN032 M04/M10 A2997 RMK AO2 SLP162 60000 T10401100 11009 21045 53010",
    "updatedAt": "2022-03-09T11:58:00.000Z"
  },
  {
    "airportIcao": "KCNB",
    "metar": "KCNB 091235Z AUTO 29013G17KT 270V330 10SM SCT021 OVC032 M10/M13 A3016 RMK AO2 T11001130",
    "updatedAt": "2022-03-09T12:35:00.000Z"
  },
  {
    "airportIcao": "KCNC",
    "metar": "KCNC 091235Z AUTO 32007KT 10SM FEW047 M04/M05 A3007 RMK AO2",
    "updatedAt": "2022-03-09T12:35:00.000Z"
  },
  {
    "airportIcao": "KCNI",
    "metar": "KCNI 091235Z AUTO 00000KT 10SM OVC003 11/11 A2987 RMK AO2",
    "updatedAt": "2022-03-09T12:35:00.000Z"
  },
  {
    "airportIcao": "KCNK",
    "metar": "KCNK 091155Z AUTO 36008KT 10SM CLR M07/M09 A3010 RMK AO2 SLP205 T10671094 11028 21067 53001",
    "updatedAt": "2022-03-09T11:55:00.000Z"
  },
  {
    "airportIcao": "KCNM",
    "metar": "KCNM 091153Z AUTO 10004KT 10SM CLR M03/M13 A2995 RMK AO2 SLP134 T10281128 10017 21039 55003",
    "updatedAt": "2022-03-09T11:53:00.000Z"
  },
  {
    "airportIcao": "KCNO",
    "metar": "KCNO 091153Z AUTO 00000KT 9SM CLR 06/00 A3000 RMK AO2 SLP158 T00560000 10128 20039 55004",
    "updatedAt": "2022-03-09T11:53:00.000Z"
  },
  {
    "airportIcao": "KCNU",
    "metar": "KCNU 091152Z AUTO 00000KT 10SM FEW043 M01/M05 A3007 RMK AO2 SLP187 T10111050 10033 21022 53001 $",
    "updatedAt": "2022-03-09T11:52:00.000Z"
  },
  {
    "airportIcao": "KCNW",
    "metar": "KCNW 090455Z 36004KT 10SM SKC 02/00 A3011",
    "updatedAt": "2022-03-09T04:55:00.000Z"
  },
  {
    "airportIcao": "KCNY",
    "metar": "KCNY 091153Z AUTO 00000KT 10SM CLR M02/M12 A2981 RMK AO2 SLP101 T10221122 10028 21033 56015",
    "updatedAt": "2022-03-09T11:53:00.000Z"
  },
  {
    "airportIcao": "KCOD",
    "metar": "KCOD 091156Z AUTO 35008KT 9SM BKN036 OVC050 M16/M19 A3003 RMK AO2 SNB05E54 SLP256 P0000 60000 T11611189 11139 21161 56001 FZRANO",
    "updatedAt": "2022-03-09T11:56:00.000Z"
  },
  {
    "airportIcao": "KCOE",
    "metar": "KCOE 091156Z AUTO 04012KT 10SM CLR M06/M17 A3018 RMK AO2 SLP265 6//// 7//// T10561167 11022 21061 53001 FZRANO PNO $",
    "updatedAt": "2022-03-09T11:56:00.000Z"
  },
  {
    "airportIcao": "KCOF",
    "metar": "KCOF 091156Z AUTO 19009KT 10SM CLR 22/20 A2999 RMK AO2 SLP160 70004 T02180197 10233 20214 52013 FZRANO $",
    "updatedAt": "2022-03-09T11:56:00.000Z"
  },
  {
    "airportIcao": "KCOM",
    "metar": "KCOM 091235Z AUTO 28005KT 10SM CLR M03/M05 A3010 RMK AO2 T10261054",
    "updatedAt": "2022-03-09T12:35:00.000Z"
  },
  {
    "airportIcao": "KCON",
    "metar": "KCON 091151Z AUTO 00000KT 10SM CLR M04/M07 A3018 RMK AO2 SLP224 T10441067 11044 21056 55001",
    "updatedAt": "2022-03-09T11:51:00.000Z"
  },
  {
    "airportIcao": "KCOQ",
    "metar": "KCOQ 091215Z AUTO 28010KT 10SM M14/M18 A2992 RMK AO2 TSNO",
    "updatedAt": "2022-03-09T12:15:00.000Z"
  },
  {
    "airportIcao": "KCOS",
    "metar": "KCOS 091154Z VRB03KT 10SM FEW200 M06/M12 A2979 RMK AO2 SLP123 T10611122 11022 21061 56015",
    "updatedAt": "2022-03-09T11:54:00.000Z"
  },
  {
    "airportIcao": "KCOT",
    "metar": "KCOT 091153Z AUTO 06009KT 10SM CLR 08/01 A3006 RMK AO2 SLP175 T00830006 10106 20083 53001",
    "updatedAt": "2022-03-09T11:53:00.000Z"
  },
  {
    "airportIcao": "KCOU",
    "metar": "KCOU 091154Z AUTO 24004KT 10SM CLR M01/M04 A3003 RMK AO2 SLP176 T10111039 10011 21011 53004 TSNO",
    "updatedAt": "2022-03-09T11:54:00.000Z"
  },
  {
    "airportIcao": "KCPC",
    "metar": "KCPC 091235Z AUTO 00000KT 3/4SM BR OVC002 13/12 A2990 RMK AO2 T01250118",
    "updatedAt": "2022-03-09T12:35:00.000Z"
  },
  {
    "airportIcao": "KCPF",
    "metar": "KCPF 091235Z AUTO 29003KT 1 1/2SM -RA OVC005 A2987 RMK AO2 VIS 1/2V4",
    "updatedAt": "2022-03-09T12:35:00.000Z"
  },
  {
    "airportIcao": "KCPK",
    "metar": "KCPK 091235Z AUTO 36009G16KT 5SM -RA OVC006 07/06 A2993 RMK AO2 P0004 T00650056",
    "updatedAt": "2022-03-09T12:35:00.000Z"
  },
  {
    "airportIcao": "KCPR",
    "metar": "KCPR 091238Z 08009KT 2SM -SN OVC034 M15/M18 A2994 RMK AO2 P0000 T11501178 $",
    "updatedAt": "2022-03-09T12:38:00.000Z"
  },
  {
    "airportIcao": "KCPS",
    "metar": "KCPS 091221Z AUTO 22003KT 10SM CLR M01/M02 A3003 RMK AO2 T10061022 TSNO $",
    "updatedAt": "2022-03-09T12:21:00.000Z"
  },
  {
    "airportIcao": "KCPT",
    "metar": "KCPT 091235Z AUTO 33004KT 3SM BR CLR M03/M03 A3011 RMK A01",
    "updatedAt": "2022-03-09T12:35:00.000Z"
  },
  {
    "airportIcao": "KCPU",
    "metar": "KCPU 091235Z AUTO 00000KT 10SM 05/00 A3001 RMK AO2 T00460000",
    "updatedAt": "2022-03-09T12:35:00.000Z"
  },
  {
    "airportIcao": "KCPW",
    "metar": "KCPW 091235Z AUTO 24015KT BKN003 OVC007 M16/M16 RMK AO2 PWINO",
    "updatedAt": "2022-03-09T12:35:00.000Z"
  },
  {
    "airportIcao": "KCQB",
    "metar": "KCQB 091235Z AUTO 00000KT 10SM CLR M04/M06 A3009 RMK AO2 T10361061",
    "updatedAt": "2022-03-09T12:35:00.000Z"
  },
  {
    "airportIcao": "KCQC",
    "metar": "KCQC 091153Z AUTO 25010KT 10SM CLR M09/M18 A2989 RMK AO2 SLP143 T10891183 11050 21100 56013",
    "updatedAt": "2022-03-09T11:53:00.000Z"
  },
  {
    "airportIcao": "KCQF",
    "metar": "KCQF 091235Z AUTO 28006G15KT 250V320 10SM OVC008 13/11 A2991 RMK AO2",
    "updatedAt": "2022-03-09T12:35:00.000Z"
  },
  {
    "airportIcao": "KCQM",
    "metar": "KCQM 091236Z AUTO 29009KT 5SM -SN BKN027 BKN034 OVC060 M15/M18 A2991 RMK AO2",
    "updatedAt": "2022-03-09T12:36:00.000Z"
  },
  {
    "airportIcao": "KCQT",
    "metar": "KCQT 091147Z AUTO 00000KT 10SM CLR 11/02 A2998 RMK AO2 SLP151 T01060017 10128 20094 56005",
    "updatedAt": "2022-03-09T11:47:00.000Z"
  },
  {
    "airportIcao": "KCQW",
    "metar": "KCQW 091235Z AUTO 08005KT 1SM BR OVC003 11/11 A2989 RMK AO2 PWINO",
    "updatedAt": "2022-03-09T12:35:00.000Z"
  },
  {
    "airportIcao": "KCQX",
    "metar": "KCQX 091152Z AUTO 00000KT 10SM CLR 03/M02 A3020 RMK AO2 SLP228 T00281017 10028 20006 57002",
    "updatedAt": "2022-03-09T11:52:00.000Z"
  },
  {
    "airportIcao": "KCRE",
    "metar": "KCRE 091242Z 14003KT 2 1/2SM BR OVC003 14/14 A2989 RMK AO1 T01440144",
    "updatedAt": "2022-03-09T12:42:00.000Z"
  },
  {
    "airportIcao": "KCRG",
    "metar": "KCRG 091201Z 20007KT 10SM BKN009 BKN043 22/21 A2995 RMK AO2 T02220206",
    "updatedAt": "2022-03-09T12:01:00.000Z"
  },
  {
    "airportIcao": "KCRP",
    "metar": "KCRP 091151Z 01015KT 10SM FEW015 FEW040 BKN140 OVC250 07/04 A3000 RMK AO2 SLP160 T00720039 10083 20072 56000",
    "updatedAt": "2022-03-09T11:51:00.000Z"
  },
  {
    "airportIcao": "KCRQ",
    "metar": "KCRQ 091153Z AUTO 08004KT 10SM CLR 09/M01 A2999 RMK AO2 SLP154 T00891006 10111 20083 55005",
    "updatedAt": "2022-03-09T11:53:00.000Z"
  },
  {
    "airportIcao": "KCRS",
    "metar": "KCRS 091153Z AUTO 31004KT 7SM CLR M01/M03 A3012 RMK AO2 SLP201 70003 T10111028 10022 21017 53010",
    "updatedAt": "2022-03-09T11:53:00.000Z"
  },
  {
    "airportIcao": "KCRW",
    "metar": "KCRW 091154Z 00000KT 2SM -RA BR OVC003 04/04 A2982 RMK AO2 SLP099 VLY FG P0007 60024 70025 T00390039 10044 20033 55013",
    "updatedAt": "2022-03-09T11:54:00.000Z"
  },
  {
    "airportIcao": "KCRX",
    "metar": "KCRX 090615Z AUTO 02005KT 4SM -DZ OVC005 05/04 A2993 RMK AO2",
    "updatedAt": "2022-03-09T06:15:00.000Z"
  },
  {
    "airportIcao": "KCSG",
    "metar": "KCSG 091202Z AUTO 00000KT 3SM -RA BR OVC002 16/16 A2982 RMK AO2 LTG DSNT S AND SW TSE01 P0001 T01560156",
    "updatedAt": "2022-03-09T12:02:00.000Z"
  },
  {
    "airportIcao": "KCSM",
    "metar": "KCSM 091153Z AUTO 01004KT 10SM CLR M04/M08 A3005 RMK AO2 SLP184 T10391078 11006 21067 53000",
    "updatedAt": "2022-03-09T11:53:00.000Z"
  },
  {
    "airportIcao": "KCSQ",
    "metar": "KCSQ 091235Z AUTO 33010KT 10SM CLR M05/M05 A3008 RMK AO2",
    "updatedAt": "2022-03-09T12:35:00.000Z"
  },
  {
    "airportIcao": "KCSV",
    "metar": "KCSV 091234Z AUTO 33004KT 4SM BR BKN006 OVC011 04/04 A2990 RMK AO2 T00440039 $",
    "updatedAt": "2022-03-09T12:34:00.000Z"
  },
  {
    "airportIcao": "KCTB",
    "metar": "KCTB 091225Z AUTO 33014KT 10SM CLR M17/M19 A3020 RMK AO2 WSHFT 1205 T11671189",
    "updatedAt": "2022-03-09T12:25:00.000Z"
  },
  {
    "airportIcao": "KCTJ",
    "metar": "KCTJ 091235Z AUTO 00000KT 10SM BKN008 BKN070 BKN080 09/09 A2989 RMK AO2 T00900090",
    "updatedAt": "2022-03-09T12:35:00.000Z"
  },
  {
    "airportIcao": "KCTY",
    "metar": "KCTY 091235Z AUTO 20010KT 7SM OVC005 22/22 A2995 RMK AO2 T02230218",
    "updatedAt": "2022-03-09T12:35:00.000Z"
  },
  {
    "airportIcao": "KCTZ",
    "metar": "KCTZ 091235Z AUTO 00000KT 4SM OVC003 10/10 A2991 RMK AO2 P0001 T00980098",
    "updatedAt": "2022-03-09T12:35:00.000Z"
  },
  {
    "airportIcao": "KCUB",
    "metar": "KCUB 091153Z AUTO 00000KT 1/2SM FG OVC002 17/17 A2985 RMK AO2 SLP108 70001 T01720167 10172 20150 55001",
    "updatedAt": "2022-03-09T11:53:00.000Z"
  },
  {
    "airportIcao": "KCUH",
    "metar": "KCUH 091235Z AUTO 00000KT 10SM CLR M02/M07 A3009 RMK AO2 T10161066",
    "updatedAt": "2022-03-09T12:35:00.000Z"
  },
  {
    "airportIcao": "KCUL",
    "metar": "KCUL 091236Z AUTO 00000KT 10SM SCT110 00/M01 A3002 RMK AO2",
    "updatedAt": "2022-03-09T12:36:00.000Z"
  },
  {
    "airportIcao": "KCUT",
    "metar": "KCUT 091153Z AUTO VRB03KT 5SM -SN OVC042 M15/M18 A2989 RMK AO2 SNB36 SLP202 P0000 60000 70013 T11501178 11122 21150 55000",
    "updatedAt": "2022-03-09T11:53:00.000Z"
  },
  {
    "airportIcao": "KCVB",
    "metar": "KCVB 091235Z AUTO 01004KT 10SM CLR 06/01 A3009 RMK AO2",
    "updatedAt": "2022-03-09T12:35:00.000Z"
  },
  {
    "airportIcao": "KCVC",
    "metar": "KCVC 091235Z AUTO 07003KT 5SM -RA SCT005 OVC009 11/11 A2986 RMK AO2",
    "updatedAt": "2022-03-09T12:35:00.000Z"
  },
  {
    "airportIcao": "KCVG",
    "metar": "KCVG 091152Z VRB05KT 9SM FEW028 OVC049 03/M01 A2992 RMK AO2 SLP137 60000 T00281006 10039 20022 55001",
    "updatedAt": "2022-03-09T11:52:00.000Z"
  },
  {
    "airportIcao": "KCVH",
    "metar": "KCVH 091235Z AUTO 00000KT 10SM CLR 03/M00 A3004 RMK A01",
    "updatedAt": "2022-03-09T12:35:00.000Z"
  },
  {
    "airportIcao": "KCVN",
    "metar": "KCVN 091156Z AUTO 18007KT 10SM CLR M07/M12 A2996 RMK AO2 SLP162 T10721122 11033 21078 55004 FZRANO",
    "updatedAt": "2022-03-09T11:56:00.000Z"
  },
  {
    "airportIcao": "KCVO",
    "metar": "KCVO 091156Z AUTO 00000KT 10SM -RA OVC028 06/05 A3016 RMK AO2 SLP215 P0000 60000 T00610050 10078 20061 57010",
    "updatedAt": "2022-03-09T11:56:00.000Z"
  },
  {
    "airportIcao": "KCVS",
    "metar": "KCVS 091158Z AUTO 15003KT 10SM CLR M07/M14 A2995 RMK AO2 SLP150 T10681139 11026 21070 55003 $",
    "updatedAt": "2022-03-09T11:58:00.000Z"
  },
  {
    "airportIcao": "KCVX",
    "metar": "KCVX 091242Z AUTO 19006KT 10SM SCT037 OVC046 M02/M04 A2982 RMK AO2",
    "updatedAt": "2022-03-09T12:42:00.000Z"
  },
  {
    "airportIcao": "KCWA",
    "metar": "KCWA 091147Z 28009G15KT 10SM OVC032 M06/M11 A2989",
    "updatedAt": "2022-03-09T11:47:00.000Z"
  },
  {
    "airportIcao": "KCWC",
    "metar": "KCWC 091235Z AUTO 10SM CLR M03/M06 A3012 RMK AO2 T10261059",
    "updatedAt": "2022-03-09T12:35:00.000Z"
  },
  {
    "airportIcao": "KCWF",
    "metar": "KCWF 091200Z 02008KT 10SM OVC010 06/04 A3001",
    "updatedAt": "2022-03-09T12:00:00.000Z"
  },
  {
    "airportIcao": "KCWI",
    "metar": "KCWI 091156Z AUTO 29004KT 10SM CLR M04/M05 A3001 RMK AO2 SLP174 T10441050 11022 21044 53013 FZRANO",
    "updatedAt": "2022-03-09T11:56:00.000Z"
  },
  {
    "airportIcao": "KCWN",
    "metar": "KCWN 091158Z AUTO 00000KT 10SM CLR M07/M13 A2974 RMK AO2 SLP026 T10731132 11036 21075 56013",
    "updatedAt": "2022-03-09T11:58:00.000Z"
  },
  {
    "airportIcao": "KCWV",
    "metar": "KCWV 091235Z AUTO 22004KT 7SM OVC021 21/19 A2989 RMK AO2 T02060191",
    "updatedAt": "2022-03-09T12:35:00.000Z"
  },
  {
    "airportIcao": "KCXE",
    "metar": "KCXE 091235Z AUTO 00000KT 7SM OVC004 05/05 A2994 RMK AO1 T00510051",
    "updatedAt": "2022-03-09T12:35:00.000Z"
  },
  {
    "airportIcao": "KCXO",
    "metar": "KCXO 091153Z 03004KT 10SM CLR 04/03 A3005 RMK AO2 SLPNO 70075 T00390028 10056 20039 55004",
    "updatedAt": "2022-03-09T11:53:00.000Z"
  },
  {
    "airportIcao": "KCXP",
    "metar": "KCXP 090615Z AUTO 04003KT 10SM CLR 02/M08 A3007 RMK AO2",
    "updatedAt": "2022-03-09T06:15:00.000Z"
  },
  {
    "airportIcao": "KCXU",
    "metar": "KCXU 091235Z AUTO 00000KT 10SM SCT009 22/19 A2985 RMK AO1 T02150192",
    "updatedAt": "2022-03-09T12:35:00.000Z"
  },
  {
    "airportIcao": "KCXW",
    "metar": "KCXW 090615Z AUTO 00000KT 8SM BKN006 OVC009 03/03 A3005 RMK A01",
    "updatedAt": "2022-03-09T06:15:00.000Z"
  },
  {
    "airportIcao": "KCXY",
    "metar": "KCXY 091216Z 08006KT 9SM -RA SCT026 SCT034 OVC042 03/00 A3003 RMK AO2 P0000 T00330000",
    "updatedAt": "2022-03-09T12:16:00.000Z"
  },
  {
    "airportIcao": "KCYS",
    "metar": "KCYS 091223Z AUTO 36009KT 1 3/4SM -SN BR OVC027 M13/M15 A2984 RMK AO2 P0000 T11281150",
    "updatedAt": "2022-03-09T12:23:00.000Z"
  },
  {
    "airportIcao": "KCZL",
    "metar": "KCZL 091235Z AUTO 00000KT 2SM BR SCT004 SCT009 OVC014 10/10 A2989 RMK AO2",
    "updatedAt": "2022-03-09T12:35:00.000Z"
  },
  {
    "airportIcao": "KD07",
    "metar": "KD07 091156Z AUTO 33011KT M14/M17 A3015 RMK AO1 SLP265 70001 T11391172 11106 21144 53001",
    "updatedAt": "2022-03-09T11:56:00.000Z"
  },
  {
    "airportIcao": "KD25",
    "metar": "KD25 091235Z AUTO 26008G16KT 4SM -SN BKN019 OVC026 M08/M10 A2982 RMK AO2 T10761105",
    "updatedAt": "2022-03-09T12:35:00.000Z"
  },
  {
    "airportIcao": "KD39",
    "metar": "KD39 091235Z AUTO 30009KT 10SM SCT050 M14/M18 A3007 RMK AO2 T11441180",
    "updatedAt": "2022-03-09T12:35:00.000Z"
  },
  {
    "airportIcao": "KD50",
    "metar": "KD50 091235Z AUTO 30011KT 10SM FEW005 SCT028 SCT034 M19/M21 A3018 RMK AO2",
    "updatedAt": "2022-03-09T12:35:00.000Z"
  },
  {
    "airportIcao": "KD55",
    "metar": "KD55 091235Z AUTO 34007KT 10SM M17/M19 A3010 RMK AO2",
    "updatedAt": "2022-03-09T12:35:00.000Z"
  },
  {
    "airportIcao": "KD57",
    "metar": "KD57 091235Z AUTO 29011KT 10SM SCT011 SCT024 OVC043 M14/M18 A3015 RMK AO2",
    "updatedAt": "2022-03-09T12:35:00.000Z"
  },
  {
    "airportIcao": "KD60",
    "metar": "KD60 091235Z AUTO 31009KT 10SM SCT010 SCT019 SCT025 M17/M18 A3015 RMK AO2",
    "updatedAt": "2022-03-09T12:35:00.000Z"
  },
  {
    "airportIcao": "KD73",
    "metar": "KD73 091235Z AUTO 07003KT 10SM -RA BKN019 OVC025 11/ A2987 RMK AO2 P0005 T0111////",
    "updatedAt": "2022-03-09T12:35:00.000Z"
  },
  {
    "airportIcao": "KD95",
    "metar": "KD95 091235Z AUTO 17003KT 10SM CLR M03/M04 A2993 RMK AO2 T10321040",
    "updatedAt": "2022-03-09T12:35:00.000Z"
  },
  {
    "airportIcao": "KDAA",
    "metar": "KDAA 091239Z AUTO 00000KT 7SM RA BKN013 BKN020 OVC029 05/04 A3003 RMK AO2 CIG 013V031 BKN013 V SCT PRESFR SLP172 $",
    "updatedAt": "2022-03-09T12:39:00.000Z"
  },
  {
    "airportIcao": "KDAB",
    "metar": "KDAB 091229Z 20010G17KT 10SM BKN009 BKN012 BKN095 22/20 A2998 RMK AO2 T02220200",
    "updatedAt": "2022-03-09T12:29:00.000Z"
  },
  {
    "airportIcao": "KDAG",
    "metar": "KDAG 091150Z AUTO 26010KT 10SM CLR 06/M07 A2996 RMK AO2 SLP139 T00561067 10100 20056 56007",
    "updatedAt": "2022-03-09T11:50:00.000Z"
  },
  {
    "airportIcao": "KDAL",
    "metar": "KDAL 091153Z 00000KT 10SM FEW250 M01/M03 A3012 RMK AO2 SLP199 T10111028 10033 21011 53013",
    "updatedAt": "2022-03-09T11:53:00.000Z"
  },
  {
    "airportIcao": "KDAN",
    "metar": "KDAN 091232Z AUTO 05008KT 9SM OVC004 06/04 A2992 RMK AO2 T00560044",
    "updatedAt": "2022-03-09T12:32:00.000Z"
  },
  {
    "airportIcao": "KDAW",
    "metar": "KDAW 091151Z AUTO 00000KT 10SM CLR M03/M08 A3018 RMK AO2 SLP221 T10331083 11022 21050 53002",
    "updatedAt": "2022-03-09T11:51:00.000Z"
  },
  {
    "airportIcao": "KDAY",
    "metar": "KDAY 091156Z 36006KT 6SM -SN OVC065 02/M03 A2993 RMK AO2 SNB39 SLP143 P0000 60000 T00171028 10028 20017 55004",
    "updatedAt": "2022-03-09T11:56:00.000Z"
  },
  {
    "airportIcao": "KDBN",
    "metar": "KDBN 091235Z AUTO 19003KT 10SM SCT015 SCT020 18/17 A2988 RMK AO2",
    "updatedAt": "2022-03-09T12:35:00.000Z"
  },
  {
    "airportIcao": "KDBQ",
    "metar": "KDBQ 091153Z 34014KT 10SM CLR M04/M09 A2997 RMK AO2 SLP165 T10441089 11033 21056 53012",
    "updatedAt": "2022-03-09T11:53:00.000Z"
  },
  {
    "airportIcao": "KDCA",
    "metar": "KDCA 091239Z 15007KT 3SM -RA BR BKN009 BKN015 OVC031 05/03 A3006 RMK AO2 P0011 T00500033",
    "updatedAt": "2022-03-09T12:39:00.000Z"
  },
  {
    "airportIcao": "KDCM",
    "metar": "KDCM 091235Z AUTO 32012G16KT 290V350 2SM -RA OVC003 A2993 RMK AO2 LTG DSNT NW P0001",
    "updatedAt": "2022-03-09T12:35:00.000Z"
  },
  {
    "airportIcao": "KDCU",
    "metar": "KDCU 091233Z AUTO 32011KT 2 1/2SM -RA BR OVC007 05/04 A2998 RMK AO2 RAB11 CIG 005V011 PRESRR P0000 T00500044",
    "updatedAt": "2022-03-09T12:33:00.000Z"
  },
  {
    "airportIcao": "KDCY",
    "metar": "KDCY 091235Z AUTO 36005KT 10SM OVC095 01/M02 A3000 RMK AO2 T00101021",
    "updatedAt": "2022-03-09T12:35:00.000Z"
  },
  {
    "airportIcao": "KDDC",
    "metar": "KDDC 091234Z AUTO 04008KT 8SM BKN011 M09/M10 A3003 RMK AO2 I1000 T10891100",
    "updatedAt": "2022-03-09T12:34:00.000Z"
  },
  {
    "airportIcao": "KDDH",
    "metar": "KDDH 091154Z AUTO 00000KT 10SM CLR M03/M06 A3010 RMK AO2 SLP204 T10331056 11033 21050 56003",
    "updatedAt": "2022-03-09T11:54:00.000Z"
  },
  {
    "airportIcao": "KDEC",
    "metar": "KDEC 091154Z 29004KT 10SM OVC100 01/M02 A2999 RMK AO2 SLP162 T00111017 10017 21006 56004",
    "updatedAt": "2022-03-09T11:54:00.000Z"
  },
  {
    "airportIcao": "KDED",
    "metar": "KDED 091235Z AUTO 19007KT 10SM OVC012 23/21 A3000 RMK AO2 T02260209",
    "updatedAt": "2022-03-09T12:35:00.000Z"
  },
  {
    "airportIcao": "KDEH",
    "metar": "KDEH 091235Z AUTO 31009G19KT 10SM OVC023 M07/M10 A3000 RMK AO2",
    "updatedAt": "2022-03-09T12:35:00.000Z"
  },
  {
    "airportIcao": "KDEN",
    "metar": "KDEN 091153Z 32013KT 8SM BKN006 OVC011 M07/M08 A2982 RMK AO2 SLP117 T10671083 11022 21067 55002",
    "updatedAt": "2022-03-09T11:53:00.000Z"
  },
  {
    "airportIcao": "KDEQ",
    "metar": "KDEQ 091153Z AUTO 00000KT 9SM SCT002 M02/M03 A3008 RMK AO2 SLP185 70004 I1001 I6001 T10221033 10017 21022 53009",
    "updatedAt": "2022-03-09T11:53:00.000Z"
  },
  {
    "airportIcao": "KDET",
    "metar": "KDET 091153Z 00000KT 10SM CLR M02/M06 A2996 RMK AO2 SLP154 T10221061 10000 21022 58001 $",
    "updatedAt": "2022-03-09T11:53:00.000Z"
  },
  {
    "airportIcao": "KDEW",
    "metar": "KDEW 091153Z AUTO 05010KT 10SM OVC080 M04/M17 A3019 RMK AO2 SLP244 T10441167 11017 21044 53003",
    "updatedAt": "2022-03-09T11:53:00.000Z"
  },
  {
    "airportIcao": "KDFI",
    "metar": "KDFI 091153Z AUTO 00000KT 7SM CLR M02/M04 A2998 RMK AO2 SLP158 T10171039 10000 21022 55003",
    "updatedAt": "2022-03-09T11:53:00.000Z"
  },
  {
    "airportIcao": "KDFW",
    "metar": "KDFW 091153Z 00000KT 10SM FEW250 M01/M02 A3010 RMK AO2 SLP195 T10061022 10033 21017 53013",
    "updatedAt": "2022-03-09T11:53:00.000Z"
  },
  {
    "airportIcao": "KDGW",
    "metar": "KDGW 091236Z AUTO 36006KT 2SM -SN OVC024 M14/M17 A3000 RMK AO2 P0000 T11391172",
    "updatedAt": "2022-03-09T12:36:00.000Z"
  },
  {
    "airportIcao": "KDHN",
    "metar": "KDHN 091221Z 21009KT 10SM BKN026 BKN035 OVC110 21/19 A2987 RMK AO2 T02110194",
    "updatedAt": "2022-03-09T12:21:00.000Z"
  },
  {
    "airportIcao": "KDHT",
    "metar": "KDHT 091153Z AUTO 00000KT 10SM CLR M07/M11 A2995 RMK AO2 SLP150 T10721111 11022 21089 56010",
    "updatedAt": "2022-03-09T11:53:00.000Z"
  },
  {
    "airportIcao": "KDIJ",
    "metar": "KDIJ 091213Z AUTO 16005KT 10SM FEW008 M19/M22 A2984 RMK AO2 SNE1157",
    "updatedAt": "2022-03-09T12:13:00.000Z"
  },
  {
    "airportIcao": "KDIK",
    "metar": "KDIK 091236Z AUTO 29010KT 9SM BKN018 OVC038 M14/M17 A3011 RMK AO2 T11441172",
    "updatedAt": "2022-03-09T12:36:00.000Z"
  },
  {
    "airportIcao": "KDKB",
    "metar": "KDKB 091235Z AUTO 27008KT 10SM CLR M02/M05 A2997 RMK AO2 T10221054",
    "updatedAt": "2022-03-09T12:35:00.000Z"
  },
  {
    "airportIcao": "KDKK",
    "metar": "KDKK 091153Z AUTO 00000KT 10SM CLR M02/M04 A2996 RMK AO2 SLP155 T10221044 11006 21028 58017 TSNO",
    "updatedAt": "2022-03-09T11:53:00.000Z"
  },
  {
    "airportIcao": "KDKR",
    "metar": "KDKR 090410Z AUTO 00000KT 10SM OVC008 05/05 A3008 RMK AO2",
    "updatedAt": "2022-03-09T04:10:00.000Z"
  },
  {
    "airportIcao": "KDLF",
    "metar": "KDLF 091156Z AUTO 08004KT 6SM HZ OVC200 05/M00 A3005 RMK AO2 SLP174 T00461002 10116 20045 53004 $",
    "updatedAt": "2022-03-09T11:56:00.000Z"
  },
  {
    "airportIcao": "KDLH",
    "metar": "KDLH 091203Z 30013G20KT 7SM -SN BKN017 M13/M16 A2987",
    "updatedAt": "2022-03-09T12:03:00.000Z"
  },
  {
    "airportIcao": "KDLL",
    "metar": "KDLL 091235Z AUTO 27006KT 10SM OVC029 M05/M09 A2994 RMK AO2 T10501095",
    "updatedAt": "2022-03-09T12:35:00.000Z"
  },
  {
    "airportIcao": "KDLN",
    "metar": "KDLN 091153Z AUTO 06009KT 10SM BKN030 M19/M21 A3002 RMK AO2 SLP261 60000 T11891211 11144 21200 55002",
    "updatedAt": "2022-03-09T11:53:00.000Z"
  },
  {
    "airportIcao": "KDLO",
    "metar": "KDLO 091235Z AUTO 00000KT 10SM CLR 03/00 A3002 RMK AO2 T00270000",
    "updatedAt": "2022-03-09T12:35:00.000Z"
  },
  {
    "airportIcao": "KDLS",
    "metar": "KDLS 091153Z AUTO 29005KT 10SM FEW049 OVC060 03/01 A3021 RMK AO2 SLP232 60024 70024 T00330006 10061 20017 55000",
    "updatedAt": "2022-03-09T11:53:00.000Z"
  },
  {
    "airportIcao": "KDLZ",
    "metar": "KDLZ 091235Z AUTO 35003KT 10SM SCT070 OVC100 00/M03 A2993 RMK AO2",
    "updatedAt": "2022-03-09T12:35:00.000Z"
  },
  {
    "airportIcao": "KDMA",
    "metar": "KDMA 091158Z COR AUTO 16007KT 10SM CLR 04/M13 A2990 RMK AO2A SLPNO ALSTG ESTMD RVRNO TSNO $ COR 1217",
    "updatedAt": "2022-03-09T11:58:00.000Z"
  },
  {
    "airportIcao": "KDMN",
    "metar": "KDMN 091153Z AUTO 32003KT 10SM CLR M04/M19 A2993 RMK AO2 SLP120 T10391189 10028 21039 56006",
    "updatedAt": "2022-03-09T11:53:00.000Z"
  },
  {
    "airportIcao": "KDMO",
    "metar": "KDMO 091153Z AUTO 25006KT 10SM CLR M02/M04 A3006 RMK AO2 SLP188 T10171044 10006 21017 53007",
    "updatedAt": "2022-03-09T11:53:00.000Z"
  },
  {
    "airportIcao": "KDMW",
    "metar": "KDMW 091235Z AUTO 13008KT 7SM RA SCT017 SCT039 04/02 A3001 RMK AO2 P0001",
    "updatedAt": "2022-03-09T12:35:00.000Z"
  },
  {
    "airportIcao": "KDNA",
    "metar": "KDNA 091235Z AUTO 00000KT 10SM CLR M02/M17 A2994 RMK AO2",
    "updatedAt": "2022-03-09T12:35:00.000Z"
  },
  {
    "airportIcao": "KDNL",
    "metar": "KDNL 091153Z AUTO 20005KT 10SM OVC018 17/14 A2985 RMK AO2 SLP106 T01670144 10167 20144 53001",
    "updatedAt": "2022-03-09T11:53:00.000Z"
  },
  {
    "airportIcao": "KDNN",
    "metar": "KDNN 091235Z AUTO 33004KT 7SM SCT004 BKN012 OVC022 11/10 A2990 RMK AO2",
    "updatedAt": "2022-03-09T12:35:00.000Z"
  },
  {
    "airportIcao": "KDNS",
    "metar": "KDNS 091235Z AUTO 36010KT 10SM CLR M07/M08 A3013 RMK AO2",
    "updatedAt": "2022-03-09T12:35:00.000Z"
  },
  {
    "airportIcao": "KDNV",
    "metar": "KDNV 091235Z AUTO 00000KT 7SM BKN090 OVC110 M01/M03 A3000 RMK AO2 T10111029",
    "updatedAt": "2022-03-09T12:35:00.000Z"
  },
  {
    "airportIcao": "KDOV",
    "metar": "KDOV 091156Z 09012KT 7SM -RA FEW015 BKN030 OVC037 04/03 A3005 RMK AO2A RAE43RAB45 SLP180 P0011 60026 70026 T00440034 10061 20039 58008 $",
    "updatedAt": "2022-03-09T11:56:00.000Z"
  },
  {
    "airportIcao": "KDPA",
    "metar": "KDPA 091152Z 24006KT 10SM FEW120 M01/M04 A2995 RMK AO2 SLP149 T10111044 11011 21044 56005",
    "updatedAt": "2022-03-09T11:52:00.000Z"
  },
  {
    "airportIcao": "KDPG",
    "metar": "KDPG 091205Z 19004KT 7SM -SN BKN014 BKN036 OVC060 01/00 A2985 RMK SLP097 P0000 60000 70001 T00091002 10025 20005 56007 FIRST",
    "updatedAt": "2022-03-09T12:05:00.000Z"
  },
  {
    "airportIcao": "KDPL",
    "metar": "KDPL 091235Z 1/2SM -RA FG OVC002 10/10 A2992 RMK AO2",
    "updatedAt": "2022-03-09T12:35:00.000Z"
  },
  {
    "airportIcao": "KDQH",
    "metar": "KDQH 091235Z AUTO 20004KT 10SM OVC005 20/20 A2991 RMK AO2 T02030195",
    "updatedAt": "2022-03-09T12:35:00.000Z"
  },
  {
    "airportIcao": "KDRA",
    "metar": "KDRA 091153Z AUTO 00000KT 10SM CLR 03/M11 A2993 RMK AO2 SLP120 T00281106 10072 20006 56010",
    "updatedAt": "2022-03-09T11:53:00.000Z"
  },
  {
    "airportIcao": "KDRI",
    "metar": "KDRI 091235Z AUTO 35008KT 10SM OVC009 05/04 A3007 RMK AO2 T00530042",
    "updatedAt": "2022-03-09T12:35:00.000Z"
  },
  {
    "airportIcao": "KDRM",
    "metar": "KDRM 091235Z AUTO 18004KT 10SM BKN080 M02/M04 A2980 RMK AO2 T10251040",
    "updatedAt": "2022-03-09T12:35:00.000Z"
  },
  {
    "airportIcao": "KDRO",
    "metar": "KDRO 091153Z AUTO 07003KT 10SM OVC075 M07/M10 A2989 RMK AO2 SLP158 T10721100 11056 21083 56007",
    "updatedAt": "2022-03-09T11:53:00.000Z"
  },
  {
    "airportIcao": "KDRT",
    "metar": "KDRT 091153Z AUTO 20003KT 10SM CLR 07/01 A3006 RMK AO2 SLP180 T00670011 10122 20067 53006",
    "updatedAt": "2022-03-09T11:53:00.000Z"
  },
  {
    "airportIcao": "KDSF",
    "metar": "KDSF 091240Z AUTO 22016KT 5SM BR FEW009 SCT043 BKN050 25/23 A2990 RMK A01",
    "updatedAt": "2022-03-09T12:40:00.000Z"
  },
  {
    "airportIcao": "KDSM",
    "metar": "KDSM 091238Z 34008KT 10SM BKN020 BKN028 M03/M06 A3009",
    "updatedAt": "2022-03-09T12:38:00.000Z"
  },
  {
    "airportIcao": "KDSV",
    "metar": "KDSV 091154Z AUTO 19005KT 10SM CLR M01/M06 A2999 RMK AO2 SLP171 T10111056 11006 21028 56016",
    "updatedAt": "2022-03-09T11:54:00.000Z"
  },
  {
    "airportIcao": "KDTA",
    "metar": "KDTA 091235Z AUTO 16012KT 10SM CLR 00/M04 A2985 RMK AO1",
    "updatedAt": "2022-03-09T12:35:00.000Z"
  },
  {
    "airportIcao": "KDTL",
    "metar": "KDTL 091235Z AUTO 32008G15KT 10SM OVC022 M16/M20 A3008 RMK AO2",
    "updatedAt": "2022-03-09T12:35:00.000Z"
  },
  {
    "airportIcao": "KDTN",
    "metar": "KDTN 091153Z AUTO 01007KT 10SM OVC016 04/02 A3009 RMK AO2 SLP189 70065 T00440022 10056 20044 53016 TSNO",
    "updatedAt": "2022-03-09T11:53:00.000Z"
  },
  {
    "airportIcao": "KDTO",
    "metar": "KDTO 091153Z 33003KT 10SM CLR M05/M07 A3011 RMK AO2 SLP199 70006 I1000 I6000 T10501067 11017 21056 51012",
    "updatedAt": "2022-03-09T11:53:00.000Z"
  },
  {
    "airportIcao": "KDTS",
    "metar": "KDTS 091212Z 19006KT 10SM BKN012 OVC017 21/18 A2986 RMK AO2 LTG DSNT SE AND S T02110183",
    "updatedAt": "2022-03-09T12:12:00.000Z"
  },
  {
    "airportIcao": "KDTW",
    "metar": "KDTW 091153Z 22003KT 7SM FEW034 BKN150 OVC220 M03/M06 A2997 RMK AO2 SLP156 T10281056 11006 21028 58001",
    "updatedAt": "2022-03-09T11:53:00.000Z"
  },
  {
    "airportIcao": "KDUA",
    "metar": "KDUA 091235Z AUTO 32004KT 10SM CLR M01/M04 A3012 RMK AO2",
    "updatedAt": "2022-03-09T12:35:00.000Z"
  },
  {
    "airportIcao": "KDUB",
    "metar": "KDUB 091215Z AUTO 12007KT 4SM -SN SCT029 OVC035 M16/M17 A2977 RMK AO2",
    "updatedAt": "2022-03-09T12:15:00.000Z"
  },
  {
    "airportIcao": "KDUC",
    "metar": "KDUC 091235Z AUTO 00000KT 10SM CLR M04/M08 A3012 RMK AO2 T10391079",
    "updatedAt": "2022-03-09T12:35:00.000Z"
  },
  {
    "airportIcao": "KDUH",
    "metar": "KDUH 091235Z AUTO 00000KT 10SM SCT037 SCT120 M01/M03 A2996 RMK AO2 T10071030",
    "updatedAt": "2022-03-09T12:35:00.000Z"
  },
  {
    "airportIcao": "KDUJ",
    "metar": "KDUJ 091239Z AUTO 08004KT 1 3/4SM -SN BR OVC021 00/M02 A2987 RMK AO2 SNB1159 P0000 T00001022",
    "updatedAt": "2022-03-09T12:39:00.000Z"
  },
  {
    "airportIcao": "KDUX",
    "metar": "KDUX 091235Z AUTO 16007KT 10SM CLR M06/M12 A2995 RMK AO2 T10641117",
    "updatedAt": "2022-03-09T12:35:00.000Z"
  },
  {
    "airportIcao": "KDVK",
    "metar": "KDVK 091235Z AUTO 34007KT 3SM DZ OVC004 02/02 A2995 RMK AO2",
    "updatedAt": "2022-03-09T12:35:00.000Z"
  },
  {
    "airportIcao": "KDVL",
    "metar": "KDVL 091156Z AUTO 33007KT 10SM OVC043 M14/M17 A3012 RMK AO2 SNE32 SLP786 P0000 60000 T11441172 11133 21150 53004 FZRANO",
    "updatedAt": "2022-03-09T11:56:00.000Z"
  },
  {
    "airportIcao": "KDVN",
    "metar": "KDVN 091152Z AUTO 29006KT 10SM CLR M03/M06 A3002 RMK AO2 SLP172 T10281056 11006 21028 53013",
    "updatedAt": "2022-03-09T11:52:00.000Z"
  },
  {
    "airportIcao": "KDVO",
    "metar": "KDVO 091235Z AUTO VRB03KT 10SM CLR 09/M00 A3002 RMK AO2",
    "updatedAt": "2022-03-09T12:35:00.000Z"
  },
  {
    "airportIcao": "KDVP",
    "metar": "KDVP 091233Z AUTO 30011KT BKN023 M12/M15 A3010 RMK AO2 T11221151 PWINO",
    "updatedAt": "2022-03-09T12:33:00.000Z"
  },
  {
    "airportIcao": "KDVT",
    "metar": "KDVT 091153Z AUTO 09005KT 10SM CLR 05/M08 A2993 RMK AO2 SLP126 7//// T00501078 10078 20033 55002",
    "updatedAt": "2022-03-09T11:53:00.000Z"
  },
  {
    "airportIcao": "KDWA",
    "metar": "KDWA 090615Z AUTO 00000KT 10SM CLR 08/01 A3004 RMK AO2",
    "updatedAt": "2022-03-09T06:15:00.000Z"
  },
  {
    "airportIcao": "KDWH",
    "metar": "KDWH 091153Z AUTO 36007KT 10SM CLR 05/03 A3003 RMK AO2 SLP169 70015 T00500028 10067 20050 56006",
    "updatedAt": "2022-03-09T11:53:00.000Z"
  },
  {
    "airportIcao": "KDWU",
    "metar": "KDWU 091156Z AUTO VRB03KT 4SM RA BR OVC007 02/02 A2989 RMK AO2 SLP125 P0004 60020 70022 T00220022 10033 20022 55005 FZRANO",
    "updatedAt": "2022-03-09T11:56:00.000Z"
  },
  {
    "airportIcao": "KDWX",
    "metar": "KDWX 091235Z AUTO 32021G26KT 1 1/2SM -SN SCT004 BKN008 OVC013 M08/M10 A2977 RMK AO2 T10841103",
    "updatedAt": "2022-03-09T12:35:00.000Z"
  },
  {
    "airportIcao": "KDXR",
    "metar": "KDXR 091153Z 06003KT 10SM OVC100 02/M07 A3012 RMK AO2 SLP203 T00171067 10017 20000 58012",
    "updatedAt": "2022-03-09T11:53:00.000Z"
  },
  {
    "airportIcao": "KDXX",
    "metar": "KDXX 091235Z AUTO 33013G17KT 5SM -SN SCT018 BKN026 OVC037 M09/M12 A3017 RMK AO2",
    "updatedAt": "2022-03-09T12:35:00.000Z"
  },
  {
    "airportIcao": "KDYA",
    "metar": "KDYA 091235Z AUTO 10SM OVC008 08/08 A2997 RMK AO2 T00760075",
    "updatedAt": "2022-03-09T12:35:00.000Z"
  },
  {
    "airportIcao": "KDYB",
    "metar": "KDYB 091235Z AUTO 18004KT 7SM BKN006 20/20 A2988 RMK AO2",
    "updatedAt": "2022-03-09T12:35:00.000Z"
  },
  {
    "airportIcao": "KDYL",
    "metar": "KDYL 091154Z AUTO 00000KT 10SM OVC055 03/M02 A3006 RMK AO2 SLP183 T00331017 10033 20017 56014",
    "updatedAt": "2022-03-09T11:54:00.000Z"
  },
  {
    "airportIcao": "KDYR",
    "metar": "KDYR 091156Z AUTO 00000KT 8SM SCT080 OVC095 03/03 A3003 RMK AO2 SLP178 6//// 7//// T00280028 10033 20028 51006 PNO $",
    "updatedAt": "2022-03-09T11:56:00.000Z"
  },
  {
    "airportIcao": "KDYS",
    "metar": "KDYS 091156Z AUTO 19004KT 10SM CLR M05/M10 A3007 RMK AO2 SLP192 T10551098 11005 21068 53010",
    "updatedAt": "2022-03-09T11:56:00.000Z"
  },
  {
    "airportIcao": "KDYT",
    "metar": "KDYT 091235Z AUTO 26012G18KT 10SM OVC080 M11/M16 A2997 RMK AO2",
    "updatedAt": "2022-03-09T12:35:00.000Z"
  },
  {
    "airportIcao": "KDZB",
    "metar": "KDZB 091235Z AUTO 00000KT 7SM CLR M02/M02 A3008 RMK AO2 T10191023",
    "updatedAt": "2022-03-09T12:35:00.000Z"
  },
  {
    "airportIcao": "KDZJ",
    "metar": "KDZJ 091235Z AUTO 05004KT 10SM -RA SCT022 BKN028 OVC060 10/10 A2985 RMK AO2 P0001 T01030102",
    "updatedAt": "2022-03-09T12:35:00.000Z"
  },
  {
    "airportIcao": "KE11",
    "metar": "KE11 091235Z AUTO 15004KT 10SM CLR M02/M08 A3002 RMK AO2 T10251081",
    "updatedAt": "2022-03-09T12:35:00.000Z"
  },
  {
    "airportIcao": "KE16",
    "metar": "KE16 091230Z AUTO 33004KT 10SM CLR 04/01 A3005 RMK AO2 PWINO PNO",
    "updatedAt": "2022-03-09T12:30:00.000Z"
  },
  {
    "airportIcao": "KE38",
    "metar": "KE38 091235Z AUTO 23005KT 10SM CLR 00/M10 A3003 RMK AO2 T00011105",
    "updatedAt": "2022-03-09T12:35:00.000Z"
  },
  {
    "airportIcao": "KE41",
    "metar": "KE41 091235Z AUTO 17007KT 10SM CLR M01/M07 A3005 RMK AO2 T10061068",
    "updatedAt": "2022-03-09T12:35:00.000Z"
  },
  {
    "airportIcao": "KE42",
    "metar": "KE42 091235Z AUTO 20006KT 10SM CLR M08/M11 A2999 RMK AO2 T10821111",
    "updatedAt": "2022-03-09T12:35:00.000Z"
  },
  {
    "airportIcao": "KEAN",
    "metar": "KEAN 091230Z AUTO 36008KT 2 1/2SM -SN M12/M14 A2999 RMK AO2 T11181136",
    "updatedAt": "2022-03-09T12:30:00.000Z"
  },
  {
    "airportIcao": "KEAR",
    "metar": "KEAR 091156Z AUTO 04011KT 10SM OVC060 M09/M11 A3009 RMK AO2 SLP215 T10891111 11072 21106 58003 FZRANO",
    "updatedAt": "2022-03-09T11:56:00.000Z"
  },
  {
    "airportIcao": "KEAT",
    "metar": "KEAT 091155Z AUTO 00000KT 10SM 02/M13 A3020 RMK AO2 SLP234 70001 T00171128 10044 20017 $",
    "updatedAt": "2022-03-09T11:55:00.000Z"
  },
  {
    "airportIcao": "KEAU",
    "metar": "KEAU 091209Z 29012G20KT 10SM OVC029 M06/M12 A2996 RMK AO2 T10561117",
    "updatedAt": "2022-03-09T12:09:00.000Z"
  },
  {
    "airportIcao": "KEBG",
    "metar": "KEBG 091235Z AUTO 35006KT 10SM OVC041 09/07 A3005 RMK AO2 T00880065 PWINO TSNO",
    "updatedAt": "2022-03-09T12:35:00.000Z"
  },
  {
    "airportIcao": "KEBS",
    "metar": "KEBS 091235Z AUTO 32011G16KT 10SM BKN024 M06/M08 A3008 RMK AO2",
    "updatedAt": "2022-03-09T12:35:00.000Z"
  },
  {
    "airportIcao": "KECG",
    "metar": "KECG 091154Z 33011KT 10SM OVC006 11/09 A2987 RMK AO2 RAE53 SLP116 P0003 60074 70119 T01060094 10106 20072 55029",
    "updatedAt": "2022-03-09T11:54:00.000Z"
  },
  {
    "airportIcao": "KECP",
    "metar": "KECP 091210Z 11005KT 5SM VCTS -RA BR SCT008 BKN050 OVC090 21/20 A2983 RMK AO2 LTG DSNT ALQDS TSE1156 P0001 T02060200",
    "updatedAt": "2022-03-09T12:10:00.000Z"
  },
  {
    "airportIcao": "KECS",
    "metar": "KECS 091235Z AUTO 34007KT 10SM OVC075 M13/M18 A3004 RMK AO2",
    "updatedAt": "2022-03-09T12:35:00.000Z"
  },
  {
    "airportIcao": "KEDC",
    "metar": "KEDC 091235Z AUTO 34004KT 5SM BR CLR 02/01 A3010 RMK AO2",
    "updatedAt": "2022-03-09T12:35:00.000Z"
  },
  {
    "airportIcao": "KEDE",
    "metar": "KEDE 091235Z AUTO 34012KT 3SM BR OVC004 10/10 A2991 RMK AO2 T00950095",
    "updatedAt": "2022-03-09T12:35:00.000Z"
  },
  {
    "airportIcao": "KEDJ",
    "metar": "KEDJ 091235Z AUTO 02006KT 7SM BKN034 OVC041 00/M02 A2995 RMK A01",
    "updatedAt": "2022-03-09T12:35:00.000Z"
  },
  {
    "airportIcao": "KEDN",
    "metar": "KEDN 091235Z AUTO 00000KT 10SM DZ SCT019 BKN027 OVC085 20/19 A2986 RMK AO2 LTG DSNT SE AND S T01950193",
    "updatedAt": "2022-03-09T12:35:00.000Z"
  },
  {
    "airportIcao": "KEDU",
    "metar": "KEDU 090610Z AUTO 00000KT 10SM CLR 10/05 A3003 RMK AO1",
    "updatedAt": "2022-03-09T06:10:00.000Z"
  },
  {
    "airportIcao": "KEDW",
    "metar": "KEDW 091158Z AUTO 22006KT 10SM CLR 02/M06 A2996 RMK AO2 SLP145 T00181058 10080 20018 56006",
    "updatedAt": "2022-03-09T11:58:00.000Z"
  },
  {
    "airportIcao": "KEED",
    "metar": "KEED 091156Z AUTO 28006KT 10SM CLR 07/M12 A2993 RMK AO2 SLP123 T00721122 10139 20072 56007",
    "updatedAt": "2022-03-09T11:56:00.000Z"
  },
  {
    "airportIcao": "KEEN",
    "metar": "KEEN 091156Z AUTO 00000KT CLR M04/M05 A3017 RMK AO2 SLP226 T10391050 11039 21056 53001 PWINO FZRANO $",
    "updatedAt": "2022-03-09T11:56:00.000Z"
  },
  {
    "airportIcao": "KEEO",
    "metar": "KEEO 091153Z AUTO 21013G22KT 10SM OVC048 M02/M11 A2975 RMK AO2 PK WND 21026/1112 SLP081 T10221106 11017 21028 56017",
    "updatedAt": "2022-03-09T11:53:00.000Z"
  },
  {
    "airportIcao": "KEET",
    "metar": "KEET 091242Z AUTO 33006KT 10SM OVC007 09/07 A2993 RMK AO2 CIG 005V011 T00890072",
    "updatedAt": "2022-03-09T12:42:00.000Z"
  },
  {
    "airportIcao": "KEFD",
    "metar": "KEFD 091150Z 34012G19KT 10SM OVC013 07/05 A3000",
    "updatedAt": "2022-03-09T11:50:00.000Z"
  },
  {
    "airportIcao": "KEFK",
    "metar": "KEFK 091235Z AUTO 00000KT 10SM OVC047 M07/M09 A3011 RMK AO2 T10681088",
    "updatedAt": "2022-03-09T12:35:00.000Z"
  },
  {
    "airportIcao": "KEFT",
    "metar": "KEFT 091235Z AUTO 29009KT 10SM SCT065 M04/M06 A2995 RMK AO2 T10371065",
    "updatedAt": "2022-03-09T12:35:00.000Z"
  },
  {
    "airportIcao": "KEGE",
    "metar": "KEGE 091156Z AUTO 09006KT 9SM -SN OVC040 M06/M09 A2981 RMK AO2 SNE02B19 SLP023 P0000 60000 T10561089 11044 21061 56017 FZRANO",
    "updatedAt": "2022-03-09T11:56:00.000Z"
  },
  {
    "airportIcao": "KEGI",
    "metar": "KEGI 091156Z AUTO 22010KT 10SM VCTS BKN015 20/18 A2984 RMK AO2 CIG 015V110 SLP104 60009 70011 T02040183 10224 20202 53017 $",
    "updatedAt": "2022-03-09T11:56:00.000Z"
  },
  {
    "airportIcao": "KEGT",
    "metar": "KEGT 091235Z AUTO 36008KT 10SM CLR M03/M04 A3008 RMK AO2 T10311039",
    "updatedAt": "2022-03-09T12:35:00.000Z"
  },
  {
    "airportIcao": "KEGV",
    "metar": "KEGV 091235Z AUTO 27010KT 10SM OVC029 M06/M13 A2981 RMK AO2 T10651128",
    "updatedAt": "2022-03-09T12:35:00.000Z"
  },
  {
    "airportIcao": "KEHA",
    "metar": "KEHA 091235Z AUTO 21009KT 10SM CLR M04/M07 A2996 RMK AO2 T10431074",
    "updatedAt": "2022-03-09T12:35:00.000Z"
  },
  {
    "airportIcao": "KEHO",
    "metar": "KEHO 091235Z AUTO 10009KT 10SM RA SCT003 SCT014 OVC095 09/09 A2983 RMK AO2 P0010 T00900090",
    "updatedAt": "2022-03-09T12:35:00.000Z"
  },
  {
    "airportIcao": "KEHR",
    "metar": "KEHR 091156Z AUTO 34006KT 10SM OVC080 02/M02 A3001 RMK AO2 SLP166 60001 70001 T00221017 10028 20022 53006 FZRANO",
    "updatedAt": "2022-03-09T11:56:00.000Z"
  },
  {
    "airportIcao": "KEHY",
    "metar": "KEHY 091235Z AUTO 1 3/4SM OVC014 M15/M18 A2971 RMK AO2 PWINO",
    "updatedAt": "2022-03-09T12:35:00.000Z"
  },
  {
    "airportIcao": "KEIK",
    "metar": "KEIK 091235Z AUTO 01012G16KT 2 1/2SM -SN OVC011 M07/M09 A2987 RMK AO2 VIS 2V3 T10701090",
    "updatedAt": "2022-03-09T12:35:00.000Z"
  },
  {
    "airportIcao": "KEKM",
    "metar": "KEKM 091152Z 00000KT 7SM SKC M03/M04 A2996 RMK AO2",
    "updatedAt": "2022-03-09T11:52:00.000Z"
  },
  {
    "airportIcao": "KEKN",
    "metar": "KEKN 091229Z AUTO 00000KT 4SM -RA BR FEW004 BKN031 OVC043 04/02 A2979",
    "updatedAt": "2022-03-09T12:29:00.000Z"
  },
  {
    "airportIcao": "KEKO",
    "metar": "KEKO 091156Z AUTO 22009KT 9SM OVC023 00/M02 A2989 RMK AO2 SNB02E53 SLP129 P0000 60001 70002 T00001017 10011 20000 56013 TSNO",
    "updatedAt": "2022-03-09T11:56:00.000Z"
  },
  {
    "airportIcao": "KEKQ",
    "metar": "KEKQ 091236Z AUTO 31009KT 3SM -RA BR OVC007 04/04 A2996 RMK AO2 CIG 005V010 PRESRR P0000",
    "updatedAt": "2022-03-09T12:36:00.000Z"
  },
  {
    "airportIcao": "KEKS",
    "metar": "KEKS 090615Z AUTO 35019G27KT 2 1/2SM -SN SCT022 OVC029 M15/M17 A3004 RMK AO2",
    "updatedAt": "2022-03-09T06:15:00.000Z"
  },
  {
    "airportIcao": "KEKX",
    "metar": "KEKX 091235Z AUTO 00000KT 5SM BR SCT026 SCT047 OVC075 01/01 A2999 RMK AO2 T00060006",
    "updatedAt": "2022-03-09T12:35:00.000Z"
  },
  {
    "airportIcao": "KEKY",
    "metar": "KEKY 091156Z AUTO 32007KT 8SM OVC005 07/07 A2992 RMK AO2 RAB02E15 SLP983 P0000 60022 70044 T00720072 10094 20072 51035",
    "updatedAt": "2022-03-09T11:56:00.000Z"
  },
  {
    "airportIcao": "KELA",
    "metar": "KELA 091235Z AUTO 01008KT 10SM CLR 05/04 A3005 RMK AO2 T00510036",
    "updatedAt": "2022-03-09T12:35:00.000Z"
  },
  {
    "airportIcao": "KELD",
    "metar": "KELD 091153Z AUTO 34004KT 10SM OVC011 03/02 A3009 RMK AO2 SLP191 70064 T00330017 10039 20033 53018 TSNO",
    "updatedAt": "2022-03-09T11:53:00.000Z"
  },
  {
    "airportIcao": "KELK",
    "metar": "KELK 091235Z AUTO 00000KT 10SM CLR M04/M08 A3009 RMK AO2 T10371077",
    "updatedAt": "2022-03-09T12:35:00.000Z"
  },
  {
    "airportIcao": "KELM",
    "metar": "KELM 091153Z 09005KT 10SM OVC060 M02/M05 A2998 RMK AO2 SLP162 T10171050 11011 21050 58022",
    "updatedAt": "2022-03-09T11:53:00.000Z"
  },
  {
    "airportIcao": "KELN",
    "metar": "KELN 091153Z AUTO 00000KT 10SM OVC095 01/M04 A3016 RMK AO2 SLP226 70007 T00061039 10028 20000 51005",
    "updatedAt": "2022-03-09T11:53:00.000Z"
  },
  {
    "airportIcao": "KELO",
    "metar": "KELO 091235Z AUTO 29008G14KT 3SM -SN OVC017 M14/M17 A2987 RMK AO2",
    "updatedAt": "2022-03-09T12:35:00.000Z"
  },
  {
    "airportIcao": "KELP",
    "metar": "KELP 091151Z 00000KT 10SM CLR 00/M15 A2991 RMK AO2 SLP108 T00001150 10056 21006 56011 $",
    "updatedAt": "2022-03-09T11:51:00.000Z"
  },
  {
    "airportIcao": "KELY",
    "metar": "KELY 091153Z AUTO 09003KT 10SM FEW039 OVC055 00/M04 A2988 RMK AO2 UPB19E23SNB08E19 SLP109 P0000 60000 T00001039 10006 21011 56015 TSNO",
    "updatedAt": "2022-03-09T11:53:00.000Z"
  },
  {
    "airportIcao": "KELZ",
    "metar": "KELZ 091156Z AUTO 10003KT 10SM OVC100 M02/M07 A2991 RMK AO2 SLP151 70001 T10221067 11017 21028 56020",
    "updatedAt": "2022-03-09T11:56:00.000Z"
  },
  {
    "airportIcao": "KEMK",
    "metar": "KEMK 091235Z AUTO 9SM 14/11 A2999 RMK A01",
    "updatedAt": "2022-03-09T12:35:00.000Z"
  },
  {
    "airportIcao": "KEMM",
    "metar": "KEMM 091235Z AUTO 27013G19KT 2SM -SN SCT017 M06/M07 A2969 RMK AO2",
    "updatedAt": "2022-03-09T12:35:00.000Z"
  },
  {
    "airportIcao": "KEMP",
    "metar": "KEMP 091153Z AUTO 36008KT 8SM OVC016 00/M03 A3008 RMK AO2 SLP194 I6001 T00001028 10011 21022 53014",
    "updatedAt": "2022-03-09T11:53:00.000Z"
  },
  {
    "airportIcao": "KEMT",
    "metar": "KEMT 090345Z 00000KT 10SM 14/M01 A3002",
    "updatedAt": "2022-03-09T03:45:00.000Z"
  },
  {
    "airportIcao": "KEMV",
    "metar": "KEMV 091235Z AUTO 00000KT 4SM RA SCT006 SCT016 OVC033 06/06 A2996 RMK AO2 P0014 T00590059",
    "updatedAt": "2022-03-09T12:35:00.000Z"
  },
  {
    "airportIcao": "KEND",
    "metar": "KEND 091156Z AUTO 28003KT 10SM CLR M05/M09 A3005 RMK AO2 SLP189 70040 T10471088 11025 21060 53001 $",
    "updatedAt": "2022-03-09T11:56:00.000Z"
  },
  {
    "airportIcao": "KENL",
    "metar": "KENL 091235Z AUTO 00000KT 7SM CLR 00/M01 A3003 RMK AO2 T10011010",
    "updatedAt": "2022-03-09T12:35:00.000Z"
  },
  {
    "airportIcao": "KENV",
    "metar": "KENV 091156Z AUTO RMK AO2 SLPNO 6//// 7//// PWINO FZRANO $",
    "updatedAt": "2022-03-09T11:56:00.000Z"
  },
  {
    "airportIcao": "KENW",
    "metar": "KENW 091153Z AUTO 24007KT 10SM CLR M01/M06 A2994 RMK AO2 SLP147 T10111056 11011 21033 55000",
    "updatedAt": "2022-03-09T11:53:00.000Z"
  },
  {
    "airportIcao": "KEOD",
    "metar": "KEOD 091158Z AUTO 32003KT 5SM BR OVC010 02/02 A3000 RMK AO2 UPE06UPB11E19UPB23E40 SLP165 P0000 60012 70016 T00190017 10033 20010 52021",
    "updatedAt": "2022-03-09T11:58:00.000Z"
  },
  {
    "airportIcao": "KEOE",
    "metar": "KEOE 091235Z AUTO 36008KT 4SM -DZ OVC002 12/11 A2991 RMK AO2",
    "updatedAt": "2022-03-09T12:35:00.000Z"
  },
  {
    "airportIcao": "KEOK",
    "metar": "KEOK 091235Z AUTO 34006KT 10SM CLR M02/M03 A3005 RMK A01",
    "updatedAt": "2022-03-09T12:35:00.000Z"
  },
  {
    "airportIcao": "KEPH",
    "metar": "KEPH 091153Z AUTO 02009KT 10SM OVC110 M02/M08 A3020 RMK AO2 SLP238 T10171083 10028 21017 53007",
    "updatedAt": "2022-03-09T11:53:00.000Z"
  },
  {
    "airportIcao": "KEQA",
    "metar": "KEQA 091235Z AUTO 03006KT 5SM BR OVC006 00/M01 A3007 RMK AO2",
    "updatedAt": "2022-03-09T12:35:00.000Z"
  },
  {
    "airportIcao": "KEQY",
    "metar": "KEQY 091242Z AUTO VRB05KT 3SM -RA BR OVC003 11/10 A2987 RMK AO2 RAB21 P0000 T01060100",
    "updatedAt": "2022-03-09T12:42:00.000Z"
  },
  {
    "airportIcao": "KERI",
    "metar": "KERI 091151Z 00000KT 10SM BKN120 00/M05 A2995 RMK AO2 SLP150 T00001050 10011 20000 58019",
    "updatedAt": "2022-03-09T11:51:00.000Z"
  },
  {
    "airportIcao": "KERV",
    "metar": "KERV 091235Z AUTO 00000KT 10SM CLR M01/M02 A3007 RMK AO2 T10071023",
    "updatedAt": "2022-03-09T12:35:00.000Z"
  },
  {
    "airportIcao": "KERY",
    "metar": "KERY 091235Z AUTO 00000KT 5SM -SN OVC025 M02/M05 A2978 RMK AO2 T10201049",
    "updatedAt": "2022-03-09T12:35:00.000Z"
  },
  {
    "airportIcao": "KESC",
    "metar": "KESC 091156Z AUTO 29009KT 10SM OVC032 M01/M06 A2981 RMK AO2 SLP108 T10111056 10000 21011 53004 FZRANO",
    "updatedAt": "2022-03-09T11:56:00.000Z"
  },
  {
    "airportIcao": "KESF",
    "metar": "KESF 091153Z AUTO 35004KT 10SM OVC010 06/04 A3004 RMK AO2 CIG 007V014 SLP171 70236 T00560039 10061 20056 53012",
    "updatedAt": "2022-03-09T11:53:00.000Z"
  },
  {
    "airportIcao": "KESN",
    "metar": "KESN 091150Z 08006KT 7SM RA OVC012 04/04 A3007",
    "updatedAt": "2022-03-09T11:50:00.000Z"
  },
  {
    "airportIcao": "KEST",
    "metar": "KEST 091152Z AUTO 32014G22KT 10SM FEW022 M09/M13 A3008 RMK AO2 SNB03E14 SLP207 P0000 60000 T10891133 11028 21089 53012",
    "updatedAt": "2022-03-09T11:52:00.000Z"
  },
  {
    "airportIcao": "KETB",
    "metar": "KETB 091235Z AUTO 24005KT 10SM SCT026 M03/M06 A2991 RMK AO2",
    "updatedAt": "2022-03-09T12:35:00.000Z"
  },
  {
    "airportIcao": "KETC",
    "metar": "KETC 091235Z AUTO 33007KT 2SM BR OVC005 07/07 A2993 RMK AO2 T00740069",
    "updatedAt": "2022-03-09T12:35:00.000Z"
  },
  {
    "airportIcao": "KETH",
    "metar": "KETH 091233Z AUTO 28005KT 10SM SCT047 M14/M18 A3019 RMK AO2",
    "updatedAt": "2022-03-09T12:33:00.000Z"
  },
  {
    "airportIcao": "KETN",
    "metar": "KETN 091235Z AUTO 10SM CLR M07/M08 A3012 RMK AO2 T10731084",
    "updatedAt": "2022-03-09T12:35:00.000Z"
  },
  {
    "airportIcao": "KEUF",
    "metar": "KEUF 091157Z AUTO 17004KT 7SM -TSRA BKN006 OVC012 21/19 A2982 RMK AO2 TSE31B54 CIG 004V010 SLP095 P0003 60004 70008 I1000 I6/// T02060189 10206 20144 55004",
    "updatedAt": "2022-03-09T11:57:00.000Z"
  },
  {
    "airportIcao": "KEUG",
    "metar": "KEUG 091154Z AUTO 14005KT 10SM BKN017 OVC022 07/04 A3017 RMK AO2 SLP216 T00670039 10083 20067 58010 TSNO",
    "updatedAt": "2022-03-09T11:54:00.000Z"
  },
  {
    "airportIcao": "KEUL",
    "metar": "KEUL 091156Z AUTO 25008KT 10SM BKN090 BKN110 00/M01 A2998 RMK AO2 RAE04UPB04E31SNB12E24 SLP164 P0000 60000 T00001011 10050 21006 57003 FZRANO",
    "updatedAt": "2022-03-09T11:56:00.000Z"
  },
  {
    "airportIcao": "KEVB",
    "metar": "KEVB 091226Z 20008KT 10SM FEW003 BKN006 21/21 A2997",
    "updatedAt": "2022-03-09T12:26:00.000Z"
  },
  {
    "airportIcao": "KEVM",
    "metar": "KEVM 091236Z AUTO 29010G17KT 7SM -SN SCT023 SCT029 OVC041 M14/M17 A2991 RMK AO2",
    "updatedAt": "2022-03-09T12:36:00.000Z"
  },
  {
    "airportIcao": "KEVU",
    "metar": "KEVU 091235Z AUTO 34007KT 10SM CLR M03/M06 A3010 RMK AO2 T10351061",
    "updatedAt": "2022-03-09T12:35:00.000Z"
  },
  {
    "airportIcao": "KEVV",
    "metar": "KEVV 091154Z 33004KT 9SM OVC095 02/M02 A3001 RMK AO2 SLP165 T00221022 10028 20022 53008 $",
    "updatedAt": "2022-03-09T11:54:00.000Z"
  },
  {
    "airportIcao": "KEVW",
    "metar": "KEVW 091234Z AUTO 29015G31KT 1/2SM SN FZFG VV010 M06/M08 A2973 RMK AO2 PK WND 32039/1216 WSHFT 1151 SNB1154 P0000 T10611078 $",
    "updatedAt": "2022-03-09T12:34:00.000Z"
  },
  {
    "airportIcao": "KEWB",
    "metar": "KEWB 091153Z 00000KT 10SM CLR M01/M03 A3017 RMK AO2 SLP217 T10061033 10000 21022 58005",
    "updatedAt": "2022-03-09T11:53:00.000Z"
  },
  {
    "airportIcao": "KEWK",
    "metar": "KEWK 091156Z AUTO 02009KT 10SM OVC007 M02/M03 A3007 RMK AO2 SLP192 T10171028 10028 21033 53008 FZRANO",
    "updatedAt": "2022-03-09T11:56:00.000Z"
  },
  {
    "airportIcao": "KEWN",
    "metar": "KEWN 091154Z 00000KT 9SM OVC004 11/11 A2988 RMK AO2 SLP119 60003 70017 T01110106 10111 20089 56016",
    "updatedAt": "2022-03-09T11:54:00.000Z"
  },
  {
    "airportIcao": "KEWR",
    "metar": "KEWR 091233Z 09008KT 9SM -RA FEW012 BKN033 OVC045 03/M03 A3011 RMK AO2 P0001 T00331028",
    "updatedAt": "2022-03-09T12:33:00.000Z"
  },
  {
    "airportIcao": "KEXX",
    "metar": "KEXX 091235Z AUTO 35004KT 1 3/4SM BR OVC005 09/09 A2990 RMK AO2 T00880088",
    "updatedAt": "2022-03-09T12:35:00.000Z"
  },
  {
    "airportIcao": "KEYE",
    "metar": "KEYE 091153Z AUTO 33006KT 10SM OVC095 01/M03 A2997 RMK AO2 SLP154 T00111028 10017 20011 55000",
    "updatedAt": "2022-03-09T11:53:00.000Z"
  },
  {
    "airportIcao": "KEYF",
    "metar": "KEYF 091235Z AUTO 36005KT 4SM -DZ BR OVC002 10/10 A2991 RMK AO2 T01050100",
    "updatedAt": "2022-03-09T12:35:00.000Z"
  },
  {
    "airportIcao": "KEYW",
    "metar": "KEYW 091153Z 15011KT 10SM FEW017 SCT110 25/23 A2999 RMK AO2 RAB1054E06 SLP156 P0000 60000 70001 T02500228 10256 20250 51011",
    "updatedAt": "2022-03-09T11:53:00.000Z"
  },
  {
    "airportIcao": "KEZF",
    "metar": "KEZF 091235Z AUTO 04003KT 10SM RA BKN011 OVC014 A2999 RMK AO2 P0004",
    "updatedAt": "2022-03-09T12:35:00.000Z"
  },
  {
    "airportIcao": "KEZM",
    "metar": "KEZM 091235Z AUTO 21009G14KT 10SM CLR 20/18 A2985 RMK AO2",
    "updatedAt": "2022-03-09T12:35:00.000Z"
  },
  {
    "airportIcao": "KEZS",
    "metar": "KEZS 091235Z AUTO 26003KT 10SM BKN038 BKN110 M03/M09 A2988 RMK AO2 T10261090",
    "updatedAt": "2022-03-09T12:35:00.000Z"
  },
  {
    "airportIcao": "KEZZ",
    "metar": "KEZZ 091235Z AUTO 35006KT 10SM CLR M04/M06 A3010 RMK AO2 T10371057",
    "updatedAt": "2022-03-09T12:35:00.000Z"
  },
  {
    "airportIcao": "KF00",
    "metar": "KF00 091230Z AUTO 24003KT 10SM CLR M04/M05 A3012 RMK AO2 T10351051",
    "updatedAt": "2022-03-09T12:30:00.000Z"
  },
  {
    "airportIcao": "KF05",
    "metar": "KF05 091235Z AUTO 00000KT 10SM CLR M03/M07 A3011 RMK AO2 T10271070",
    "updatedAt": "2022-03-09T12:35:00.000Z"
  },
  {
    "airportIcao": "KF17",
    "metar": "KF17 091135Z AUTO 36006KT 7SM OVC005 04/03 A3008 RMK AO2",
    "updatedAt": "2022-03-09T11:35:00.000Z"
  },
  {
    "airportIcao": "KF44",
    "metar": "KF44 091235Z AUTO 00000KT 10SM CLR M01/M02 A3009 RMK AO2",
    "updatedAt": "2022-03-09T12:35:00.000Z"
  },
  {
    "airportIcao": "KF45",
    "metar": "KF45 090600Z AUTO 00000KT A3003 RMK AO2",
    "updatedAt": "2022-03-09T06:00:00.000Z"
  },
  {
    "airportIcao": "KF46",
    "metar": "KF46 091235Z AUTO 00000KT 7SM CLR M01/M01 A3012 RMK AO2 T10131013",
    "updatedAt": "2022-03-09T12:35:00.000Z"
  },
  {
    "airportIcao": "KF70",
    "metar": "KF70 091235Z AUTO 00000KT 10SM CLR 03/M02 A3000 RMK AO2",
    "updatedAt": "2022-03-09T12:35:00.000Z"
  },
  {
    "airportIcao": "KFAF",
    "metar": "KFAF 091226Z 11003KT 1 1/2SM +RA OVC008 07/06 A2992 RMK AO2A VIS 1/2V1 1/2 PRESRR SLP135 $",
    "updatedAt": "2022-03-09T12:26:00.000Z"
  },
  {
    "airportIcao": "KFAM",
    "metar": "KFAM 091156Z AUTO 00000KT 10SM CLR M02/M03 A3003 RMK AO2 SLP187 T10171033 10022 21017 53007 FZRANO",
    "updatedAt": "2022-03-09T11:56:00.000Z"
  },
  {
    "airportIcao": "KFAR",
    "metar": "KFAR 091153Z 32011KT 10SM OVC045 M14/M19 A3015 RMK AO2 SLP230 60000 70001 T11391189 11111 21144 51014",
    "updatedAt": "2022-03-09T11:53:00.000Z"
  },
  {
    "airportIcao": "KFAT",
    "metar": "KFAT 091153Z 11003KT 10SM CLR 08/02 A3002 RMK AO2 SLP164 T00780022 10128 20078 56006",
    "updatedAt": "2022-03-09T11:53:00.000Z"
  },
  {
    "airportIcao": "KFAY",
    "metar": "KFAY 091201Z 03009KT 4SM -RA BR OVC004 10/09 A2989 RMK AO2 RAB1159 CIG 003V008 P0001 T01000089",
    "updatedAt": "2022-03-09T12:01:00.000Z"
  },
  {
    "airportIcao": "KFBG",
    "metar": "KFBG 091209Z AUTO 02005KT 5SM BR OVC004 09/09 A2988 RMK AO2 RAE07DZB07 SLP121 $",
    "updatedAt": "2022-03-09T12:09:00.000Z"
  },
  {
    "airportIcao": "KFBL",
    "metar": "KFBL 091235Z AUTO 28008KT 10SM -SN OVC022 M08/M11 A3006 RMK AO2",
    "updatedAt": "2022-03-09T12:35:00.000Z"
  },
  {
    "airportIcao": "KFBR",
    "metar": "KFBR 091235Z AUTO 32010KT 2 1/2SM -SN BKN013 OVC021 M05/M05 A2974 RMK AO2 T10501050",
    "updatedAt": "2022-03-09T12:35:00.000Z"
  },
  {
    "airportIcao": "KFCI",
    "metar": "KFCI 091156Z AUTO 31008G16KT 10SM -RA BKN005 OVC070 05/05 A2996 RMK AO2 SLP158 P0000 60066 70092 T00500050 10056 20050 58010",
    "updatedAt": "2022-03-09T11:56:00.000Z"
  },
  {
    "airportIcao": "KFCM",
    "metar": "KFCM 091237Z 30012G19KT 10SM SCT024 SCT032 M09/M13 A3005 RMK AO2 T10891128",
    "updatedAt": "2022-03-09T12:37:00.000Z"
  },
  {
    "airportIcao": "KFCS",
    "metar": "KFCS 091158Z AUTO 33005KT 10SM CLR M09/M13 A2979 RMK AO2 SLP151 T10901128 11049 21090 56015 $",
    "updatedAt": "2022-03-09T11:58:00.000Z"
  },
  {
    "airportIcao": "KFDK",
    "metar": "KFDK 091147Z 35004KT 5SM RA SCT024 BKN040 OVC050 04/03 A3000",
    "updatedAt": "2022-03-09T11:47:00.000Z"
  },
  {
    "airportIcao": "KFDR",
    "metar": "KFDR 091153Z AUTO 00000KT 10SM CLR M02/M08 A3006 RMK AO2 SLP181 T10171083 11006 21039 53007",
    "updatedAt": "2022-03-09T11:53:00.000Z"
  },
  {
    "airportIcao": "KFDW",
    "metar": "KFDW 091235Z AUTO 00000KT 3/4SM BR OVC002 12/12 A2986 RMK AO1",
    "updatedAt": "2022-03-09T12:35:00.000Z"
  },
  {
    "airportIcao": "KFDY",
    "metar": "KFDY 091153Z AUTO 36005KT 10SM OVC110 01/M04 A2994 RMK AO2 SLP142 T00061039 10011 20006 56009",
    "updatedAt": "2022-03-09T11:53:00.000Z"
  },
  {
    "airportIcao": "KFEP",
    "metar": "KFEP 091235Z AUTO 27003KT 7SM M03/M03 A3000 RMK AO2 T10291034",
    "updatedAt": "2022-03-09T12:35:00.000Z"
  },
  {
    "airportIcao": "KFET",
    "metar": "KFET 091235Z AUTO 29004KT 10SM BKN110 M08/M11 A3015 RMK AO2 T10771107",
    "updatedAt": "2022-03-09T12:35:00.000Z"
  },
  {
    "airportIcao": "KFEW",
    "metar": "KFEW 091155Z 01009KT 2 3/4SM HZ OVC020 M13/M15 A2984 RMK VIS 2 1/4V2 3/4 SNE1056 4/005 60010 SLP179 T11281154 11102 21129 53000 PWINO $",
    "updatedAt": "2022-03-09T11:55:00.000Z"
  },
  {
    "airportIcao": "KFFA",
    "metar": "KFFA 091235Z AUTO 15005KT 7SM SCT004 BKN017 OVC034 17/17 A2983 RMK AO2 P0002 T01720172",
    "updatedAt": "2022-03-09T12:35:00.000Z"
  },
  {
    "airportIcao": "KFFC",
    "metar": "KFFC 091213Z AUTO 00000KT 4SM -RA BR FEW005 BKN043 OVC075 13/11 A2985 RMK AO2 P0003 T01280111",
    "updatedAt": "2022-03-09T12:13:00.000Z"
  },
  {
    "airportIcao": "KFFL",
    "metar": "KFFL 091235Z AUTO 33008KT 10SM OVC034 M03/M03 A3006 RMK A01",
    "updatedAt": "2022-03-09T12:35:00.000Z"
  },
  {
    "airportIcao": "KFFM",
    "metar": "KFFM 091235Z AUTO 32010KT 10SM SCT042 M16/M18 A3009 RMK AO2",
    "updatedAt": "2022-03-09T12:35:00.000Z"
  },
  {
    "airportIcao": "KFFO",
    "metar": "KFFO 091236Z 33008KT 7SM -RASN BKN050 BKN065 OVC085 02/M02 A2995 RMK AO2A SLP152",
    "updatedAt": "2022-03-09T12:36:00.000Z"
  },
  {
    "airportIcao": "KFFT",
    "metar": "KFFT 091153Z AUTO 33006KT 6SM -RA BR OVC005 02/01 A2992 RMK AO2 UPE11B31E43RAB43 SLP137 P0001 60017 70017 T00220011 10050 20022 53010",
    "updatedAt": "2022-03-09T11:53:00.000Z"
  },
  {
    "airportIcao": "KFFX",
    "metar": "KFFX 091235Z AUTO 23006KT 10SM SCT050 SCT120 M03/M05 A2991 RMK AO2 T10311051",
    "updatedAt": "2022-03-09T12:35:00.000Z"
  },
  {
    "airportIcao": "KFFZ",
    "metar": "KFFZ 091154Z AUTO 00000KT 10SM CLR 07/M07 A2993 RMK AO2 SLP124 T00671067 10100 20067 55002 TSNO",
    "updatedAt": "2022-03-09T11:54:00.000Z"
  },
  {
    "airportIcao": "KFGN",
    "metar": "KFGN 091235Z AUTO 30017G21KT 10SM OVC029 M16/M21 A3000 RMK AO2",
    "updatedAt": "2022-03-09T12:35:00.000Z"
  },
  {
    "airportIcao": "KFGX",
    "metar": "KFGX 091235Z AUTO 03004KT 4SM -RA OVC004 01/01 A2993 RMK AO2 T00100005",
    "updatedAt": "2022-03-09T12:35:00.000Z"
  },
  {
    "airportIcao": "KFHB",
    "metar": "KFHB 091235Z AUTO 21009KT 7SM SCT010 BKN015 OVC060 21/21 A2995 RMK AO2 T02140206",
    "updatedAt": "2022-03-09T12:35:00.000Z"
  },
  {
    "airportIcao": "KFHR",
    "metar": "KFHR 091153Z AUTO 04010G19KT 10SM FEW085 05/M12 A3025 RMK AO2 SLP242 70001 T00501122 10072 20050 53013 $",
    "updatedAt": "2022-03-09T11:53:00.000Z"
  },
  {
    "airportIcao": "KFHU",
    "metar": "KFHU 091158Z AUTO 24007KT 10SM CLR 02/M14 A2995 RMK AO2 SLP118 T00231144 10050 20002 55003",
    "updatedAt": "2022-03-09T11:58:00.000Z"
  },
  {
    "airportIcao": "KFIG",
    "metar": "KFIG 091214Z AUTO 03005KT 10SM -SN OVC028 M01/M03 A2992 RMK AO2 UPB12E14SNB14 P0000 T10111028",
    "updatedAt": "2022-03-09T12:14:00.000Z"
  },
  {
    "airportIcao": "KFIN",
    "metar": "KFIN 091150Z 20009KT 7SM BKN007 21/21 A2997",
    "updatedAt": "2022-03-09T11:50:00.000Z"
  },
  {
    "airportIcao": "KFIT",
    "metar": "KFIT 091152Z AUTO 00000KT 10SM CLR M02/M06 A3017 RMK AO2 SLP223 T10171061 11017 21039 53000 TSNO",
    "updatedAt": "2022-03-09T11:52:00.000Z"
  },
  {
    "airportIcao": "KFKA",
    "metar": "KFKA 091235Z AUTO 31015G18KT 10SM BKN022 M08/M12 A3001 RMK AO2 T10821116",
    "updatedAt": "2022-03-09T12:35:00.000Z"
  },
  {
    "airportIcao": "KFKL",
    "metar": "KFKL 091156Z AUTO 02004KT 10SM OVC080 M02/M04 A2990 RMK AO2 SLP143 T10171039 11011 21022 58015 FZRANO",
    "updatedAt": "2022-03-09T11:56:00.000Z"
  },
  {
    "airportIcao": "KFKN",
    "metar": "KFKN 091235Z AUTO 05006G16KT 10SM RA OVC029 07/06 A2993 RMK AO2 P0001 T00650062",
    "updatedAt": "2022-03-09T12:35:00.000Z"
  },
  {
    "airportIcao": "KFKR",
    "metar": "KFKR 091235Z AUTO 00000KT 5SM BR BKN085 OVC120 M02/M02 A2997 RMK AO2",
    "updatedAt": "2022-03-09T12:35:00.000Z"
  },
  {
    "airportIcao": "KFKS",
    "metar": "KFKS 091235Z AUTO 27007KT 10SM BKN033 OVC041 00/M04 A2986 RMK AO2 T00021038",
    "updatedAt": "2022-03-09T12:35:00.000Z"
  },
  {
    "airportIcao": "KFLD",
    "metar": "KFLD 091226Z AUTO 30011G15KT 10SM OVC030 M03/M09 A2992 RMK AO2 T10331094",
    "updatedAt": "2022-03-09T12:26:00.000Z"
  },
  {
    "airportIcao": "KFLG",
    "metar": "KFLG 091157Z AUTO 22003KT 10SM CLR M08/M12 A2992 RMK AO2 SLP133 T10831122 11050 21094 56010",
    "updatedAt": "2022-03-09T11:57:00.000Z"
  },
  {
    "airportIcao": "KFLL",
    "metar": "KFLL 091153Z 16007KT 10SM FEW025 24/21 A3001 RMK AO2 SLP162 T02440211 10250 20239 53011",
    "updatedAt": "2022-03-09T11:53:00.000Z"
  },
  {
    "airportIcao": "KFLO",
    "metar": "KFLO 091235Z 17003KT 1 1/2SM BR OVC003 15/14 A2989 RMK AO2 T01500139",
    "updatedAt": "2022-03-09T12:35:00.000Z"
  },
  {
    "airportIcao": "KFLP",
    "metar": "KFLP 091156Z AUTO 30003KT 10SM CLR M01/M02 A3007 RMK AO2 SLP187 T10061017 10033 21006 53012 FZRANO",
    "updatedAt": "2022-03-09T11:56:00.000Z"
  },
  {
    "airportIcao": "KFLY",
    "metar": "KFLY 091235Z AUTO 26003KT 10SM CLR M11/M14 A2977 RMK AO2 T11131142",
    "updatedAt": "2022-03-09T12:35:00.000Z"
  },
  {
    "airportIcao": "KFME",
    "metar": "KFME 091235Z AUTO 00000KT 4SM OVC009 03/03 A3008 RMK AO1",
    "updatedAt": "2022-03-09T12:35:00.000Z"
  },
  {
    "airportIcao": "KFMH",
    "metar": "KFMH 091145Z 00000KT 10SM CLR M01/M04 A3018",
    "updatedAt": "2022-03-09T11:45:00.000Z"
  },
  {
    "airportIcao": "KFMM",
    "metar": "KFMM 091235Z AUTO 09015KT 10SM OVC004 M06/M06 A2989 RMK AO2",
    "updatedAt": "2022-03-09T12:35:00.000Z"
  },
  {
    "airportIcao": "KFMN",
    "metar": "KFMN 091153Z AUTO 06006KT 10SM CLR M02/M09 A2989 RMK AO2 SLP130 T10221089 10011 21022 56012",
    "updatedAt": "2022-03-09T11:53:00.000Z"
  },
  {
    "airportIcao": "KFMY",
    "metar": "KFMY 091153Z 15003KT 9SM CLR 22/21 A2999 RMK AO2 SLP157 T02220206 10233 20222 53012 $",
    "updatedAt": "2022-03-09T11:53:00.000Z"
  },
  {
    "airportIcao": "KFNB",
    "metar": "KFNB 091153Z AUTO 33007KT 10SM CLR M05/M08 A3012 RMK AO2 SLP208 T10501078 10000 21050 53012",
    "updatedAt": "2022-03-09T11:53:00.000Z"
  },
  {
    "airportIcao": "KFNL",
    "metar": "KFNL 091156Z 01016KT 4SM -SN BR OVC018 M08/M11 A2990 RMK AO2 SLP147 P0000 60000 T10831106 11050 21083 53004 FZRANO",
    "updatedAt": "2022-03-09T11:56:00.000Z"
  },
  {
    "airportIcao": "KFNT",
    "metar": "KFNT 091153Z 20004KT 10SM CLR M03/M06 A2993 RMK AO2 SLP145 T10281056 11011 21039 56011",
    "updatedAt": "2022-03-09T11:53:00.000Z"
  },
  {
    "airportIcao": "KFOA",
    "metar": "KFOA 091235Z AUTO 00000KT 10SM CLR 00/M02 A3004 RMK AO2",
    "updatedAt": "2022-03-09T12:35:00.000Z"
  },
  {
    "airportIcao": "KFOD",
    "metar": "KFOD 091235Z AUTO 34009G16KT 10SM BKN026 M07/M11 A3010 RMK AO2 FZRANO",
    "updatedAt": "2022-03-09T12:35:00.000Z"
  },
  {
    "airportIcao": "KFOE",
    "metar": "KFOE 091153Z 36006KT 10SM OVC026 M01/M05 A3009 RMK AO2 SLP197 T10111050 10028 21011 53013",
    "updatedAt": "2022-03-09T11:53:00.000Z"
  },
  {
    "airportIcao": "KFOK",
    "metar": "KFOK 091234Z 15006KT 2SM -SN BR BKN004 OVC008 01/M01 A3017 RMK AO2 P0004 T00061011",
    "updatedAt": "2022-03-09T12:34:00.000Z"
  },
  {
    "airportIcao": "KFOT",
    "metar": "KFOT 090615Z AUTO 00000KT 10SM CLR 05/02 A3023 RMK AO1",
    "updatedAt": "2022-03-09T06:15:00.000Z"
  },
  {
    "airportIcao": "KFOZ",
    "metar": "KFOZ 091233Z AUTO 28007KT 253V313 7SM SCT011 BKN017 OVC028 M14/M17 A3000 RMK AO2",
    "updatedAt": "2022-03-09T12:33:00.000Z"
  },
  {
    "airportIcao": "KFPK",
    "metar": "KFPK 091235Z AUTO 21004KT 7SM OVC110 M02/M05 A2992 RMK AO2 T10201049",
    "updatedAt": "2022-03-09T12:35:00.000Z"
  },
  {
    "airportIcao": "KFPR",
    "metar": "KFPR 091153Z 18004KT 10SM FEW022 FEW028 22/21 A3002 RMK AO2 SLP166 7//// T02170206 10228 20200 53016 $",
    "updatedAt": "2022-03-09T11:53:00.000Z"
  },
  {
    "airportIcao": "KFPY",
    "metar": "KFPY 091235Z AUTO 18006KT 5SM BR OVC005 22/21 A2993 RMK AO2 LTG DSNT W T02230213",
    "updatedAt": "2022-03-09T12:35:00.000Z"
  },
  {
    "airportIcao": "KFQD",
    "metar": "KFQD 091235Z AUTO 03003KT 10SM -RA OVC006 08/08 A2985 RMK AO2 LTG DSNT SE P0007",
    "updatedAt": "2022-03-09T12:35:00.000Z"
  },
  {
    "airportIcao": "KFRG",
    "metar": "KFRG 091227Z AUTO 12004KT 2SM -SN BR OVC028 01/M01 A3013 RMK AO2 P0000 T00061006",
    "updatedAt": "2022-03-09T12:27:00.000Z"
  },
  {
    "airportIcao": "KFRH",
    "metar": "KFRH 091235Z AUTO 00000KT 10SM SCT070 OVC080 01/M02 A2999 RMK AO1",
    "updatedAt": "2022-03-09T12:35:00.000Z"
  },
  {
    "airportIcao": "KFRI",
    "metar": "KFRI 091156Z AUTO 00000KT 10SM CLR M05/M08 A3012 RMK AO2 SLP208 T10531077 10022 21053 51009",
    "updatedAt": "2022-03-09T11:56:00.000Z"
  },
  {
    "airportIcao": "KFRM",
    "metar": "KFRM 091156Z AUTO 32012KT 10SM CLR M09/M13 A3009 RMK AO2 SLP212 60000 T10941128 11033 21094 53012 FZRANO",
    "updatedAt": "2022-03-09T11:56:00.000Z"
  },
  {
    "airportIcao": "KFRR",
    "metar": "KFRR 091235Z AUTO 00000KT 2SM BKN018 BKN032 OVC065 A2995 RMK AO1 P0006",
    "updatedAt": "2022-03-09T12:35:00.000Z"
  },
  {
    "airportIcao": "KFSD",
    "metar": "KFSD 091156Z 33013KT 10SM SCT150 M11/M16 A3013 RMK AO2 SLP225 T11061156 11056 21106 53007",
    "updatedAt": "2022-03-09T11:56:00.000Z"
  },
  {
    "airportIcao": "KFSE",
    "metar": "KFSE 091235Z AUTO 30010G14KT 7SM M17/M21 A3008 RMK AO2",
    "updatedAt": "2022-03-09T12:35:00.000Z"
  },
  {
    "airportIcao": "KFSI",
    "metar": "KFSI 091156Z AUTO 00000KT 10SM CLR M04/M07 A3007 RMK AO2 SLP190 T10431071 10007 21056 53005",
    "updatedAt": "2022-03-09T11:56:00.000Z"
  },
  {
    "airportIcao": "KFSM",
    "metar": "KFSM 091153Z 20004KT 10SM CLR M01/M02 A3009 RMK AO2 SLP191 T10061022 10050 21011 53009",
    "updatedAt": "2022-03-09T11:53:00.000Z"
  },
  {
    "airportIcao": "KFSO",
    "metar": "KFSO 091235Z AUTO 13003KT 10SM OVC050 M03/M07 A3011 RMK AO2 T10261068",
    "updatedAt": "2022-03-09T12:35:00.000Z"
  },
  {
    "airportIcao": "KFST",
    "metar": "KFST 091153Z AUTO 15008KT CLR 03/M06 A2999 RMK AO2 SLP137 T00281061 10056 20022 55001 PWINO $",
    "updatedAt": "2022-03-09T11:53:00.000Z"
  },
  {
    "airportIcao": "KFSW",
    "metar": "KFSW 091235Z AUTO 33008KT 10SM SCT001 OVC060 M02/M04 A3003 RMK AO2",
    "updatedAt": "2022-03-09T12:35:00.000Z"
  },
  {
    "airportIcao": "KFTK",
    "metar": "KFTK 091232Z AUTO 28004KT 4SM BR SCT047 BKN060 OVC080 01/01 A2998 RMK AO2 SLP160 FZRANO $",
    "updatedAt": "2022-03-09T12:32:00.000Z"
  },
  {
    "airportIcao": "KFTN",
    "metar": "KFTN 090610Z AUTO 10009KT 10SM CLR 12/04 A3006 RMK A01",
    "updatedAt": "2022-03-09T06:10:00.000Z"
  },
  {
    "airportIcao": "KFTW",
    "metar": "KFTW 091153Z 00000KT 7SM CLR M02/M03 A3010 RMK AO2 SLP195 70003 T10171028 10011 21022 53008 $",
    "updatedAt": "2022-03-09T11:53:00.000Z"
  },
  {
    "airportIcao": "KFTY",
    "metar": "KFTY 091200Z 00000KT 8SM -RA SCT005 BKN020 OVC055 11/11 A2985 RMK AO2 P0000 T01110111",
    "updatedAt": "2022-03-09T12:00:00.000Z"
  },
  {
    "airportIcao": "KFUL",
    "metar": "KFUL 091153Z AUTO 10004KT 10SM CLR 09/M01 A2998 RMK AO2 SLP152 T00941011 10128 20094 55004",
    "updatedAt": "2022-03-09T11:53:00.000Z"
  },
  {
    "airportIcao": "KFVE",
    "metar": "KFVE 091153Z AUTO 27004KT 10SM CLR M13/M16 A3007 RMK AO2 SLP201 7//// T11281156 11106 21139 58002",
    "updatedAt": "2022-03-09T11:53:00.000Z"
  },
  {
    "airportIcao": "KFVX",
    "metar": "KFVX 091235Z AUTO 02005KT 5SM -DZ OVC004 05/05 A2995 RMK AO2 P0001 T00480045",
    "updatedAt": "2022-03-09T12:35:00.000Z"
  },
  {
    "airportIcao": "KFWA",
    "metar": "KFWA 091154Z 00000KT 7SM BKN150 BKN220 M01/M03 A2998 RMK AO2 SLP159 T10111028 11006 21017 56003",
    "updatedAt": "2022-03-09T11:54:00.000Z"
  },
  {
    "airportIcao": "KFWB",
    "metar": "KFWB 091235Z AUTO 00000KT 5SM BR CLR M02/M02 A3006 RMK AO2",
    "updatedAt": "2022-03-09T12:35:00.000Z"
  },
  {
    "airportIcao": "KFWN",
    "metar": "KFWN 091219Z AUTO 00000KT 10SM BKN023 BKN065 OVC090 01/M07 A3008 RMK AO2 T00061067",
    "updatedAt": "2022-03-09T12:19:00.000Z"
  },
  {
    "airportIcao": "KFWS",
    "metar": "KFWS 091235Z AUTO 00000KT 7SM CLR M03/M04 A3012 RMK AO2 T10401045",
    "updatedAt": "2022-03-09T12:35:00.000Z"
  },
  {
    "airportIcao": "KFXE",
    "metar": "KFXE 091153Z 16007KT 10SM CLR 22/21 A3001 RMK AO2 SLP165 T02220206 10244 20217 53010",
    "updatedAt": "2022-03-09T11:53:00.000Z"
  },
  {
    "airportIcao": "KFXY",
    "metar": "KFXY 091235Z AUTO 30012G20KT 10SM CLR M08/M12 A3007 RMK AO2",
    "updatedAt": "2022-03-09T12:35:00.000Z"
  },
  {
    "airportIcao": "KFYE",
    "metar": "KFYE 090615Z AUTO 34009KT 5SM BR OVC006 04/04 A2995 RMK A01",
    "updatedAt": "2022-03-09T06:15:00.000Z"
  },
  {
    "airportIcao": "KFYG",
    "metar": "KFYG 091235Z AUTO 00000KT 9SM CLR M01/M01 A3006 RMK AO2",
    "updatedAt": "2022-03-09T12:35:00.000Z"
  },
  {
    "airportIcao": "KFYJ",
    "metar": "KFYJ 091235Z AUTO 05003KT 10SM BKN008 OVC110 06/05 A2995 RMK AO1 T00560050",
    "updatedAt": "2022-03-09T12:35:00.000Z"
  },
  {
    "airportIcao": "KFYM",
    "metar": "KFYM 090620Z AUTO 31005KT 6SM BR OVC003 06/06 A2986 RMK A01",
    "updatedAt": "2022-03-09T06:20:00.000Z"
  },
  {
    "airportIcao": "KFYV",
    "metar": "KFYV 091153Z 00000KT 4SM BR CLR M03/M04 A3007 RMK AO2 SLP189 I1001 I6001 T10281039 10033 21028 53008",
    "updatedAt": "2022-03-09T11:53:00.000Z"
  },
  {
    "airportIcao": "KFZG",
    "metar": "KFZG 091235Z AUTO 20007KT 10SM BKN011 OVC021 21/19 A2988 RMK AO2 T02110190",
    "updatedAt": "2022-03-09T12:35:00.000Z"
  },
  {
    "airportIcao": "KFZY",
    "metar": "KFZY 091154Z AUTO 00000KT 10SM CLR M02/M07 A3004 RMK AO2 SLP177 T10221072 11022 21033 56018",
    "updatedAt": "2022-03-09T11:54:00.000Z"
  },
  {
    "airportIcao": "KGAD",
    "metar": "KGAD 091243Z AUTO 31006KT 10SM BKN011 OVC042 08/08 A2992 RMK AO2 $",
    "updatedAt": "2022-03-09T12:43:00.000Z"
  },
  {
    "airportIcao": "KGAF",
    "metar": "KGAF 091235Z AUTO 32010KT 10SM CLR M17/M22 A3017 RMK AO2",
    "updatedAt": "2022-03-09T12:35:00.000Z"
  },
  {
    "airportIcao": "KGAG",
    "metar": "KGAG 091153Z AUTO 24005KT 10SM CLR M08/M10 A3002 RMK AO2 SLP181 T10781100 11039 21083 55003",
    "updatedAt": "2022-03-09T11:53:00.000Z"
  },
  {
    "airportIcao": "KGAI",
    "metar": "KGAI 091240Z AUTO 11007KT 7SM RA SCT009 SCT019 OVC060 03/03 A3001 RMK AO2 PRESFR P0008",
    "updatedAt": "2022-03-09T12:40:00.000Z"
  },
  {
    "airportIcao": "KGAO",
    "metar": "KGAO 091235Z AUTO 36014G19KT 10SM OVC008 13/10 A2995 RMK AO2 T01250102",
    "updatedAt": "2022-03-09T12:35:00.000Z"
  },
  {
    "airportIcao": "KGBD",
    "metar": "KGBD 091156Z AUTO 00000KT 10SM CLR M09/M11 A3009 RMK AO2 SLP208 T10941106 11017 21094 53004 FZRANO",
    "updatedAt": "2022-03-09T11:56:00.000Z"
  },
  {
    "airportIcao": "KGBG",
    "metar": "KGBG 091235Z AUTO 30006KT 10SM CLR M03/M05 A3003 RMK AO2 T10351047",
    "updatedAt": "2022-03-09T12:35:00.000Z"
  },
  {
    "airportIcao": "KGBK",
    "metar": "KGBK 091235Z AUTO VRB05G11KT OVC012 18/18 RMK A01",
    "updatedAt": "2022-03-09T12:35:00.000Z"
  },
  {
    "airportIcao": "KGCC",
    "metar": "KGCC 091240Z AUTO 01007KT 1 1/4SM BR BKN009 OVC017 M16/M18 A3006",
    "updatedAt": "2022-03-09T12:40:00.000Z"
  },
  {
    "airportIcao": "KGCD",
    "metar": "KGCD 091235Z AUTO 30007KT 2SM -SN BKN002 OVC005 M03/M03 A3001 RMK AO2 T10271031",
    "updatedAt": "2022-03-09T12:35:00.000Z"
  },
  {
    "airportIcao": "KGCK",
    "metar": "KGCK 091201Z AUTO 07011KT 7SM OVC004 M07/M08 A3001 RMK AO2 T10721078",
    "updatedAt": "2022-03-09T12:01:00.000Z"
  },
  {
    "airportIcao": "KGCM",
    "metar": "KGCM 091235Z AUTO 00000KT 10SM CLR M05/M06 A3012 RMK AO2",
    "updatedAt": "2022-03-09T12:35:00.000Z"
  },
  {
    "airportIcao": "KGCN",
    "metar": "KGCN 091154Z AUTO 00000KT 10SM CLR M09/M11 A2992 RMK AO2 SLP135 T10891106 11056 21089 58013",
    "updatedAt": "2022-03-09T11:54:00.000Z"
  },
  {
    "airportIcao": "KGCY",
    "metar": "KGCY 090615Z AUTO 00000KT 9SM BKN005 OVC008 08/07 A2993 RMK A01",
    "updatedAt": "2022-03-09T06:15:00.000Z"
  },
  {
    "airportIcao": "KGDB",
    "metar": "KGDB 091235Z AUTO 32012G18KT 4SM -SN SCT013 SCT020 OVC032 M09/M11 A3015 RMK AO2 T10901114",
    "updatedAt": "2022-03-09T12:35:00.000Z"
  },
  {
    "airportIcao": "KGDJ",
    "metar": "KGDJ 091235Z AUTO 00000KT 7SM CLR M04/M05 A3014 RMK AO2 T10431051",
    "updatedAt": "2022-03-09T12:35:00.000Z"
  },
  {
    "airportIcao": "KGDP",
    "metar": "KGDP 091151Z AUTO 06014KT 9SM CLR 02/M11 A2995 RMK AO2 SLP123 T00171106 10028 20017 56007",
    "updatedAt": "2022-03-09T11:51:00.000Z"
  },
  {
    "airportIcao": "KGDV",
    "metar": "KGDV 091156Z AUTO 33009KT 9SM -SN SCT028 OVC035 M13/M17 A3019 RMK AO2 SLP276 P0000 60000 T11331167 11128 21144 55005 FZRANO",
    "updatedAt": "2022-03-09T11:56:00.000Z"
  },
  {
    "airportIcao": "KGED",
    "metar": "KGED 091154Z AUTO 10009KT 7SM -RA OVC055 05/04 A3006 RMK AO2 SLP179 P0011 60043 70043 T00500039 10056 20050 58007",
    "updatedAt": "2022-03-09T11:54:00.000Z"
  },
  {
    "airportIcao": "KGEG",
    "metar": "KGEG 091153Z 06009KT 10SM BKN075 BKN150 M04/M18 A3015 RMK AO2 SLP231 T10441183 11006 21044 53003",
    "updatedAt": "2022-03-09T11:53:00.000Z"
  },
  {
    "airportIcao": "KGEU",
    "metar": "KGEU 090255Z VRB04KT 10SM SKC 14/M10 A2995 RMK LAST",
    "updatedAt": "2022-03-09T02:55:00.000Z"
  },
  {
    "airportIcao": "KGEY",
    "metar": "KGEY 091153Z AUTO 31012KT 10SM OVC060 M12/M18 A3004 RMK AO2 SLP232 60000 T11221178 11100 21122 56002",
    "updatedAt": "2022-03-09T11:53:00.000Z"
  },
  {
    "airportIcao": "KGEZ",
    "metar": "KGEZ 091153Z AUTO 34007KT 10SM SCT075 OVC100 02/M02 A2996 RMK AO2 SLP151 T00221017 10028 20022 53003",
    "updatedAt": "2022-03-09T11:53:00.000Z"
  },
  {
    "airportIcao": "KGFA",
    "metar": "KGFA 091239Z AUTO 24006KT 10SM -SN BKN015 M16/M18 A3024 RMK AO2 SNB38 SLP344 $",
    "updatedAt": "2022-03-09T12:39:00.000Z"
  },
  {
    "airportIcao": "KGFK",
    "metar": "KGFK 091153Z 33011KT 10SM FEW050 M17/M21 A3014 RMK AO2 SLP230 4/007 60000 T11721211 11133 21172 53012 $",
    "updatedAt": "2022-03-09T11:53:00.000Z"
  },
  {
    "airportIcao": "KGFL",
    "metar": "KGFL 090153Z AUTO 20003KT 10SM CLR M04/M09 A3016 RMK AO2 SLP222 T10441094",
    "updatedAt": "2022-03-09T01:53:00.000Z"
  },
  {
    "airportIcao": "KGGE",
    "metar": "KGGE 091235Z AUTO 00000KT 3/4SM BR OVC002 16/16 A2990 RMK AO2",
    "updatedAt": "2022-03-09T12:35:00.000Z"
  },
  {
    "airportIcao": "KGGG",
    "metar": "KGGG 091153Z 31003KT 10SM CLR 00/00 A3008 RMK AO2 SLP190 70032 T00000000 10039 21006 53010",
    "updatedAt": "2022-03-09T11:53:00.000Z"
  },
  {
    "airportIcao": "KGGI",
    "metar": "KGGI 091235Z AUTO 31006KT 10SM CLR M04/M06 A3008 RMK AO2 T10361060",
    "updatedAt": "2022-03-09T12:35:00.000Z"
  },
  {
    "airportIcao": "KGGP",
    "metar": "KGGP 091235Z AUTO 00000KT 4SM HZ OVC110 M01/M08 A2999 RMK AO2",
    "updatedAt": "2022-03-09T12:35:00.000Z"
  },
  {
    "airportIcao": "KGGW",
    "metar": "KGGW 091153Z AUTO 30004KT 10SM CLR M18/M21 A3022 RMK AO2 SLP287 60000 T11781206 11122 21183 55002",
    "updatedAt": "2022-03-09T11:53:00.000Z"
  },
  {
    "airportIcao": "KGHB",
    "metar": "KGHB 091235Z AUTO 04020KT 8SM OVC012 A2993 RMK A01",
    "updatedAt": "2022-03-09T12:35:00.000Z"
  },
  {
    "airportIcao": "KGHG",
    "metar": "KGHG 091235Z AUTO 00000KT 10SM CLR 00/M05 A3018 RMK AO2",
    "updatedAt": "2022-03-09T12:35:00.000Z"
  },
  {
    "airportIcao": "KGHW",
    "metar": "KGHW 091235Z AUTO 29010KT 10SM SCT015 M15/M17 A3009 RMK AO2",
    "updatedAt": "2022-03-09T12:35:00.000Z"
  },
  {
    "airportIcao": "KGIC",
    "metar": "KGIC 091235Z AUTO 34004KT 10SM OVC015 M06/M10 A3004 RMK AO1",
    "updatedAt": "2022-03-09T12:35:00.000Z"
  },
  {
    "airportIcao": "KGIF",
    "metar": "KGIF 091153Z AUTO 18009KT 9SM OVC006 22/21 A3000 RMK AO2 SLP158 70001 T02220206 10233 20217 53009",
    "updatedAt": "2022-03-09T11:53:00.000Z"
  },
  {
    "airportIcao": "KGJT",
    "metar": "KGJT 091153Z AUTO 11014KT 10SM SCT065 M01/M08 A2982 RMK AO2 SLP100 T10061078 10022 21011 56017",
    "updatedAt": "2022-03-09T11:53:00.000Z"
  },
  {
    "airportIcao": "KGKJ",
    "metar": "KGKJ 091153Z AUTO 03003KT 10SM OVC110 M02/M05 A2990 RMK AO2 SLP139 T10171050 11006 21022 58013",
    "updatedAt": "2022-03-09T11:53:00.000Z"
  },
  {
    "airportIcao": "KGKT",
    "metar": "KGKT 090615Z AUTO 00000KT 3SM BR FEW004 SCT038 BKN049 08/08 A2992 RMK A01",
    "updatedAt": "2022-03-09T06:15:00.000Z"
  },
  {
    "airportIcao": "KGKY",
    "metar": "KGKY 091153Z AUTO 00000KT 5SM BR CLR M03/M04 A3011 RMK AO2 SLP198 I1001 I6001 T10281039 11006 21039 53010",
    "updatedAt": "2022-03-09T11:53:00.000Z"
  },
  {
    "airportIcao": "KGLD",
    "metar": "KGLD 091241Z AUTO 12013KT 10SM OVC011 M07/M09 A2998 RMK AO2 T10721089",
    "updatedAt": "2022-03-09T12:41:00.000Z"
  },
  {
    "airportIcao": "KGLE",
    "metar": "KGLE 091235Z AUTO 00000KT 10SM CLR M05/M06 A3012 RMK AO2 T10461061",
    "updatedAt": "2022-03-09T12:35:00.000Z"
  },
  {
    "airportIcao": "KGLH",
    "metar": "KGLH 091230Z AUTO 02006KT 10SM OVC011 06/03 A3006 RMK AO2 T00560028",
    "updatedAt": "2022-03-09T12:30:00.000Z"
  },
  {
    "airportIcao": "KGLR",
    "metar": "KGLR 091153Z AUTO 19005KT 4SM BR SCT060 M07/M09 A2981 RMK AO2 SLP113 I1001 I6001 T10671089 11039 21078 56011",
    "updatedAt": "2022-03-09T11:53:00.000Z"
  },
  {
    "airportIcao": "KGLS",
    "metar": "KGLS 091152Z 35018KT 10SM OVC011 09/06 A3000 RMK AO2 PK WND 36032/1104 SLP159 70007 T00940056 10094 20089 53001",
    "updatedAt": "2022-03-09T11:52:00.000Z"
  },
  {
    "airportIcao": "KGLW",
    "metar": "KGLW 091235Z AUTO 34004KT 2 1/2SM DZ OVC006 02/02 A2999 RMK AO2 P0001 T00200018",
    "updatedAt": "2022-03-09T12:35:00.000Z"
  },
  {
    "airportIcao": "KGLY",
    "metar": "KGLY 091235Z AUTO 6SM BR CLR M02/M03 A3007 RMK AO2",
    "updatedAt": "2022-03-09T12:35:00.000Z"
  },
  {
    "airportIcao": "KGMJ",
    "metar": "KGMJ 091235Z AUTO 00000KT 5SM BR CLR M03/M03 A3011 RMK AO2",
    "updatedAt": "2022-03-09T12:35:00.000Z"
  },
  {
    "airportIcao": "KGMU",
    "metar": "KGMU 091212Z 00000KT 4SM +RA BR FEW005 BKN049 OVC070 11/10 A2984 RMK AO2 LTG DSNT NE AND E TSE00 P0007 T01110100",
    "updatedAt": "2022-03-09T12:12:00.000Z"
  },
  {
    "airportIcao": "KGNA",
    "metar": "KGNA 091156Z AUTO 33011G21KT M09/M15 A2980 RMK AO1 SLP106 T10891150 11039 21089 58001",
    "updatedAt": "2022-03-09T11:56:00.000Z"
  },
  {
    "airportIcao": "KGNB",
    "metar": "KGNB 091235Z AUTO 00000KT 10SM CLR M09/M12 A2970 RMK AO2 T10911118",
    "updatedAt": "2022-03-09T12:35:00.000Z"
  },
  {
    "airportIcao": "KGNC",
    "metar": "KGNC 091235Z AUTO 17005KT 10SM CLR M01/M07 A3005 RMK AO2 T10111074",
    "updatedAt": "2022-03-09T12:35:00.000Z"
  },
  {
    "airportIcao": "KGNG",
    "metar": "KGNG 090615Z AUTO 26014G22KT 10SM OVC070 01/01 A2993 RMK AO2",
    "updatedAt": "2022-03-09T06:15:00.000Z"
  },
  {
    "airportIcao": "KGNR",
    "metar": "KGNR 091156Z AUTO 07003KT M09/M13 A3005 RMK AO1 SLP203 T10891133 11083 21106 58005",
    "updatedAt": "2022-03-09T11:56:00.000Z"
  },
  {
    "airportIcao": "KGNV",
    "metar": "KGNV 091153Z 19007KT 9SM -RA BKN008 BKN018 OVC100 22/21 A2997 RMK AO2 RAB40 SLP146 P0000 60009 70009 T02220211 10222 20217 51006",
    "updatedAt": "2022-03-09T11:53:00.000Z"
  },
  {
    "airportIcao": "KGOK",
    "metar": "KGOK 091153Z AUTO 19003KT 10SM M06/M07 A3008 RMK AO2 SLP195 T10611072 11028 21061 53002 $",
    "updatedAt": "2022-03-09T11:53:00.000Z"
  },
  {
    "airportIcao": "KGON",
    "metar": "KGON 091156Z 03003KT 10SM OVC100 02/M07 A3016 RMK AO2 SLP212 T00221067 10022 20000 58010",
    "updatedAt": "2022-03-09T11:56:00.000Z"
  },
  {
    "airportIcao": "KGOO",
    "metar": "KGOO 090610Z AUTO 00000KT 10SM CLR 09/M05 A3006 RMK A01",
    "updatedAt": "2022-03-09T06:10:00.000Z"
  },
  {
    "airportIcao": "KGOP",
    "metar": "KGOP 091235Z AUTO 21004KT 6SM BR M01/M03 A3014 RMK AO2",
    "updatedAt": "2022-03-09T12:35:00.000Z"
  },
  {
    "airportIcao": "KGOV",
    "metar": "KGOV 091158Z AUTO 24005KT 10SM CLR M06/M06 A2984 RMK AO2 LTG DSNT S SLP126 56013",
    "updatedAt": "2022-03-09T11:58:00.000Z"
  },
  {
    "airportIcao": "KGPC",
    "metar": "KGPC 091235Z AUTO 32004KT 10SM BKN100 OVC120 00/M03 A2999 RMK AO2 T10031028",
    "updatedAt": "2022-03-09T12:35:00.000Z"
  },
  {
    "airportIcao": "KGPH",
    "metar": "KGPH 091235Z AUTO 33004KT 10SM CLR M01/M04 A3010 RMK AO2",
    "updatedAt": "2022-03-09T12:35:00.000Z"
  },
  {
    "airportIcao": "KGPI",
    "metar": "KGPI 091155Z AUTO 01006KT 10SM FEW100 M14/M18 A3023 RMK AO2 SLP286 T11391178 11106 21144 56005 TSNO",
    "updatedAt": "2022-03-09T11:55:00.000Z"
  },
  {
    "airportIcao": "KGPM",
    "metar": "KGPM 091235Z AUTO 00000KT 10SM CLR 01/M01 A3013 RMK AO2 T00051011",
    "updatedAt": "2022-03-09T12:35:00.000Z"
  },
  {
    "airportIcao": "KGPT",
    "metar": "KGPT 091153Z AUTO 33010KT 10SM OVC008 12/11 A2992 RMK AO2 SLP131 60000 70040 T01170106 10167 20117 53025",
    "updatedAt": "2022-03-09T11:53:00.000Z"
  },
  {
    "airportIcao": "KGPZ",
    "metar": "KGPZ 091156Z AUTO 30011KT 7SM -SN FEW024 M15/M17 A2996 RMK AO2 SLP177 P0000 60000 T11501172 11100 21150 53012 FZRANO",
    "updatedAt": "2022-03-09T11:56:00.000Z"
  },
  {
    "airportIcao": "KGRB",
    "metar": "KGRB 091153Z AUTO 29014G23KT 10SM OVC034 M02/M08 A2988 RMK AO2 SLP127 T10171083 11006 21028 53006",
    "updatedAt": "2022-03-09T11:53:00.000Z"
  },
  {
    "airportIcao": "KGRD",
    "metar": "KGRD 091225Z AUTO 5SM -RA BR FEW002 SCT006 OVC022 11/10 A2989 RMK AO2 P0002 T01060100 $",
    "updatedAt": "2022-03-09T12:25:00.000Z"
  },
  {
    "airportIcao": "KGRF",
    "metar": "KGRF 091228Z 00000KT 3SM BR OVC003 04/03 A3016 RMK AO2A SLP219 $",
    "updatedAt": "2022-03-09T12:28:00.000Z"
  },
  {
    "airportIcao": "KGRI",
    "metar": "KGRI 091153Z AUTO 36008KT 10SM CLR M09/M12 A3013 RMK AO2 SLP233 T10941122 11067 21100 53006",
    "updatedAt": "2022-03-09T11:53:00.000Z"
  },
  {
    "airportIcao": "KGRK",
    "metar": "KGRK 091156Z AUTO 35006KT 7SM CLR 02/M00 A3007 RMK AO2 SLP186 70005 T00191004 10019 21003 50006",
    "updatedAt": "2022-03-09T11:56:00.000Z"
  },
  {
    "airportIcao": "KGRN",
    "metar": "KGRN 091235Z AUTO 01012KT 7SM OVC044 M14/M17 A3009 RMK AO2 T11361168",
    "updatedAt": "2022-03-09T12:35:00.000Z"
  },
  {
    "airportIcao": "KGRR",
    "metar": "KGRR 091153Z 22006KT 8SM FEW110 SCT150 BKN250 M02/M03 A2992 RMK AO2 SLP140 4/001 T10221033 11017 21033 56010",
    "updatedAt": "2022-03-09T11:53:00.000Z"
  },
  {
    "airportIcao": "KGRY",
    "metar": "KGRY 091225Z AUTO 36012G20KT 10SM SCT014 OVC023 A2993 RMK A01",
    "updatedAt": "2022-03-09T12:25:00.000Z"
  },
  {
    "airportIcao": "KGSB",
    "metar": "KGSB 091236Z 35007KT 2SM -RA BR OVC004 09/08 A2989 RMK AO2A CIG 005V007 CIG 004 RWY26 SLP125 $",
    "updatedAt": "2022-03-09T12:36:00.000Z"
  },
  {
    "airportIcao": "KGSH",
    "metar": "KGSH 091153Z AUTO 17004KT 7SM FEW120 M03/M05 A2996 RMK AO2 SLP155 I6000 T10281050 11017 21044 58001 TSNO",
    "updatedAt": "2022-03-09T11:53:00.000Z"
  },
  {
    "airportIcao": "KGSO",
    "metar": "KGSO 091154Z 08010KT 10SM OVC008 07/06 A2987 RMK AO2 CIG 006V010 SLP114 60071 70121 T00720061 10094 20072 56011",
    "updatedAt": "2022-03-09T11:54:00.000Z"
  },
  {
    "airportIcao": "KGSP",
    "metar": "KGSP 091227Z VRB03KT 4SM RA BR SCT070 OVC095 10/09 A2986 RMK AO2 LTG DSNT E TSE08 PRESRR P0020 T01000089",
    "updatedAt": "2022-03-09T12:27:00.000Z"
  },
  {
    "airportIcao": "KGTB",
    "metar": "KGTB 091156Z AUTO 15008KT 10SM OVC190 M04/M07 A3004 RMK AO2 SLP183 T10391075 11030 21045 55010",
    "updatedAt": "2022-03-09T11:56:00.000Z"
  },
  {
    "airportIcao": "KGTF",
    "metar": "KGTF 091153Z 22007KT 10SM CLR M20/M22 A3020 RMK AO2 SLP318 60000 70001 T12001222 11156 21200 55005",
    "updatedAt": "2022-03-09T11:53:00.000Z"
  },
  {
    "airportIcao": "KGTR",
    "metar": "KGTR 091156Z 32009KT 6SM BR OVC006 06/06 A3000 RMK AO2 CIG 003V009 SLP169 6//// 7//// T00560056 10072 20056 51021 PNO $",
    "updatedAt": "2022-03-09T11:56:00.000Z"
  },
  {
    "airportIcao": "KGTU",
    "metar": "KGTU 091156Z AUTO 31007KT 8SM CLR M01/M02 A3011 RMK AO2 SLP200 T10061017 10033 21011 55003 FZRANO",
    "updatedAt": "2022-03-09T11:56:00.000Z"
  },
  {
    "airportIcao": "KGUC",
    "metar": "KGUC 091156Z AUTO 03006KT 5SM -SN BR BKN028 OVC033 M09/M12 A2985 RMK AO2 SLP148 P0000 60000 T10941117 11072 21094 56014 FZRANO",
    "updatedAt": "2022-03-09T11:56:00.000Z"
  },
  {
    "airportIcao": "KGUL",
    "metar": "KGUL 091240Z AUTO 03007G12KT 10SM BKN015 OVC020 16/14 A2991 RMK A01",
    "updatedAt": "2022-03-09T12:40:00.000Z"
  },
  {
    "airportIcao": "KGUP",
    "metar": "KGUP 091153Z AUTO 00000KT 10SM CLR M10/M13 A2992 RMK AO2 SLP162 T11001128 11039 21100 56011",
    "updatedAt": "2022-03-09T11:53:00.000Z"
  },
  {
    "airportIcao": "KGUR",
    "metar": "KGUR 091231Z AUTO 35006KT 7SM -SN OVC005 M12/M14 A3001 RMK AO2 SNB01 SLP215",
    "updatedAt": "2022-03-09T12:31:00.000Z"
  },
  {
    "airportIcao": "KGUS",
    "metar": "KGUS 091156Z AUTO 00000KT 10SM BKN120 M02/M04 A2996 RMK AO2 SLP158 T10211038 11007 21023 55000 $",
    "updatedAt": "2022-03-09T11:56:00.000Z"
  },
  {
    "airportIcao": "KGUY",
    "metar": "KGUY 091153Z AUTO 24003KT 10SM CLR M08/M11 A2997 RMK AO2 SLP155 T10781106 11022 21089 56007",
    "updatedAt": "2022-03-09T11:53:00.000Z"
  },
  {
    "airportIcao": "KGVE",
    "metar": "KGVE 091235Z AUTO 02003KT 5SM SCT008 BKN028 OVC055 04/04 A2999 RMK AO1 P0004 T00430043",
    "updatedAt": "2022-03-09T12:35:00.000Z"
  },
  {
    "airportIcao": "KGVL",
    "metar": "KGVL 091228Z AUTO 14006KT 4SM RA BR BKN003 BKN021 OVC035 11/10 A2986 RMK AO2 P0009 T01110100",
    "updatedAt": "2022-03-09T12:28:00.000Z"
  },
  {
    "airportIcao": "KGVQ",
    "metar": "KGVQ 091156Z AUTO 13006KT 10SM CLR M02/M06 A2997 RMK AO2 SLP156 T10221061 11022 21028 58018 FZRANO",
    "updatedAt": "2022-03-09T11:56:00.000Z"
  },
  {
    "airportIcao": "KGVT",
    "metar": "KGVT 091235Z AUTO 31004KT 10SM CLR M03/M04 A3012 RMK AO2 TSNO T10291038",
    "updatedAt": "2022-03-09T12:35:00.000Z"
  },
  {
    "airportIcao": "KGWB",
    "metar": "KGWB 091235Z AUTO 00000KT 5SM BR CLR M03/M03 A2997 RMK AO2",
    "updatedAt": "2022-03-09T12:35:00.000Z"
  },
  {
    "airportIcao": "KGWO",
    "metar": "KGWO 091153Z AUTO 34004KT 10SM BKN010 OVC034 06/04 A3004 RMK AO2 SLP171 70095 T00610039 10072 20061 53020",
    "updatedAt": "2022-03-09T11:53:00.000Z"
  },
  {
    "airportIcao": "KGWR",
    "metar": "KGWR 091235Z AUTO 31010KT 10SM OVC041 M13/M13 A3017 RMK A01",
    "updatedAt": "2022-03-09T12:35:00.000Z"
  },
  {
    "airportIcao": "KGWW",
    "metar": "KGWW 091235Z AUTO 36006KT 1 1/4SM OVC005 08/08 A2992 RMK AO2 T00810081",
    "updatedAt": "2022-03-09T12:35:00.000Z"
  },
  {
    "airportIcao": "KGXF",
    "metar": "KGXF 091158Z AUTO 00000KT 10SM CLR 06/M10 A2993 RMK AO2 SLP132 T00571097 10084 20050 55002",
    "updatedAt": "2022-03-09T11:58:00.000Z"
  },
  {
    "airportIcao": "KGXY",
    "metar": "KGXY 091243Z AUTO 03015KT OVC008 M07/M09 A2990 RMK AO2 CIG 008V011 PWINO FZRANO $",
    "updatedAt": "2022-03-09T12:43:00.000Z"
  },
  {
    "airportIcao": "KGYB",
    "metar": "KGYB 091235Z AUTO 36004KT 5SM BR CLR 02/02 A3009 RMK AO2 T00240016",
    "updatedAt": "2022-03-09T12:35:00.000Z"
  },
  {
    "airportIcao": "KGYF",
    "metar": "KGYF 091235Z AUTO 02019G24KT 10SM OVC009 18/16 A2990 RMK AO2 LTG DSNT E T01820161",
    "updatedAt": "2022-03-09T12:35:00.000Z"
  },
  {
    "airportIcao": "KGYH",
    "metar": "KGYH 091147Z 12008KT 2SM TSRABR BKN006 OVC026 11/09 A2989",
    "updatedAt": "2022-03-09T11:47:00.000Z"
  },
  {
    "airportIcao": "KGYI",
    "metar": "KGYI 091215Z AUTO 00000KT 5SM BR CLR M03/M04 A3013 RMK AO2 T10281037",
    "updatedAt": "2022-03-09T12:15:00.000Z"
  },
  {
    "airportIcao": "KGYL",
    "metar": "KGYL 091235Z AUTO 29014G18KT 10SM SCT018 OVC027 M09/M12 A3007 RMK AO2 T10861119",
    "updatedAt": "2022-03-09T12:35:00.000Z"
  },
  {
    "airportIcao": "KGYR",
    "metar": "KGYR 090347Z 24005KT 10SM SKC 13/M08 A2996 RMK LAST",
    "updatedAt": "2022-03-09T03:47:00.000Z"
  },
  {
    "airportIcao": "KGYY",
    "metar": "KGYY 091145Z COR 00000KT 10SM BKN090 M01/M01 A2998",
    "updatedAt": "2022-03-09T11:45:00.000Z"
  },
  {
    "airportIcao": "KGZH",
    "metar": "KGZH 091233Z AUTO 34004KT 10SM OVC006 12/11 A2990 RMK AO2 T01220106",
    "updatedAt": "2022-03-09T12:33:00.000Z"
  },
  {
    "airportIcao": "KGZL",
    "metar": "KGZL 091235Z AUTO 00000KT 8SM CLR M04/M04 A3009 RMK AO2",
    "updatedAt": "2022-03-09T12:35:00.000Z"
  },
  {
    "airportIcao": "KGZN",
    "metar": "KGZN 090600Z AUTO 14005KT 10SM CLR M00/M04 A3005 RMK AO2",
    "updatedAt": "2022-03-09T06:00:00.000Z"
  },
  {
    "airportIcao": "KGZS",
    "metar": "KGZS 090615Z AUTO 35007KT 3SM BR OVC008 06/05 A2986 RMK A01",
    "updatedAt": "2022-03-09T06:15:00.000Z"
  },
  {
    "airportIcao": "KH71",
    "metar": "KH71 090615Z AUTO 00000KT 10SM CLR M02/M04 A3009 RMK AO2",
    "updatedAt": "2022-03-09T06:15:00.000Z"
  },
  {
    "airportIcao": "KHAE",
    "metar": "KHAE 091235Z AUTO 28007KT 10SM CLR 00/M04 A3004 RMK AO2",
    "updatedAt": "2022-03-09T12:35:00.000Z"
  },
  {
    "airportIcao": "KHAF",
    "metar": "KHAF 091235Z AUTO 00000KT 5SM BR SCT002 04/04 A3005 RMK AO2",
    "updatedAt": "2022-03-09T12:35:00.000Z"
  },
  {
    "airportIcao": "KHAI",
    "metar": "KHAI 091235Z AUTO 21004KT 4SM BR BKN110 M02/M03 A2996 RMK AO2 T10251032",
    "updatedAt": "2022-03-09T12:35:00.000Z"
  },
  {
    "airportIcao": "KHAO",
    "metar": "KHAO 091153Z AUTO 33004KT 10SM OVC065 03/M01 A2995 RMK AO2 SLP147 T00331011 10033 20028 53001",
    "updatedAt": "2022-03-09T11:53:00.000Z"
  },
  {
    "airportIcao": "KHBG",
    "metar": "KHBG 091230Z AUTO 35009G16KT 10SM OVC013 08/05 A3000 RMK AO2 T00830050 $",
    "updatedAt": "2022-03-09T12:30:00.000Z"
  },
  {
    "airportIcao": "KHBI",
    "metar": "KHBI 091235Z AUTO 10004KT 10SM BKN006 OVC016 08/08 A2992 RMK AO2 T00830083",
    "updatedAt": "2022-03-09T12:35:00.000Z"
  },
  {
    "airportIcao": "KHBR",
    "metar": "KHBR 091153Z AUTO 31005KT 10SM M07/M10 A3007 RMK AO2 SLP193 T10721100 11017 21072 53003",
    "updatedAt": "2022-03-09T11:53:00.000Z"
  },
  {
    "airportIcao": "KHBV",
    "metar": "KHBV 091235Z AUTO 33004KT 10SM BKN100 04/03 A3007 RMK AO2 T00430025",
    "updatedAt": "2022-03-09T12:35:00.000Z"
  },
  {
    "airportIcao": "KHCD",
    "metar": "KHCD 091235Z AUTO 30013G19KT 10SM OVC027 M09/M13 A3009 RMK AO2 T10901128",
    "updatedAt": "2022-03-09T12:35:00.000Z"
  },
  {
    "airportIcao": "KHCO",
    "metar": "KHCO 091235Z AUTO 33011KT 10SM CLR M18/M22 A3014 RMK AO2",
    "updatedAt": "2022-03-09T12:35:00.000Z"
  },
  {
    "airportIcao": "KHCR",
    "metar": "KHCR 091235Z AUTO 22008KT 10SM -SN BKN017 OVC023 00/M03 A2976 RMK AO2",
    "updatedAt": "2022-03-09T12:35:00.000Z"
  },
  {
    "airportIcao": "KHDC",
    "metar": "KHDC 091236Z AUTO 35012KT 10SM OVC011 08/06 A2999 RMK AO2 LTG DSNT SW",
    "updatedAt": "2022-03-09T12:36:00.000Z"
  },
  {
    "airportIcao": "KHDN",
    "metar": "KHDN 091156Z AUTO 29007KT 9SM -SN FEW017 SCT026 OVC037 M04/M06 A2974 RMK AO2 SLP099 P0000 60000 T10441056 11033 21061 56015 FZRANO",
    "updatedAt": "2022-03-09T11:56:00.000Z"
  },
  {
    "airportIcao": "KHDO",
    "metar": "KHDO 091151Z AUTO 01003KT 10SM CLR 04/M01 A3006 RMK AO2 SLP174 T00441006 10083 20028 53000",
    "updatedAt": "2022-03-09T11:51:00.000Z"
  },
  {
    "airportIcao": "KHEF",
    "metar": "KHEF 091156Z AUTO RMK AO2 SLPNO 6//// 7//// PWINO FZRANO $",
    "updatedAt": "2022-03-09T11:56:00.000Z"
  },
  {
    "airportIcao": "KHEG",
    "metar": "KHEG 091235Z AUTO 18006KT 5SM BR FEW009 BKN015 BKN019 21/21 A2997 RMK AO2",
    "updatedAt": "2022-03-09T12:35:00.000Z"
  },
  {
    "airportIcao": "KHEI",
    "metar": "KHEI 091218Z AUTO 28007KT 10SM BKN021 M16/M18 A3014 RMK AO2 T11561183",
    "updatedAt": "2022-03-09T12:18:00.000Z"
  },
  {
    "airportIcao": "KHEQ",
    "metar": "KHEQ 091235Z AUTO 10009KT 3SM -SN BKN011 OVC015 M06/M08 A3001 RMK AO2",
    "updatedAt": "2022-03-09T12:35:00.000Z"
  },
  {
    "airportIcao": "KHEY",
    "metar": "KHEY 091210Z AUTO 24003KT 10SM FEW008 BKN024 OVC031 21/20 A2983 RMK AO2 LTG DSNT SE-SW PRESRR SLP101",
    "updatedAt": "2022-03-09T12:10:00.000Z"
  },
  {
    "airportIcao": "KHEZ",
    "metar": "KHEZ 091156Z AUTO 01008KT 10SM OVC006 05/04 A3002 RMK AO2 SLP167 60000 70299 T00500044 10056 20050 50006",
    "updatedAt": "2022-03-09T11:56:00.000Z"
  },
  {
    "airportIcao": "KHFD",
    "metar": "KHFD 091153Z 00000KT 10SM BKN120 00/M04 A3016 RMK AO2 SLP212 T00001044 10006 21011 58006",
    "updatedAt": "2022-03-09T11:53:00.000Z"
  },
  {
    "airportIcao": "KHFF",
    "metar": "KHFF 091156Z AUTO 11004KT 5SM BR OVC004 10/10 A2987 RMK AO2 RAE30 SLP118 P0001 60002 70031 T01020100 10114 20099 50002 $",
    "updatedAt": "2022-03-09T11:56:00.000Z"
  },
  {
    "airportIcao": "KHFJ",
    "metar": "KHFJ 091235Z AUTO 00000KT 5SM BR CLR M03/M03 A3007 RMK AO2",
    "updatedAt": "2022-03-09T12:35:00.000Z"
  },
  {
    "airportIcao": "KHFY",
    "metar": "KHFY 091235Z AUTO 34005KT 10SM SCT070 OVC090 02/M01 A2998 RMK AO2 T00171013",
    "updatedAt": "2022-03-09T12:35:00.000Z"
  },
  {
    "airportIcao": "KHGR",
    "metar": "KHGR 091239Z 31004KT 2SM -RA BR BKN017 BKN021 OVC043 02/01 A2998 RMK AO2 UPB02E06 P0002 T00220011 $",
    "updatedAt": "2022-03-09T12:39:00.000Z"
  },
  {
    "airportIcao": "KHHF",
    "metar": "KHHF 091235Z AUTO 00000KT 10SM CLR M09/M11 A3003 RMK AO2 T10951109",
    "updatedAt": "2022-03-09T12:35:00.000Z"
  },
  {
    "airportIcao": "KHHR",
    "metar": "KHHR 091153Z AUTO 00000KT 10SM CLR 11/03 A2999 RMK AO2 SLP155 T01110028 10139 20106 55003 $",
    "updatedAt": "2022-03-09T11:53:00.000Z"
  },
  {
    "airportIcao": "KHHV",
    "metar": "KHHV 091235Z AUTO 05025KT M1/4SM FG OVC005 16/14 A2991 RMK A01",
    "updatedAt": "2022-03-09T12:35:00.000Z"
  },
  {
    "airportIcao": "KHHW",
    "metar": "KHHW 091235Z AUTO 00000KT 10SM CLR M03/M04 A3010 RMK AO2",
    "updatedAt": "2022-03-09T12:35:00.000Z"
  },
  {
    "airportIcao": "KHIB",
    "metar": "KHIB 091153Z AUTO 29010G19KT 6SM HZ FEW021 BKN048 OVC070 M14/M18 A2991 RMK AO2 SLP156 60000 T11441183 11094 21144 53012",
    "updatedAt": "2022-03-09T11:53:00.000Z"
  },
  {
    "airportIcao": "KHIE",
    "metar": "KHIE 091152Z AUTO 00000KT 10SM CLR M09/M11 A3010 RMK AO2 SLP211 I6000 T10891106 11089 21100 56011 $",
    "updatedAt": "2022-03-09T11:52:00.000Z"
  },
  {
    "airportIcao": "KHIF",
    "metar": "KHIF 091158Z 24008KT 2 1/2SM -SN BR FEW007 OVC017 M00/M01 A2981 RMK AO2A SLP102 P0000 60001 70010 4/006 T10051006 10000 21005 55008",
    "updatedAt": "2022-03-09T11:58:00.000Z"
  },
  {
    "airportIcao": "KHII",
    "metar": "KHII 091235Z AUTO 06004KT 10SM CLR 07/M13 A2993 RMK AO2",
    "updatedAt": "2022-03-09T12:35:00.000Z"
  },
  {
    "airportIcao": "KHIO",
    "metar": "KHIO 091153Z AUTO 00000KT 5SM BR BKN006 OVC027 06/05 A3015 RMK AO2 SLP208 60000 T00560050 10078 20056 56004",
    "updatedAt": "2022-03-09T11:53:00.000Z"
  },
  {
    "airportIcao": "KHJH",
    "metar": "KHJH 091235Z AUTO 03007KT 10SM CLR M07/M09 A3013 RMK AO2 T10681095",
    "updatedAt": "2022-03-09T12:35:00.000Z"
  },
  {
    "airportIcao": "KHJO",
    "metar": "KHJO 091153Z AUTO 10003KT 4SM BR CLR 04/03 A3003 RMK AO2 SLP169 T00390028 10089 20033 56005",
    "updatedAt": "2022-03-09T11:53:00.000Z"
  },
  {
    "airportIcao": "KHKA",
    "metar": "KHKA 091153Z AUTO 35003KT 8SM BKN070 BKN090 03/02 A3003 RMK AO2 SLP171 60000 T00330017 10039 20033 53007 $",
    "updatedAt": "2022-03-09T11:53:00.000Z"
  },
  {
    "airportIcao": "KHKS",
    "metar": "KHKS 091153Z AUTO 33004KT 9SM OVC005 06/05 A3003 RMK AO2 CIG 004V009 SLP164 60000 70414 T00610050 10072 20061 53024",
    "updatedAt": "2022-03-09T11:53:00.000Z"
  },
  {
    "airportIcao": "KHKY",
    "metar": "KHKY 091153Z VRB03KT 5SM RA BR FEW004 BKN055 OVC080 09/08 A2989 RMK AO2 RAB24 SLP111 P0023 60039 70100 T00890083 10094 20089 53003",
    "updatedAt": "2022-03-09T11:53:00.000Z"
  },
  {
    "airportIcao": "KHLB",
    "metar": "KHLB 090615Z AUTO 00000KT 10SM FEW060 OVC075 02/01 A2998 RMK A01",
    "updatedAt": "2022-03-09T06:15:00.000Z"
  },
  {
    "airportIcao": "KHLG",
    "metar": "KHLG 091231Z 36004KT 3/4SM R03/5000VP6000FT -SN BR BKN015 OVC028 M01/M01 A2989 RMK AO2 P0003 T10061011",
    "updatedAt": "2022-03-09T12:31:00.000Z"
  },
  {
    "airportIcao": "KHLN",
    "metar": "KHLN 091153Z AUTO 00000KT 10SM BKN049 M14/M19 A3018 RMK AO2 SLP306 T11441189 11122 21156 56007",
    "updatedAt": "2022-03-09T11:53:00.000Z"
  },
  {
    "airportIcao": "KHLR",
    "metar": "KHLR 091158Z AUTO 30007KT 10SM SCT180 02/00 A3010 RMK AO2 SLP196 T00191000 10027 21004 52007",
    "updatedAt": "2022-03-09T11:58:00.000Z"
  },
  {
    "airportIcao": "KHLX",
    "metar": "KHLX 091235Z AUTO 12006KT 10SM BKN004 BKN034 OVC120 06/05 A2982 RMK AO2 T00580052",
    "updatedAt": "2022-03-09T12:35:00.000Z"
  },
  {
    "airportIcao": "KHME",
    "metar": "KHME 091100Z 00000KT CAVOK 19/M02 Q1013",
    "updatedAt": "2022-03-09T11:00:00.000Z"
  },
  {
    "airportIcao": "KHMN",
    "metar": "KHMN 091158Z AUTO 03003KT 10SM CLR M07/M23 A2997 RMK AO2 SLP144 T10661230 10008 21070 58001 $",
    "updatedAt": "2022-03-09T11:58:00.000Z"
  },
  {
    "airportIcao": "KHMP",
    "metar": "KHMP 091235Z AUTO 00000KT 7SM -RA BR BKN003 BKN013 OVC038 12/12 A2990 RMK AO2 T01250123",
    "updatedAt": "2022-03-09T12:35:00.000Z"
  },
  {
    "airportIcao": "KHMT",
    "metar": "KHMT 091235Z AUTO 00000KT 10SM CLR 02/M03 A3000 RMK AO2 T00201027",
    "updatedAt": "2022-03-09T12:35:00.000Z"
  },
  {
    "airportIcao": "KHMZ",
    "metar": "KHMZ 091230Z AUTO 00000KT 2SM -SN OVC016 00/00 A2993 RMK AO2 T10021005",
    "updatedAt": "2022-03-09T12:30:00.000Z"
  },
  {
    "airportIcao": "KHNB",
    "metar": "KHNB 091156Z AUTO 35006KT 10SM FEW049 OVC080 02/M01 A3000 RMK AO2 RAB28E50UPB50E55 SLP161 P0000 60000 T00221011 10028 20022 53008 FZRANO",
    "updatedAt": "2022-03-09T11:56:00.000Z"
  },
  {
    "airportIcao": "KHND",
    "metar": "KHND 091156Z AUTO 19010KT 10SM CLR 06/M12 A2992 RMK AO2 SLP149 T00611117 10094 20061 56012",
    "updatedAt": "2022-03-09T11:56:00.000Z"
  },
  {
    "airportIcao": "KHNR",
    "metar": "KHNR 091235Z AUTO 34006KT 10SM CLR M07/M07 A3012 RMK A01",
    "updatedAt": "2022-03-09T12:35:00.000Z"
  },
  {
    "airportIcao": "KHNZ",
    "metar": "KHNZ 091235Z AUTO 05004KT 10SM OVC003 05/04 A2991 RMK AO2 T00450044",
    "updatedAt": "2022-03-09T12:35:00.000Z"
  },
  {
    "airportIcao": "KHOB",
    "metar": "KHOB 091235Z AUTO 08007KT 10SM CLR M05/M12 A2999 RMK AO2",
    "updatedAt": "2022-03-09T12:35:00.000Z"
  },
  {
    "airportIcao": "KHOE",
    "metar": "KHOE 091230Z AUTO 17006KT 7SM OVC005 21/20 A2991 RMK AO2 T02100201",
    "updatedAt": "2022-03-09T12:30:00.000Z"
  },
  {
    "airportIcao": "KHON",
    "metar": "KHON 091155Z AUTO 33010KT 10SM FEW019 M13/M17 A3019 RMK AO2 SLP245 T11281167 11067 21128 53008",
    "updatedAt": "2022-03-09T11:55:00.000Z"
  },
  {
    "airportIcao": "KHOP",
    "metar": "KHOP 091241Z AUTO 34005KT 10SM SCT009 OVC070 02/02 A3001 RMK AO2 SLP168",
    "updatedAt": "2022-03-09T12:41:00.000Z"
  },
  {
    "airportIcao": "KHOT",
    "metar": "KHOT 091153Z AUTO 32004KT 1/4SM FG VV001 01/01 A3007 RMK AO2 SLP184 70004 T00110006 10033 20011 53011",
    "updatedAt": "2022-03-09T11:53:00.000Z"
  },
  {
    "airportIcao": "KHOU",
    "metar": "KHOU 091153Z 01014G21KT 10SM OVC013 07/04 A3000 RMK AO2 SLP162 70023 T00670039 10072 20067 58011",
    "updatedAt": "2022-03-09T11:53:00.000Z"
  },
  {
    "airportIcao": "KHPN",
    "metar": "KHPN 091156Z 12007KT 10SM BKN080 OVC120 02/M04 A3009 RMK AO2 SLP197 T00171044 10017 20006 55011",
    "updatedAt": "2022-03-09T11:56:00.000Z"
  },
  {
    "airportIcao": "KHPT",
    "metar": "KHPT 091235Z AUTO 31015G20KT 10SM BKN022 M06/M10 A3007 RMK AO2",
    "updatedAt": "2022-03-09T12:35:00.000Z"
  },
  {
    "airportIcao": "KHQG",
    "metar": "KHQG 091235Z AUTO 08003KT 10SM CLR M11/M13 A2998 RMK AO2 T11061126",
    "updatedAt": "2022-03-09T12:35:00.000Z"
  },
  {
    "airportIcao": "KHQM",
    "metar": "KHQM 091153Z AUTO 05003KT 10SM OVC006 06/05 A3016 RMK AO2 SLP217 70011 T00610050 10083 20044 58000",
    "updatedAt": "2022-03-09T11:53:00.000Z"
  },
  {
    "airportIcao": "KHQU",
    "metar": "KHQU 091235Z AUTO 00000KT 10SM -RA OVC013 15/14 A2985 RMK AO2 T01460138",
    "updatedAt": "2022-03-09T12:35:00.000Z"
  },
  {
    "airportIcao": "KHQZ",
    "metar": "KHQZ 091235Z AUTO 33003KT 7SM CLR M01/M01 A3012 RMK AO1 T10151015",
    "updatedAt": "2022-03-09T12:35:00.000Z"
  },
  {
    "airportIcao": "KHRF",
    "metar": "KHRF 091230Z AUTO 21005KT 10SM BKN033 OVC040 M12/M19 A3016 RMK AO2 Hamilton",
    "updatedAt": "2022-03-09T12:30:00.000Z"
  },
  {
    "airportIcao": "KHRI",
    "metar": "KHRI 091237Z AUTO 35004KT 7SM OVC004 02/01 A3016 RMK AO2 T00170011",
    "updatedAt": "2022-03-09T12:37:00.000Z"
  },
  {
    "airportIcao": "KHRJ",
    "metar": "KHRJ 091235Z AUTO 04005KT 10SM OVC006 A2991 RMK AO2",
    "updatedAt": "2022-03-09T12:35:00.000Z"
  },
  {
    "airportIcao": "KHRL",
    "metar": "KHRL 091152Z 35009KT 10SM OVC012 09/08 A3000 RMK AO2 RAE52 SLP159 P0001 60003 70003 T00940083 10117 20094 53004",
    "updatedAt": "2022-03-09T11:52:00.000Z"
  },
  {
    "airportIcao": "KHRO",
    "metar": "KHRO 091153Z AUTO 32003KT 10SM CLR M02/M03 A3004 RMK AO2 SLP181 T10171033 10017 21017 53008",
    "updatedAt": "2022-03-09T11:53:00.000Z"
  },
  {
    "airportIcao": "KHRT",
    "metar": "KHRT 091156Z 27005KT 10SM VCTS OVC008 20/19 A2984 RMK AO2A LTG DSNT SE SLP106 60017 70020 T02030186 10216 20194 52023 $",
    "updatedAt": "2022-03-09T11:56:00.000Z"
  },
  {
    "airportIcao": "KHRX",
    "metar": "KHRX 091235Z AUTO 20011KT 10SM CLR M03/M08 A2998 RMK AO2 T10261077",
    "updatedAt": "2022-03-09T12:35:00.000Z"
  },
  {
    "airportIcao": "KHSA",
    "metar": "KHSA 090250Z 11005KT 03SM OVC004 13/12 A2987",
    "updatedAt": "2022-03-09T02:50:00.000Z"
  },
  {
    "airportIcao": "KHSB",
    "metar": "KHSB 091235Z AUTO 30004KT 7SM CLR 00/M02 A3004 RMK AO2 T00001020",
    "updatedAt": "2022-03-09T12:35:00.000Z"
  },
  {
    "airportIcao": "KHSD",
    "metar": "KHSD 090615Z AUTO 21004KT 10SM CLR M02/M07 A3008 RMK A01",
    "updatedAt": "2022-03-09T06:15:00.000Z"
  },
  {
    "airportIcao": "KHSE",
    "metar": "KHSE 091239Z AUTO 22014G21KT 2 1/2SM -RA BR SCT008 BKN012 OVC080 20/19 A2987",
    "updatedAt": "2022-03-09T12:39:00.000Z"
  },
  {
    "airportIcao": "KHSG",
    "metar": "KHSG 091230Z AUTO 03003KT 1 1/2SM -SN OVC020 M15/M17 A3003 RMK AO2 T11471175",
    "updatedAt": "2022-03-09T12:30:00.000Z"
  },
  {
    "airportIcao": "KHSI",
    "metar": "KHSI 091153Z AUTO 35007KT 10SM CLR M12/M14 A3011 RMK AO2 SLP222 T11171139 11083 21117 53003",
    "updatedAt": "2022-03-09T11:53:00.000Z"
  },
  {
    "airportIcao": "KHST",
    "metar": "KHST 091156Z AUTO 14004KT 10SM CLR 23/21 A3000 RMK AO2 SLP162 T02320207 10238 20226 53010",
    "updatedAt": "2022-03-09T11:56:00.000Z"
  },
  {
    "airportIcao": "KHSV",
    "metar": "KHSV 091215Z 33011KT 10SM OVC009 06/05 A2994",
    "updatedAt": "2022-03-09T12:15:00.000Z"
  },
  {
    "airportIcao": "KHTH",
    "metar": "KHTH 090615Z AUTO 19004KT 10SM 04/M07 A3005 RMK A01",
    "updatedAt": "2022-03-09T06:15:00.000Z"
  },
  {
    "airportIcao": "KHTL",
    "metar": "KHTL 091153Z AUTO 20005KT 8SM CLR M05/M07 A2986 RMK AO2 SLP126 I6000 T10501072 11050 21094 56015 $",
    "updatedAt": "2022-03-09T11:53:00.000Z"
  },
  {
    "airportIcao": "KHTO",
    "metar": "KHTO 091235Z AUTO 14006KT 1 1/4SM -SN OVC004 00/00 A3015 RMK AO2 P0006 T00001003",
    "updatedAt": "2022-03-09T12:35:00.000Z"
  },
  {
    "airportIcao": "KHTS",
    "metar": "KHTS 091241Z 34008KT 2 1/2SM -RA BR BKN004 OVC008 03/02 A2988 RMK AO2 UPE1155RAB1155 P0005 T00280022",
    "updatedAt": "2022-03-09T12:41:00.000Z"
  },
  {
    "airportIcao": "KHUA",
    "metar": "KHUA 091158Z AUTO 34007KT 7SM OVC006 06/06 A2993 RMK AO2 SLP138 60020 70159 T00600058 10089 20058 52027",
    "updatedAt": "2022-03-09T11:58:00.000Z"
  },
  {
    "airportIcao": "KHUF",
    "metar": "KHUF 091153Z 00000KT 10SM OVC100 01/M02 A3000 RMK AO2 SLP164 T00061017 10011 20006 53003",
    "updatedAt": "2022-03-09T11:53:00.000Z"
  },
  {
    "airportIcao": "KHUL",
    "metar": "KHUL 091153Z AUTO 00000KT 10SM CLR M14/M17 A3014 RMK AO2 SLP216 T11441172 11089 21161 56003",
    "updatedAt": "2022-03-09T11:53:00.000Z"
  },
  {
    "airportIcao": "KHUM",
    "metar": "KHUM 091147Z 35014KT 7SM OVC010 09/08 A2996",
    "updatedAt": "2022-03-09T11:47:00.000Z"
  },
  {
    "airportIcao": "KHUT",
    "metar": "KHUT 091202Z 02007KT 10SM BKN013 M04/M06 A3007 RMK AO2 T10391061",
    "updatedAt": "2022-03-09T12:02:00.000Z"
  },
  {
    "airportIcao": "KHVE",
    "metar": "KHVE 091235Z AUTO 00000KT 10SM CLR M03/M15 A2986 RMK AO2",
    "updatedAt": "2022-03-09T12:35:00.000Z"
  },
  {
    "airportIcao": "KHVN",
    "metar": "KHVN 091153Z 06005KT 10SM OVC100 03/M05 A3014 RMK AO2 SLP205 T00281050 10028 20011 58012",
    "updatedAt": "2022-03-09T11:53:00.000Z"
  },
  {
    "airportIcao": "KHVR",
    "metar": "KHVR 091226Z AUTO 22006KT 10SM FEW005 BKN080 M18/M21 A3026",
    "updatedAt": "2022-03-09T12:26:00.000Z"
  },
  {
    "airportIcao": "KHVS",
    "metar": "KHVS 091235Z AUTO 06006KT 1/4SM FG OVC003 12/12 A2989 RMK AO2",
    "updatedAt": "2022-03-09T12:35:00.000Z"
  },
  {
    "airportIcao": "KHWD",
    "metar": "KHWD 091154Z 05003KT 10SM CLR 07/03 A3003 RMK AO2 SLP179 T00720028 10117 20072 56001",
    "updatedAt": "2022-03-09T11:54:00.000Z"
  },
  {
    "airportIcao": "KHWO",
    "metar": "KHWO 091153Z 15005KT 10SM CLR 23/20 A3003 RMK AO2 SLP168 T02280200 10239 20228 53009",
    "updatedAt": "2022-03-09T11:53:00.000Z"
  },
  {
    "airportIcao": "KHWV",
    "metar": "KHWV 091234Z AUTO 14006KT 2SM -SN BR OVC004 01/M01 A3015 RMK AO2 P0003 T00111006",
    "updatedAt": "2022-03-09T12:34:00.000Z"
  },
  {
    "airportIcao": "KHWY",
    "metar": "KHWY 091235Z AUTO 00000KT 4SM RA BKN006 OVC010 05/04 A3001 RMK AO2 P0005 T00520038",
    "updatedAt": "2022-03-09T12:35:00.000Z"
  },
  {
    "airportIcao": "KHXD",
    "metar": "KHXD 091150Z 00000KT 5SM BR OVC018 20/18 A2992",
    "updatedAt": "2022-03-09T11:50:00.000Z"
  },
  {
    "airportIcao": "KHYA",
    "metar": "KHYA 091156Z 00000KT 10SM CLR 01/M04 A3017 RMK AO2 SLP218 T00061039 10017 21017 57005",
    "updatedAt": "2022-03-09T11:56:00.000Z"
  },
  {
    "airportIcao": "KHYI",
    "metar": "KHYI 091156Z AUTO 02008KT 10SM CLR 03/02 A3008 RMK AO2 SLP185 T00330022 10044 20033 55004",
    "updatedAt": "2022-03-09T11:56:00.000Z"
  },
  {
    "airportIcao": "KHYR",
    "metar": "KHYR 091202Z AUTO VRB04KT 10SM SCT024 M09/M13 A2991 RMK AO2 T10891133",
    "updatedAt": "2022-03-09T12:02:00.000Z"
  },
  {
    "airportIcao": "KHYS",
    "metar": "KHYS 091156Z AUTO 36005KT 10SM CLR M09/M11 A3009 RMK AO2 SLP211 T10941111 11044 21100 53002 FZRANO",
    "updatedAt": "2022-03-09T11:56:00.000Z"
  },
  {
    "airportIcao": "KHYW",
    "metar": "KHYW 091235Z AUTO 00000KT 4SM BR OVC002 15/15 A2990 RMK AO2",
    "updatedAt": "2022-03-09T12:35:00.000Z"
  },
  {
    "airportIcao": "KHYX",
    "metar": "KHYX 091235Z AUTO 20008KT 10SM SCT120 M01/M05 A2993 RMK AO2 T10101048",
    "updatedAt": "2022-03-09T12:35:00.000Z"
  },
  {
    "airportIcao": "KHZD",
    "metar": "KHZD 090615Z AUTO 33005KT 5SM BR FEW007 SCT016 OVC025 04/03 A2996 RMK A01",
    "updatedAt": "2022-03-09T06:15:00.000Z"
  },
  {
    "airportIcao": "KHZE",
    "metar": "KHZE 091235Z AUTO 29005KT 10SM FEW032 SCT041 OVC050 M14/M15 A3019 RMK AO2",
    "updatedAt": "2022-03-09T12:35:00.000Z"
  },
  {
    "airportIcao": "KHZL",
    "metar": "KHZL 090655Z AUTO 12003KT 10SM CLR 00/M07 A3011 RMK AO2",
    "updatedAt": "2022-03-09T06:55:00.000Z"
  },
  {
    "airportIcao": "KHZR",
    "metar": "KHZR 091235Z AUTO 10SM OVC013 06/05 A3004 RMK AO2 LTG DSNT SE T00630046",
    "updatedAt": "2022-03-09T12:35:00.000Z"
  },
  {
    "airportIcao": "KHZX",
    "metar": "KHZX 091235Z AUTO 29008KT 10SM CLR M13/M16 A2998 RMK AO2",
    "updatedAt": "2022-03-09T12:35:00.000Z"
  },
  {
    "airportIcao": "KHZY",
    "metar": "KHZY 091153Z AUTO 00000KT 10SM BKN110 M01/M04 A2995 RMK AO2 SLP149 T10061044 10000 21011 58010",
    "updatedAt": "2022-03-09T11:53:00.000Z"
  },
  {
    "airportIcao": "KI16",
    "metar": "KI16 091235Z AUTO 10SM SCT001 BKN032 OVC039 08/07 A2982 RMK AO2 T00800073",
    "updatedAt": "2022-03-09T12:35:00.000Z"
  },
  {
    "airportIcao": "KI19",
    "metar": "KI19 091215Z AUTO 35004KT 10SM -RA BKN065 OVC080 02/00 A2995 RMK AO2 T00160000",
    "updatedAt": "2022-03-09T12:15:00.000Z"
  },
  {
    "airportIcao": "KI23",
    "metar": "KI23 091235Z AUTO 35004KT 10SM SCT050 01/M01 A2991 RMK AO1",
    "updatedAt": "2022-03-09T12:35:00.000Z"
  },
  {
    "airportIcao": "KI35",
    "metar": "KI35 091235Z AUTO 00000KT 5SM OVC007 04/04 A2987 RMK AO2 T00420042",
    "updatedAt": "2022-03-09T12:35:00.000Z"
  },
  {
    "airportIcao": "KI43",
    "metar": "KI43 091235Z AUTO 33005KT 10SM RA SCT032 SCT038 SCT050 02/01 A2991 RMK AO2",
    "updatedAt": "2022-03-09T12:35:00.000Z"
  },
  {
    "airportIcao": "KI63",
    "metar": "KI63 091235Z AUTO 27004KT 10SM CLR M01/M04 A3002 RMK AO2 T10151040",
    "updatedAt": "2022-03-09T12:35:00.000Z"
  },
  {
    "airportIcao": "KI67",
    "metar": "KI67 091235Z AUTO 35006KT 10SM BKN038 BKN045 OVC065 02/00 A2997 RMK AO1",
    "updatedAt": "2022-03-09T12:35:00.000Z"
  },
  {
    "airportIcao": "KI69",
    "metar": "KI69 091235Z AUTO 00000KT 5SM BR BKN065 BKN075 OVC085 01/01 A2995 RMK AO2 T00110006",
    "updatedAt": "2022-03-09T12:35:00.000Z"
  },
  {
    "airportIcao": "KI74",
    "metar": "KI74 091235Z AUTO 34003KT 5SM -SN SCT042 BKN050 OVC080 00/M01 A2994 RMK AO2",
    "updatedAt": "2022-03-09T12:35:00.000Z"
  },
  {
    "airportIcao": "KI75",
    "metar": "KI75 091235Z AUTO 31006KT 10SM CLR M04/M05 A3008 RMK AO2 T10361053",
    "updatedAt": "2022-03-09T12:35:00.000Z"
  },
  {
    "airportIcao": "KIAB",
    "metar": "KIAB 091226Z AUTO 03006KT 4SM BR OVC002 M01/M02 A3007 RMK AO2 SLP196",
    "updatedAt": "2022-03-09T12:26:00.000Z"
  },
  {
    "airportIcao": "KIAD",
    "metar": "KIAD 091152Z 15003KT 5SM -RA BR BKN009 OVC015 05/04 A3001 RMK AO2 SLP163 P0008 60017 70017 T00500039 10067 20044 55008",
    "updatedAt": "2022-03-09T11:52:00.000Z"
  },
  {
    "airportIcao": "KIAG",
    "metar": "KIAG 091153Z 09003KT 10SM CLR M02/M06 A2997 RMK AO2 SLP163 T10221061 11017 21028 58018",
    "updatedAt": "2022-03-09T11:53:00.000Z"
  },
  {
    "airportIcao": "KIAH",
    "metar": "KIAH 091153Z 01013KT 10SM BKN012 OVC200 06/03 A3002 RMK AO2 SLP166 70010 T00610033 10067 20061 58007",
    "updatedAt": "2022-03-09T11:53:00.000Z"
  },
  {
    "airportIcao": "KIBM",
    "metar": "KIBM 091235Z AUTO 05012KT 3SM -SN SCT008 BKN012 OVC018 M12/M14 A2994 RMK AO2 T11201137",
    "updatedAt": "2022-03-09T12:35:00.000Z"
  },
  {
    "airportIcao": "KICL",
    "metar": "KICL 091235Z AUTO 03004G11KT 10SM CLR M05/M07 A3014 RMK AO2",
    "updatedAt": "2022-03-09T12:35:00.000Z"
  },
  {
    "airportIcao": "KICR",
    "metar": "KICR 091153Z AUTO 35014G20KT 4SM -SN SCT015 BKN019 OVC034 M09/M14 A3016 RMK AO2 SNB49 SLP245 6//// 7//// T10941139 11067 21094 53006 PNO",
    "updatedAt": "2022-03-09T11:53:00.000Z"
  },
  {
    "airportIcao": "KICT",
    "metar": "KICT 091239Z 01006KT 1/2SM R01L/P6000FT BR OVC003 M01/M02 A3008 RMK AO2 SFC VIS 1 T10111022",
    "updatedAt": "2022-03-09T12:39:00.000Z"
  },
  {
    "airportIcao": "KIDA",
    "metar": "KIDA 091153Z AUTO 03015KT 10SM CLR M11/M17 A2992 RMK AO2 SLP174 60000 7//// T11111172 11061 21111 51005",
    "updatedAt": "2022-03-09T11:53:00.000Z"
  },
  {
    "airportIcao": "KIDI",
    "metar": "KIDI 091235Z AUTO 09003KT 3SM BR BKN020 OVC027 02/02 A2990 RMK A01",
    "updatedAt": "2022-03-09T12:35:00.000Z"
  },
  {
    "airportIcao": "KIDP",
    "metar": "KIDP 091235Z AUTO 00000KT 10SM CLR M05/M06 A3010 RMK AO2 T10471064",
    "updatedAt": "2022-03-09T12:35:00.000Z"
  },
  {
    "airportIcao": "KIEN",
    "metar": "KIEN 091222Z AUTO 02008KT 3SM -SN OVC030 M13/M17 A3012 RMK AO2 P0000 T11331167 $",
    "updatedAt": "2022-03-09T12:22:00.000Z"
  },
  {
    "airportIcao": "KIER",
    "metar": "KIER 091235Z AUTO 36009KT 10SM OVC009 05/04 A3008 RMK AO2 T00470036",
    "updatedAt": "2022-03-09T12:35:00.000Z"
  },
  {
    "airportIcao": "KIFA",
    "metar": "KIFA 091235Z AUTO 31017KT 10SM SCT021 M05/M08 A3009 RMK AO2 T10531085",
    "updatedAt": "2022-03-09T12:35:00.000Z"
  },
  {
    "airportIcao": "KIFP",
    "metar": "KIFP 090615Z AUTO 00000KT 10SM CLR 11/M13 A2996 RMK AO2",
    "updatedAt": "2022-03-09T06:15:00.000Z"
  },
  {
    "airportIcao": "KIGM",
    "metar": "KIGM 091151Z AUTO 23003KT 10SM CLR 00/M09 A2993 RMK AO2 SLP107 T00001089 10033 21017 56011",
    "updatedAt": "2022-03-09T11:51:00.000Z"
  },
  {
    "airportIcao": "KIGQ",
    "metar": "KIGQ 091235Z AUTO 25003KT 10SM SCT100 M01/M04 A2997 RMK AO2 T10121042",
    "updatedAt": "2022-03-09T12:35:00.000Z"
  },
  {
    "airportIcao": "KIIB",
    "metar": "KIIB 091235Z AUTO 31013KT 10SM CLR M04/M07 A3004 RMK AO2 T10361068",
    "updatedAt": "2022-03-09T12:35:00.000Z"
  },
  {
    "airportIcao": "KIIY",
    "metar": "KIIY 091235Z AUTO 35004KT 2 1/2SM -RA BR OVC004 12/12 A2987 RMK AO2 P0002 T01210118",
    "updatedAt": "2022-03-09T12:35:00.000Z"
  },
  {
    "airportIcao": "KIJD",
    "metar": "KIJD 091152Z AUTO 00000KT 10SM BKN120 M02/M06 A3016 RMK AO2 SLP215 T10171056 11017 21022 56008 TSNO",
    "updatedAt": "2022-03-09T11:52:00.000Z"
  },
  {
    "airportIcao": "KIJX",
    "metar": "KIJX 091235Z AUTO 29005KT 10SM CLR M01/M01 A3003 RMK AO2 T10151015",
    "updatedAt": "2022-03-09T12:35:00.000Z"
  },
  {
    "airportIcao": "KIKG",
    "metar": "KIKG 091235Z AUTO 00000KT 10SM OVC110 06/04 A3006 RMK AO2 T00580037",
    "updatedAt": "2022-03-09T12:35:00.000Z"
  },
  {
    "airportIcao": "KIKK",
    "metar": "KIKK 091236Z AUTO 00000KT 10SM SCT120 M02/M03 A2999 RMK AO2",
    "updatedAt": "2022-03-09T12:36:00.000Z"
  },
  {
    "airportIcao": "KIKT",
    "metar": "KIKT 091235Z AUTO 30006G18KT 10SM BKN008 BKN022 OVC031 22/20 A2990 RMK A01",
    "updatedAt": "2022-03-09T12:35:00.000Z"
  },
  {
    "airportIcao": "KIKV",
    "metar": "KIKV 091235Z AUTO 34012G21KT 10SM FEW023 OVC030 M03/M08 A3010 RMK AO2",
    "updatedAt": "2022-03-09T12:35:00.000Z"
  },
  {
    "airportIcao": "KIKW",
    "metar": "KIKW 091235Z AUTO 00000KT 10SM SCT120 M02/M05 A2990 RMK AO2 T10251054",
    "updatedAt": "2022-03-09T12:35:00.000Z"
  },
  {
    "airportIcao": "KILE",
    "metar": "KILE 091156Z AUTO 33007KT 7SM CLR 02/00 A3009 RMK AO2 SLP189 T00220000 10022 20006 51004 FZRANO",
    "updatedAt": "2022-03-09T11:56:00.000Z"
  },
  {
    "airportIcao": "KILG",
    "metar": "KILG 091151Z AUTO 14010KT 10SM OVC080 06/01 A3006 RMK AO2 SLP180 T00560006 10061 20056 55014",
    "updatedAt": "2022-03-09T11:51:00.000Z"
  },
  {
    "airportIcao": "KILM",
    "metar": "KILM 091229Z 00000KT 4SM BR OVC006 12/12 A2988 RMK AO2 T01220122",
    "updatedAt": "2022-03-09T12:29:00.000Z"
  },
  {
    "airportIcao": "KILN",
    "metar": "KILN 091154Z AUTO 01005KT 7SM BKN080 OVC095 02/01 A2990 RMK AO2 SNE09 SLP147 P0000 60000 T00170006 10028 20011 56005",
    "updatedAt": "2022-03-09T11:54:00.000Z"
  },
  {
    "airportIcao": "KIML",
    "metar": "KIML 091153Z AUTO 08010KT 10SM OVC012 M07/M09 A3003 RMK AO2 SLP202 T10671089 11067 21106 53001",
    "updatedAt": "2022-03-09T11:53:00.000Z"
  },
  {
    "airportIcao": "KIMS",
    "metar": "KIMS 091235Z AUTO 32004KT 10SM -RA OVC060 01/01 A2999 RMK AO2",
    "updatedAt": "2022-03-09T12:35:00.000Z"
  },
  {
    "airportIcao": "KIMT",
    "metar": "KIMT 091154Z AUTO 30010KT 10SM FEW030 OVC040 M03/M12 A2979 RMK AO2 SLP104 60000 T10331117 10000 21033 53008",
    "updatedAt": "2022-03-09T11:54:00.000Z"
  },
  {
    "airportIcao": "KIND",
    "metar": "KIND 091154Z 35006KT 10SM FEW070 OVC100 01/M03 A2998 RMK AO2 SLP157 T00061033 10017 20006 53003",
    "updatedAt": "2022-03-09T11:54:00.000Z"
  },
  {
    "airportIcao": "KINF",
    "metar": "KINF 091235Z AUTO 4SM BR OVC024 21/21 A2998 RMK AO2",
    "updatedAt": "2022-03-09T12:35:00.000Z"
  },
  {
    "airportIcao": "KINJ",
    "metar": "KINJ 091235Z AUTO 01003KT 5SM BR CLR M03/M03 A3009 RMK AO2 T10331033",
    "updatedAt": "2022-03-09T12:35:00.000Z"
  },
  {
    "airportIcao": "KINK",
    "metar": "KINK 091153Z AUTO 00000KT 10SM CLR M02/M12 A2998 RMK AO2 SLP145 T10171117 10033 21028 55003",
    "updatedAt": "2022-03-09T11:53:00.000Z"
  },
  {
    "airportIcao": "KINL",
    "metar": "KINL 091154Z AUTO 30011KT 4SM -SN OVC040 M15/M18 A2992 RMK AO2 SLP160 P0000 60000 70001 T11501183 11117 21150 51007",
    "updatedAt": "2022-03-09T11:54:00.000Z"
  },
  {
    "airportIcao": "KINS",
    "metar": "KINS 091158Z AUTO 00000KT 10SM CLR 04/M12 A2993 RMK AO2 SLP121 T00441121 10078 20033 56009 $",
    "updatedAt": "2022-03-09T11:58:00.000Z"
  },
  {
    "airportIcao": "KINT",
    "metar": "KINT 091220Z 03006KT 2SM BR OVC004 08/06 A2991 RMK AO2 T00830061",
    "updatedAt": "2022-03-09T12:20:00.000Z"
  },
  {
    "airportIcao": "KINW",
    "metar": "KINW 091156Z AUTO 10003KT 10SM CLR M06/M12 A2993 RMK AO2 SLP144 T10611117 11006 21067 56011",
    "updatedAt": "2022-03-09T11:56:00.000Z"
  },
  {
    "airportIcao": "KIOB",
    "metar": "KIOB 091235Z AUTO 35005KT 5SM -DZ OVC005 02/02 A2993 RMK AO2 P0001",
    "updatedAt": "2022-03-09T12:35:00.000Z"
  },
  {
    "airportIcao": "KIOW",
    "metar": "KIOW 091209Z AUTO 28005KT 10SM SCT026 M05/M07 A3006 RMK AO2 T10501072",
    "updatedAt": "2022-03-09T12:09:00.000Z"
  },
  {
    "airportIcao": "KIPJ",
    "metar": "KIPJ 091235Z AUTO 00000KT 5SM RA SCT006 BKN047 OVC075 09/08 A2989 RMK AO2 P0011 T00880083",
    "updatedAt": "2022-03-09T12:35:00.000Z"
  },
  {
    "airportIcao": "KIPL",
    "metar": "KIPL 091153Z AUTO 26004KT 10SM CLR 07/M04 A2993 RMK AO2 SLP134 T00721039 10122 20067 55005",
    "updatedAt": "2022-03-09T11:53:00.000Z"
  },
  {
    "airportIcao": "KIPT",
    "metar": "KIPT 091217Z 08012G19KT 8SM OVC021 02/M04 A2999 RMK AO2 SNE17 P0000 T00171039",
    "updatedAt": "2022-03-09T12:17:00.000Z"
  },
  {
    "airportIcao": "KIRK",
    "metar": "KIRK 091155Z AUTO 34006KT 10SM CLR M03/M05 A3005 RMK AO2 SLP188 T10281050 10006 21033 53015",
    "updatedAt": "2022-03-09T11:55:00.000Z"
  },
  {
    "airportIcao": "KIRS",
    "metar": "KIRS 091235Z AUTO 19003KT 5SM BR CLR M03/M03 A2995 RMK AO2 T10291033",
    "updatedAt": "2022-03-09T12:35:00.000Z"
  },
  {
    "airportIcao": "KISM",
    "metar": "KISM 091156Z 19005KT 10SM OVC008 22/21 A3001 RMK AO2 SLP163 6//// 7//// T02170206 10222 20211 51009 PNO $",
    "updatedAt": "2022-03-09T11:56:00.000Z"
  },
  {
    "airportIcao": "KISO",
    "metar": "KISO 091156Z 35006KT 1/2SM FG OVC003 09/09 A2991",
    "updatedAt": "2022-03-09T11:56:00.000Z"
  },
  {
    "airportIcao": "KISP",
    "metar": "KISP 091156Z 13006KT 1SM -SN BR BKN011 OVC020 01/M01 A3013 RMK AO2 RAE46SNB06 SLP202 P0005 60005 7//// T00061011 10039 20006 56006 RVRNO $",
    "updatedAt": "2022-03-09T11:56:00.000Z"
  },
  {
    "airportIcao": "KISQ",
    "metar": "KISQ 091235Z AUTO 33004KT 10SM SCT028 SCT037 OVC047 M01/M05 A2979 RMK AO2 T10131053",
    "updatedAt": "2022-03-09T12:35:00.000Z"
  },
  {
    "airportIcao": "KISW",
    "metar": "KISW 091154Z AUTO 30009KT 10SM OVC030 M04/M09 A2992 RMK AO2 SLP144 60000 T10391094 10000 21044 53004 TSNO",
    "updatedAt": "2022-03-09T11:54:00.000Z"
  },
  {
    "airportIcao": "KITH",
    "metar": "KITH 091156Z 08005KT 10SM OVC060 M02/M06 A3000 RMK AO2 SLP172 T10221056 11022 21050 58017",
    "updatedAt": "2022-03-09T11:56:00.000Z"
  },
  {
    "airportIcao": "KITR",
    "metar": "KITR 091236Z AUTO 11015KT 1/4SM FZFG VV001 M06/M08 A2993 RMK AO2 I1001 T10611083 $",
    "updatedAt": "2022-03-09T12:36:00.000Z"
  },
  {
    "airportIcao": "KIUA",
    "metar": "KIUA 091235Z AUTO 14006KT 10SM CLR M02/M05 A2998 RMK AO2 T10221050",
    "updatedAt": "2022-03-09T12:35:00.000Z"
  },
  {
    "airportIcao": "KIWA",
    "metar": "KIWA 091150Z 11008KT 10SM CLR 04/M08 A2995",
    "updatedAt": "2022-03-09T11:50:00.000Z"
  },
  {
    "airportIcao": "KIWD",
    "metar": "KIWD 091156Z AUTO 27014G19KT 10SM -SN OVC025 M08/M12 A2984 RMK AO2 SLP125 P0000 60000 T10831122 11039 21083 53007 FZRANO",
    "updatedAt": "2022-03-09T11:56:00.000Z"
  },
  {
    "airportIcao": "KIWI",
    "metar": "KIWI 091153Z AUTO 00000KT 10SM CLR M05/M07 A3020 RMK AO2 SLP228 T10501072 11050 21061 58004",
    "updatedAt": "2022-03-09T11:53:00.000Z"
  },
  {
    "airportIcao": "KIXA",
    "metar": "KIXA 091235Z AUTO 04005KT 10SM RA OVC021 05/05 A2993 RMK AO2",
    "updatedAt": "2022-03-09T12:35:00.000Z"
  },
  {
    "airportIcao": "KIXD",
    "metar": "KIXD 091153Z 33006KT 10SM CLR M03/M06 A3009 RMK AO2 SLP196 T10331056 10028 21033 53011",
    "updatedAt": "2022-03-09T11:53:00.000Z"
  },
  {
    "airportIcao": "KIYA",
    "metar": "KIYA 091235Z AUTO 34014KT 10SM OVC011 07/03 A3001 RMK AO2 T00670030",
    "updatedAt": "2022-03-09T12:35:00.000Z"
  },
  {
    "airportIcao": "KIZA",
    "metar": "KIZA 091235Z AUTO 04003KT 10SM CLR 02/01 A3000 RMK AO2",
    "updatedAt": "2022-03-09T12:35:00.000Z"
  },
  {
    "airportIcao": "KIZG",
    "metar": "KIZG 091154Z AUTO 00000KT 10SM CLR M06/M09 A3016 RMK AO2 SLP221 T10611094 11044 21078 55003",
    "updatedAt": "2022-03-09T11:54:00.000Z"
  },
  {
    "airportIcao": "KJAC",
    "metar": "KJAC 091156Z AUTO 03016KT 9SM FEW016 SCT055 BKN070 M14/M18 A2978 RMK AO2 SNE55 SLP157 P0000 60000 70023 T11441178 11078 21144 51006 FZRANO",
    "updatedAt": "2022-03-09T11:56:00.000Z"
  },
  {
    "airportIcao": "KJAN",
    "metar": "KJAN 091154Z AUTO 35009KT 10SM BKN008 OVC013 06/05 A3002 RMK AO2 CIG 005V011 SLP167 60000 70427 T00610050 10072 20061 53025",
    "updatedAt": "2022-03-09T11:54:00.000Z"
  },
  {
    "airportIcao": "KJAQ",
    "metar": "KJAQ 091235Z AUTO 11003KT 10SM CLR 08/00 A3000 RMK AO1 T00791001",
    "updatedAt": "2022-03-09T12:35:00.000Z"
  },
  {
    "airportIcao": "KJAS",
    "metar": "KJAS 091235Z AUTO 02008KT 10SM BKN011 05/04 A3004 RMK AO2",
    "updatedAt": "2022-03-09T12:35:00.000Z"
  },
  {
    "airportIcao": "KJAU",
    "metar": "KJAU 090615Z AUTO 00000KT 4SM BR FEW008 BKN017 OVC030 06/06 A2997 RMK A01",
    "updatedAt": "2022-03-09T06:15:00.000Z"
  },
  {
    "airportIcao": "KJAX",
    "metar": "KJAX 091232Z 18006KT 4SM -RA BR FEW007 BKN012 BKN031 21/21 A2994",
    "updatedAt": "2022-03-09T12:32:00.000Z"
  },
  {
    "airportIcao": "KJBR",
    "metar": "KJBR 091153Z AUTO 31007KT 4SM BR CLR 02/01 A3006 RMK AO2 SLP181 60002 70007 T00170006 10033 20017 53013 $",
    "updatedAt": "2022-03-09T11:53:00.000Z"
  },
  {
    "airportIcao": "KJCA",
    "metar": "KJCA 091235Z AUTO 17004KT 1 1/2SM +RA BR BKN004 BKN017 OVC065 11/ A2986 RMK AO2 P0021 T0109////",
    "updatedAt": "2022-03-09T12:35:00.000Z"
  },
  {
    "airportIcao": "KJCT",
    "metar": "KJCT 091151Z AUTO 30005KT 10SM CLR M02/M06 A3008 RMK AO2 SLP172 T10221061 10039 21028 56002",
    "updatedAt": "2022-03-09T11:51:00.000Z"
  },
  {
    "airportIcao": "KJDD",
    "metar": "KJDD 091235Z AUTO 00000KT 7SM CLR M03/M03 A3011 RMK AO2",
    "updatedAt": "2022-03-09T12:35:00.000Z"
  },
  {
    "airportIcao": "KJDN",
    "metar": "KJDN 091148Z AUTO 31006KT M12/M16 A3020 RMK AO1 SLP279 T11221156 11100 21144 55004",
    "updatedAt": "2022-03-09T11:48:00.000Z"
  },
  {
    "airportIcao": "KJEF",
    "metar": "KJEF 091153Z 00000KT 6SM HZ CLR M02/M04 A3006 RMK AO2 SLP174 T10171044 10011 21022 53006 $",
    "updatedAt": "2022-03-09T11:53:00.000Z"
  },
  {
    "airportIcao": "KJER",
    "metar": "KJER 091238Z AUTO 09008G19KT 050V110 1SM -SN BR VV003 M02/M03 A2989 RMK AO2 P0001 T10221033",
    "updatedAt": "2022-03-09T12:38:00.000Z"
  },
  {
    "airportIcao": "KJES",
    "metar": "KJES 091235Z AUTO 00000KT 4SM BR OVC003 21/19 A2994 RMK AO2",
    "updatedAt": "2022-03-09T12:35:00.000Z"
  },
  {
    "airportIcao": "KJFK",
    "metar": "KJFK 091216Z 09007KT 10SM -RA SCT027 BKN046 OVC060 02/01 A3013 RMK AO2 SNE16 P0000 T00220006 $",
    "updatedAt": "2022-03-09T12:16:00.000Z"
  },
  {
    "airportIcao": "KJFX",
    "metar": "KJFX 091235Z AUTO 30006KT 2SM BR OVC007 07/07 A2997 RMK AO2 PWINO",
    "updatedAt": "2022-03-09T12:35:00.000Z"
  },
  {
    "airportIcao": "KJFZ",
    "metar": "KJFZ 091235Z AUTO 14003KT 10SM OVC041 09/08 A2976 RMK AO2 T00850076",
    "updatedAt": "2022-03-09T12:35:00.000Z"
  },
  {
    "airportIcao": "KJGG",
    "metar": "KJGG 091235Z AUTO 00000KT 4SM OVC006 07/07 A2993 RMK AO1 P0009",
    "updatedAt": "2022-03-09T12:35:00.000Z"
  },
  {
    "airportIcao": "KJHN",
    "metar": "KJHN 091235Z AUTO 03007KT 10SM CLR M09/M11 A2997 RMK AO2 T10951107",
    "updatedAt": "2022-03-09T12:35:00.000Z"
  },
  {
    "airportIcao": "KJHW",
    "metar": "KJHW 091156Z AUTO 03004KT 10SM BKN120 M02/M06 A2991 RMK AO2 SLP154 T10221061 11022 21028 56019 FZRANO",
    "updatedAt": "2022-03-09T11:56:00.000Z"
  },
  {
    "airportIcao": "KJKA",
    "metar": "KJKA 091235Z AUTO 34010G16KT 10SM SCT029 BKN046 BKN055 16/15 A2987 RMK AO2 LTG DSNT SE AND S",
    "updatedAt": "2022-03-09T12:35:00.000Z"
  },
  {
    "airportIcao": "KJKJ",
    "metar": "KJKJ 091235Z AUTO 32012KT 10SM CLR M14/M19 A3016 RMK AO2",
    "updatedAt": "2022-03-09T12:35:00.000Z"
  },
  {
    "airportIcao": "KJKL",
    "metar": "KJKL 091216Z AUTO 32005KT RA OVC004 03/02 A2986 RMK AO2 PRESRR P0001 T00280017 $",
    "updatedAt": "2022-03-09T12:16:00.000Z"
  },
  {
    "airportIcao": "KJLN",
    "metar": "KJLN 091153Z 00000KT 8SM CLR M02/M04 A3007 RMK AO2 SLP189 T10221039 10006 21022 53002",
    "updatedAt": "2022-03-09T11:53:00.000Z"
  },
  {
    "airportIcao": "KJMR",
    "metar": "KJMR 091235Z AUTO 31008KT 10SM CLR M12/M17 A3004 RMK AO2",
    "updatedAt": "2022-03-09T12:35:00.000Z"
  },
  {
    "airportIcao": "KJMS",
    "metar": "KJMS 091156Z AUTO 32009KT 10SM OVC041 M14/M17 A3013 RMK AO2 SLP235 60000 T11391172 11128 21144 53004",
    "updatedAt": "2022-03-09T11:56:00.000Z"
  },
  {
    "airportIcao": "KJNX",
    "metar": "KJNX 091235Z AUTO 03004KT 10SM BKN006 OVC016 08/07 A2991 RMK AO2",
    "updatedAt": "2022-03-09T12:35:00.000Z"
  },
  {
    "airportIcao": "KJOT",
    "metar": "KJOT 091235Z AUTO 25003KT 10SM BKN110 00/M03 A2998 RMK AO2 T00041031",
    "updatedAt": "2022-03-09T12:35:00.000Z"
  },
  {
    "airportIcao": "KJQF",
    "metar": "KJQF 091150Z 08005KT 3SM BR OVC006 11/10 A2989",
    "updatedAt": "2022-03-09T11:50:00.000Z"
  },
  {
    "airportIcao": "KJRB",
    "metar": "KJRB 091240Z AUTO 04010KT 10SM -RA BKN031 03/01 A3012 RMK AO2 P0000",
    "updatedAt": "2022-03-09T12:40:00.000Z"
  },
  {
    "airportIcao": "KJSL",
    "metar": "KJSL 090600Z AUTO 00000G12KT 8SM CLR 25/22 A2987 RMK A01",
    "updatedAt": "2022-03-09T06:00:00.000Z"
  },
  {
    "airportIcao": "KJSO",
    "metar": "KJSO 091235Z AUTO 36004KT 10SM CLR 00/00 A3008 RMK AO2 T00061001",
    "updatedAt": "2022-03-09T12:35:00.000Z"
  },
  {
    "airportIcao": "KJST",
    "metar": "KJST 091241Z AUTO 00000KT 1SM -SN BR BKN010 OVC017 00/M02 A2985 RMK AO2 UPE03SNB03 CIG 006V013 P0003 T00001017 TSNO",
    "updatedAt": "2022-03-09T12:41:00.000Z"
  },
  {
    "airportIcao": "KJSV",
    "metar": "KJSV 091235Z AUTO 00000KT 4SM BR CLR M02/M02 A3011 RMK AO2",
    "updatedAt": "2022-03-09T12:35:00.000Z"
  },
  {
    "airportIcao": "KJSY",
    "metar": "KJSY 091235Z AUTO 1 1/4SM -SN BKN003 BKN009 OVC019 M05/M06 A2997 RMK AO2 T10501062 TSNO",
    "updatedAt": "2022-03-09T12:35:00.000Z"
  },
  {
    "airportIcao": "KJTC",
    "metar": "KJTC 090615Z AUTO 20007KT 10SM CLR M06/M12 A3000 RMK AO2",
    "updatedAt": "2022-03-09T06:15:00.000Z"
  },
  {
    "airportIcao": "KJVL",
    "metar": "KJVL 091145Z 24004KT 10SM SCT150 M03/M04 A2995",
    "updatedAt": "2022-03-09T11:45:00.000Z"
  },
  {
    "airportIcao": "KJVW",
    "metar": "KJVW 091235Z AUTO 00000KT 10SM SCT005 BKN009 OVC012 06/06 A3002 RMK AO2",
    "updatedAt": "2022-03-09T12:35:00.000Z"
  },
  {
    "airportIcao": "KJVY",
    "metar": "KJVY 091235Z AUTO 34006KT 10SM CLR 02/01 A2999 RMK AO2 PWINO",
    "updatedAt": "2022-03-09T12:35:00.000Z"
  },
  {
    "airportIcao": "KJWG",
    "metar": "KJWG 091235Z AUTO 00000KT 10SM CLR M06/M10 A3009 RMK AO2 T10631097",
    "updatedAt": "2022-03-09T12:35:00.000Z"
  },
  {
    "airportIcao": "KJWN",
    "metar": "KJWN 090615Z AUTO 31005KT 2 1/2SM BR FEW006 SCT012 BKN023 04/04 A2991 RMK A01",
    "updatedAt": "2022-03-09T06:15:00.000Z"
  },
  {
    "airportIcao": "KJWY",
    "metar": "KJWY 091235Z AUTO 00000KT 5SM BR CLR M02/M02 A3012 RMK AO2 T10251025",
    "updatedAt": "2022-03-09T12:35:00.000Z"
  },
  {
    "airportIcao": "KJXI",
    "metar": "KJXI 091235Z AUTO 00000KT 7SM CLR 00/M01 A3011 RMK AO2 T10031015",
    "updatedAt": "2022-03-09T12:35:00.000Z"
  },
  {
    "airportIcao": "KJXN",
    "metar": "KJXN 091156Z 17003KT 9SM FEW120 M04/M06 A2994 RMK AO2 SLP151 I6000 T10391061 11022 21061 55003",
    "updatedAt": "2022-03-09T11:56:00.000Z"
  },
  {
    "airportIcao": "KJYG",
    "metar": "KJYG 091236Z AUTO 31013G18KT 10SM M10/M13 A3010 RMK AO2",
    "updatedAt": "2022-03-09T12:36:00.000Z"
  },
  {
    "airportIcao": "KJYL",
    "metar": "KJYL 091235Z AUTO 21003KT 10SM OVC017 20/19 A2988 RMK AO2 T02000185",
    "updatedAt": "2022-03-09T12:35:00.000Z"
  },
  {
    "airportIcao": "KJYM",
    "metar": "KJYM 091235Z AUTO 17003KT 7SM BKN120 M03/M04 A2993 RMK AO2 T10311042",
    "updatedAt": "2022-03-09T12:35:00.000Z"
  },
  {
    "airportIcao": "KJYO",
    "metar": "KJYO 091235Z AUTO 13008KT 2SM RA BKN007 OVC017 05/05 A3001 RMK AO2 P0009",
    "updatedAt": "2022-03-09T12:35:00.000Z"
  },
  {
    "airportIcao": "KJYR",
    "metar": "KJYR 091235Z AUTO 35004KT 10SM CLR M11/M12 A3013 RMK AO2",
    "updatedAt": "2022-03-09T12:35:00.000Z"
  },
  {
    "airportIcao": "KJZI",
    "metar": "KJZI 091235Z AUTO 20007KT 3SM BR BKN004 BKN024 OVC095 19/19 A2991 RMK AO2",
    "updatedAt": "2022-03-09T12:35:00.000Z"
  },
  {
    "airportIcao": "KJZP",
    "metar": "KJZP 091235Z AUTO 00000KT 1/2SM RA BKN002 OVC009 10/10 A2989 RMK AO2 T00980098",
    "updatedAt": "2022-03-09T12:35:00.000Z"
  },
  {
    "airportIcao": "KK62",
    "metar": "KK62 091215Z AUTO 32003KT 1/2SM -SN OVC003 00/00 A2994 RMK AO2 P0001",
    "updatedAt": "2022-03-09T12:15:00.000Z"
  },
  {
    "airportIcao": "KK70",
    "metar": "KK70 090615Z AUTO 14011KT 10SM SCT019 SCT024 25/23 A3001 RMK AO2",
    "updatedAt": "2022-03-09T06:15:00.000Z"
  },
  {
    "airportIcao": "KK82",
    "metar": "KK82 091235Z AUTO 03010KT 10SM BKN047 M07/M10 A3012 RMK AO2",
    "updatedAt": "2022-03-09T12:35:00.000Z"
  },
  {
    "airportIcao": "KK88",
    "metar": "KK88 091235Z AUTO 33003KT 10SM SCT034 M01/M03 A3010 RMK AO1 T10061028",
    "updatedAt": "2022-03-09T12:35:00.000Z"
  },
  {
    "airportIcao": "KKLS",
    "metar": "KKLS 091221Z AUTO 33004KT 10SM FEW025 BKN090 04/04 A3017 RMK AO2",
    "updatedAt": "2022-03-09T12:21:00.000Z"
  },
  {
    "airportIcao": "KKNB",
    "metar": "KKNB 090610Z AUTO 00000KT 10SM CLR M03/M06 A3002 RMK A01",
    "updatedAt": "2022-03-09T06:10:00.000Z"
  },
  {
    "airportIcao": "KKY8",
    "metar": "KKY8 091235Z AUTO 33004KT 10SM FEW060 BKN080 OVC090 03/02 A3002 RMK A01",
    "updatedAt": "2022-03-09T12:35:00.000Z"
  },
  {
    "airportIcao": "KL08",
    "metar": "KL08 091235Z AUTO 00000KT 10SM FEW042 SCT049 03/M08 A2994 RMK AO2",
    "updatedAt": "2022-03-09T12:35:00.000Z"
  },
  {
    "airportIcao": "KL18",
    "metar": "KL18 091235Z AUTO 02005KT 10SM CLR 06/M02 A3001 RMK AO2",
    "updatedAt": "2022-03-09T12:35:00.000Z"
  },
  {
    "airportIcao": "KL35",
    "metar": "KL35 091235Z AUTO 26003KT 10SM CLR M07/M10 A3001 RMK AO2",
    "updatedAt": "2022-03-09T12:35:00.000Z"
  },
  {
    "airportIcao": "KL52",
    "metar": "KL52 091235Z AUTO 11003KT 10SM CLR 04/01 A3001 RMK A01",
    "updatedAt": "2022-03-09T12:35:00.000Z"
  },
  {
    "airportIcao": "KLAA",
    "metar": "KLAA 091240Z AUTO 10012KT 2 1/2SM BR OVC003 M08/M09 A2991 RMK AO2 T10781089",
    "updatedAt": "2022-03-09T12:40:00.000Z"
  },
  {
    "airportIcao": "KLAF",
    "metar": "KLAF 091154Z 00000KT 7SM BKN110 M02/M03 A2999 RMK AO2 SLP160 T10171028 11006 21022 58001",
    "updatedAt": "2022-03-09T11:54:00.000Z"
  },
  {
    "airportIcao": "KLAL",
    "metar": "KLAL 091150Z 18006KT 7SM OVC008 21/21 A2999",
    "updatedAt": "2022-03-09T11:50:00.000Z"
  },
  {
    "airportIcao": "KLAM",
    "metar": "KLAM 091235Z AUTO 00000KT 10SM CLR M04/M15 A2989 RMK AO2 T10451146",
    "updatedAt": "2022-03-09T12:35:00.000Z"
  },
  {
    "airportIcao": "KLAN",
    "metar": "KLAN 091153Z 18004KT 8SM BKN120 M03/M06 A2993 RMK AO2 SLP145 T10281056 11011 21039 56011",
    "updatedAt": "2022-03-09T11:53:00.000Z"
  },
  {
    "airportIcao": "KLAR",
    "metar": "KLAR 091241Z AUTO 09008KT 3/4SM -SN VV014 M16/M18 A2973 RMK AO2 P0000 T11561183",
    "updatedAt": "2022-03-09T12:41:00.000Z"
  },
  {
    "airportIcao": "KLAS",
    "metar": "KLAS 091156Z 00000KT 10SM FEW140 08/M09 A2991 RMK AO2 SLP123 T00781094 10111 20072 56009",
    "updatedAt": "2022-03-09T11:56:00.000Z"
  },
  {
    "airportIcao": "KLAW",
    "metar": "KLAW 091153Z AUTO 00000KT 10SM CLR M07/M08 A3009 RMK AO2 SLP197 7//// I1000 I6000 T10671083 11033 21072 53004",
    "updatedAt": "2022-03-09T11:53:00.000Z"
  },
  {
    "airportIcao": "KLAX",
    "metar": "KLAX 091153Z 10004KT 10SM FEW015 10/03 A2999 RMK AO2 SLP153 FU FEW015 T01000033 10144 20094 55004",
    "updatedAt": "2022-03-09T11:53:00.000Z"
  },
  {
    "airportIcao": "KLBB",
    "metar": "KLBB 091153Z 19006KT 10SM CLR M03/M08 A3001 RMK AO2 SLP160 T10281083 11011 21050 53004",
    "updatedAt": "2022-03-09T11:53:00.000Z"
  },
  {
    "airportIcao": "KLBE",
    "metar": "KLBE 091150Z 00000KT 10SM SCT036 OVC045 03/02 A2987",
    "updatedAt": "2022-03-09T11:50:00.000Z"
  },
  {
    "airportIcao": "KLBF",
    "metar": "KLBF 091229Z AUTO 04011KT 1 3/4SM -SN OVC017 M08/M11 A3010 RMK AO2 P0001 T10781106",
    "updatedAt": "2022-03-09T12:29:00.000Z"
  },
  {
    "airportIcao": "KLBL",
    "metar": "KLBL 091242Z AUTO 20003KT 6SM UP BR OVC001 M07/M08 A3000 RMK AO2 UPB17SNB06E17B19E32 P0000 FZRANO",
    "updatedAt": "2022-03-09T12:42:00.000Z"
  },
  {
    "airportIcao": "KLBO",
    "metar": "KLBO 091235Z AUTO 28005KT 10SM CLR M02/M03 A3005 RMK AO2",
    "updatedAt": "2022-03-09T12:35:00.000Z"
  },
  {
    "airportIcao": "KLBX",
    "metar": "KLBX 091153Z AUTO 01014KT 10SM -RA BKN012 07/04 A3000 RMK AO2 RAE1055B32 SLP159 P0000 60000 70003 T00720044 10078 20072 58009",
    "updatedAt": "2022-03-09T11:53:00.000Z"
  },
  {
    "airportIcao": "KLCG",
    "metar": "KLCG 091235Z AUTO 35007KT 10SM SCT080 BKN100 BKN110 M07/M11 A3014 RMK AO2 T10741110",
    "updatedAt": "2022-03-09T12:35:00.000Z"
  },
  {
    "airportIcao": "KLCH",
    "metar": "KLCH 091153Z AUTO 01016G21KT 10SM OVC012 06/04 A3000 RMK AO2 SLP166 70029 T00610044 10067 20061 50003",
    "updatedAt": "2022-03-09T11:53:00.000Z"
  },
  {
    "airportIcao": "KLCI",
    "metar": "KLCI 091156Z AUTO 26003KT 10SM CLR M06/M06 A3016 RMK AO2 SLP219 T10561061 11050 21067 55003 FZRANO",
    "updatedAt": "2022-03-09T11:56:00.000Z"
  },
  {
    "airportIcao": "KLCK",
    "metar": "KLCK 091155Z AUTO 04004KT 10SM BKN042 BKN050 OVC065 02/M01 A2991 RMK AO2 T00241012 10030 20021",
    "updatedAt": "2022-03-09T11:55:00.000Z"
  },
  {
    "airportIcao": "KLCQ",
    "metar": "KLCQ 091235Z AUTO 00000KT 10SM BKN010 OVC018 21/21 A2994 RMK AO2",
    "updatedAt": "2022-03-09T12:35:00.000Z"
  },
  {
    "airportIcao": "KLDJ",
    "metar": "KLDJ 091235Z AUTO 12007KT OVC036 03/01 A3010 RMK AO2 T00330007 PWINO",
    "updatedAt": "2022-03-09T12:35:00.000Z"
  },
  {
    "airportIcao": "KLDM",
    "metar": "KLDM 091235Z AUTO 25008KT 10SM OVC025 00/M03 A2989 RMK AO2 T00011034",
    "updatedAt": "2022-03-09T12:35:00.000Z"
  },
  {
    "airportIcao": "KLEB",
    "metar": "KLEB 091153Z 17003KT 10SM CLR M04/M08 A3015 RMK AO2 SLP221 T10441078 11044 21056 53000",
    "updatedAt": "2022-03-09T11:53:00.000Z"
  },
  {
    "airportIcao": "KLEE",
    "metar": "KLEE 091153Z 18010KT 10SM BKN012 BKN018 OVC120 22/21 A2998 RMK AO2 SLP152 T02220211 10233 20222 51006",
    "updatedAt": "2022-03-09T11:53:00.000Z"
  },
  {
    "airportIcao": "KLEW",
    "metar": "KLEW 091156Z AUTO 00000KT 10SM CLR M06/M08 A3018 RMK AO2 SLP230 T10611078 11033 21072 55003 FZRANO",
    "updatedAt": "2022-03-09T11:56:00.000Z"
  },
  {
    "airportIcao": "KLEX",
    "metar": "KLEX 091234Z 33007KT 4SM -RA BR OVC005 02/01 A2994",
    "updatedAt": "2022-03-09T12:34:00.000Z"
  },
  {
    "airportIcao": "KLFI",
    "metar": "KLFI 091238Z 08022G28KT 3SM -RA OVC005 07/07 A2989 RMK AO2A TWR VIS 1 1/2 SLP128 $",
    "updatedAt": "2022-03-09T12:38:00.000Z"
  },
  {
    "airportIcao": "KLFK",
    "metar": "KLFK 091232Z AUTO 33003KT 7SM FEW006 04/03 A3009 RMK AO2 T00390028",
    "updatedAt": "2022-03-09T12:32:00.000Z"
  },
  {
    "airportIcao": "KLFT",
    "metar": "KLFT 091153Z 36011KT 10SM OVC010 07/05 A3000 RMK AO2 SLP160 70003 T00720050 10083 20072 53016",
    "updatedAt": "2022-03-09T11:53:00.000Z"
  },
  {
    "airportIcao": "KLGA",
    "metar": "KLGA 091151Z 14008KT 5SM -RA BR FEW009 BKN055 OVC065 02/M01 A3012 RMK AO2 RAB04 SLP199 P0001 60001 70001 T00221011 10050 20022 55007",
    "updatedAt": "2022-03-09T11:51:00.000Z"
  },
  {
    "airportIcao": "KLGB",
    "metar": "KLGB 091153Z AUTO 00000KT 10SM CLR 10/03 A2999 RMK AO2 SLP154 T01000028 10139 20094 55002",
    "updatedAt": "2022-03-09T11:53:00.000Z"
  },
  {
    "airportIcao": "KLGC",
    "metar": "KLGC 091235Z AUTO 00000KT 4SM -RA SCT009 BKN014 OVC036 13/13 A2986 RMK AO2 T01330128",
    "updatedAt": "2022-03-09T12:35:00.000Z"
  },
  {
    "airportIcao": "KLGD",
    "metar": "KLGD 091156Z AUTO 30010KT 10SM SCT050 BKN060 M01/M04 A3003 RMK AO2 SLP188 60000 70002 T10111044 11006 21017 56004 FZRANO",
    "updatedAt": "2022-03-09T11:56:00.000Z"
  },
  {
    "airportIcao": "KLGF",
    "metar": "KLGF 091158Z AUTO 00000KT 10SM CLR 07/M14 A2993 RMK AO2 SLP135 TMP 06C RWY 18 6//// 7//// T00651143 10115 20055 $",
    "updatedAt": "2022-03-09T11:58:00.000Z"
  },
  {
    "airportIcao": "KLGU",
    "metar": "KLGU 091151Z AUTO 00000KT 10SM FEW022 BKN046 OVC110 M01/M04 A2982 RMK AO2 SLP110 60000 T10061044 10006 21011 52004",
    "updatedAt": "2022-03-09T11:51:00.000Z"
  },
  {
    "airportIcao": "KLHB",
    "metar": "KLHB 091235Z AUTO 31003KT 4SM BR CLR 01/00 A3012 RMK AO2 T00050000",
    "updatedAt": "2022-03-09T12:35:00.000Z"
  },
  {
    "airportIcao": "KLHM",
    "metar": "KLHM 091235Z AUTO 09005KT 10SM CLR 03/01 A2999 RMK AO1",
    "updatedAt": "2022-03-09T12:35:00.000Z"
  },
  {
    "airportIcao": "KLHQ",
    "metar": "KLHQ 091219Z AUTO 04003KT 1 3/4SM -SN BR OVC020 01/01 A2991 RMK AO2 P0001 T00110006",
    "updatedAt": "2022-03-09T12:19:00.000Z"
  },
  {
    "airportIcao": "KLHW",
    "metar": "KLHW 091156Z AUTO 21007KT 5SM BR OVC006 20/19 A2988 RMK AO2 SLP121 70028 T01980190 10198 20193 53005 $",
    "updatedAt": "2022-03-09T11:56:00.000Z"
  },
  {
    "airportIcao": "KLHX",
    "metar": "KLHX 091153Z AUTO 09007KT 10SM CLR M08/M11 A2986 RMK AO2 SLP126 T10831111 11017 21083 56017",
    "updatedAt": "2022-03-09T11:53:00.000Z"
  },
  {
    "airportIcao": "KLHZ",
    "metar": "KLHZ 091235Z AUTO 06006KT 10SM SCT006 OVC019 06/05 A2995 RMK AO2",
    "updatedAt": "2022-03-09T12:35:00.000Z"
  },
  {
    "airportIcao": "KLIC",
    "metar": "KLIC 091236Z AUTO 14009KT 1 3/4SM BR OVC003 M09/M11 A2982",
    "updatedAt": "2022-03-09T12:36:00.000Z"
  },
  {
    "airportIcao": "KLIT",
    "metar": "KLIT 091153Z 36006KT 7SM OVC006 03/01 A3008 RMK AO2 SLP190 70012 T00330011 10039 20022 53015",
    "updatedAt": "2022-03-09T11:53:00.000Z"
  },
  {
    "airportIcao": "KLJF",
    "metar": "KLJF 091235Z AUTO 32011KT 10SM BKN034 M10/M19 A3008 RMK AO2",
    "updatedAt": "2022-03-09T12:35:00.000Z"
  },
  {
    "airportIcao": "KLKR",
    "metar": "KLKR 091235Z AUTO 07004KT 3/4SM BR 12/12 A2987 RMK AO2",
    "updatedAt": "2022-03-09T12:35:00.000Z"
  },
  {
    "airportIcao": "KLKU",
    "metar": "KLKU 091235Z AUTO 36006KT 5SM RA BR OVC003 04/04 A3003 RMK AO2 P0002 T00400039",
    "updatedAt": "2022-03-09T12:35:00.000Z"
  },
  {
    "airportIcao": "KLKV",
    "metar": "KLKV 091153Z AUTO 24010KT 10SM SCT045 OVC050 A3001 RMK AO2 SLPNO 7//// 57012 FZRANO $",
    "updatedAt": "2022-03-09T11:53:00.000Z"
  },
  {
    "airportIcao": "KLLJ",
    "metar": "KLLJ 091155Z AUTO 35008KT 10SM CLR M09/M15 A2990 RMK AO2 SLP151 60000 70001 T10891150 11039 21089 53003",
    "updatedAt": "2022-03-09T11:55:00.000Z"
  },
  {
    "airportIcao": "KLLQ",
    "metar": "KLLQ 091241Z AUTO 33004KT 9SM OVC009 03/02 A3009 RMK AO2 T00330022",
    "updatedAt": "2022-03-09T12:41:00.000Z"
  },
  {
    "airportIcao": "KLMO",
    "metar": "KLMO 091235Z AUTO 36014G19KT 10SM OVC015 M06/M10 A2990 RMK AO2 T10651103",
    "updatedAt": "2022-03-09T12:35:00.000Z"
  },
  {
    "airportIcao": "KLMT",
    "metar": "KLMT 091153Z AUTO 29006KT 10SM BKN041 BKN110 M01/M07 A3006 RMK AO2 SLP181 T10111067 10033 21017 56009",
    "updatedAt": "2022-03-09T11:53:00.000Z"
  },
  {
    "airportIcao": "KLNC",
    "metar": "KLNC 091235Z AUTO 00000KT 7SM CLR M03/M03 A3012 RMK AO2 T10261034",
    "updatedAt": "2022-03-09T12:35:00.000Z"
  },
  {
    "airportIcao": "KLND",
    "metar": "KLND 091153Z AUTO 06010KT 1SM -SN BR VV016 M13/M15 A2990 RMK AO2 SLP194 P0003 60017 70040 T11331150 11111 21133 55001",
    "updatedAt": "2022-03-09T11:53:00.000Z"
  },
  {
    "airportIcao": "KLNK",
    "metar": "KLNK 091154Z 35006KT 10SM CLR M07/M11 A3015 RMK AO2 SLP224 T10671111 11022 21078 53009",
    "updatedAt": "2022-03-09T11:54:00.000Z"
  },
  {
    "airportIcao": "KLNL",
    "metar": "KLNL 091235Z AUTO 30003KT 1 1/4SM -SN SCT010 OVC019 M06/M10 A2981 RMK AO2 T10651098",
    "updatedAt": "2022-03-09T12:35:00.000Z"
  },
  {
    "airportIcao": "KLNN",
    "metar": "KLNN 091235Z AUTO 00000KT 10SM OVC080 00/M04 A2994 RMK AO1 T10031039",
    "updatedAt": "2022-03-09T12:35:00.000Z"
  },
  {
    "airportIcao": "KLNP",
    "metar": "KLNP 091235Z AUTO 01005KT 7SM -RA OVC005 08/07 A2979 RMK AO2",
    "updatedAt": "2022-03-09T12:35:00.000Z"
  },
  {
    "airportIcao": "KLNQ",
    "metar": "KLNQ 091235Z AUTO 33010KT 10SM BKN009 BKN013 OVC038 15/13 A2992 RMK AO2 T01460127",
    "updatedAt": "2022-03-09T12:35:00.000Z"
  },
  {
    "airportIcao": "KLNR",
    "metar": "KLNR 091156Z AUTO 30010KT 10SM CLR M04/M09 A2998 RMK AO2 SLP155 T10391094 11017 21067 53013",
    "updatedAt": "2022-03-09T11:56:00.000Z"
  },
  {
    "airportIcao": "KLNS",
    "metar": "KLNS 091153Z 08005KT 10SM OVC046 04/M01 A3002 RMK AO2 SLP168 60000 T00391011 10044 20028 58017",
    "updatedAt": "2022-03-09T11:53:00.000Z"
  },
  {
    "airportIcao": "KLOL",
    "metar": "KLOL 091153Z AUTO 33006KT 10SM CLR 04/M04 A2998 RMK AO2 SLP147 T00441044 10072 20028 56008 $",
    "updatedAt": "2022-03-09T11:53:00.000Z"
  },
  {
    "airportIcao": "KLOM",
    "metar": "KLOM 091235Z AUTO 10006KT 10SM SCT045 OVC055 04/01 A3007 RMK AO2 T00430009",
    "updatedAt": "2022-03-09T12:35:00.000Z"
  },
  {
    "airportIcao": "KLOR",
    "metar": "KLOR 091236Z AUTO 24005KT 10SM -RA OVC022 21/20 A2985 RMK AO2 LTG DSNT S-SW RAB36 OVC V BKN SLP090",
    "updatedAt": "2022-03-09T12:36:00.000Z"
  },
  {
    "airportIcao": "KLOT",
    "metar": "KLOT 091230Z AUTO 24005KT 10SM BKN110 M01/M03 A2997 RMK AO2 T10061031",
    "updatedAt": "2022-03-09T12:30:00.000Z"
  },
  {
    "airportIcao": "KLOU",
    "metar": "KLOU 091153Z 00000KT 6SM BR FEW027 BKN060 OVC075 03/02 A2996 RMK AO2 RAE02 SLP146 P0000 60008 70008 T00280017 10050 20011 53007",
    "updatedAt": "2022-03-09T11:53:00.000Z"
  },
  {
    "airportIcao": "KLOZ",
    "metar": "KLOZ 091153Z AUTO VRB03KT 5SM RA BR OVC005 04/04 A2986 RMK AO2 SLP113 P0004 60028 70046 T00440039 10044 20039 51017",
    "updatedAt": "2022-03-09T11:53:00.000Z"
  },
  {
    "airportIcao": "KLPC",
    "metar": "KLPC 091156Z AUTO 00000KT 10SM CLR 03/02 A3003 RMK AO2 SLP169 60000 T00280022 10083 20028 56009",
    "updatedAt": "2022-03-09T11:56:00.000Z"
  },
  {
    "airportIcao": "KLPR",
    "metar": "KLPR 091153Z AUTO 00000KT 10SM OVC085 M01/M03 A2994 RMK AO2 SLP145 T10061028 10000 21011 56015",
    "updatedAt": "2022-03-09T11:53:00.000Z"
  },
  {
    "airportIcao": "KLQK",
    "metar": "KLQK 091235Z AUTO 11006KT 2 1/2SM +RA SCT065 BKN080 OVC090 11/11 A2983 RMK AO2 VIS 1 3/4V5 P0013 T01050105",
    "updatedAt": "2022-03-09T12:35:00.000Z"
  },
  {
    "airportIcao": "KLRD",
    "metar": "KLRD 091156Z 00000KT 10SM BKN110 08/03 A3007 RMK AO2 SLP183 T00780033 10100 20078 53012",
    "updatedAt": "2022-03-09T11:56:00.000Z"
  },
  {
    "airportIcao": "KLRF",
    "metar": "KLRF 091221Z AUTO 31004KT 9SM OVC006 02/01 A3007 RMK AO2 SLP188 $",
    "updatedAt": "2022-03-09T12:21:00.000Z"
  },
  {
    "airportIcao": "KLRJ",
    "metar": "KLRJ 091235Z AUTO 33008G14KT 10SM BKN090 M08/M13 A3014 RMK AO2",
    "updatedAt": "2022-03-09T12:35:00.000Z"
  },
  {
    "airportIcao": "KLRO",
    "metar": "KLRO 091235Z AUTO 00000KT 5SM BR CLR 20/20 A2990 RMK AO2",
    "updatedAt": "2022-03-09T12:35:00.000Z"
  },
  {
    "airportIcao": "KLRU",
    "metar": "KLRU 091235Z AUTO 00000KT 10SM CLR 01/M16 A2994 RMK AO2 T00051156",
    "updatedAt": "2022-03-09T12:35:00.000Z"
  },
  {
    "airportIcao": "KLRY",
    "metar": "KLRY 091235Z AUTO 34004KT 10SM CLR M01/M02 A3011 RMK AO2",
    "updatedAt": "2022-03-09T12:35:00.000Z"
  },
  {
    "airportIcao": "KLSE",
    "metar": "KLSE 091153Z 29012KT 10SM BKN034 M04/M10 A2999 RMK AO2 SLP168 7//// T10441100 10000 21044 53009",
    "updatedAt": "2022-03-09T11:53:00.000Z"
  },
  {
    "airportIcao": "KLSF",
    "metar": "KLSF 091233Z AUTO 00000KT 10SM -DZ SCT027 BKN041 BKN065 19/18 A2980 RMK AO2 RAE1158RAB05E30DZB30 TSE08 SLP096 $",
    "updatedAt": "2022-03-09T12:33:00.000Z"
  },
  {
    "airportIcao": "KLSV",
    "metar": "KLSV 091158Z 08008KT 10SM CLR 07/M11 A2993 RMK AO2A SLP132 WND DATA ESTMD ALSTG/SLP ESTMD T00661113 10097 20039 56010 $",
    "updatedAt": "2022-03-09T11:58:00.000Z"
  },
  {
    "airportIcao": "KLTS",
    "metar": "KLTS 091156Z AUTO 00000KT 10SM CLR M05/M09 A3007 RMK AO2 SLP191 T10461091 10004 21068 53007",
    "updatedAt": "2022-03-09T11:56:00.000Z"
  },
  {
    "airportIcao": "KLUA",
    "metar": "KLUA 091235Z AUTO 33004KT 5SM -RA SCT011 OVC017 04/04 A2993 RMK AO2 P0004",
    "updatedAt": "2022-03-09T12:35:00.000Z"
  },
  {
    "airportIcao": "KLUD",
    "metar": "KLUD 091235Z AUTO 00000KT 10SM CLR 00/M04 A3009 RMK AO2 T00001040",
    "updatedAt": "2022-03-09T12:35:00.000Z"
  },
  {
    "airportIcao": "KLUF",
    "metar": "KLUF 091158Z AUTO 02004KT 10SM CLR 05/M08 A2993 RMK AO2 SLP133 T00481077 10111 20048 55000 $",
    "updatedAt": "2022-03-09T11:58:00.000Z"
  },
  {
    "airportIcao": "KLUG",
    "metar": "KLUG 090615Z AUTO 00000KT 2SM BR BKN004 OVC008 05/05 A2987 RMK A01",
    "updatedAt": "2022-03-09T06:15:00.000Z"
  },
  {
    "airportIcao": "KLUK",
    "metar": "KLUK 091153Z 00000KT 7SM FEW034 OVC060 03/01 A2995 RMK AO2 SLP146 60001 70001 T00280011 10039 20022 53002",
    "updatedAt": "2022-03-09T11:53:00.000Z"
  },
  {
    "airportIcao": "KLUL",
    "metar": "KLUL 091235Z AUTO 34012G15KT 10SM OVC012 08/06 A2999 RMK A02 T00750061",
    "updatedAt": "2022-03-09T12:35:00.000Z"
  },
  {
    "airportIcao": "KLUM",
    "metar": "KLUM 091235Z AUTO 26011G15KT 7SM -SN M05/M10 A3000 RMK AO2 T10531100",
    "updatedAt": "2022-03-09T12:35:00.000Z"
  },
  {
    "airportIcao": "KLUV",
    "metar": "KLUV 091235Z AUTO 13004KT 10SM CLR M03/M09 A3003 RMK AO2",
    "updatedAt": "2022-03-09T12:35:00.000Z"
  },
  {
    "airportIcao": "KLUX",
    "metar": "KLUX 091235Z AUTO 36006KT 340V080 10SM SCT005 BKN050 OVC060 10/10 A2986 RMK AO2 P0016",
    "updatedAt": "2022-03-09T12:35:00.000Z"
  },
  {
    "airportIcao": "KLVJ",
    "metar": "KLVJ 091239Z AUTO 02007KT 10SM SCT012 07/04 A3005 RMK AO2 T00720039",
    "updatedAt": "2022-03-09T12:39:00.000Z"
  },
  {
    "airportIcao": "KLVK",
    "metar": "KLVK 091153Z AUTO 07004KT 10SM CLR 05/00 A3003 RMK AO2 SLP168 T00500000 10100 20039 53000",
    "updatedAt": "2022-03-09T11:53:00.000Z"
  },
  {
    "airportIcao": "KLVL",
    "metar": "KLVL 091235Z AUTO 00000KT 5SM OVC004 06/05 A2994 RMK AO1 P0001 T00550050",
    "updatedAt": "2022-03-09T12:35:00.000Z"
  },
  {
    "airportIcao": "KLVM",
    "metar": "KLVM 091153Z AUTO 33003KT 10SM CLR M19/M22 A3010 RMK AO2 SLP279 60000 70004 T11891217 11139 21211 55003",
    "updatedAt": "2022-03-09T11:53:00.000Z"
  },
  {
    "airportIcao": "KLVN",
    "metar": "KLVN 091235Z AUTO 29014KT 10SM -SN OVC022 M09/M13 A3005 RMK AO2",
    "updatedAt": "2022-03-09T12:35:00.000Z"
  },
  {
    "airportIcao": "KLVS",
    "metar": "KLVS 091153Z AUTO 00000KT 10SM CLR M08/M14 A2986 RMK AO2 SLP108 T10781139 11056 21100 56015",
    "updatedAt": "2022-03-09T11:53:00.000Z"
  },
  {
    "airportIcao": "KLWA",
    "metar": "KLWA 091235Z AUTO 26005KT 10SM OVC110 00/M02 A2995 RMK AO2 T00021023",
    "updatedAt": "2022-03-09T12:35:00.000Z"
  },
  {
    "airportIcao": "KLWB",
    "metar": "KLWB 091235Z AUTO 00000KT 5SM -RA OVC014 06/06 A2982 RMK AO2 P0001 T00610055",
    "updatedAt": "2022-03-09T12:35:00.000Z"
  },
  {
    "airportIcao": "KLWC",
    "metar": "KLWC 091152Z AUTO 32007KT 10SM CLR M03/M06 A3010 RMK AO1 SLP198 T10281056 10022 21028 53013",
    "updatedAt": "2022-03-09T11:52:00.000Z"
  },
  {
    "airportIcao": "KLWD",
    "metar": "KLWD 091153Z AUTO 33007KT 10SM CLR M04/M07 A3006 RMK AO2 SLP191 T10391072 11011 21039 53013",
    "updatedAt": "2022-03-09T11:53:00.000Z"
  },
  {
    "airportIcao": "KLWM",
    "metar": "KLWM 091154Z 25003KT 10SM CLR M01/M07 A3020 RMK AO2 SLP229 T10111072 11006 21033 53000",
    "updatedAt": "2022-03-09T11:54:00.000Z"
  },
  {
    "airportIcao": "KLWS",
    "metar": "KLWS 091156Z AUTO 07014KT 10SM SCT060 SCT070 M01/M12 A3014 RMK AO2 SLP218 T10111122 10028 21011 53006",
    "updatedAt": "2022-03-09T11:56:00.000Z"
  },
  {
    "airportIcao": "KLWT",
    "metar": "KLWT 091233Z AUTO 27009KT 2 1/2SM -SN BR BKN020 OVC050 M16/M18 A3012 RMK AO2 P0000 T11561178",
    "updatedAt": "2022-03-09T12:33:00.000Z"
  },
  {
    "airportIcao": "KLWV",
    "metar": "KLWV 091153Z AUTO 35005KT 10SM OVC100 02/M02 A3001 RMK AO2 SLP166 T00171017 10022 20006 50006",
    "updatedAt": "2022-03-09T11:53:00.000Z"
  },
  {
    "airportIcao": "KLXL",
    "metar": "KLXL 091235Z AUTO 29008KT 10SM CLR M14/M18 A3006 RMK AO2",
    "updatedAt": "2022-03-09T12:35:00.000Z"
  },
  {
    "airportIcao": "KLXN",
    "metar": "KLXN 091235Z AUTO 04010KT 5SM -SN BKN010 OVC014 M06/M08 A3012 RMK AO2 T10641082",
    "updatedAt": "2022-03-09T12:35:00.000Z"
  },
  {
    "airportIcao": "KLXT",
    "metar": "KLXT 091153Z AUTO 35007KT 10SM CLR M02/M04 A3007 RMK AO2 SLP191 T10171039 10017 21017 53013",
    "updatedAt": "2022-03-09T11:53:00.000Z"
  },
  {
    "airportIcao": "KLXV",
    "metar": "KLXV 091153Z AUTO 06006KT 10SM OVC046 M13/M15 A2971 RMK AO2 SLP069 60000 T11331150 11122 21161 56014",
    "updatedAt": "2022-03-09T11:53:00.000Z"
  },
  {
    "airportIcao": "KLXY",
    "metar": "KLXY 091235Z AUTO 33004KT 10SM CLR 01/00 A3009 RMK AO2 T00060003",
    "updatedAt": "2022-03-09T12:35:00.000Z"
  },
  {
    "airportIcao": "KLYH",
    "metar": "KLYH 091239Z 05012KT 2 1/2SM -RA BR OVC005 06/04 A2991",
    "updatedAt": "2022-03-09T12:39:00.000Z"
  },
  {
    "airportIcao": "KLYO",
    "metar": "KLYO 091235Z AUTO 02006KT 10SM CLR M06/M08 A3010 RMK AO2 T10591075",
    "updatedAt": "2022-03-09T12:35:00.000Z"
  },
  {
    "airportIcao": "KLYV",
    "metar": "KLYV 091235Z AUTO 33007KT 10SM CLR M11/M15 A3014 RMK AO2",
    "updatedAt": "2022-03-09T12:35:00.000Z"
  },
  {
    "airportIcao": "KLZU",
    "metar": "KLZU 091212Z 09004KT 4SM +RA BR FEW003 BKN021 OVC028 11/11 A2984 RMK AO2 TSE1157 PNO $",
    "updatedAt": "2022-03-09T12:12:00.000Z"
  },
  {
    "airportIcao": "KLZZ",
    "metar": "KLZZ 091215Z AUTO 31004KT 7SM CLR 01/M01 A3010 RMK AO2 T00061008",
    "updatedAt": "2022-03-09T12:15:00.000Z"
  },
  {
    "airportIcao": "KM02",
    "metar": "KM02 090615Z AUTO 35008KT 1 3/4SM BR OVC004 03/03 A2991 RMK A01",
    "updatedAt": "2022-03-09T06:15:00.000Z"
  },
  {
    "airportIcao": "KM04",
    "metar": "KM04 090605Z AUTO 36009KT 5SM BR FEW008 OVC020 03/03 A2999 RMK A01",
    "updatedAt": "2022-03-09T06:05:00.000Z"
  },
  {
    "airportIcao": "KM08",
    "metar": "KM08 090615Z AUTO 32006KT 4SM BR OVC004 04/04 A2994 RMK A01",
    "updatedAt": "2022-03-09T06:15:00.000Z"
  },
  {
    "airportIcao": "KM19",
    "metar": "KM19 091225Z AUTO 00000KT 2 1/2SM BR CLR 01/01 A3009 RMK AO2",
    "updatedAt": "2022-03-09T12:25:00.000Z"
  },
  {
    "airportIcao": "KM21",
    "metar": "KM21 091235Z AUTO 00000KT 7SM OVC050 02/01 A3002 RMK AO2 T00220010",
    "updatedAt": "2022-03-09T12:35:00.000Z"
  },
  {
    "airportIcao": "KM25",
    "metar": "KM25 091235Z AUTO 7SM SCT100 01/00 A3003 RMK AO2",
    "updatedAt": "2022-03-09T12:35:00.000Z"
  },
  {
    "airportIcao": "KM30",
    "metar": "KM30 091235Z AUTO 00000KT 10SM SCT090 01/00 A3004 RMK AO2 T00131002",
    "updatedAt": "2022-03-09T12:35:00.000Z"
  },
  {
    "airportIcao": "KM40",
    "metar": "KM40 091235Z AUTO 33008KT 10SM OVC013 06/06 A3004 RMK AO2",
    "updatedAt": "2022-03-09T12:35:00.000Z"
  },
  {
    "airportIcao": "KM75",
    "metar": "KM75 090615Z AUTO 29010KT 9SM FEW022 FEW027 OVC034 M12/M14 A3025 RMK A01",
    "updatedAt": "2022-03-09T06:15:00.000Z"
  },
  {
    "airportIcao": "KM91",
    "metar": "KM91 090615Z AUTO 35004KT 2SM BR SCT005 BKN042 OVC048 04/03 A2992 RMK A01",
    "updatedAt": "2022-03-09T06:15:00.000Z"
  },
  {
    "airportIcao": "KMAE",
    "metar": "KMAE 091153Z AUTO 10005KT 10SM CLR 06/02 A3002 RMK AO2 SLP163 T00560017 10106 20039 56006",
    "updatedAt": "2022-03-09T11:53:00.000Z"
  },
  {
    "airportIcao": "KMAF",
    "metar": "KMAF 091153Z 15003KT 10SM CLR M01/M07 A3002 RMK AO2 SLP153 T10111072 10028 21011 55001 $",
    "updatedAt": "2022-03-09T11:53:00.000Z"
  },
  {
    "airportIcao": "KMAI",
    "metar": "KMAI 091238Z AUTO 18010KT 4SM -RA BR BKN018 BKN050 OVC095 22/21 A2985 RMK AO2 WSHFT 1155 LTG DSNT NE-S TSE01B08E23 P0004 T02170211",
    "updatedAt": "2022-03-09T12:38:00.000Z"
  },
  {
    "airportIcao": "KMAN",
    "metar": "KMAN 091235Z AUTO 29008KT 10SM 00/M01 A2998 RMK A01",
    "updatedAt": "2022-03-09T12:35:00.000Z"
  },
  {
    "airportIcao": "KMAO",
    "metar": "KMAO 091235Z AUTO 00000KT 7SM OVC005 13/13 A2990 RMK AO2",
    "updatedAt": "2022-03-09T12:35:00.000Z"
  },
  {
    "airportIcao": "KMAW",
    "metar": "KMAW 091235Z AUTO 00000KT 10SM OVC040 03/01 A3008 RMK AO2",
    "updatedAt": "2022-03-09T12:35:00.000Z"
  },
  {
    "airportIcao": "KMBG",
    "metar": "KMBG 091152Z AUTO 32007KT 10SM CLR M13/M17 A3017 RMK AO2 SLP247 T11281172 11100 21133 53003",
    "updatedAt": "2022-03-09T11:52:00.000Z"
  },
  {
    "airportIcao": "KMBL",
    "metar": "KMBL 091156Z AUTO 07003KT 9SM OVC025 M05/M06 A2988 RMK AO2 SLP125 T10501056 11050 21083 56008 FZRANO",
    "updatedAt": "2022-03-09T11:56:00.000Z"
  },
  {
    "airportIcao": "KMBO",
    "metar": "KMBO 091235Z AUTO 34008KT 10SM BKN008 OVC013 05/05 A3002 RMK AO2",
    "updatedAt": "2022-03-09T12:35:00.000Z"
  },
  {
    "airportIcao": "KMBS",
    "metar": "KMBS 091153Z 19006KT CLR M03/M06 A2991 RMK AO2 SLP138 T10281056 11011 21033 56015 $",
    "updatedAt": "2022-03-09T11:53:00.000Z"
  },
  {
    "airportIcao": "KMBT",
    "metar": "KMBT 090615Z AUTO 34009KT 3SM BR BKN004 OVC029 05/05 A2986 RMK A01",
    "updatedAt": "2022-03-09T06:15:00.000Z"
  },
  {
    "airportIcao": "KMBY",
    "metar": "KMBY 091235Z AUTO 29006KT 10SM CLR M01/M04 A3006 RMK AO2",
    "updatedAt": "2022-03-09T12:35:00.000Z"
  },
  {
    "airportIcao": "KMCB",
    "metar": "KMCB 091236Z AUTO 36008KT 10SM OVC009 07/06 A2999 RMK AO2 T00670056",
    "updatedAt": "2022-03-09T12:36:00.000Z"
  },
  {
    "airportIcao": "KMCC",
    "metar": "KMCC 090615Z AUTO 13005KT 10SM CLR 12/02 A3003 RMK AO2",
    "updatedAt": "2022-03-09T06:15:00.000Z"
  },
  {
    "airportIcao": "KMCD",
    "metar": "KMCD 091235Z AUTO 20006KT 10SM BKN029 OVC048 M03/M05 A2980 RMK AO2 T10261048",
    "updatedAt": "2022-03-09T12:35:00.000Z"
  },
  {
    "airportIcao": "KMCE",
    "metar": "KMCE 091153Z AUTO 13004KT 10SM CLR 05/02 A3000 RMK AO2 SLP159 T00500022 10089 20039 55006",
    "updatedAt": "2022-03-09T11:53:00.000Z"
  },
  {
    "airportIcao": "KMCF",
    "metar": "KMCF 091235Z AUTO 17007KT 10SM -RA OVC011 22/21 A2995 RMK AO2 RAB35 CIG 010 RWY05 SLP145 FZRANO $",
    "updatedAt": "2022-03-09T12:35:00.000Z"
  },
  {
    "airportIcao": "KMCI",
    "metar": "KMCI 091153Z 34008KT 10SM CLR M03/M05 A3008 RMK AO2 SLP193 T10281050 10033 21028 53013",
    "updatedAt": "2022-03-09T11:53:00.000Z"
  },
  {
    "airportIcao": "KMCJ",
    "metar": "KMCJ 091235Z AUTO 01016KT 8SM BKN016 BKN120 05/03 A3000 RMK A01",
    "updatedAt": "2022-03-09T12:35:00.000Z"
  },
  {
    "airportIcao": "KMCK",
    "metar": "KMCK 091153Z AUTO 04004KT 10SM OVC040 M07/M09 A3008 RMK AO2 SLP213 I6000 T10671089 11061 21089 53001",
    "updatedAt": "2022-03-09T11:53:00.000Z"
  },
  {
    "airportIcao": "KMCN",
    "metar": "KMCN 091153Z AUTO 00000KT 10SM OVC011 16/14 A2982 RMK AO2 SLP096 T01560139 10156 20122 55010",
    "updatedAt": "2022-03-09T11:53:00.000Z"
  },
  {
    "airportIcao": "KMCO",
    "metar": "KMCO 091153Z 18006KT 9SM BKN008 OVC014 22/21 A3000 RMK AO2 SLP157 70017 T02220211 10222 20217 53012 $",
    "updatedAt": "2022-03-09T11:53:00.000Z"
  },
  {
    "airportIcao": "KMCW",
    "metar": "KMCW 091236Z AUTO 31019G24KT 10SM BKN019 M08/M12 A3007 RMK AO2 PK WND 31027/1207 T10781122",
    "updatedAt": "2022-03-09T12:36:00.000Z"
  },
  {
    "airportIcao": "KMCX",
    "metar": "KMCX 091235Z AUTO 00000KT 7SM SCT100 SCT120 M01/M02 A2998 RMK AO2 T10151022",
    "updatedAt": "2022-03-09T12:35:00.000Z"
  },
  {
    "airportIcao": "KMDD",
    "metar": "KMDD 091235Z AUTO 16009KT 10SM CLR 02/M06 A3003 RMK AO2 T00191063",
    "updatedAt": "2022-03-09T12:35:00.000Z"
  },
  {
    "airportIcao": "KMDH",
    "metar": "KMDH 091152Z AUTO 33005KT 10SM CLR 01/M02 A3003 RMK AO2 SLP173 T00111017 10028 20006 53006",
    "updatedAt": "2022-03-09T11:52:00.000Z"
  },
  {
    "airportIcao": "KMDQ",
    "metar": "KMDQ 091235Z AUTO 33012G16KT 5SM -DZ BR OVC006 06/05 A2996 RMK A02 T00570050",
    "updatedAt": "2022-03-09T12:35:00.000Z"
  },
  {
    "airportIcao": "KMDS",
    "metar": "KMDS 091155Z AUTO 32012KT 10SM SCT006 BKN014 M14/M15 A3013 RMK AO2",
    "updatedAt": "2022-03-09T11:55:00.000Z"
  },
  {
    "airportIcao": "KMDT",
    "metar": "KMDT 091156Z VRB06KT 10SM -DZ FEW032 OVC043 03/M01 A3003 RMK AO2 RAE37DZB37SNE36 SLP171 P0001 60003 70003 T00281006 10039 20028 58010",
    "updatedAt": "2022-03-09T11:56:00.000Z"
  },
  {
    "airportIcao": "KMDW",
    "metar": "KMDW 091153Z 26005KT 10SM BKN110 OVC200 01/M04 A2996 RMK AO2 SLP155 T00061044 10011 21006 55005 $",
    "updatedAt": "2022-03-09T11:53:00.000Z"
  },
  {
    "airportIcao": "KMDZ",
    "metar": "KMDZ 091235Z AUTO 28010G15KT 10SM OVC024 M07/M10 A2988 RMK AO2 T10661104 PWINO",
    "updatedAt": "2022-03-09T12:35:00.000Z"
  },
  {
    "airportIcao": "KMEB",
    "metar": "KMEB 091159Z AUTO 05005KT 1 1/4SM BR OVC004 11/09 A2990 RMK AO2 CIG 003V006 T01110094",
    "updatedAt": "2022-03-09T11:59:00.000Z"
  },
  {
    "airportIcao": "KMEH",
    "metar": "KMEH 091236Z AUTO 00000KT 1SM -SN BR VV009 M05/M06 A2999",
    "updatedAt": "2022-03-09T12:36:00.000Z"
  },
  {
    "airportIcao": "KMEI",
    "metar": "KMEI 091158Z 33008KT 10SM OVC009 08/06 A2998 RMK AO2 CIG 006V012 SLP151 60020 70053 I1000 I6/// T00780056 10094 20078 53026",
    "updatedAt": "2022-03-09T11:58:00.000Z"
  },
  {
    "airportIcao": "KMEM",
    "metar": "KMEM 091231Z 35005KT 7SM BKN010 03/02 A3005 RMK AO2 T00280017 $",
    "updatedAt": "2022-03-09T12:31:00.000Z"
  },
  {
    "airportIcao": "KMER",
    "metar": "KMER 091155Z AUTO 00000KT 10SM CLR 03/03 A3001 RMK AO1",
    "updatedAt": "2022-03-09T11:55:00.000Z"
  },
  {
    "airportIcao": "KMEV",
    "metar": "KMEV 090615Z AUTO 11009KT 10SM CLR 00/M08 A3006 RMK AO2",
    "updatedAt": "2022-03-09T06:15:00.000Z"
  },
  {
    "airportIcao": "KMEZ",
    "metar": "KMEZ 091235Z AUTO 00000KT 7SM CLR M03/M03 A3008 RMK AO2",
    "updatedAt": "2022-03-09T12:35:00.000Z"
  },
  {
    "airportIcao": "KMFD",
    "metar": "KMFD 091152Z 32003KT 10SM OVC095 M01/M03 A2990 RMK AO2 SLP138 T10061033 10000 21006 56014",
    "updatedAt": "2022-03-09T11:52:00.000Z"
  },
  {
    "airportIcao": "KMFE",
    "metar": "KMFE 091158Z 35009KT 10SM OVC036 10/06 A3003 RMK AO2 T01000056",
    "updatedAt": "2022-03-09T11:58:00.000Z"
  },
  {
    "airportIcao": "KMFI",
    "metar": "KMFI 091226Z AUTO 29012KT 10SM OVC028 M06/M11 A2990 RMK AO2 T10561111 TSNO",
    "updatedAt": "2022-03-09T12:26:00.000Z"
  },
  {
    "airportIcao": "KMFR",
    "metar": "KMFR 091153Z AUTO 00000KT 10SM FEW080 BKN100 06/00 A3015 RMK AO2 SLP211 T00610000 10089 20061 56010",
    "updatedAt": "2022-03-09T11:53:00.000Z"
  },
  {
    "airportIcao": "KMFV",
    "metar": "KMFV 091235Z AUTO 06013G20KT 3SM RA BKN006 BKN033 OVC040 A2998 RMK AO2 P0017",
    "updatedAt": "2022-03-09T12:35:00.000Z"
  },
  {
    "airportIcao": "KMGC",
    "metar": "KMGC 091235Z AUTO 23003KT 10SM BKN100 M01/M03 A2997 RMK AO2",
    "updatedAt": "2022-03-09T12:35:00.000Z"
  },
  {
    "airportIcao": "KMGE",
    "metar": "KMGE 091232Z VRB04KT 3SM -RA BR FEW004 BKN008 OVC020 11/10 A2984 RMK AO2A $",
    "updatedAt": "2022-03-09T12:32:00.000Z"
  },
  {
    "airportIcao": "KMGG",
    "metar": "KMGG 091222Z AUTO 28010G14KT 10SM CLR M10/M15 A3006 RMK AO2",
    "updatedAt": "2022-03-09T12:22:00.000Z"
  },
  {
    "airportIcao": "KMGJ",
    "metar": "KMGJ 091154Z AUTO 01005KT 10SM OVC090 M01/M07 A3009 RMK AO2 SLP192 T10111067 11011 21022 58014 TSNO",
    "updatedAt": "2022-03-09T11:54:00.000Z"
  },
  {
    "airportIcao": "KMGM",
    "metar": "KMGM 091153Z AUTO 26006KT 10SM BKN008 BKN013 OVC047 12/11 A2988 RMK AO2 RAE36 TSE00 SLP117 P0008 60018 70055 T01170106 10167 20117 53024",
    "updatedAt": "2022-03-09T11:53:00.000Z"
  },
  {
    "airportIcao": "KMGN",
    "metar": "KMGN 091235Z AUTO 00000KT 7SM -SN SCT016 OVC021 M02/M04 A2982 RMK AO2 T10211042",
    "updatedAt": "2022-03-09T12:35:00.000Z"
  },
  {
    "airportIcao": "KMGR",
    "metar": "KMGR 091235Z AUTO 17012G15KT 10SM -RA SCT007 SCT025 SCT033 21/19 A2987 RMK AO2 LTG DSNT W",
    "updatedAt": "2022-03-09T12:35:00.000Z"
  },
  {
    "airportIcao": "KMGW",
    "metar": "KMGW 091153Z 00000KT 2SM -RA BCFG FEW017 BKN023 OVC035 03/02 A2986 RMK AO2 RAB21 SLP120 P0003 60005 70005 T00330022 10039 20017 56011",
    "updatedAt": "2022-03-09T11:53:00.000Z"
  },
  {
    "airportIcao": "KMGY",
    "metar": "KMGY 091237Z AUTO 34006KT 2SM -SN SCT043 OVC065 02/M02 A2994 RMK AO2 SNB12 P0000 T00221022",
    "updatedAt": "2022-03-09T12:37:00.000Z"
  },
  {
    "airportIcao": "KMHE",
    "metar": "KMHE 091210Z AUTO 33013KT 10SM BKN020 M11/M15 A3020 RMK AO2 T11111150",
    "updatedAt": "2022-03-09T12:10:00.000Z"
  },
  {
    "airportIcao": "KMHK",
    "metar": "KMHK 091152Z 02003KT 10SM CLR M03/M07 A3011 RMK AO2 SLP204 T10331072 10017 21039 53007",
    "updatedAt": "2022-03-09T11:52:00.000Z"
  },
  {
    "airportIcao": "KMHP",
    "metar": "KMHP 091235Z AUTO 00000KT 10SM BKN008 BKN011 BKN018 19/ A2987 RMK AO2 T0194////",
    "updatedAt": "2022-03-09T12:35:00.000Z"
  },
  {
    "airportIcao": "KMHR",
    "metar": "KMHR 091145Z 00000KT 10SM SKC 04/02 A2999",
    "updatedAt": "2022-03-09T11:45:00.000Z"
  },
  {
    "airportIcao": "KMHS",
    "metar": "KMHS 091156Z AUTO VRB04KT 10SM BKN043 BKN075 03/M07 A3005 RMK AO2 SLP192 T00331072 10061 20033 56007",
    "updatedAt": "2022-03-09T11:56:00.000Z"
  },
  {
    "airportIcao": "KMHT",
    "metar": "KMHT 091153Z 00000KT 10SM BKN170 OVC210 M02/M07 A3017 RMK AO2 SLP236 T10221067 11011 21028 55001",
    "updatedAt": "2022-03-09T11:53:00.000Z"
  },
  {
    "airportIcao": "KMHV",
    "metar": "KMHV 090600Z AUTO 27015KT 10SM CLR 11/M08 A3001 RMK A01",
    "updatedAt": "2022-03-09T06:00:00.000Z"
  },
  {
    "airportIcao": "KMIA",
    "metar": "KMIA 091153Z 14008KT 10SM FEW020 SCT110 24/22 A3002 RMK AO2 SLP165 T02390217 10244 20233 53010 $",
    "updatedAt": "2022-03-09T11:53:00.000Z"
  },
  {
    "airportIcao": "KMIB",
    "metar": "KMIB 091156Z AUTO 33010KT 10SM FEW050 M18/M25 A3013 RMK AO2 SLP251 60000 T11781247 11137 21178 53004 $",
    "updatedAt": "2022-03-09T11:56:00.000Z"
  },
  {
    "airportIcao": "KMIC",
    "metar": "KMIC 091231Z AUTO 29012KT 10SM FEW018 SCT024 M08/M13 A3004 RMK AO2 SNE21 P0000 T10831133",
    "updatedAt": "2022-03-09T12:31:00.000Z"
  },
  {
    "airportIcao": "KMIE",
    "metar": "KMIE 091153Z 00000KT 10SM OVC095 01/M03 A2996 RMK AO2 SLP151 T00061028 10011 20006 53001 $",
    "updatedAt": "2022-03-09T11:53:00.000Z"
  },
  {
    "airportIcao": "KMIO",
    "metar": "KMIO 090615Z AUTO 10SM FEW043 BKN050 OVC075 M01/M03 A3008 RMK AO2",
    "updatedAt": "2022-03-09T06:15:00.000Z"
  },
  {
    "airportIcao": "KMIV",
    "metar": "KMIV 091154Z AUTO 12008KT 5SM RA BR OVC030 03/02 A3008 RMK AO2 SLP187 6//// 7//// T00280017 10050 20017 55000 PNO $",
    "updatedAt": "2022-03-09T11:54:00.000Z"
  },
  {
    "airportIcao": "KMIW",
    "metar": "KMIW 091153Z AUTO 33011KT 10SM SCT027 M04/M09 A3005 RMK AO2 SLP187 T10441089 11011 21050 53018",
    "updatedAt": "2022-03-09T11:53:00.000Z"
  },
  {
    "airportIcao": "KMJQ",
    "metar": "KMJQ 091235Z AUTO 33016G22KT 10SM BKN018 BKN100 M10/M13 A3010 RMK AO2 PWINO",
    "updatedAt": "2022-03-09T12:35:00.000Z"
  },
  {
    "airportIcao": "KMJX",
    "metar": "KMJX 091236Z AUTO 15008KT 10SM -RA BKN013 BKN026 OVC045 03/02 A3011 RMK AO2 P0000 TSNO",
    "updatedAt": "2022-03-09T12:36:00.000Z"
  },
  {
    "airportIcao": "KMKC",
    "metar": "KMKC 091154Z 33006KT 10SM CLR M01/M04 A3009 RMK AO2 SLP194 60000 T10111044 10039 21011 53013 $",
    "updatedAt": "2022-03-09T11:54:00.000Z"
  },
  {
    "airportIcao": "KMKE",
    "metar": "KMKE 091152Z 24007KT 10SM FEW180 BKN250 M02/M06 A2993 RMK AO2 SLP144 T10171061 11011 21028 55000",
    "updatedAt": "2022-03-09T11:52:00.000Z"
  },
  {
    "airportIcao": "KMKG",
    "metar": "KMKG 091155Z 24008KT 10SM FEW120 BKN150 01/M04 A2992 RMK AO2 SLP140 T00111044 10011 20000 55008",
    "updatedAt": "2022-03-09T11:55:00.000Z"
  },
  {
    "airportIcao": "KMKJ",
    "metar": "KMKJ 091235Z AUTO 06008KT 10SM OVC005 05/05 A2985 RMK AO2 T00530048",
    "updatedAt": "2022-03-09T12:35:00.000Z"
  },
  {
    "airportIcao": "KMKL",
    "metar": "KMKL 091213Z AUTO 36003KT 8SM SCT009 BKN080 02/01 A3004 RMK AO2 T00220011 $",
    "updatedAt": "2022-03-09T12:13:00.000Z"
  },
  {
    "airportIcao": "KMKN",
    "metar": "KMKN 091235Z AUTO 24006KT 10SM CLR 00/M01 A3012 RMK AO2 T10051014",
    "updatedAt": "2022-03-09T12:35:00.000Z"
  },
  {
    "airportIcao": "KMKO",
    "metar": "KMKO 091153Z AUTO 34004KT 10SM CLR M03/M04 A3011 RMK AO2 SLP199 T10281044 10000 21044 53004",
    "updatedAt": "2022-03-09T11:53:00.000Z"
  },
  {
    "airportIcao": "KMKS",
    "metar": "KMKS 091235Z AUTO 21005KT 10SM SCT009 19/19 A2989 RMK AO2",
    "updatedAt": "2022-03-09T12:35:00.000Z"
  },
  {
    "airportIcao": "KMKT",
    "metar": "KMKT 091156Z AUTO 30015G19KT 9SM -SN OVC021 M09/M12 A3007 RMK AO2 SNB00 SLP201 6//// 7//// T10891117 11050 21089 53006 FZRANO PNO $",
    "updatedAt": "2022-03-09T11:56:00.000Z"
  },
  {
    "airportIcao": "KMKY",
    "metar": "KMKY 091156Z AUTO 14006KT 10SM FEW050 BKN075 23/22 A3001 RMK AO2 SLP162 T02330217 10233 20206 53013 TSNO $",
    "updatedAt": "2022-03-09T11:56:00.000Z"
  },
  {
    "airportIcao": "KMLB",
    "metar": "KMLB 091153Z 18008KT 10SM CLR 21/20 A3001 RMK AO2 SLP160 70008 T02110200 10228 20200 51014",
    "updatedAt": "2022-03-09T11:53:00.000Z"
  },
  {
    "airportIcao": "KMLC",
    "metar": "KMLC 091153Z AUTO 00000KT 9SM CLR M06/M07 A3010 RMK AO2 SLP196 I1000 I6000 T10561072 11022 21056 53006",
    "updatedAt": "2022-03-09T11:53:00.000Z"
  },
  {
    "airportIcao": "KMLE",
    "metar": "KMLE 091235Z AUTO 32004KT 10SM CLR M04/M10 A3015 RMK AO2 T10451103",
    "updatedAt": "2022-03-09T12:35:00.000Z"
  },
  {
    "airportIcao": "KMLF",
    "metar": "KMLF 091152Z AUTO 18007KT 10SM SCT095 M05/M09 A2986 RMK AO2 SLP115 T10501089 10017 21056 56016",
    "updatedAt": "2022-03-09T11:52:00.000Z"
  },
  {
    "airportIcao": "KMLI",
    "metar": "KMLI 091152Z 31005KT 10SM CLR M02/M06 A3001 RMK AO2 SLP167 T10171056 11006 21022 53011",
    "updatedAt": "2022-03-09T11:52:00.000Z"
  },
  {
    "airportIcao": "KMLJ",
    "metar": "KMLJ 091237Z AUTO 00000KT 10SM OVC008 17/16 A2989 RMK AO2",
    "updatedAt": "2022-03-09T12:37:00.000Z"
  },
  {
    "airportIcao": "KMLP",
    "metar": "KMLP 091153Z AUTO 11006KT 10SM SCT055 BKN075 M17/M20 A2993 RMK AO2 SLP226 70007 T11721200 11133 21172 55003 $",
    "updatedAt": "2022-03-09T11:53:00.000Z"
  },
  {
    "airportIcao": "KMLS",
    "metar": "KMLS 091234Z AUTO 29009KT 5SM -SN SCT024 BKN028 OVC036 M13/M16 A3020 RMK AO2 SNB1156 P0000 T11281156",
    "updatedAt": "2022-03-09T12:34:00.000Z"
  },
  {
    "airportIcao": "KMLT",
    "metar": "KMLT 091153Z AUTO 07004KT 10SM CLR M10/M13 A3015 RMK AO2 SLP222 T11001133 11072 21100 58003 TSNO",
    "updatedAt": "2022-03-09T11:53:00.000Z"
  },
  {
    "airportIcao": "KMLU",
    "metar": "KMLU 091207Z 35010KT 10SM OVC010 06/04 A3008",
    "updatedAt": "2022-03-09T12:07:00.000Z"
  },
  {
    "airportIcao": "KMMH",
    "metar": "KMMH 091236Z AUTO 01003KT 10SM CLR M06/M09 A3001 RMK AO2 PWINO",
    "updatedAt": "2022-03-09T12:36:00.000Z"
  },
  {
    "airportIcao": "KMMI",
    "metar": "KMMI 090615Z AUTO 07005KT 6SM BR BKN004 BKN040 OVC080 08/08 A2990 RMK A01",
    "updatedAt": "2022-03-09T06:15:00.000Z"
  },
  {
    "airportIcao": "KMMK",
    "metar": "KMMK 091153Z AUTO 00000KT 10SM OVC110 00/M06 A3015 RMK AO2 SLP210 T00001061 10000 21022 58010",
    "updatedAt": "2022-03-09T11:53:00.000Z"
  },
  {
    "airportIcao": "KMML",
    "metar": "KMML 091156Z AUTO 32016KT 10SM BKN023 OVC028 M11/M14 A3011 RMK AO2 SLP220 60000 T11061139 11078 21111 52009 FZRANO",
    "updatedAt": "2022-03-09T11:56:00.000Z"
  },
  {
    "airportIcao": "KMMT",
    "metar": "KMMT 091231Z 00000KT 1 1/2SM BR FEW009 BKN021 BKN029 OVC038 18/18 A2985 RMK AO2A SLP110 RVRNO $",
    "updatedAt": "2022-03-09T12:31:00.000Z"
  },
  {
    "airportIcao": "KMMU",
    "metar": "KMMU 091145Z 00000KT 5SM -RA SCT022 BKN030 OVC060 02/M03 A3011",
    "updatedAt": "2022-03-09T11:45:00.000Z"
  },
  {
    "airportIcao": "KMMV",
    "metar": "KMMV 091238Z AUTO 00000KT 6SM HZ BKN004 BKN010 OVC031 06/ A3014 RMK AO2 RAE38 CIG 002V006 P0002 T0061 $",
    "updatedAt": "2022-03-09T12:38:00.000Z"
  },
  {
    "airportIcao": "KMNE",
    "metar": "KMNE 091235Z AUTO 35005KT 10SM OVC012 04/03 A3010 RMK AO2 T00410032",
    "updatedAt": "2022-03-09T12:35:00.000Z"
  },
  {
    "airportIcao": "KMNH",
    "metar": "KMNH 091235Z AUTO 28005KT 10SM CLR M11/M12 A2976 RMK AO2",
    "updatedAt": "2022-03-09T12:35:00.000Z"
  },
  {
    "airportIcao": "KMNI",
    "metar": "KMNI 091235Z AUTO 22003KT 7SM BKN003 18/18 A2988 RMK AO2",
    "updatedAt": "2022-03-09T12:35:00.000Z"
  },
  {
    "airportIcao": "KMNM",
    "metar": "KMNM 091156Z AUTO 27007KT 10SM FEW035 M02/M08 A2985 RMK AO2 SLP118 T10221083 10000 21022 53006 FZRANO $",
    "updatedAt": "2022-03-09T11:56:00.000Z"
  },
  {
    "airportIcao": "KMNN",
    "metar": "KMNN 091153Z AUTO 35007KT 6SM -SN FEW060 BKN085 OVC110 01/M02 A2991 RMK AO2 SNB48 SLP138 P0000 60000 T00111022 10011 20000 56016",
    "updatedAt": "2022-03-09T11:53:00.000Z"
  },
  {
    "airportIcao": "KMNV",
    "metar": "KMNV 090615Z AUTO 08006KT 4SM BR BKN003 BKN033 OVC050 08/08 A2989 RMK A01",
    "updatedAt": "2022-03-09T06:15:00.000Z"
  },
  {
    "airportIcao": "KMNZ",
    "metar": "KMNZ 091235Z AUTO 25007KT 7SM CLR M02/M02 A3012 RMK AO2 T10171017",
    "updatedAt": "2022-03-09T12:35:00.000Z"
  },
  {
    "airportIcao": "KMOB",
    "metar": "KMOB 091156Z 31006G17KT 6SM BR OVC006 12/11 A2991 RMK AO2 SLP128 60084 70088 T01170111 10217 20117 53022",
    "updatedAt": "2022-03-09T11:56:00.000Z"
  },
  {
    "airportIcao": "KMOD",
    "metar": "KMOD 091153Z AUTO 00000KT 10SM CLR 06/04 A3001 RMK AO2 SLP161 T00610039 10100 20050 55001",
    "updatedAt": "2022-03-09T11:53:00.000Z"
  },
  {
    "airportIcao": "KMOP",
    "metar": "KMOP 091235Z AUTO 24003KT 10SM SCT120 M03/M05 A2989 RMK AO2 T10291047",
    "updatedAt": "2022-03-09T12:35:00.000Z"
  },
  {
    "airportIcao": "KMOR",
    "metar": "KMOR 090615Z AUTO 15005KT 3SM BR SCT005 BKN029 OVC090 08/08 A2993 RMK A01",
    "updatedAt": "2022-03-09T06:15:00.000Z"
  },
  {
    "airportIcao": "KMOT",
    "metar": "KMOT 091154Z AUTO 29012KT 9SM SN BLSN CLR M15/M19 A3014 RMK AO2 SLP249 P0000 60000 T11501189 11128 21150 53002 $",
    "updatedAt": "2022-03-09T11:54:00.000Z"
  },
  {
    "airportIcao": "KMOX",
    "metar": "KMOX 091235Z AUTO 32012KT 10SM CLR M14/M18 A3015 RMK AO2",
    "updatedAt": "2022-03-09T12:35:00.000Z"
  },
  {
    "airportIcao": "KMPO",
    "metar": "KMPO 091239Z AUTO 11005KT 10SM BKN011 BKN030 OVC070 M02/M07 A2999 RMK AO2 SNB18E30 P0000 T10221067",
    "updatedAt": "2022-03-09T12:39:00.000Z"
  },
  {
    "airportIcao": "KMPV",
    "metar": "KMPV 091151Z AUTO 00000KT 10SM CLR M06/M09 A3013 RMK AO2 SLP220 T10611094 11061 21072 55009",
    "updatedAt": "2022-03-09T11:51:00.000Z"
  },
  {
    "airportIcao": "KMPZ",
    "metar": "KMPZ 091235Z AUTO 33007KT 10SM CLR M01/M03 A3006 RMK AO2",
    "updatedAt": "2022-03-09T12:35:00.000Z"
  },
  {
    "airportIcao": "KMQB",
    "metar": "KMQB 091235Z AUTO 29007KT 10SM CLR M02/M04 A3005 RMK AO2 T10221037",
    "updatedAt": "2022-03-09T12:35:00.000Z"
  },
  {
    "airportIcao": "KMQI",
    "metar": "KMQI 091235Z AUTO 20009KT 10SM BKN012 BKN020 OVC047 17/16 A2985 RMK AO2 P0001 T01680161",
    "updatedAt": "2022-03-09T12:35:00.000Z"
  },
  {
    "airportIcao": "KMQJ",
    "metar": "KMQJ 091235Z AUTO 35005KT 10SM BKN085 OVC110 00/M01 A2998 RMK AO1",
    "updatedAt": "2022-03-09T12:35:00.000Z"
  },
  {
    "airportIcao": "KMQS",
    "metar": "KMQS 091235Z AUTO 13005KT 10SM FEW027 04/M03 A3004 RMK AO2",
    "updatedAt": "2022-03-09T12:35:00.000Z"
  },
  {
    "airportIcao": "KMQW",
    "metar": "KMQW 091235Z AUTO 21007KT 10SM OVC019 20/18 A2986 RMK AO2 T02030183",
    "updatedAt": "2022-03-09T12:35:00.000Z"
  },
  {
    "airportIcao": "KMQY",
    "metar": "KMQY 091156Z AUTO 32011KT 6SM BR BKN006 OVC010 04/03 A2999 RMK AO2 CIG 005V009 SLP165 60018 70032 T00390033 10050 20039 53029",
    "updatedAt": "2022-03-09T11:56:00.000Z"
  },
  {
    "airportIcao": "KMRB",
    "metar": "KMRB 091153Z 15003KT 7SM -RA OVC036 03/01 A2998 RMK AO2 SLP156 P0005 60007 70007 T00280006 10056 20028 55017",
    "updatedAt": "2022-03-09T11:53:00.000Z"
  },
  {
    "airportIcao": "KMRC",
    "metar": "KMRC 090400Z AUTO 05004KT 7SM BKN008 BKN026 OVC032 05/05 A2993 RMK A01",
    "updatedAt": "2022-03-09T04:00:00.000Z"
  },
  {
    "airportIcao": "KMRF",
    "metar": "KMRF 091156Z AUTO 34005KT 10SM CLR M06/M14 A2999 RMK AO2 SLP150 T10561139 11011 21061 55002 FZRANO",
    "updatedAt": "2022-03-09T11:56:00.000Z"
  },
  {
    "airportIcao": "KMRH",
    "metar": "KMRH 091236Z AUTO 22006KT 10SM -RA SCT009 SCT012 BKN023 18/17 A2988 RMK AO2 RAB03 P0032 I1000 T01780172 TSNO",
    "updatedAt": "2022-03-09T12:36:00.000Z"
  },
  {
    "airportIcao": "KMRJ",
    "metar": "KMRJ 091235Z AUTO 30004KT 10SM CLR M04/M09 A2996 RMK AO2",
    "updatedAt": "2022-03-09T12:35:00.000Z"
  },
  {
    "airportIcao": "KMRN",
    "metar": "KMRN 091235Z AUTO 00000KT 10SM -RA BKN006 BKN060 OVC095 09/09 A2990 RMK AO2 P0001 T00920087",
    "updatedAt": "2022-03-09T12:35:00.000Z"
  },
  {
    "airportIcao": "KMRT",
    "metar": "KMRT 091235Z AUTO 36005KT 10SM SCT070 OVC090 01/M02 A2994 RMK AO2 T00101023",
    "updatedAt": "2022-03-09T12:35:00.000Z"
  },
  {
    "airportIcao": "KMRY",
    "metar": "KMRY 091154Z AUTO 10003KT 10SM CLR 07/03 A3002 RMK AO2 SLP177 T00720033 10122 20072 56011",
    "updatedAt": "2022-03-09T11:54:00.000Z"
  },
  {
    "airportIcao": "KMSL",
    "metar": "KMSL 091153Z AUTO 33006KT 9SM BKN009 OVC013 06/04 A2998 RMK AO2 CIG 007V013 SLP153 60001 70087 T00560039 10067 20056 53028",
    "updatedAt": "2022-03-09T11:53:00.000Z"
  },
  {
    "airportIcao": "KMSN",
    "metar": "KMSN 091153Z 30006KT 10SM FEW026 FEW250 M03/M08 A2993 RMK AO2 SLP145 4/001 T10331078 11028 21044 53006",
    "updatedAt": "2022-03-09T11:53:00.000Z"
  },
  {
    "airportIcao": "KMSO",
    "metar": "KMSO 091153Z AUTO 09008KT 10SM OVC110 M11/M18 A3021 RMK AO2 SLP277 T11061183 11078 21106 55001",
    "updatedAt": "2022-03-09T11:53:00.000Z"
  },
  {
    "airportIcao": "KMSP",
    "metar": "KMSP 091153Z 31015G24KT 9SM -SN OVC022 M08/M13 A3004 RMK AO2 PK WND 28026/1119 SNE35B48 SLP186 4/003 P0000 60000 T10781128 11039 21078 53012",
    "updatedAt": "2022-03-09T11:53:00.000Z"
  },
  {
    "airportIcao": "KMSS",
    "metar": "KMSS 091153Z AUTO 00000KT 10SM OVC044 M03/M10 A3008 RMK AO2 SLP194 T10331100 11028 21039 58014",
    "updatedAt": "2022-03-09T11:53:00.000Z"
  },
  {
    "airportIcao": "KMSV",
    "metar": "KMSV 091156Z AUTO 08006KT 10SM BKN070 BKN085 M03/M08 A3005 RMK AO2 SLP193 T10281078 11028 21044 58009 FZRANO",
    "updatedAt": "2022-03-09T11:56:00.000Z"
  },
  {
    "airportIcao": "KMSY",
    "metar": "KMSY 091153Z 33014G19KT 10SM OVC011 10/08 A2997 RMK AO2 CIG 010V013 SLP150 60001 70008 T01000078 10144 20100 53023",
    "updatedAt": "2022-03-09T11:53:00.000Z"
  },
  {
    "airportIcao": "KMTC",
    "metar": "KMTC 091156Z 00000KT 7SM FEW150 BKN250 M04/M04 A2995 RMK AO2A SLP154 T10441044 11018 21057 58005 $",
    "updatedAt": "2022-03-09T11:56:00.000Z"
  },
  {
    "airportIcao": "KMTH",
    "metar": "KMTH 091153Z AUTO 15007KT 10SM SCT039 26/21 A2999 RMK AO2 SLP156 T02560211 10256 20256 53010",
    "updatedAt": "2022-03-09T11:53:00.000Z"
  },
  {
    "airportIcao": "KMTJ",
    "metar": "KMTJ 091153Z AUTO 00000KT 10SM OVC050 00/M06 A2984 RMK AO2 SLP098 T00001061 10006 21017 56016",
    "updatedAt": "2022-03-09T11:53:00.000Z"
  },
  {
    "airportIcao": "KMTN",
    "metar": "KMTN 091154Z 10004KT 10SM -RA BKN010 BKN016 OVC041 04/02 A3007",
    "updatedAt": "2022-03-09T11:54:00.000Z"
  },
  {
    "airportIcao": "KMTO",
    "metar": "KMTO 091153Z AUTO 00000KT 9SM CLR 00/M03 A3000 RMK AO2 SLP163 T00001028 10011 21006 53001",
    "updatedAt": "2022-03-09T11:53:00.000Z"
  },
  {
    "airportIcao": "KMTP",
    "metar": "KMTP 091154Z AUTO VRB03KT 04/M04 A3016 RMK AO1 SLP212 T00391039 10039 20011 58011",
    "updatedAt": "2022-03-09T11:54:00.000Z"
  },
  {
    "airportIcao": "KMTV",
    "metar": "KMTV 091235Z AUTO 00000KT 7SM RA OVC005 06/06 A2996 RMK AO2 P0002 T00620062",
    "updatedAt": "2022-03-09T12:35:00.000Z"
  },
  {
    "airportIcao": "KMTW",
    "metar": "KMTW 091208Z AUTO 26007KT 10SM BKN029 M02/M06 A2989 RMK AO2 FZRANO",
    "updatedAt": "2022-03-09T12:08:00.000Z"
  },
  {
    "airportIcao": "KMUI",
    "metar": "KMUI 091210Z 06004KT 6SM -SN BR SCT028 OVC039 02/M02 A3004 RMK AO2A RAE10 SLP179",
    "updatedAt": "2022-03-09T12:10:00.000Z"
  },
  {
    "airportIcao": "KMUO",
    "metar": "KMUO 091158Z 31008KT 9SM -SN BKN045 OVC060 M01/M01 A2992 RMK SLP146 P0000 60001 70002 T10091010 10027 21009 55000 $",
    "updatedAt": "2022-03-09T11:58:00.000Z"
  },
  {
    "airportIcao": "KMUT",
    "metar": "KMUT 091235Z AUTO 31006KT 10SM CLR M03/M04 A3007 RMK AO2",
    "updatedAt": "2022-03-09T12:35:00.000Z"
  },
  {
    "airportIcao": "KMVE",
    "metar": "KMVE 091235Z AUTO 02014G18KT 10SM OVC039 M11/M15 A3014 RMK AO2",
    "updatedAt": "2022-03-09T12:35:00.000Z"
  },
  {
    "airportIcao": "KMVH",
    "metar": "KMVH 090620Z AUTO 28009KT 10SM BKN120 M16/M21 A3014 RMK AO2 PWINO",
    "updatedAt": "2022-03-09T06:20:00.000Z"
  },
  {
    "airportIcao": "KMVL",
    "metar": "KMVL 091154Z AUTO 00000KT 10SM CLR M08/M10 A3012 RMK AO2 SLP211 T10781100 11078 21089 56011",
    "updatedAt": "2022-03-09T11:54:00.000Z"
  },
  {
    "airportIcao": "KMVN",
    "metar": "KMVN 091156Z AUTO 00000KT 9SM FEW120 M02/M02 A3004 RMK AO2 SLP180 T10171017 10022 21017 53007 FZRANO",
    "updatedAt": "2022-03-09T11:56:00.000Z"
  },
  {
    "airportIcao": "KMVY",
    "metar": "KMVY 091153Z 00000KT 10SM BKN120 M01/M03 A3018 RMK AO2 SLP219 T10061033 10000 21039 58005",
    "updatedAt": "2022-03-09T11:53:00.000Z"
  },
  {
    "airportIcao": "KMWA",
    "metar": "KMWA 091235Z AUTO 00000KT 10SM CLR 01/M01 A3005 RMK AO2 T00061010",
    "updatedAt": "2022-03-09T12:35:00.000Z"
  },
  {
    "airportIcao": "KMWC",
    "metar": "KMWC 091235Z AUTO 24005KT 10SM CLR M03/M07 A2995 RMK AO2",
    "updatedAt": "2022-03-09T12:35:00.000Z"
  },
  {
    "airportIcao": "KMWH",
    "metar": "KMWH 091152Z AUTO 01009KT 10SM SCT110 M02/M08 A3020 RMK AO2 SLP237 T10171078 10022 21017 53007",
    "updatedAt": "2022-03-09T11:52:00.000Z"
  },
  {
    "airportIcao": "KMWK",
    "metar": "KMWK 091235Z AUTO 11007KT 10SM -RA SCT006 BKN020 OVC100 07/06 A2990 RMK AO2 P0011 T00700064",
    "updatedAt": "2022-03-09T12:35:00.000Z"
  },
  {
    "airportIcao": "KMWL",
    "metar": "KMWL 091153Z AUTO 00000KT 10SM CLR M03/M05 A3008 RMK AO2 SLP189 I1000 I6000 T10281050 10011 21028 53005",
    "updatedAt": "2022-03-09T11:53:00.000Z"
  },
  {
    "airportIcao": "KMWM",
    "metar": "KMWM 091235Z AUTO 30012KT 10SM SCT023 M11/M13 A3008 RMK AO2",
    "updatedAt": "2022-03-09T12:35:00.000Z"
  },
  {
    "airportIcao": "KMWN",
    "metar": "KMWN 091152Z 28035KT 90SM PRFG FEW/// SCT000 OVC060 M13/M15 RMK VIS SW-NW 1/2 PRFG SCT000 TPS LWR FEW049 70011 4/005 11122 21155",
    "updatedAt": "2022-03-09T11:52:00.000Z"
  },
  {
    "airportIcao": "KMWO",
    "metar": "KMWO 091235Z AUTO 02006KT 7SM -RA SCT038 SCT044 OVC070 02/M01 A2998 RMK AO2 T00211007",
    "updatedAt": "2022-03-09T12:35:00.000Z"
  },
  {
    "airportIcao": "KMWT",
    "metar": "KMWT 091153Z AUTO 00000KT 10SM CLR M02/M03 A3004 RMK AO2 SLP183 70007 T10221033 10011 21022 53011",
    "updatedAt": "2022-03-09T11:53:00.000Z"
  },
  {
    "airportIcao": "KMXF",
    "metar": "KMXF 091156Z AUTO 26004KT 10SM -DZ BKN008 BKN048 OVC060 11/11 A2986 RMK AO2 RAE04DZB04E11DZB17E28DZB39E42RAB42E53DZB53 CIG 008V049 BKN008 V SCT SLP114 P0001 60015 70045 T01140106 10151 20112 52037",
    "updatedAt": "2022-03-09T11:56:00.000Z"
  },
  {
    "airportIcao": "KMXO",
    "metar": "KMXO 091235Z AUTO 32005KT 10SM BKN060 M04/M06 A3002 RMK AO2",
    "updatedAt": "2022-03-09T12:35:00.000Z"
  },
  {
    "airportIcao": "KMYF",
    "metar": "KMYF 091153Z AUTO 00000KT 10SM CLR 08/01 A3000 RMK AO2 SLP158 T00780006 10122 20067 55006",
    "updatedAt": "2022-03-09T11:53:00.000Z"
  },
  {
    "airportIcao": "KMYJ",
    "metar": "KMYJ 091235Z AUTO 00000KT 10SM CLR M02/M03 A3004 RMK AO2",
    "updatedAt": "2022-03-09T12:35:00.000Z"
  },
  {
    "airportIcao": "KMYL",
    "metar": "KMYL 091151Z AUTO 02005KT 10SM SCT120 M10/M14 A2986 RMK AO2 SLP153 70008 T11001139 11050 21117 56009",
    "updatedAt": "2022-03-09T11:51:00.000Z"
  },
  {
    "airportIcao": "KMYP",
    "metar": "KMYP 091235Z AUTO 26024KT OVC001 M15/M17 A2980 RMK AO2 PWINO",
    "updatedAt": "2022-03-09T12:35:00.000Z"
  },
  {
    "airportIcao": "KMYR",
    "metar": "KMYR 091217Z 13005KT 1 3/4SM BR OVC003 14/14 A2989 RMK AO2",
    "updatedAt": "2022-03-09T12:17:00.000Z"
  },
  {
    "airportIcao": "KMYV",
    "metar": "KMYV 091153Z AUTO 00000KT 10SM CLR 06/02 A3001 RMK AO2 SLP164 T00610017 10100 20050 58006",
    "updatedAt": "2022-03-09T11:53:00.000Z"
  },
  {
    "airportIcao": "KMYZ",
    "metar": "KMYZ 091235Z AUTO 00000KT 10SM CLR M07/M08 A3013 RMK AO2",
    "updatedAt": "2022-03-09T12:35:00.000Z"
  },
  {
    "airportIcao": "KMZH",
    "metar": "KMZH 091235Z AUTO 30006KT 10SM CLR M12/M16 A2997 RMK AO2",
    "updatedAt": "2022-03-09T12:35:00.000Z"
  },
  {
    "airportIcao": "KMZJ",
    "metar": "KMZJ 090615Z AUTO 19005KT 10SM FEW048 03/M08 A3000 RMK AO2",
    "updatedAt": "2022-03-09T06:15:00.000Z"
  },
  {
    "airportIcao": "KMZZ",
    "metar": "KMZZ 091235Z AUTO 00000KT 7SM SCT100 M01/M02 A2998 RMK AO2 T10111022",
    "updatedAt": "2022-03-09T12:35:00.000Z"
  },
  {
    "airportIcao": "KN03",
    "metar": "KN03 091235Z AUTO 06004KT 10SM OVC060 M02/M06 A2999 RMK AO2",
    "updatedAt": "2022-03-09T12:35:00.000Z"
  },
  {
    "airportIcao": "KN38",
    "metar": "KN38 091235Z AUTO 18005KT 4SM HZ OVC019 M01/M04 A2992 RMK AO2",
    "updatedAt": "2022-03-09T12:35:00.000Z"
  },
  {
    "airportIcao": "KN60",
    "metar": "KN60 091152Z AUTO 30008KT M15/M18 A3014 RMK AO1 SLP253 T11501178 11133 21150 55001",
    "updatedAt": "2022-03-09T11:52:00.000Z"
  },
  {
    "airportIcao": "KNAK",
    "metar": "KNAK 091231Z AUTO 04003KT 2 1/2SM RA BR BKN011 BKN030 OVC035 05/03 A3002",
    "updatedAt": "2022-03-09T12:31:00.000Z"
  },
  {
    "airportIcao": "KNBC",
    "metar": "KNBC 091236Z 19007KT 10SM BKN022 21/18 A2990 RMK AO2 T02060183",
    "updatedAt": "2022-03-09T12:36:00.000Z"
  },
  {
    "airportIcao": "KNBG",
    "metar": "KNBG 091155Z 34014G20KT 10SM OVC011 11/09 A2994 RMK AO2 SLP138 60001 70028 T01110089 10172 20111 53026 $",
    "updatedAt": "2022-03-09T11:55:00.000Z"
  },
  {
    "airportIcao": "KNBT",
    "metar": "KNBT 091239Z AUTO 30003KT 6SM BR OVC004 16/14 A2988 RMK AO2 RAB1157E18 P0000 T01560139 $",
    "updatedAt": "2022-03-09T12:39:00.000Z"
  },
  {
    "airportIcao": "KNCA",
    "metar": "KNCA 091232Z 16003KT 6SM BR OVC004 12/12 A2987 RMK AO2 T01170117",
    "updatedAt": "2022-03-09T12:32:00.000Z"
  },
  {
    "airportIcao": "KNDZ",
    "metar": "KNDZ 091156Z 31007KT 10SM BKN005 OVC016 17/16 A2987 RMK AO2 RAB41E50 SLP101 6//// 7//// T01670161 10222 20167 53021 PNO $",
    "updatedAt": "2022-03-09T11:56:00.000Z"
  },
  {
    "airportIcao": "KNEL",
    "metar": "KNEL 091200Z AUTO 11006KT OVC090 06/01 A3008 RMK AO2 SLP186 T00610006 10061 20033 56019 $",
    "updatedAt": "2022-03-09T12:00:00.000Z"
  },
  {
    "airportIcao": "KNEW",
    "metar": "KNEW 091153Z AUTO 34019KT 10SM OVC011 11/09 A2996 RMK AO2 SLP138 60000 70025 T01110089 10156 20111 53024",
    "updatedAt": "2022-03-09T11:53:00.000Z"
  },
  {
    "airportIcao": "KNFE",
    "metar": "KNFE 091214Z AUTO 01012G17KT 6SM -RA BR BKN007 BKN024 OVC031 08/07 A2991 RMK AO2 P0002 T00830072",
    "updatedAt": "2022-03-09T12:14:00.000Z"
  },
  {
    "airportIcao": "KNFG",
    "metar": "KNFG 091154Z AUTO 00000KT 10SM CLR 02/M01 A3002 RMK AO2 PK WND 21070/1135 SLP163 T00221011 10083 20006 55004",
    "updatedAt": "2022-03-09T11:54:00.000Z"
  },
  {
    "airportIcao": "KNFL",
    "metar": "KNFL 091156Z AUTO 36005KT 10SM BKN085 04/M05 A2999 RMK AO2 SLP127 7//// T00391050 10072 20022 55006",
    "updatedAt": "2022-03-09T11:56:00.000Z"
  },
  {
    "airportIcao": "KNFW",
    "metar": "KNFW 091152Z 33003KT 1/4SM FZFG VV001 A3011 RMK SLP181 FIRST 70002 T10211032 53007",
    "updatedAt": "2022-03-09T11:52:00.000Z"
  },
  {
    "airportIcao": "KNGP",
    "metar": "KNGP 091156Z 01015KT 10SM SCT010 BKN160 BKN250 09/07 A3000 RMK AO2 SLP159 OCNL LTGIC DSNT S CB DSNT S T00940067 10100 20094 50003",
    "updatedAt": "2022-03-09T11:56:00.000Z"
  },
  {
    "airportIcao": "KNGU",
    "metar": "KNGU 091159Z 04021G27KT 3SM -RA BR BKN007 BKN012 OVC027 07/05 A2995 RMK AO2 PK WND 03027/1155 SLP143 P0033 60069 70083 T00720050 10083 20072 55017",
    "updatedAt": "2022-03-09T11:59:00.000Z"
  },
  {
    "airportIcao": "KNHK",
    "metar": "KNHK 091152Z 09016KT 5SM RA BR SCT008 SCT013 OVC055 06/04 A2995 RMK AO2 PRESFR SLP143 P0018 60074 70074 T00610039 10083 20056 58032",
    "updatedAt": "2022-03-09T11:52:00.000Z"
  },
  {
    "airportIcao": "KNID",
    "metar": "KNID 091156Z AUTO 23005KT 8SM CLR 02/M10 A2995 RMK AO2 SLP143 T00171100 10083 20017 56005 $",
    "updatedAt": "2022-03-09T11:56:00.000Z"
  },
  {
    "airportIcao": "KNIP",
    "metar": "KNIP 091223Z 19010KT 10SM SCT009 BKN028 22/22 A2995 RMK AO2 T02220217",
    "updatedAt": "2022-03-09T12:23:00.000Z"
  },
  {
    "airportIcao": "KNJK",
    "metar": "KNJK 091156Z AUTO 28005KT 10SM CLR 07/M07 A2995 RMK AO2 SLP156 T00671072 10117 20067 55005 $",
    "updatedAt": "2022-03-09T11:56:00.000Z"
  },
  {
    "airportIcao": "KNJM",
    "metar": "KNJM 091220Z AUTO 00000KT 6SM BR BKN006 BKN010 OVC018 14/13 A2989 RMK AO2 RAB1158E10 CIG 004V008 P0000 T01390133",
    "updatedAt": "2022-03-09T12:20:00.000Z"
  },
  {
    "airportIcao": "KNJW",
    "metar": "KNJW 091057Z AUTO 32011KT 4SM BR BKN004 OVC009 07/06 A2998 RMK AO2 CIG 003V007 SLP070 T00670056 $",
    "updatedAt": "2022-03-09T10:57:00.000Z"
  },
  {
    "airportIcao": "KNKT",
    "metar": "KNKT 090256Z 05011KT 7SM OVC016 12/08 A3009 RMK SLP185 T01220078 58008",
    "updatedAt": "2022-03-09T02:56:00.000Z"
  },
  {
    "airportIcao": "KNKX",
    "metar": "KNKX 091155Z 09005KT 10SM CLR 05/01 A2999 RMK AO2 SLP154 T00500006 10072 20050 55006 $",
    "updatedAt": "2022-03-09T11:55:00.000Z"
  },
  {
    "airportIcao": "KNLC",
    "metar": "KNLC 091156Z AUTO 24005KT 10SM CLR 03/M03 A3001 RMK AO2 SLP164 T00331033 10083 20022 56007",
    "updatedAt": "2022-03-09T11:56:00.000Z"
  },
  {
    "airportIcao": "KNMM",
    "metar": "KNMM 091156Z 33009KT 8SM OVC007 07/07 A2998 RMK AO2 CIG 005V011 SLP166 60009 70030 T00720067 10089 20072 53029",
    "updatedAt": "2022-03-09T11:56:00.000Z"
  },
  {
    "airportIcao": "KNOG",
    "metar": "KNOG 091056Z AUTO 36006KT 10SM CLR 06/03 A3003 RMK AO2 SLP151 T00610028 $",
    "updatedAt": "2022-03-09T10:56:00.000Z"
  },
  {
    "airportIcao": "KNOW",
    "metar": "KNOW 091235Z AUTO 05016KT 10SM SCT100 06/M04 A3024 RMK AO2 T00601045",
    "updatedAt": "2022-03-09T12:35:00.000Z"
  },
  {
    "airportIcao": "KNOZ",
    "metar": "KNOZ 091159Z AUTO 11005KT 10SM CLR 04/M13 A2994 RMK AO2 SLP090 T00441133 10111 20033 55005 TSNO $",
    "updatedAt": "2022-03-09T11:59:00.000Z"
  },
  {
    "airportIcao": "KNPA",
    "metar": "KNPA 091156Z 32014G21KT 9SM -RA BKN008 OVC013 19/17 A2985 RMK RAB53 CIG 005V011 SLP109 P0000 60014 70020 T01940172 10217 20194 53017",
    "updatedAt": "2022-03-09T11:56:00.000Z"
  },
  {
    "airportIcao": "KNQA",
    "metar": "KNQA 091150Z 0500/KT 10SM BKN070 03/02 A3002",
    "updatedAt": "2022-03-09T11:50:00.000Z"
  },
  {
    "airportIcao": "KNQI",
    "metar": "KNQI 091231Z COR 00000KT 10SM FEW035 BKN100 07/04 A3006 RMK AO2 OCNL LTGIC DSNT SE CB DSNT SE T00720044 $",
    "updatedAt": "2022-03-09T12:31:00.000Z"
  },
  {
    "airportIcao": "KNQX",
    "metar": "KNQX 091153Z 15014KT 10SM SCT030 BKN110 28/22 A2999 RMK AO2 SLP154 T02780217 10278 20272 53011 $",
    "updatedAt": "2022-03-09T11:53:00.000Z"
  },
  {
    "airportIcao": "KNRB",
    "metar": "KNRB 091152Z 20009KT 10SM SCT010 SCT050 BKN080 21/21 A2994 RMK AO2 SLP138 70008 T02110206 10211 20194 51010",
    "updatedAt": "2022-03-09T11:52:00.000Z"
  },
  {
    "airportIcao": "KNRN",
    "metar": "KNRN 091235Z AUTO 06009KT 10SM OVC038 M06/M09 A3012 RMK AO2",
    "updatedAt": "2022-03-09T12:35:00.000Z"
  },
  {
    "airportIcao": "KNRS",
    "metar": "KNRS 091153Z AUTO 10007KT 10SM CLR 08/02 A3001 RMK AO2 SLP162 T00780022 10106 20072 55006",
    "updatedAt": "2022-03-09T11:53:00.000Z"
  },
  {
    "airportIcao": "KNSE",
    "metar": "KNSE 091156Z 31007KT 10SM BKN006 OVC015 16/15 A2987 RMK AO2 SLP100 T2 SET T01610150 10222 20161 53022 $",
    "updatedAt": "2022-03-09T11:56:00.000Z"
  },
  {
    "airportIcao": "KNTD",
    "metar": "KNTD 091152Z AUTO 05004KT 10SM CLR 04/00 A2998 RMK AO2 SLP154 T00440000 10094 20044 56005 CHINO N VISNO N $",
    "updatedAt": "2022-03-09T11:52:00.000Z"
  },
  {
    "airportIcao": "KNTU",
    "metar": "KNTU 091218Z 04020G26KT 4SM -RA BR OVC005 09/08 A2990 RMK AO2 PK WND 04026/1217 PRESFR P0006 T00890078",
    "updatedAt": "2022-03-09T12:18:00.000Z"
  },
  {
    "airportIcao": "KNUC",
    "metar": "KNUC 090556Z AUTO 28006KT 10SM CLR 12/07 A3006 RMK AO2 SLP176 T01170072 10161 20100 50001 $",
    "updatedAt": "2022-03-09T05:56:00.000Z"
  },
  {
    "airportIcao": "KNUI",
    "metar": "KNUI 091213Z AUTO 09010G21KT 4SM RA BR BKN005 BKN012 OVC044 07/05 A2993",
    "updatedAt": "2022-03-09T12:13:00.000Z"
  },
  {
    "airportIcao": "KNUQ",
    "metar": "KNUQ 090615Z AUTO 01005KT 10SM CLR 11/08 A3005 RMK AO2",
    "updatedAt": "2022-03-09T06:15:00.000Z"
  },
  {
    "airportIcao": "KNUW",
    "metar": "KNUW 091156Z 03006KT 10SM BKN095 03/M07 A3025 RMK AO2 SLP244 70002 T00331072 10067 20011 52009 $",
    "updatedAt": "2022-03-09T11:56:00.000Z"
  },
  {
    "airportIcao": "KNXF",
    "metar": "KNXF 091156Z AUTO 07005KT 10SM A2999 RMK AO2 SLPNO 6//// 7//// 56007 PWINO PNO $",
    "updatedAt": "2022-03-09T11:56:00.000Z"
  },
  {
    "airportIcao": "KNXP",
    "metar": "KNXP 091156Z AUTO 35005KT 10SM CLR 06/M10 A3002 RMK AO2 SLP147 T00611100 10094 20050 56008",
    "updatedAt": "2022-03-09T11:56:00.000Z"
  },
  {
    "airportIcao": "KNY0",
    "metar": "KNY0 091238Z AUTO 07003KT 10SM CLR M04/M08 A3008 RMK AO2",
    "updatedAt": "2022-03-09T12:38:00.000Z"
  },
  {
    "airportIcao": "KNYC",
    "metar": "KNYC 091132Z AUTO 10SM -RA SCT013 BKN017 OVC065 03/00 A3013 RMK AO2 RAB04 P0000 T00280000 $",
    "updatedAt": "2022-03-09T11:32:00.000Z"
  },
  {
    "airportIcao": "KNYG",
    "metar": "KNYG 091240Z 07009KT 3SM -RA BR FEW007 SCT012 OVC021 06/04 A3001 RMK AO2 PRESFR P0006 T00610044",
    "updatedAt": "2022-03-09T12:40:00.000Z"
  },
  {
    "airportIcao": "KNYL",
    "metar": "KNYL 091157Z AUTO 16004KT 10SM CLR 07/M09 A2993 RMK AO2 SLP135 T00671094 10117 20067 56007",
    "updatedAt": "2022-03-09T11:57:00.000Z"
  },
  {
    "airportIcao": "KNZY",
    "metar": "KNZY 091152Z 10003KT 10SM CLR 09/02 A3000 RMK AO2 SLP158 T00940017 10139 20083 55005",
    "updatedAt": "2022-03-09T11:52:00.000Z"
  },
  {
    "airportIcao": "KO05",
    "metar": "KO05 090615Z AUTO 34003KT 10SM CLR 02/M05 A3011 RMK A01",
    "updatedAt": "2022-03-09T06:15:00.000Z"
  },
  {
    "airportIcao": "KO22",
    "metar": "KO22 091235Z AUTO 00000KT 10SM CLR 03/00 A3000 RMK A01",
    "updatedAt": "2022-03-09T12:35:00.000Z"
  },
  {
    "airportIcao": "KO69",
    "metar": "KO69 090615Z AUTO 00000KT 10SM CLR 06/04 A3005 RMK A01",
    "updatedAt": "2022-03-09T06:15:00.000Z"
  },
  {
    "airportIcao": "KOAJ",
    "metar": "KOAJ 091237Z 00000KT 1/2SM FG OVC003 11/11 A2989 RMK AO2",
    "updatedAt": "2022-03-09T12:37:00.000Z"
  },
  {
    "airportIcao": "KOAK",
    "metar": "KOAK 091153Z 00000KT 10SM CLR 08/05 A3004 RMK AO2 SLP172 T00780050 10111 20067 58000",
    "updatedAt": "2022-03-09T11:53:00.000Z"
  },
  {
    "airportIcao": "KOAR",
    "metar": "KOAR 091235Z AUTO 17003KT 10SM CLR 05/03 A3002 RMK AO2",
    "updatedAt": "2022-03-09T12:35:00.000Z"
  },
  {
    "airportIcao": "KOBE",
    "metar": "KOBE 091235Z AUTO VRB06G11KT 10SM FEW014 24/24 A3002 RMK AO2",
    "updatedAt": "2022-03-09T12:35:00.000Z"
  },
  {
    "airportIcao": "KOCF",
    "metar": "KOCF 091220Z 17007KT 140V200 10SM OVC007 22/21 A2998 RMK AO2 CIG 006V011",
    "updatedAt": "2022-03-09T12:20:00.000Z"
  },
  {
    "airportIcao": "KOCH",
    "metar": "KOCH 091156Z AUTO 33003KT 4SM BR CLR 00/00 A3008 RMK AO2 SLP194 70099 T00000000 10044 20000 53006 FZRANO",
    "updatedAt": "2022-03-09T11:56:00.000Z"
  },
  {
    "airportIcao": "KOCQ",
    "metar": "KOCQ 091235Z AUTO 26010G17KT 10SM CLR M03/M09 A2987 RMK AO1 T10311091",
    "updatedAt": "2022-03-09T12:35:00.000Z"
  },
  {
    "airportIcao": "KOCW",
    "metar": "KOCW 091235Z AUTO 33005KT 1SM BR OVC002 09/09 A2991 RMK AO2 T00930086",
    "updatedAt": "2022-03-09T12:35:00.000Z"
  },
  {
    "airportIcao": "KODO",
    "metar": "KODO 091153Z AUTO 14006KT 10SM CLR 00/M07 A3001 RMK AO2 SLP152 T00001067 10044 20000 55001",
    "updatedAt": "2022-03-09T11:53:00.000Z"
  },
  {
    "airportIcao": "KODX",
    "metar": "KODX 091153Z AUTO 35012G21KT 10SM BKN055 OVC070 M07/M13 A3011 RMK AO2 SLP225 60000 T10721133 11044 21083 53004",
    "updatedAt": "2022-03-09T11:53:00.000Z"
  },
  {
    "airportIcao": "KOEB",
    "metar": "KOEB 091235Z AUTO 17003KT 7SM SCT120 M03/M05 A2995 RMK AO2 T10271047",
    "updatedAt": "2022-03-09T12:35:00.000Z"
  },
  {
    "airportIcao": "KOEL",
    "metar": "KOEL 091235Z AUTO 08006KT 10SM OVC025 M07/M09 A3004 RMK AO1 T10721090",
    "updatedAt": "2022-03-09T12:35:00.000Z"
  },
  {
    "airportIcao": "KOEO",
    "metar": "KOEO 091235Z AUTO 27012KT 10SM OVC022 M06/M10 A3005 RMK AO2 T10641105",
    "updatedAt": "2022-03-09T12:35:00.000Z"
  },
  {
    "airportIcao": "KOFF",
    "metar": "KOFF 091156Z 01007KT 10SM CLR M04/M11 A3014 RMK AO2A SLP220 T10431113 11017 21046 51009 PWINO PNO FZRANO TSNO VISNO RWY12 CHINO RWY12 $",
    "updatedAt": "2022-03-09T11:56:00.000Z"
  },
  {
    "airportIcao": "KOFK",
    "metar": "KOFK 091156Z AUTO 34011KT 10SM OVC100 M06/M12 A3012 RMK AO2 SLP220 T10611117 11044 21067 53005",
    "updatedAt": "2022-03-09T11:56:00.000Z"
  },
  {
    "airportIcao": "KOFP",
    "metar": "KOFP 091154Z AUTO VRB03KT 10SM OVC007 06/04 A2997 RMK AO2 RAE32 SLP150 P0008 60077 70104 T00560044 10056 20050 58017",
    "updatedAt": "2022-03-09T11:54:00.000Z"
  },
  {
    "airportIcao": "KOGA",
    "metar": "KOGA 091235Z AUTO 04012G17KT 2 1/2SM -SN BKN008 OVC020 M08/M09 A3007 RMK AO2 T10771095",
    "updatedAt": "2022-03-09T12:35:00.000Z"
  },
  {
    "airportIcao": "KOGB",
    "metar": "KOGB 091153Z AUTO 21010G14KT 10SM BKN010 OVC016 19/18 A2987 RMK AO2 CIG 008V013 SLP112 T01940183 10194 20172 55000",
    "updatedAt": "2022-03-09T11:53:00.000Z"
  },
  {
    "airportIcao": "KOGD",
    "metar": "KOGD 091223Z AUTO 35003KT 10SM SCT021 BKN034 OVC045 01/M02 A2984 RMK AO2 SNE10 P0000 T00061017",
    "updatedAt": "2022-03-09T12:23:00.000Z"
  },
  {
    "airportIcao": "KOGS",
    "metar": "KOGS 091235Z AUTO 00000KT 10SM CLR M04/M06 A3004 RMK AO2",
    "updatedAt": "2022-03-09T12:35:00.000Z"
  },
  {
    "airportIcao": "KOIC",
    "metar": "KOIC 091235Z AUTO 10SM OVC060 M04/M05 A3005 RMK AO2 T10371053 PWINO",
    "updatedAt": "2022-03-09T12:35:00.000Z"
  },
  {
    "airportIcao": "KOIN",
    "metar": "KOIN 091235Z AUTO 04005KT 10SM OVC034 M07/M08 A3011 RMK AO1 T10681076",
    "updatedAt": "2022-03-09T12:35:00.000Z"
  },
  {
    "airportIcao": "KOJA",
    "metar": "KOJA 091235Z AUTO 00000KT 10SM CLR M06/M10 A3007 RMK AO2 T10611096",
    "updatedAt": "2022-03-09T12:35:00.000Z"
  },
  {
    "airportIcao": "KOJC",
    "metar": "KOJC 091153Z AUTO 35006KT 10SM CLR M01/M04 A3007 RMK AO2 SLP189 T10111039 10017 21011 53012",
    "updatedAt": "2022-03-09T11:53:00.000Z"
  },
  {
    "airportIcao": "KOKB",
    "metar": "KOKB 091152Z AUTO 00000KT 10SM CLR 03/00 A3001 RMK AO2 SLP160 T00280000 10067 20028 55005",
    "updatedAt": "2022-03-09T11:52:00.000Z"
  },
  {
    "airportIcao": "KOKC",
    "metar": "KOKC 091152Z 00000KT 10SM CLR M02/M08 A3006 RMK AO2 SLP188 T10171078 10000 21050 53001",
    "updatedAt": "2022-03-09T11:52:00.000Z"
  },
  {
    "airportIcao": "KOKK",
    "metar": "KOKK 091156Z AUTO 00000KT 8SM BKN110 M02/M02 A2998 RMK AO2 SLP162 6//// 7//// T10171017 11006 21022 55000 FZRANO PNO $",
    "updatedAt": "2022-03-09T11:56:00.000Z"
  },
  {
    "airportIcao": "KOKM",
    "metar": "KOKM 091235Z AUTO 00000KT 10SM CLR M04/M05 A3011 RMK AO2 T10441054",
    "updatedAt": "2022-03-09T12:35:00.000Z"
  },
  {
    "airportIcao": "KOKV",
    "metar": "KOKV 091235Z AUTO 13008KT 7SM -RA SCT013 BKN018 OVC060 02/02 A2995 RMK AO2 P0002",
    "updatedAt": "2022-03-09T12:35:00.000Z"
  },
  {
    "airportIcao": "KOKZ",
    "metar": "KOKZ 091235Z AUTO 19006KT 10SM SCT006 BKN014 BKN024 17/16 A2986 RMK AO2 T01730161",
    "updatedAt": "2022-03-09T12:35:00.000Z"
  },
  {
    "airportIcao": "KOLE",
    "metar": "KOLE 091235Z AUTO 08004KT 10SM SCT043 BKN100 OVC120 M03/M07 A2989 RMK AO2",
    "updatedAt": "2022-03-09T12:35:00.000Z"
  },
  {
    "airportIcao": "KOLF",
    "metar": "KOLF 091153Z AUTO 31009KT 10SM CLR M16/M19 A3024 RMK AO2 SLP286 T11561189 11122 21156 55002",
    "updatedAt": "2022-03-09T11:53:00.000Z"
  },
  {
    "airportIcao": "KOLG",
    "metar": "KOLG 091235Z AUTO 28007KT 240V300 10SM SCT041 M12/M17 A2994 RMK AO1",
    "updatedAt": "2022-03-09T12:35:00.000Z"
  },
  {
    "airportIcao": "KOLM",
    "metar": "KOLM 091232Z AUTO 01003KT 1 1/4SM BR OVC002 04/04 A3018 RMK AO2 T00390039",
    "updatedAt": "2022-03-09T12:32:00.000Z"
  },
  {
    "airportIcao": "KOLS",
    "metar": "KOLS 091154Z AUTO 00000KT 10SM CLR M02/M14 A2995 RMK AO2 SLP120 T10171139 10039 21017 55002",
    "updatedAt": "2022-03-09T11:54:00.000Z"
  },
  {
    "airportIcao": "KOLU",
    "metar": "KOLU 091156Z AUTO 32005KT 10SM CLR M08/M11 A3014 RMK AO2 SLP230 T10831106 11050 21089 53004 FZRANO",
    "updatedAt": "2022-03-09T11:56:00.000Z"
  },
  {
    "airportIcao": "KOLV",
    "metar": "KOLV 091235Z AUTO 00000KT 10SM BKN007 BKN060 03/03 A3003 RMK A01",
    "updatedAt": "2022-03-09T12:35:00.000Z"
  },
  {
    "airportIcao": "KOLY",
    "metar": "KOLY 091235Z AUTO 29006KT 7SM CLR 00/00 A3005 RMK AO2 T00020000",
    "updatedAt": "2022-03-09T12:35:00.000Z"
  },
  {
    "airportIcao": "KOLZ",
    "metar": "KOLZ 091235Z AUTO 33014KT 10SM BKN022 M05/M08 A3003 RMK A01",
    "updatedAt": "2022-03-09T12:35:00.000Z"
  },
  {
    "airportIcao": "KOMA",
    "metar": "KOMA 091152Z 36005KT 10SM CLR M06/M10 A3013 RMK AO2 SLP213 T10611100 11028 21067 51011",
    "updatedAt": "2022-03-09T11:52:00.000Z"
  },
  {
    "airportIcao": "KOMH",
    "metar": "KOMH 091235Z AUTO 01003KT 4SM RA SCT004 BKN027 OVC031 03/03 A3000 RMK AO2 P0005",
    "updatedAt": "2022-03-09T12:35:00.000Z"
  },
  {
    "airportIcao": "KOMK",
    "metar": "KOMK 091153Z AUTO 34007KT 10SM CLR M02/M13 A3023 RMK AO2 SLP249 T10171128 10011 21028 53005",
    "updatedAt": "2022-03-09T11:53:00.000Z"
  },
  {
    "airportIcao": "KOMN",
    "metar": "KOMN 091150Z 18005KT 7SM SCT008 21/21 A2997 RMK FIRST",
    "updatedAt": "2022-03-09T11:50:00.000Z"
  },
  {
    "airportIcao": "KONA",
    "metar": "KONA 091235Z AUTO 30009G18KT 10SM BKN029 BKN035 M06/M10 A3004 RMK AO2",
    "updatedAt": "2022-03-09T12:35:00.000Z"
  },
  {
    "airportIcao": "KONL",
    "metar": "KONL 091235Z AUTO 34012KT 10SM SCT021 OVC075 M09/M13 A3014 RMK AO2 T10931135",
    "updatedAt": "2022-03-09T12:35:00.000Z"
  },
  {
    "airportIcao": "KONM",
    "metar": "KONM 091235Z AUTO 32006KT 10SM CLR M03/M20 A2994 RMK AO2 T10321201",
    "updatedAt": "2022-03-09T12:35:00.000Z"
  },
  {
    "airportIcao": "KONO",
    "metar": "KONO 091153Z AUTO 32008KT OVC075 02/M04 A3000 RMK AO2 SLP169 60000 T00171044 10044 20017 56007 $",
    "updatedAt": "2022-03-09T11:53:00.000Z"
  },
  {
    "airportIcao": "KONP",
    "metar": "KONP 091235Z AUTO 22006KT 1 3/4SM DZ OVC002 07/07 A3017 RMK AO2 P0002",
    "updatedAt": "2022-03-09T12:35:00.000Z"
  },
  {
    "airportIcao": "KONT",
    "metar": "KONT 091153Z 00000KT 10SM CLR 07/M04 A2999 RMK AO2 SLP151 T00721039 10128 20067 55005",
    "updatedAt": "2022-03-09T11:53:00.000Z"
  },
  {
    "airportIcao": "KONX",
    "metar": "KONX 091235Z AUTO 32010G14KT 10SM OVC004 09/09 A2990 RMK AO2 P0001 T00880088",
    "updatedAt": "2022-03-09T12:35:00.000Z"
  },
  {
    "airportIcao": "KONZ",
    "metar": "KONZ 091235Z AUTO 00000KT 7SM CLR M01/M03 A2996 RMK AO2 T10071030",
    "updatedAt": "2022-03-09T12:35:00.000Z"
  },
  {
    "airportIcao": "KOOA",
    "metar": "KOOA 091235Z AUTO 32005KT 10SM SCT027 M03/M05 A3007 RMK AO2 T10331046",
    "updatedAt": "2022-03-09T12:35:00.000Z"
  },
  {
    "airportIcao": "KOPF",
    "metar": "KOPF 091153Z 16007KT 10SM CLR 23/20 A3002 RMK AO2 SLP166 T02330200 10239 20228 53009",
    "updatedAt": "2022-03-09T11:53:00.000Z"
  },
  {
    "airportIcao": "KOPL",
    "metar": "KOPL 091235Z AUTO 02009KT 10SM OVC009 06/05 A3004 RMK AO2 LTG DSNT SE T00570050",
    "updatedAt": "2022-03-09T12:35:00.000Z"
  },
  {
    "airportIcao": "KOPN",
    "metar": "KOPN 091235Z AUTO 00000KT 1/4SM FG OVC002 15/14 A2988 RMK AO2",
    "updatedAt": "2022-03-09T12:35:00.000Z"
  },
  {
    "airportIcao": "KOQN",
    "metar": "KOQN 091235Z AUTO 14007G15KT 10SM BKN044 05/M01 A3005 RMK AO2",
    "updatedAt": "2022-03-09T12:35:00.000Z"
  },
  {
    "airportIcao": "KOQT",
    "metar": "KOQT 091235Z AUTO 00000KT 10SM FEW007 OVC033 09/08 A2987 RMK AO2 T00890078",
    "updatedAt": "2022-03-09T12:35:00.000Z"
  },
  {
    "airportIcao": "KOQU",
    "metar": "KOQU 090350Z 31010KT 10SM CLR 02/M10 A3020 RMK LAST",
    "updatedAt": "2022-03-09T03:50:00.000Z"
  },
  {
    "airportIcao": "KORB",
    "metar": "KORB 091233Z AUTO 30009G15KT 4SM -SN M16/M18 A2990 RMK AO2",
    "updatedAt": "2022-03-09T12:33:00.000Z"
  },
  {
    "airportIcao": "KORD",
    "metar": "KORD 091151Z 24007KT 10SM BKN110 OVC250 00/M04 A2995 RMK AO2 SLP148 T00001044 10000 21017 55004",
    "updatedAt": "2022-03-09T11:51:00.000Z"
  },
  {
    "airportIcao": "KORE",
    "metar": "KORE 091152Z AUTO 00000KT 10SM CLR M03/M06 A3016 RMK AO2 SLP220 T10281061 11028 21050 56000",
    "updatedAt": "2022-03-09T11:52:00.000Z"
  },
  {
    "airportIcao": "KORF",
    "metar": "KORF 091232Z 36015G28KT 2 1/2SM RA BR SCT007 BKN013 OVC031 07/06 A2995",
    "updatedAt": "2022-03-09T12:32:00.000Z"
  },
  {
    "airportIcao": "KORG",
    "metar": "KORG 091235Z AUTO 01007G17KT 10SM OVC012 08/06 A3003 RMK AO2 T00810056",
    "updatedAt": "2022-03-09T12:35:00.000Z"
  },
  {
    "airportIcao": "KORH",
    "metar": "KORH 091154Z 00000KT 10SM CLR M02/M09 A3011 RMK AO2 SLP210 T10171089 11011 21028 58003",
    "updatedAt": "2022-03-09T11:54:00.000Z"
  },
  {
    "airportIcao": "KORK",
    "metar": "KORK 090615Z AUTO 35006KT 4SM BR OVC004 02/02 A3004 RMK AO2",
    "updatedAt": "2022-03-09T06:15:00.000Z"
  },
  {
    "airportIcao": "KORL",
    "metar": "KORL 091153Z 19010KT 10SM OVC007 23/21 A3000 RMK AO2 SLP161 70001 T02280206 10233 20228 53011",
    "updatedAt": "2022-03-09T11:53:00.000Z"
  },
  {
    "airportIcao": "KORS",
    "metar": "KORS 091235Z AUTO VRB07G19KT 10SM CLR 06/M11 A3024 RMK AO2",
    "updatedAt": "2022-03-09T12:35:00.000Z"
  },
  {
    "airportIcao": "KOSA",
    "metar": "KOSA 091235Z AUTO 18003KT 5SM BR CLR M03/M04 A3011 RMK AO2 T10331037",
    "updatedAt": "2022-03-09T12:35:00.000Z"
  },
  {
    "airportIcao": "KOSC",
    "metar": "KOSC 091235Z AUTO 23004KT 7SM CLR M04/M06 A2989 RMK AO2 T10401060",
    "updatedAt": "2022-03-09T12:35:00.000Z"
  },
  {
    "airportIcao": "KOSH",
    "metar": "KOSH 091153Z 30012G20KT 10SM FEW023 OVC031 M03/M09 A2990 RMK AO2 SLP138 T10331089 11022 21056 53005",
    "updatedAt": "2022-03-09T11:53:00.000Z"
  },
  {
    "airportIcao": "KOSU",
    "metar": "KOSU 091153Z 35004KT 10SM BKN060 OVC075 02/M02 A2991 RMK AO2 SLP136 T00221017 10033 20022 55007",
    "updatedAt": "2022-03-09T11:53:00.000Z"
  },
  {
    "airportIcao": "KOTG",
    "metar": "KOTG 091156Z AUTO 31013KT 10SM CLR M12/M14 A3010 RMK AO2 SLP221 60000 T11171144 11056 21117 53013 FZRANO",
    "updatedAt": "2022-03-09T11:56:00.000Z"
  },
  {
    "airportIcao": "KOTH",
    "metar": "KOTH 091156Z AUTO 16004KT 10SM FEW037 OVC070 07/07 A3022 RMK AO2 RAB00E47 SLP231 P0000 60000 T00720067 10089 20072 58011",
    "updatedAt": "2022-03-09T11:56:00.000Z"
  },
  {
    "airportIcao": "KOTM",
    "metar": "KOTM 091153Z AUTO 32008KT 10SM OVC025 M02/M04 A3005 RMK AO2 SLP186 T10221044 11017 21044 53015",
    "updatedAt": "2022-03-09T11:53:00.000Z"
  },
  {
    "airportIcao": "KOUN",
    "metar": "KOUN 091235Z AUTO 00000KT 10SM CLR M03/M07 A3007 RMK AO2 T10341070",
    "updatedAt": "2022-03-09T12:35:00.000Z"
  },
  {
    "airportIcao": "KOVE",
    "metar": "KOVE 091153Z AUTO 13004KT 10SM CLR 09/02 A3001 RMK AO2 SLP165 T00890022 10128 20078 58007",
    "updatedAt": "2022-03-09T11:53:00.000Z"
  },
  {
    "airportIcao": "KOVL",
    "metar": "KOVL 091235Z AUTO 33014G20KT 10SM BKN028 M10/M13 A3010 RMK AO2",
    "updatedAt": "2022-03-09T12:35:00.000Z"
  },
  {
    "airportIcao": "KOVS",
    "metar": "KOVS 091153Z AUTO 26003KT 10SM CLR M04/M11 A3000 RMK AO2 SLP169 T10391106 11006 21044 52015",
    "updatedAt": "2022-03-09T11:53:00.000Z"
  },
  {
    "airportIcao": "KOWA",
    "metar": "KOWA 091233Z AUTO 29016G20KT 7SM -SN OVC020 M09/M12 A3005 RMK AO2",
    "updatedAt": "2022-03-09T12:33:00.000Z"
  },
  {
    "airportIcao": "KOWB",
    "metar": "KOWB 091156Z 35006KT 10SM OVC070 03/M01 A3000 RMK AO2 SLP161 60000 T00281011 10033 20022 53010",
    "updatedAt": "2022-03-09T11:56:00.000Z"
  },
  {
    "airportIcao": "KOWD",
    "metar": "KOWD 091153Z 00000KT 10SM CLR M01/M04 A3018 RMK AO2 SLP221 T10061044 11006 21028 56003",
    "updatedAt": "2022-03-09T11:53:00.000Z"
  },
  {
    "airportIcao": "KOWI",
    "metar": "KOWI 090615Z AUTO 22005KT 10SM OVC075 01/M02 A3004 RMK AO2",
    "updatedAt": "2022-03-09T06:15:00.000Z"
  },
  {
    "airportIcao": "KOWP",
    "metar": "KOWP 091235Z AUTO 00000KT 10SM CLR M01/M03 A3009 RMK AO2 T10091035 PWINO",
    "updatedAt": "2022-03-09T12:35:00.000Z"
  },
  {
    "airportIcao": "KOWX",
    "metar": "KOWX 091235Z AUTO 00000KT 7SM BKN100 OVC120 00/M02 A2998 RMK AO1",
    "updatedAt": "2022-03-09T12:35:00.000Z"
  },
  {
    "airportIcao": "KOXB",
    "metar": "KOXB 091202Z AUTO 05009KT 7SM RA BKN009 OVC016 06/06 A3005 RMK AO2 CIG 007V014 P0002 T00610056",
    "updatedAt": "2022-03-09T12:02:00.000Z"
  },
  {
    "airportIcao": "KOXC",
    "metar": "KOXC 091151Z 10005KT 10SM OVC090 00/M08 A3011 RMK AO2 SLP217 T00001078 10006 21011 58011",
    "updatedAt": "2022-03-09T11:51:00.000Z"
  },
  {
    "airportIcao": "KOXD",
    "metar": "KOXD 091235Z AUTO 35008KT 4SM -SN SCT048 OVC060 01/M03 A2995 RMK AO2 T00121028",
    "updatedAt": "2022-03-09T12:35:00.000Z"
  },
  {
    "airportIcao": "KOXI",
    "metar": "KOXI 091240Z AUTO 21003KT 7SM SCT080 OVC090 M02/M03 A2997 RMK AO1",
    "updatedAt": "2022-03-09T12:40:00.000Z"
  },
  {
    "airportIcao": "KOXR",
    "metar": "KOXR 091151Z AUTO 00000KT 10SM CLR 07/M02 A2997 RMK AO2 SLP150 T00671017 10106 20067 55006",
    "updatedAt": "2022-03-09T11:51:00.000Z"
  },
  {
    "airportIcao": "KOXV",
    "metar": "KOXV 091235Z AUTO 33008KT 10SM CLR M03/M07 A3008 RMK AO2",
    "updatedAt": "2022-03-09T12:35:00.000Z"
  },
  {
    "airportIcao": "KOYM",
    "metar": "KOYM 091237Z AUTO 10004KT 4SM -SN OVC019 M02/M03 A2991 RMK AO2",
    "updatedAt": "2022-03-09T12:37:00.000Z"
  },
  {
    "airportIcao": "KOZA",
    "metar": "KOZA 091235Z AUTO 00000KT 10SM CLR M03/M10 A3008 RMK AO2",
    "updatedAt": "2022-03-09T12:35:00.000Z"
  },
  {
    "airportIcao": "KOZR",
    "metar": "KOZR 091238Z AUTO 22005KT 10SM SCT019 BKN060 20/20 A2985 RMK AO2 SLP108",
    "updatedAt": "2022-03-09T12:38:00.000Z"
  },
  {
    "airportIcao": "KOZS",
    "metar": "KOZS 091235Z AUTO 25005KT 10SM CLR M01/M03 A3006 RMK AO2",
    "updatedAt": "2022-03-09T12:35:00.000Z"
  },
  {
    "airportIcao": "KOZW",
    "metar": "KOZW 091235Z AUTO 19004KT 7SM SCT120 M03/M04 A2993 RMK AO2 T10261040",
    "updatedAt": "2022-03-09T12:35:00.000Z"
  },
  {
    "airportIcao": "KP08",
    "metar": "KP08 090615Z AUTO 12007KT 10SM CLR 05/M08 A2997 RMK AO2",
    "updatedAt": "2022-03-09T06:15:00.000Z"
  },
  {
    "airportIcao": "KP28",
    "metar": "KP28 091156Z AUTO 01006KT M04/M04 A3006 RMK AO1 SLP191 T10391039 10022 21039 53005 $",
    "updatedAt": "2022-03-09T11:56:00.000Z"
  },
  {
    "airportIcao": "KP53",
    "metar": "KP53 091156Z AUTO 33008KT M02/M06 A2980 RMK AO1 SLP100 T10221061 11006 21022 53008",
    "updatedAt": "2022-03-09T11:56:00.000Z"
  },
  {
    "airportIcao": "KP58",
    "metar": "KP58 091155Z AUTO 00000KT M03/M06 A2990 RMK AO1 SLP138 T10331061 11028 21050 56015",
    "updatedAt": "2022-03-09T11:55:00.000Z"
  },
  {
    "airportIcao": "KP59",
    "metar": "KP59 091151Z AUTO 33009G19KT M03/M07 A2975 RMK AO1 SLP086 T10331072 11006 21033 56001",
    "updatedAt": "2022-03-09T11:51:00.000Z"
  },
  {
    "airportIcao": "KP68",
    "metar": "KP68 091153Z AUTO 21006KT M01/M04 A2990 RMK AO1 SLP114 T10061039 10006 21011 56014",
    "updatedAt": "2022-03-09T11:53:00.000Z"
  },
  {
    "airportIcao": "KP69",
    "metar": "KP69 091152Z AUTO 01004KT M04/M09 A3019 RMK AO1 SLP246 70037 T10391089 11011 21039 53001",
    "updatedAt": "2022-03-09T11:52:00.000Z"
  },
  {
    "airportIcao": "KP92",
    "metar": "KP92 091159Z AUTO 35008G16KT 08/06 A2995 RMK AO1 SLP143 T00830061 10117 20083 53016",
    "updatedAt": "2022-03-09T11:59:00.000Z"
  },
  {
    "airportIcao": "KPAE",
    "metar": "KPAE 091153Z AUTO 35003KT 10SM FEW014 OVC090 02/02 A3018 RMK AO2 SLP223 70003 T00220022 10033 20011 51003 $",
    "updatedAt": "2022-03-09T11:53:00.000Z"
  },
  {
    "airportIcao": "KPAH",
    "metar": "KPAH 091153Z 00000KT 10SM OVC080 02/M02 A3000 RMK AO2 SLP161 60001 70002 T00221017 10028 20022 51005",
    "updatedAt": "2022-03-09T11:53:00.000Z"
  },
  {
    "airportIcao": "KPAM",
    "metar": "KPAM 091236Z 25017KT 1 1/4SM +TSRA BKN004 OVC024 19/19 A2988 RMK AO2A RAB1156 PRESRR SLP121 $",
    "updatedAt": "2022-03-09T12:36:00.000Z"
  },
  {
    "airportIcao": "KPAN",
    "metar": "KPAN 091235Z AUTO 00000KT 10SM CLR M02/M10 A2996 RMK AO2",
    "updatedAt": "2022-03-09T12:35:00.000Z"
  },
  {
    "airportIcao": "KPAO",
    "metar": "KPAO 090147Z 29008KT 10SM SKC 19/M01 A3006",
    "updatedAt": "2022-03-09T01:47:00.000Z"
  },
  {
    "airportIcao": "KPBF",
    "metar": "KPBF 091153Z AUTO 33007KT 9SM BKN009 03/02 A3009 RMK AO2 SLP188 70009 T00330017 10044 20033 53019",
    "updatedAt": "2022-03-09T11:53:00.000Z"
  },
  {
    "airportIcao": "KPBG",
    "metar": "KPBG 091153Z AUTO 00000KT 10SM CLR M07/M08 A3011 RMK AO2 SLP199 I6000 T10671083 11061 21072 56014",
    "updatedAt": "2022-03-09T11:53:00.000Z"
  },
  {
    "airportIcao": "KPBH",
    "metar": "KPBH 091235Z AUTO 28005KT 10SM OVC028 M08/M13 A2987 RMK AO2 T10761126",
    "updatedAt": "2022-03-09T12:35:00.000Z"
  },
  {
    "airportIcao": "KPBI",
    "metar": "KPBI 091153Z 17008KT 10SM SCT025 24/20 A3002 RMK AO2 SLP165 T02390200 10244 20228 53012",
    "updatedAt": "2022-03-09T11:53:00.000Z"
  },
  {
    "airportIcao": "KPBX",
    "metar": "KPBX 091240Z AUTO 29004KT 1 3/4SM DZ OVC002 03/03 A2985 RMK AO2 T00250025",
    "updatedAt": "2022-03-09T12:40:00.000Z"
  },
  {
    "airportIcao": "KPCD",
    "metar": "KPCD 091235Z AUTO 00000KT 10SM CLR 00/00 A3004 RMK AO2 T00031005",
    "updatedAt": "2022-03-09T12:35:00.000Z"
  },
  {
    "airportIcao": "KPCM",
    "metar": "KPCM 091235Z AUTO 19005KT 7SM OVC007 23/23 A3002 RMK AO2",
    "updatedAt": "2022-03-09T12:35:00.000Z"
  },
  {
    "airportIcao": "KPCW",
    "metar": "KPCW 090615Z AUTO 00000KT 10SM CLR 01/M02 A3002 RMK AO2",
    "updatedAt": "2022-03-09T06:15:00.000Z"
  },
  {
    "airportIcao": "KPCZ",
    "metar": "KPCZ 091235Z AUTO 28011G15KT 10SM OVC031 M02/M10 A2992 RMK AO2 T10221096",
    "updatedAt": "2022-03-09T12:35:00.000Z"
  },
  {
    "airportIcao": "KPDC",
    "metar": "KPDC 091235Z AUTO 30007KT 10SM CLR M05/M10 A3002 RMK AO2 T10471100",
    "updatedAt": "2022-03-09T12:35:00.000Z"
  },
  {
    "airportIcao": "KPDK",
    "metar": "KPDK 091158Z 00000KT 1 3/4SM RA BR SCT004 BKN013 OVC020 11/11 A2985 RMK AO2 P0002 T01110111",
    "updatedAt": "2022-03-09T11:58:00.000Z"
  },
  {
    "airportIcao": "KPDT",
    "metar": "KPDT 091153Z AUTO 30004KT 1/4SM R26/0800V1000FT FG VV001 00/00 A3011 RMK AO2 SLP201 70012 I1001 I6002 T00000000 10011 21011 53003",
    "updatedAt": "2022-03-09T11:53:00.000Z"
  },
  {
    "airportIcao": "KPDX",
    "metar": "KPDX 091229Z 12012KT 10SM SCT007 OVC012 04/02 A3017",
    "updatedAt": "2022-03-09T12:29:00.000Z"
  },
  {
    "airportIcao": "KPEA",
    "metar": "KPEA 091235Z AUTO 32006KT 10SM SCT049 M05/M05 A3009 RMK AO2 T10451049",
    "updatedAt": "2022-03-09T12:35:00.000Z"
  },
  {
    "airportIcao": "KPEO",
    "metar": "KPEO 091153Z AUTO 00000KT 10SM CLR M03/M06 A2999 RMK AO2 SLP167 T10281056 11028 21039 58020",
    "updatedAt": "2022-03-09T11:53:00.000Z"
  },
  {
    "airportIcao": "KPEQ",
    "metar": "KPEQ 091235Z AUTO 04004KT 10SM CLR M02/M13 A2999 RMK AO2 T10161131",
    "updatedAt": "2022-03-09T12:35:00.000Z"
  },
  {
    "airportIcao": "KPEX",
    "metar": "KPEX 091235Z 30012G16KT OVC048 M13/M17 A3010 RMK AO2",
    "updatedAt": "2022-03-09T12:35:00.000Z"
  },
  {
    "airportIcao": "KPEZ",
    "metar": "KPEZ 091235Z AUTO 02005KT 10SM CLR 06/02 A3007 RMK AO2 T00570016",
    "updatedAt": "2022-03-09T12:35:00.000Z"
  },
  {
    "airportIcao": "KPGA",
    "metar": "KPGA 091153Z AUTO 00000KT 10SM SCT080 01/M11 A2990 RMK AO2 SLP115 T00111111 10033 20011 56009",
    "updatedAt": "2022-03-09T11:53:00.000Z"
  },
  {
    "airportIcao": "KPGD",
    "metar": "KPGD 091153Z 15004KT 5SM BR SCT015 20/19 A3000 RMK AO2 SLP159 70006 T02000194 10206 20189 53011",
    "updatedAt": "2022-03-09T11:53:00.000Z"
  },
  {
    "airportIcao": "KPGV",
    "metar": "KPGV 091235Z AUTO 36004KT 1 3/4SM BR OVC003 08/08 A2991 RMK AO2",
    "updatedAt": "2022-03-09T12:35:00.000Z"
  },
  {
    "airportIcao": "KPHD",
    "metar": "KPHD 091153Z AUTO 00000KT 10SM OVC044 02/M03 A2992 RMK AO2 SLP137 T00221033 10028 20017 55015",
    "updatedAt": "2022-03-09T11:53:00.000Z"
  },
  {
    "airportIcao": "KPHF",
    "metar": "KPHF 091239Z 06011G16KT 1 3/4SM +RA BR BKN006 OVC026 07/07 A2993 RMK AO2 WSHFT 1205 P0043 T00720067",
    "updatedAt": "2022-03-09T12:39:00.000Z"
  },
  {
    "airportIcao": "KPHL",
    "metar": "KPHL 091242Z 13014KT 10SM -RA BKN017 BKN060 OVC075 05/01 A3007 RMK AO2 RAB39 P0000 T00500011",
    "updatedAt": "2022-03-09T12:42:00.000Z"
  },
  {
    "airportIcao": "KPHN",
    "metar": "KPHN 091235Z AUTO 20003KT 4SM BR CLR M03/M04 A2995 RMK AO2",
    "updatedAt": "2022-03-09T12:35:00.000Z"
  },
  {
    "airportIcao": "KPHP",
    "metar": "KPHP 091235Z AUTO 34005KT 10SM BKN023 M12/M16 A3021",
    "updatedAt": "2022-03-09T12:35:00.000Z"
  },
  {
    "airportIcao": "KPHT",
    "metar": "KPHT 090615Z AUTO 35006KT 5SM BR BKN019 OVC032 03/02 A2996 RMK A01",
    "updatedAt": "2022-03-09T06:15:00.000Z"
  },
  {
    "airportIcao": "KPHX",
    "metar": "KPHX 091151Z 09006KT 10SM CLR 08/M06 A2992 RMK AO2 SLP124 T00781056 10144 20072 55003 $",
    "updatedAt": "2022-03-09T11:51:00.000Z"
  },
  {
    "airportIcao": "KPIA",
    "metar": "KPIA 091154Z 27004KT 10SM CLR M02/M05 A3000 RMK AO2 SLP166 T10171050 11006 21017 55003",
    "updatedAt": "2022-03-09T11:54:00.000Z"
  },
  {
    "airportIcao": "KPIB",
    "metar": "KPIB 091156Z AUTO 34010KT 10SM OVC010 07/07 A2999 RMK AO2 SLP156 60000 7//// T00720067 10100 20072 51023",
    "updatedAt": "2022-03-09T11:56:00.000Z"
  },
  {
    "airportIcao": "KPIE",
    "metar": "KPIE 091206Z 18011G20KT 10SM BKN009 OVC041 24/22 A2997 RMK AO2 T02390217",
    "updatedAt": "2022-03-09T12:06:00.000Z"
  },
  {
    "airportIcao": "KPIH",
    "metar": "KPIH 091223Z AUTO 04012KT 10SM OVC037 M09/M16 A2993 RMK AO2 SNE00 P0000 T10891156 TSNO",
    "updatedAt": "2022-03-09T12:23:00.000Z"
  },
  {
    "airportIcao": "KPIL",
    "metar": "KPIL 091205Z AUTO 34011KT 9SM OVC013 10/09 A3000 RMK AO2 T01000089",
    "updatedAt": "2022-03-09T12:05:00.000Z"
  },
  {
    "airportIcao": "KPIM",
    "metar": "KPIM 091235Z AUTO 32003KT 10SM DZ SCT003 SCT007 OVC019 15/15 A2986 RMK AO2 T01520147",
    "updatedAt": "2022-03-09T12:35:00.000Z"
  },
  {
    "airportIcao": "KPIR",
    "metar": "KPIR 091153Z AUTO 34006KT 10SM CLR M14/M18 A3020 RMK AO2 SLP257 60000 T11391178 11078 21139 53009",
    "updatedAt": "2022-03-09T11:53:00.000Z"
  },
  {
    "airportIcao": "KPIT",
    "metar": "KPIT 091240Z 01004KT 1/2SM R28R/3500V5000FT SN VV010 M01/M02 A2989 RMK AO2 P0003 T10061022",
    "updatedAt": "2022-03-09T12:40:00.000Z"
  },
  {
    "airportIcao": "KPJC",
    "metar": "KPJC 091235Z AUTO 00000KT 10SM BKN028 BKN033 OVC040 01/M02 A2991 RMK AO2",
    "updatedAt": "2022-03-09T12:35:00.000Z"
  },
  {
    "airportIcao": "KPKB",
    "metar": "KPKB 091153Z 36005KT 6SM -RA BR BKN006 OVC011 02/01 A2988 RMK AO2 CIG 003V008 SLP124 P0003 60012 70012 T00170006 10028 20017 55012",
    "updatedAt": "2022-03-09T11:53:00.000Z"
  },
  {
    "airportIcao": "KPKD",
    "metar": "KPKD 091153Z AUTO 30012KT 10SM CLR M17/M20 A3001 RMK AO2 SLP195 60000 70006 T11721200 11122 21178 53013",
    "updatedAt": "2022-03-09T11:53:00.000Z"
  },
  {
    "airportIcao": "KPKV",
    "metar": "KPKV 091235Z AUTO 01010KT 10SM CLR 07/05 A3003 RMK AO2 T00720046",
    "updatedAt": "2022-03-09T12:35:00.000Z"
  },
  {
    "airportIcao": "KPLD",
    "metar": "KPLD 091235Z AUTO 00000KT 10SM OVC100 00/M03 A2996 RMK AO2",
    "updatedAt": "2022-03-09T12:35:00.000Z"
  },
  {
    "airportIcao": "KPLN",
    "metar": "KPLN 091154Z AUTO VRB04KT 9SM OVC049 M03/M05 A2982 RMK AO2 SLP108 T10281050 11011 21044 56009",
    "updatedAt": "2022-03-09T11:54:00.000Z"
  },
  {
    "airportIcao": "KPLR",
    "metar": "KPLR 091235Z AUTO 33005G11KT 10SM SCT008 BKN024 OVC029 09/07 A2992 RMK A01",
    "updatedAt": "2022-03-09T12:35:00.000Z"
  },
  {
    "airportIcao": "KPLU",
    "metar": "KPLU 091235Z AUTO 00000KT 1/4SM FG OVC002 04/04 A3016 RMK AO2",
    "updatedAt": "2022-03-09T12:35:00.000Z"
  },
  {
    "airportIcao": "KPMD",
    "metar": "KPMD 091153Z AUTO 19005KT 10SM CLR 03/M07 A2998 RMK AO2 SLP146 T00331067 10100 20028 56009",
    "updatedAt": "2022-03-09T11:53:00.000Z"
  },
  {
    "airportIcao": "KPMH",
    "metar": "KPMH 090859Z AUTO 00000KT 5SM -RA OVC039 04/00 A2991 RMK AO2 P0001",
    "updatedAt": "2022-03-09T08:59:00.000Z"
  },
  {
    "airportIcao": "KPMP",
    "metar": "KPMP 091153Z AUTO 16011KT 10SM FEW025 25/20 A3002 RMK AO2 SLP165 T02500200 10256 20250 53012",
    "updatedAt": "2022-03-09T11:53:00.000Z"
  },
  {
    "airportIcao": "KPMU",
    "metar": "KPMU 091235Z AUTO 00000KT 9SM OVC008 05/03 A3005 RMK AO2",
    "updatedAt": "2022-03-09T12:35:00.000Z"
  },
  {
    "airportIcao": "KPMV",
    "metar": "KPMV 091235Z AUTO 34005KT 10SM CLR M06/M10 A3013 RMK AO2 T10581097",
    "updatedAt": "2022-03-09T12:35:00.000Z"
  },
  {
    "airportIcao": "KPNA",
    "metar": "KPNA 091235Z AUTO 00000KT 1SM SN OVC010 M11/M13 A2975 RMK AO2",
    "updatedAt": "2022-03-09T12:35:00.000Z"
  },
  {
    "airportIcao": "KPNC",
    "metar": "KPNC 091153Z AUTO 00000KT 10SM CLR M06/M08 A3008 RMK AO2 SLP194 T10561078 11022 21061 53004 TSNO",
    "updatedAt": "2022-03-09T11:53:00.000Z"
  },
  {
    "airportIcao": "KPNE",
    "metar": "KPNE 091154Z 10007KT 10SM FEW075 OVC110 05/01 A3008 RMK AO2 SLP188 T00500011 10050 20039 58012",
    "updatedAt": "2022-03-09T11:54:00.000Z"
  },
  {
    "airportIcao": "KPNM",
    "metar": "KPNM 091236Z AUTO 27010KT 10SM CLR M12/M17 A3006 RMK AO2",
    "updatedAt": "2022-03-09T12:36:00.000Z"
  },
  {
    "airportIcao": "KPNS",
    "metar": "KPNS 091240Z 33012KT 10SM BKN015 OVC022 18/16 A2987 RMK AO2 RAE12B27E37 P0001 T01780156",
    "updatedAt": "2022-03-09T12:40:00.000Z"
  },
  {
    "airportIcao": "KPNT",
    "metar": "KPNT 091235Z AUTO 00000KT 10SM SCT090 SCT110 M01/M03 A3000 RMK AO2 T10131030",
    "updatedAt": "2022-03-09T12:35:00.000Z"
  },
  {
    "airportIcao": "KPO1",
    "metar": "KPO1 091230Z AUTO 31007KT 10SM M16/M19 A3023",
    "updatedAt": "2022-03-09T12:30:00.000Z"
  },
  {
    "airportIcao": "KPOB",
    "metar": "KPOB 091158Z AUTO 05006KT 9SM OVC005 09/09 A2990 RMK AO2 RAE58 CIG 004 RWY05 SLP128 $",
    "updatedAt": "2022-03-09T11:58:00.000Z"
  },
  {
    "airportIcao": "KPOC",
    "metar": "KPOC 090447Z CALMKT 10SM CLR 10/M03 A3003",
    "updatedAt": "2022-03-09T04:47:00.000Z"
  },
  {
    "airportIcao": "KPOE",
    "metar": "KPOE 091158Z AUTO 34007KT 10SM OVC008 05/04 A3004 RMK AO2 SLP176 70272 T00480042 10049 20047 50015",
    "updatedAt": "2022-03-09T11:58:00.000Z"
  },
  {
    "airportIcao": "KPOF",
    "metar": "KPOF 091153Z AUTO 29003KT 10SM OVC039 03/M01 A3004 RMK AO2 SLP177 T00281011 10039 20011 53009",
    "updatedAt": "2022-03-09T11:53:00.000Z"
  },
  {
    "airportIcao": "KPOU",
    "metar": "KPOU 091153Z AUTO 00000KT 10SM OVC100 M01/M06 A3011 RMK AO2 SLP194 T10061061 11006 21017 58013",
    "updatedAt": "2022-03-09T11:53:00.000Z"
  },
  {
    "airportIcao": "KPOV",
    "metar": "KPOV 091235Z AUTO 03003KT 10SM BKN110 00/M04 A2989 RMK AO2 T10031042 PWINO",
    "updatedAt": "2022-03-09T12:35:00.000Z"
  },
  {
    "airportIcao": "KPOY",
    "metar": "KPOY 091235Z AUTO 32017KT 7SM BKN003 BKN034 OVC046 M17/M20 A3000 RMK AO2",
    "updatedAt": "2022-03-09T12:35:00.000Z"
  },
  {
    "airportIcao": "KPPA",
    "metar": "KPPA 091235Z AUTO 18008KT 10SM CLR M05/M09 A3000 RMK AO2 T10511090",
    "updatedAt": "2022-03-09T12:35:00.000Z"
  },
  {
    "airportIcao": "KPPF",
    "metar": "KPPF 091152Z AUTO 00000KT 9SM CLR M05/M06 A3009 RMK AO2 SLP197 I1000 I6000 T10501061 10011 21056 53005",
    "updatedAt": "2022-03-09T11:52:00.000Z"
  },
  {
    "airportIcao": "KPPO",
    "metar": "KPPO 091235Z AUTO 25003KT 7SM SCT110 M02/M03 A2997 RMK AO2 T10231035",
    "updatedAt": "2022-03-09T12:35:00.000Z"
  },
  {
    "airportIcao": "KPPQ",
    "metar": "KPPQ 091235Z AUTO 27003KT 10SM CLR 00/M02 A3004 RMK AO2 T10011024",
    "updatedAt": "2022-03-09T12:35:00.000Z"
  },
  {
    "airportIcao": "KPQI",
    "metar": "KPQI 091156Z AUTO 00000KT 10SM CLR M14/M16 A3015 RMK AO2 SLP247 70008 T11391161 11122 21172 53000",
    "updatedAt": "2022-03-09T11:56:00.000Z"
  },
  {
    "airportIcao": "KPQL",
    "metar": "KPQL 091153Z AUTO 33009KT 10SM BKN006 OVC012 13/12 A2991 RMK AO2 SLP129 60030 70038 T01330122 10233 20133 53023 TSNO",
    "updatedAt": "2022-03-09T11:53:00.000Z"
  },
  {
    "airportIcao": "KPQN",
    "metar": "KPQN 091235Z AUTO 10SM M13/M16 A3011 RMK AO2",
    "updatedAt": "2022-03-09T12:35:00.000Z"
  },
  {
    "airportIcao": "KPRB",
    "metar": "KPRB 091153Z AUTO 00000KT 10SM CLR 02/M03 A3002 RMK AO2 SLP164 T00221028 10072 20011 58007",
    "updatedAt": "2022-03-09T11:53:00.000Z"
  },
  {
    "airportIcao": "KPRC",
    "metar": "KPRC 091153Z AUTO 22004KT 10SM CLR M04/M10 A2994 RMK AO2 SLP125 T10391100 10011 21039 55007",
    "updatedAt": "2022-03-09T11:53:00.000Z"
  },
  {
    "airportIcao": "KPRG",
    "metar": "KPRG 091235Z AUTO 00000KT 5SM BR CLR M01/M01 A3002 RMK AO2 T10151015",
    "updatedAt": "2022-03-09T12:35:00.000Z"
  },
  {
    "airportIcao": "KPRN",
    "metar": "KPRN 091158Z AUTO 31007KT 10SM OVC004 12/11 A2987 RMK AO2 RAE45 CIG 003V007 SLP063 P0001 60014 70019 T01220106 10200 20122 53028",
    "updatedAt": "2022-03-09T11:58:00.000Z"
  },
  {
    "airportIcao": "KPRO",
    "metar": "KPRO 091235Z AUTO 34008KT 10SM CLR M05/M09 A3011 RMK AO2 T10521090",
    "updatedAt": "2022-03-09T12:35:00.000Z"
  },
  {
    "airportIcao": "KPRS",
    "metar": "KPRS 091235Z AUTO 01005KT 10SM CLR 06/M07 A2998 RMK AO2 T00601073",
    "updatedAt": "2022-03-09T12:35:00.000Z"
  },
  {
    "airportIcao": "KPRX",
    "metar": "KPRX 091156Z AUTO 32005KT 9SM CLR M03/M03 A3010 RMK AO2 SLP212 T10281033 10006 21028 53012 FZRANO",
    "updatedAt": "2022-03-09T11:56:00.000Z"
  },
  {
    "airportIcao": "KPSC",
    "metar": "KPSC 091153Z AUTO 32006KT 10SM BKN120 01/M05 A3019 RMK AO2 SLP227 70001 T00111050 10044 20011 53017",
    "updatedAt": "2022-03-09T11:53:00.000Z"
  },
  {
    "airportIcao": "KPSF",
    "metar": "KPSF 091154Z AUTO 00000KT 10SM BKN110 M03/M07 A3008 RMK AO2 SLP200 T10331067 11033 21050 58002",
    "updatedAt": "2022-03-09T11:54:00.000Z"
  },
  {
    "airportIcao": "KPSK",
    "metar": "KPSK 091235Z AUTO 11005KT 10SM OVC006 06/06 A2988 RMK AO2 T00560056",
    "updatedAt": "2022-03-09T12:35:00.000Z"
  },
  {
    "airportIcao": "KPSM",
    "metar": "KPSM 091156Z 00000KT 10SM OVC160 M03/M06 A3021 RMK AO2A SLP234 T10291057 11029 21040 53004",
    "updatedAt": "2022-03-09T11:56:00.000Z"
  },
  {
    "airportIcao": "KPSN",
    "metar": "KPSN 091235Z AUTO 35006KT 4SM BR CLR M01/M01 A3009 RMK AO2",
    "updatedAt": "2022-03-09T12:35:00.000Z"
  },
  {
    "airportIcao": "KPSO",
    "metar": "KPSO 091235Z AUTO 00000KT 10SM OVC065 M09/M11 A2988 RMK AO2 T10861111",
    "updatedAt": "2022-03-09T12:35:00.000Z"
  },
  {
    "airportIcao": "KPSP",
    "metar": "KPSP 091153Z 33004KT 10SM CLR 11/M06 A2995 RMK AO2 SLP140 T01111061 10161 20106 56008",
    "updatedAt": "2022-03-09T11:53:00.000Z"
  },
  {
    "airportIcao": "KPSX",
    "metar": "KPSX 091153Z AUTO 02011KT 10SM CLR 07/05 A3003 RMK AO2 SLP167 T00720050 10083 20072 53002",
    "updatedAt": "2022-03-09T11:53:00.000Z"
  },
  {
    "airportIcao": "KPTB",
    "metar": "KPTB 091235Z AUTO 02005KT 10SM OVC006 06/05 A2996 RMK AO2 T00550047",
    "updatedAt": "2022-03-09T12:35:00.000Z"
  },
  {
    "airportIcao": "KPTD",
    "metar": "KPTD 090615Z AUTO 18005KT 10SM OVC042 M04/M08 A3013 RMK AO2",
    "updatedAt": "2022-03-09T06:15:00.000Z"
  },
  {
    "airportIcao": "KPTK",
    "metar": "KPTK 091153Z 17004KT 9SM BKN160 BKN200 M04/M06 A2993 RMK AO2 SLP144 T10391061 11017 21050 56005",
    "updatedAt": "2022-03-09T11:53:00.000Z"
  },
  {
    "airportIcao": "KPTN",
    "metar": "KPTN 091156Z AUTO 01013KT 10SM OVC010 08/07 A2996 RMK AO2 SLP145 60000 7//// T00830067 10111 20083 53009 $",
    "updatedAt": "2022-03-09T11:56:00.000Z"
  },
  {
    "airportIcao": "KPTS",
    "metar": "KPTS 091235Z AUTO 00000KT 10SM CLR M02/M04 A3008 RMK AO2 T10251040",
    "updatedAt": "2022-03-09T12:35:00.000Z"
  },
  {
    "airportIcao": "KPTT",
    "metar": "KPTT 091235Z AUTO 02007KT 10SM CLR M04/M05 A3007 RMK AO2 T10451052",
    "updatedAt": "2022-03-09T12:35:00.000Z"
  },
  {
    "airportIcao": "KPTV",
    "metar": "KPTV 091156Z AUTO 09005KT 10SM CLR 05/02 A3003 RMK AO2 SLP169 T00500017 10089 20039 56007",
    "updatedAt": "2022-03-09T11:56:00.000Z"
  },
  {
    "airportIcao": "KPTW",
    "metar": "KPTW 091154Z AUTO 08003KT 10SM BKN049 OVC060 03/M02 A3006 RMK AO2 SLP180 T00281022 10028 20011 56016",
    "updatedAt": "2022-03-09T11:54:00.000Z"
  },
  {
    "airportIcao": "KPUB",
    "metar": "KPUB 091153Z AUTO 04004KT 9SM CLR M08/M11 A2983 RMK AO2 SLP125 T10831106 11039 21083 56015",
    "updatedAt": "2022-03-09T11:53:00.000Z"
  },
  {
    "airportIcao": "KPUC",
    "metar": "KPUC 091153Z AUTO 07006KT 10SM CLR M03/M11 A2978 RMK AO2 SLP108 T10281111 10006 21044 56016",
    "updatedAt": "2022-03-09T11:53:00.000Z"
  },
  {
    "airportIcao": "KPUJ",
    "metar": "KPUJ 091235Z AUTO 32007KT 10SM SCT002 BKN013 OVC026 09/09 A2985 RMK AO2",
    "updatedAt": "2022-03-09T12:35:00.000Z"
  },
  {
    "airportIcao": "KPUW",
    "metar": "KPUW 091153Z AUTO 07010KT 10SM BKN050 BKN080 M04/M12 A3011 RMK AO2 SLP219 60000 T10391117 10000 21039 53003",
    "updatedAt": "2022-03-09T11:53:00.000Z"
  },
  {
    "airportIcao": "KPVB",
    "metar": "KPVB 091235Z AUTO 29005KT 10SM CLR M06/M09 A2999 RMK AO1 T10571087",
    "updatedAt": "2022-03-09T12:35:00.000Z"
  },
  {
    "airportIcao": "KPVC",
    "metar": "KPVC 091156Z AUTO 15003KT 10SM CLR 00/M02 A3020 RMK AO2 SLP226 T00001017 10022 21022 50003 FZRANO",
    "updatedAt": "2022-03-09T11:56:00.000Z"
  },
  {
    "airportIcao": "KPVD",
    "metar": "KPVD 091151Z 00000KT 10SM FEW020 OVC140 01/M06 A3017 RMK AO2 SLP216 T00061056 10006 21011 58010",
    "updatedAt": "2022-03-09T11:51:00.000Z"
  },
  {
    "airportIcao": "KPVE",
    "metar": "KPVE 090615Z AUTO 33007KT 1 3/4SM BR OVC005 04/04 A2995 RMK A01",
    "updatedAt": "2022-03-09T06:15:00.000Z"
  },
  {
    "airportIcao": "KPVF",
    "metar": "KPVF 091235Z AUTO 10005KT 10SM CLR 09/M05 A3001 RMK AO1",
    "updatedAt": "2022-03-09T12:35:00.000Z"
  },
  {
    "airportIcao": "KPVG",
    "metar": "KPVG 091210Z AUTO VRB06KT 7SM -RA OVC005 06/06 A2998 RMK AO2 CIG 004V010 P0000",
    "updatedAt": "2022-03-09T12:10:00.000Z"
  },
  {
    "airportIcao": "KPVJ",
    "metar": "KPVJ 091235Z AUTO 00000KT 10SM CLR M06/M07 A3010 RMK AO2 T10601072",
    "updatedAt": "2022-03-09T12:35:00.000Z"
  },
  {
    "airportIcao": "KPVU",
    "metar": "KPVU 091231Z AUTO 24013KT 10SM FEW019 OVC033 02/M01 A2984 RMK AO2 FZRANO",
    "updatedAt": "2022-03-09T12:31:00.000Z"
  },
  {
    "airportIcao": "KPVW",
    "metar": "KPVW 091235Z AUTO 22004KT 10SM CLR M07/M12 A3001 RMK AO2 T10721120",
    "updatedAt": "2022-03-09T12:35:00.000Z"
  },
  {
    "airportIcao": "KPWA",
    "metar": "KPWA 091153Z AUTO 25003KT 10SM CLR M03/M07 A3006 RMK AO2 SLP188 T10281072 11011 21044 53001",
    "updatedAt": "2022-03-09T11:53:00.000Z"
  },
  {
    "airportIcao": "KPWC",
    "metar": "KPWC 091235Z AUTO 30006KT 10SM M14/M17 A3005 RMK AO2",
    "updatedAt": "2022-03-09T12:35:00.000Z"
  },
  {
    "airportIcao": "KPWD",
    "metar": "KPWD 090615Z AUTO 31012KT 10SM OVC037 M14/M17 A3018 RMK AO2",
    "updatedAt": "2022-03-09T06:15:00.000Z"
  },
  {
    "airportIcao": "KPWG",
    "metar": "KPWG 091156Z AUTO 28005KT 6SM BR CLR M01/M02 A3011 RMK AO2 SLP198 T10111022 10011 21022 53005 FZRANO",
    "updatedAt": "2022-03-09T11:56:00.000Z"
  },
  {
    "airportIcao": "KPWK",
    "metar": "KPWK 091152Z 25004KT 10SM BKN120 01/M04 A2997 RMK AO2 SLP153 T00061044 10006 21033 55004",
    "updatedAt": "2022-03-09T11:52:00.000Z"
  },
  {
    "airportIcao": "KPWM",
    "metar": "KPWM 091151Z 00000KT 10SM SCT200 BKN250 M04/M08 A3019 RMK AO2 SLP225 T10391078 11039 21056 55002",
    "updatedAt": "2022-03-09T11:51:00.000Z"
  },
  {
    "airportIcao": "KPWT",
    "metar": "KPWT 091156Z AUTO 14003KT 10SM CLR M02/M02 A3018 RMK AO2 SLP226 70002 T10221022 10006 21039 53002 FZRANO",
    "updatedAt": "2022-03-09T11:56:00.000Z"
  },
  {
    "airportIcao": "KPXE",
    "metar": "KPXE 091235Z AUTO 22009KT 10SM OVC012 20/19 A2985 RMK AO2 LTG DSNT W T01960186",
    "updatedAt": "2022-03-09T12:35:00.000Z"
  },
  {
    "airportIcao": "KPYM",
    "metar": "KPYM 091152Z AUTO 00000KT 10SM CLR M01/M05 A3017 RMK AO2 SLP218 T10111050 11011 21033 58006",
    "updatedAt": "2022-03-09T11:52:00.000Z"
  },
  {
    "airportIcao": "KPYX",
    "metar": "KPYX 091235Z AUTO 23006KT 10SM SCT110 M09/M12 A2998 RMK AO2 T10951120",
    "updatedAt": "2022-03-09T12:35:00.000Z"
  },
  {
    "airportIcao": "KPZQ",
    "metar": "KPZQ 091235Z AUTO 21010G16KT 10SM SCT065 M04/M06 A2983 RMK AO2 T10451065",
    "updatedAt": "2022-03-09T12:35:00.000Z"
  },
  {
    "airportIcao": "KPZZ",
    "metar": "KPZZ 091235Z AUTO 10SM BKN012 OVC038 15/13 A2993 RMK A01",
    "updatedAt": "2022-03-09T12:35:00.000Z"
  },
  {
    "airportIcao": "KQAL",
    "metar": "KQAL 091156Z 30006KT 5000 HZ SCT075 BKN150 24/03 A2971 RMK AO2A RAB24E27SHRAB27E45 SLP033 WND DATA ESTMD T02370025 10248 20148",
    "updatedAt": "2022-03-09T11:56:00.000Z"
  },
  {
    "airportIcao": "KQAZ",
    "metar": "KQAZ 091056Z AUTO 08017G22KT 5000 HZ BKN022 32/M06 A2985 RMK AO2 SLP103 WND DATA ESTMD T03161057",
    "updatedAt": "2022-03-09T10:56:00.000Z"
  },
  {
    "airportIcao": "KQBL",
    "metar": "KQBL 091155Z AUTO 24003KT 10SM VCTS SCT009 BKN012 OVC015 20/20 A2988 RMK AO2 SLP124 WND DATA ESTMD 70015 T02020202 10219 20192 52023",
    "updatedAt": "2022-03-09T11:55:00.000Z"
  },
  {
    "airportIcao": "KQD3",
    "metar": "KQD3 091156Z AUTO 06012G20KT 9999 FEW028 29/20 A2981 RMK AO2 SLP079 WND DATA ESTMD T02880197 10303 20273",
    "updatedAt": "2022-03-09T11:56:00.000Z"
  },
  {
    "airportIcao": "KQDG",
    "metar": "KQDG 091156Z AUTO 00000KT 9999 CLR M A3060 RMK AO2 SLPNO ALSTG ESTMD 57020 $",
    "updatedAt": "2022-03-09T11:56:00.000Z"
  },
  {
    "airportIcao": "KQEI",
    "metar": "KQEI 091240Z AUTO 12001KT 9999 CLR 04/M05 A3017 RMK A02 TSNO",
    "updatedAt": "2022-03-09T12:40:00.000Z"
  },
  {
    "airportIcao": "KQEJ",
    "metar": "KQEJ 091240Z AUTO 06001KT 9999 CLR 03/M05 A3015 RMK A02 TSNO",
    "updatedAt": "2022-03-09T12:40:00.000Z"
  },
  {
    "airportIcao": "KQEK",
    "metar": "KQEK 091230Z AUTO 16001KT 9000 HZ CLR 10/02 A3021 RMK A02",
    "updatedAt": "2022-03-09T12:30:00.000Z"
  },
  {
    "airportIcao": "KQEN",
    "metar": "KQEN 091240Z AUTO 26005KT 8000 CLR / / RMK A02 TSNO",
    "updatedAt": "2022-03-09T12:40:00.000Z"
  },
  {
    "airportIcao": "KQEP",
    "metar": "KQEP 091240Z AUTO 27001KT 6000 HZ FEW210 05/M02 A3021 RMK A02 TSNO",
    "updatedAt": "2022-03-09T12:40:00.000Z"
  },
  {
    "airportIcao": "KQEQ",
    "metar": "KQEQ 091240Z AUTO 15003KT 4800 HZ SCT1100 02/M01 A3024 RMK A02 TSNO",
    "updatedAt": "2022-03-09T12:40:00.000Z"
  },
  {
    "airportIcao": "KQER",
    "metar": "KQER 091230Z AUTO 14001KT 9999 CLR 03/M02 A3015 RMK A02 TSNO",
    "updatedAt": "2022-03-09T12:30:00.000Z"
  },
  {
    "airportIcao": "KQEV",
    "metar": "KQEV 091240Z AUTO 00000KT 6000 HZ CLR 05/M03 A3016 RMK A02 TSNO",
    "updatedAt": "2022-03-09T12:40:00.000Z"
  },
  {
    "airportIcao": "KQEW",
    "metar": "KQEW 091240Z AUTO 29002KT 9999 CLR 07/M05 A3016 RMK A02 TSNO",
    "updatedAt": "2022-03-09T12:40:00.000Z"
  },
  {
    "airportIcao": "KQEX",
    "metar": "KQEX 091230Z AUTO 17004G11KT 9999 CLR 11/01 A3011 RMK A02 TSNO",
    "updatedAt": "2022-03-09T12:30:00.000Z"
  },
  {
    "airportIcao": "KQEY",
    "metar": "KQEY 091240Z AUTO 04001KT 9999 CLR 06/M06 A2989 RMK A02 TSNO",
    "updatedAt": "2022-03-09T12:40:00.000Z"
  },
  {
    "airportIcao": "KQFB",
    "metar": "KQFB 091240Z AUTO 15002KT 8000 HZ CLR 09/03 A3026 RMK A02 TSNO",
    "updatedAt": "2022-03-09T12:40:00.000Z"
  },
  {
    "airportIcao": "KQFT",
    "metar": "KQFT 091240Z AUTO 00000KT 9000 HZ CLR 05/M01 A3018 RMK A02 TSNO",
    "updatedAt": "2022-03-09T12:40:00.000Z"
  },
  {
    "airportIcao": "KQFU",
    "metar": "KQFU 091240Z AUTO 14001KT 6000 HZ FEW190 04/M01 A3024 RMK A02 TSNO",
    "updatedAt": "2022-03-09T12:40:00.000Z"
  },
  {
    "airportIcao": "KQFV",
    "metar": "KQFV 091240Z AUTO 10002KT 9000 HZ CLR 02/M03 A3021 RMK A02 TSNO",
    "updatedAt": "2022-03-09T12:40:00.000Z"
  },
  {
    "airportIcao": "KQFW",
    "metar": "KQFW 091240Z AUTO 36001KT 9999 CLR 02/M05 A3001 RMK A02 TSNO",
    "updatedAt": "2022-03-09T12:40:00.000Z"
  },
  {
    "airportIcao": "KQFX",
    "metar": "KQFX 091240Z AUTO 00000KT 6000 HZ CLR 04/M04 A3017 RMK A02 TSNO",
    "updatedAt": "2022-03-09T12:40:00.000Z"
  },
  {
    "airportIcao": "KQGE",
    "metar": "KQGE 091155Z AUTO 25005KT 10SM BKN011 OVC016 20/19 A2985 RMK AO2 SLP116 60019 70023 T02000185 10215 20195 52024",
    "updatedAt": "2022-03-09T11:55:00.000Z"
  },
  {
    "airportIcao": "KQGX",
    "metar": "KQGX 091156Z 17007KT 9000 HZ FEW150 38/07 A2983 RMK AO2A SLP099 ALSTG/SLP ESTMD $",
    "updatedAt": "2022-03-09T11:56:00.000Z"
  },
  {
    "airportIcao": "KQHB",
    "metar": "KQHB 091156Z AUTO 12003KT 9999 CLR 08/M01 A3022 RMK AO2 SLP237 70001 T00821014 10123 20081 52021 $",
    "updatedAt": "2022-03-09T11:56:00.000Z"
  },
  {
    "airportIcao": "KQHC",
    "metar": "KQHC 091155Z AUTO 32001KT 10SM BKN150 OVC170 M02/M08 A3019 RMK AO2 SLP226 WND DATA ESTMD T10161077 10032 21025 55002",
    "updatedAt": "2022-03-09T11:55:00.000Z"
  },
  {
    "airportIcao": "KQHF",
    "metar": "KQHF 090455Z AUTO 00000KT 10SM CLR 00/M10 A3019 RMK AO2 SLPNO T00031097 400871016",
    "updatedAt": "2022-03-09T04:55:00.000Z"
  },
  {
    "airportIcao": "KQHG",
    "metar": "KQHG 091055Z AUTO 00000KT 10SM SCT140 M02/M07 A3016 RMK AO2 SLPNO T10171072",
    "updatedAt": "2022-03-09T10:55:00.000Z"
  },
  {
    "airportIcao": "KQHY",
    "metar": "KQHY 091155Z AUTO 26004KT 10SM VCTS BKN010 OVC016 21/20 A2985 RMK AO2 CIG 010V013 SLP115 60018 70023 T02050198 10220 20196 52024",
    "updatedAt": "2022-03-09T11:55:00.000Z"
  },
  {
    "airportIcao": "KQM2",
    "metar": "KQM2 091156Z AUTO 00000KT M M CLR 29/23 A2975 RMK AO2 SLPNO WND DATA ESTMD T02870228 10297 20282 $",
    "updatedAt": "2022-03-09T11:56:00.000Z"
  },
  {
    "airportIcao": "KQN3",
    "metar": "KQN3 091155Z AUTO VRB05KT 6000 HZ CLR 37/M10 A2980 RMK AO2 SLP075 WND DATA ESTMD T03691100 10280 20233 58017 $",
    "updatedAt": "2022-03-09T11:55:00.000Z"
  },
  {
    "airportIcao": "KQOA",
    "metar": "KQOA 091158Z 00000KT 9000 FU FEW100 20/13 A2998 RMK AO2A SLP115 ALSTG/SLP ESTMD T01990126 10231 20193 PNO FZRANO TSNO FIRST $",
    "updatedAt": "2022-03-09T11:58:00.000Z"
  },
  {
    "airportIcao": "KQPA",
    "metar": "KQPA 091055Z 04010G15KT 9999 BKN200 06/01 A2999 RMK SLPNO T00570013",
    "updatedAt": "2022-03-09T10:55:00.000Z"
  },
  {
    "airportIcao": "KQPC",
    "metar": "KQPC 091156Z 09017KT 9999 BKN200 06/M03 A3003 RMK SLP174 T00611026 10061 20032 53004",
    "updatedAt": "2022-03-09T11:56:00.000Z"
  },
  {
    "airportIcao": "KQPG",
    "metar": "KQPG 091155Z AUTO 14005KT 9999 BKN110 BKN130 08/M04 A3013 RMK AO2 SLP214 WND DATA ESTMD T00811041 10081 21046 57011",
    "updatedAt": "2022-03-09T11:55:00.000Z"
  },
  {
    "airportIcao": "KQRD",
    "metar": "KQRD 091155Z AUTO 24005KT 10SM VCTS BKN010 OVC016 20/20 A2984 RMK AO2 CIG 010V012 SLP109 60000 T01970195 10211 20187 52024",
    "updatedAt": "2022-03-09T11:55:00.000Z"
  },
  {
    "airportIcao": "KQRH",
    "metar": "KQRH 091156Z AUTO 07013G20KT 030V100 9000 HZ FEW023 28/22 A2977 RMK AO2 SLP084 WND DATA ESTMD T02840217 10295 20277",
    "updatedAt": "2022-03-09T11:56:00.000Z"
  },
  {
    "airportIcao": "KQTA",
    "metar": "KQTA 091156Z AUTO VRB06G12KT 9999 -RA BKN050 13/07 A2974 RMK AO2 LTG DSNT N SLP064 WND DATA ESTMD P0005 T01250067 10150 20120",
    "updatedAt": "2022-03-09T11:56:00.000Z"
  },
  {
    "airportIcao": "KQTZ",
    "metar": "KQTZ 091155Z 15011G18KT 9999 FEW100 SCT180 27/05 A2966 RMK SLP044 57029",
    "updatedAt": "2022-03-09T11:55:00.000Z"
  },
  {
    "airportIcao": "KQVB",
    "metar": "KQVB 091158Z AUTO 00000KT 5/8SM BR CLR 06/05 A3000 RMK AO2 SLP257 T00590054 10085 20038 56010 RVRNO $",
    "updatedAt": "2022-03-09T11:58:00.000Z"
  },
  {
    "airportIcao": "KQVF",
    "metar": "KQVF 091156Z AUTO 12012G20KT 060V170 9999 CLR 30/23 A2976 RMK AO2 SLP080 WND DATA ESTMD T03040229 10317 20282 57024",
    "updatedAt": "2022-03-09T11:56:00.000Z"
  },
  {
    "airportIcao": "KQVG",
    "metar": "KQVG 091158Z AUTO 03005KT 9SM CLR 08/06 A3000 RMK AO2 SLP184 T00820058 10095 20067 56006 $",
    "updatedAt": "2022-03-09T11:58:00.000Z"
  },
  {
    "airportIcao": "KQWM",
    "metar": "KQWM 091156Z AUTO 12011KT 9999 CLR 29/06 A2977 RMK AO2 SLP078 WND DATA ESTMD T02860056 10290 20214 57024",
    "updatedAt": "2022-03-09T11:56:00.000Z"
  },
  {
    "airportIcao": "KQX2",
    "metar": "KQX2 090055Z AUTO 17008KT 9999 FEW070 12/00 A2976 RMK AO2 RAB0035E0041SHRAB0041E0054 SLP072 WND DATA ESTMD T01231001 PWINO $",
    "updatedAt": "2022-03-09T00:55:00.000Z"
  },
  {
    "airportIcao": "KQXH",
    "metar": "KQXH 091156Z AUTO 27008G17KT 9999 SCT150 23/02 A2971 RMK AO2 SLP039 WND DATA ESTMD T02300024 10233 20148 57013 $",
    "updatedAt": "2022-03-09T11:56:00.000Z"
  },
  {
    "airportIcao": "KRAC",
    "metar": "KRAC 091153Z AUTO 24007KT 10SM CLR M01/M06 A2995 RMK AO2 SLP149 T10111061 11011 21033 55000",
    "updatedAt": "2022-03-09T11:53:00.000Z"
  },
  {
    "airportIcao": "KRAL",
    "metar": "KRAL 091153Z AUTO 05004KT 10SM CLR 08/M03 A2999 RMK AO2 SLP144 T00781033 10122 20061 56005",
    "updatedAt": "2022-03-09T11:53:00.000Z"
  },
  {
    "airportIcao": "KRAP",
    "metar": "KRAP 091226Z AUTO 36010KT 10SM SCT027 BKN075 OVC090 M14/M17 A3013 RMK AO2 T11441172",
    "updatedAt": "2022-03-09T12:26:00.000Z"
  },
  {
    "airportIcao": "KRAS",
    "metar": "KRAS 091235Z AUTO 36011KT 10SM SCT120 08/05 A3004 RMK AO2 T00850053",
    "updatedAt": "2022-03-09T12:35:00.000Z"
  },
  {
    "airportIcao": "KRAW",
    "metar": "KRAW 091235Z AUTO 31003KT 10SM CLR M02/M04 A3007 RMK AO2 T10251045",
    "updatedAt": "2022-03-09T12:35:00.000Z"
  },
  {
    "airportIcao": "KRBD",
    "metar": "KRBD 091153Z AUTO 21004KT 10SM CLR M02/M03 A3010 RMK AO2 SLP195 T10171033 10028 21022 53013",
    "updatedAt": "2022-03-09T11:53:00.000Z"
  },
  {
    "airportIcao": "KRBG",
    "metar": "KRBG 091153Z AUTO 00000KT 10SM OVC046 07/01 A3019 RMK AO2 SLP225 T00670006 10089 20067 58007",
    "updatedAt": "2022-03-09T11:53:00.000Z"
  },
  {
    "airportIcao": "KRBL",
    "metar": "KRBL 091154Z AUTO 32007KT 10SM CLR 12/M04 A3002 RMK AO2 SLP164 T01171039 10161 20094 56009",
    "updatedAt": "2022-03-09T11:54:00.000Z"
  },
  {
    "airportIcao": "KRBO",
    "metar": "KRBO 091235Z AUTO 01007KT OVC110 08/05 A3005 RMK AO2 T00820050 PWINO",
    "updatedAt": "2022-03-09T12:35:00.000Z"
  },
  {
    "airportIcao": "KRBW",
    "metar": "KRBW 091235Z AUTO 20007KT 10SM CLR 19/19 A2990 RMK AO2",
    "updatedAt": "2022-03-09T12:35:00.000Z"
  },
  {
    "airportIcao": "KRCA",
    "metar": "KRCA 091156Z AUTO 02011KT 10SM FEW027 M14/M18 A3009 RMK AO2 SLP253 T11371180 11112 21137 55001 $",
    "updatedAt": "2022-03-09T11:56:00.000Z"
  },
  {
    "airportIcao": "KRCE",
    "metar": "KRCE 091235Z AUTO 00000KT 10SM CLR M05/M08 A3008 RMK AO2",
    "updatedAt": "2022-03-09T12:35:00.000Z"
  },
  {
    "airportIcao": "KRCR",
    "metar": "KRCR 091235Z AUTO 00000KT 7SM CLR 00/M02 A2997 RMK AO2",
    "updatedAt": "2022-03-09T12:35:00.000Z"
  },
  {
    "airportIcao": "KRCV",
    "metar": "KRCV 091235Z AUTO 27007KT 10SM SCT065 M11/M15 A2984 RMK AO2 T11141147",
    "updatedAt": "2022-03-09T12:35:00.000Z"
  },
  {
    "airportIcao": "KRCX",
    "metar": "KRCX 091235Z AUTO 00000KT 10SM -SN M06/M11 A2994 RMK AO2 T10611106",
    "updatedAt": "2022-03-09T12:35:00.000Z"
  },
  {
    "airportIcao": "KRCZ",
    "metar": "KRCZ 091235Z AUTO 00000KT 1 1/4SM BR OVC002 11/10 A2989 RMK AO2 T01050101",
    "updatedAt": "2022-03-09T12:35:00.000Z"
  },
  {
    "airportIcao": "KRDD",
    "metar": "KRDD 091153Z AUTO 36006KT 10SM OVC095 12/M04 A3002 RMK AO2 SLP161 T01221044 10156 20089 56008 $",
    "updatedAt": "2022-03-09T11:53:00.000Z"
  },
  {
    "airportIcao": "KRDG",
    "metar": "KRDG 091154Z 03003KT 10SM OVC045 03/M02 A3003 RMK AO2 SLP177 60000 T00281017 10033 20022 58015",
    "updatedAt": "2022-03-09T11:54:00.000Z"
  },
  {
    "airportIcao": "KRDK",
    "metar": "KRDK 091235Z AUTO 35008KT 10SM CLR M05/M08 A3013 RMK AO2",
    "updatedAt": "2022-03-09T12:35:00.000Z"
  },
  {
    "airportIcao": "KRDM",
    "metar": "KRDM 091156Z AUTO 30007KT 10SM OVC060 03/M04 A3002 RMK AO2 SLP172 T00281039 10039 20028 56012",
    "updatedAt": "2022-03-09T11:56:00.000Z"
  },
  {
    "airportIcao": "KRDR",
    "metar": "KRDR 091156Z 33007KT 10SM CLR M17/M21 A3014 RMK AO2A SLP233 60000 4/010 T11661208 11127 21166 52010 $",
    "updatedAt": "2022-03-09T11:56:00.000Z"
  },
  {
    "airportIcao": "KRDU",
    "metar": "KRDU 091228Z 08006KT 10SM BKN007 BKN020 OVC090 08/07 A2991 RMK AO2 RAE27 P0000 T00780067",
    "updatedAt": "2022-03-09T12:28:00.000Z"
  },
  {
    "airportIcao": "KREG",
    "metar": "KREG 091235Z AUTO 36010G17KT 10SM OVC011 09/06 A2999 RMK AO2 T00850060",
    "updatedAt": "2022-03-09T12:35:00.000Z"
  },
  {
    "airportIcao": "KREO",
    "metar": "KREO 091152Z AUTO 33005KT 02/M05 A2993 RMK AO1 SLP143 T00171050 10033 20011 56009",
    "updatedAt": "2022-03-09T11:52:00.000Z"
  },
  {
    "airportIcao": "KRFD",
    "metar": "KRFD 091154Z 24004KT 10SM SCT024 BKN200 M03/M06 A2998 RMK AO2 SLP162 T10281061 11017 21028 51008 $",
    "updatedAt": "2022-03-09T11:54:00.000Z"
  },
  {
    "airportIcao": "KRFI",
    "metar": "KRFI 091235Z AUTO 00000KT 7SM CLR 01/M01 A3010 RMK AO2 T00071015",
    "updatedAt": "2022-03-09T12:35:00.000Z"
  },
  {
    "airportIcao": "KRGA",
    "metar": "KRGA 091235Z AUTO 33005KT 5SM OVC006 03/03 A2993 RMK AO2",
    "updatedAt": "2022-03-09T12:35:00.000Z"
  },
  {
    "airportIcao": "KRGK",
    "metar": "KRGK 091235Z AUTO 29008KT 7SM -SN OVC025 M07/M11 A3003 RMK AO2",
    "updatedAt": "2022-03-09T12:35:00.000Z"
  },
  {
    "airportIcao": "KRHI",
    "metar": "KRHI 091221Z AUTO 28010KT 4SM -SN OVC028 M07/M11 A2982 RMK AO2 P0000 T10671106",
    "updatedAt": "2022-03-09T12:21:00.000Z"
  },
  {
    "airportIcao": "KRHP",
    "metar": "KRHP 091235Z AUTO 00000KT 4SM RA SCT006 BKN010 OVC020 10/09 A2984 RMK AO2 P0002 T01000093",
    "updatedAt": "2022-03-09T12:35:00.000Z"
  },
  {
    "airportIcao": "KRHV",
    "metar": "KRHV 090555Z 00000KT 10SM SKC 12/M01 A3006 RMK LAST",
    "updatedAt": "2022-03-09T05:55:00.000Z"
  },
  {
    "airportIcao": "KRIC",
    "metar": "KRIC 091154Z 06009KT 10SM OVC007 05/04 A2994 RMK AO2 RAE34 SLP145 P0005 60075 70099 T00500044 10056 20050 58016",
    "updatedAt": "2022-03-09T11:54:00.000Z"
  },
  {
    "airportIcao": "KRID",
    "metar": "KRID 091235Z AUTO 01004KT 3SM -RA M01/M01 A2996 RMK AO2",
    "updatedAt": "2022-03-09T12:35:00.000Z"
  },
  {
    "airportIcao": "KRIL",
    "metar": "KRIL 091153Z AUTO 09005KT 10SM BKN085 M02/M06 A2981 RMK AO2 SLP105 T10171061 11006 21028 56020 $",
    "updatedAt": "2022-03-09T11:53:00.000Z"
  },
  {
    "airportIcao": "KRIV",
    "metar": "KRIV 091158Z AUTO 00000KT 10SM CLR 03/M05 A2998 RMK AO2 SLP151 T00271050 10103 20017 57008",
    "updatedAt": "2022-03-09T11:58:00.000Z"
  },
  {
    "airportIcao": "KRIW",
    "metar": "KRIW 091222Z AUTO 04008KT 2 1/2SM -SN BR OVC032 M15/M17 A2992",
    "updatedAt": "2022-03-09T12:22:00.000Z"
  },
  {
    "airportIcao": "KRKD",
    "metar": "KRKD 091156Z AUTO 00000KT 10SM CLR M04/M07 A3019 RMK AO2 SLP226 T10441072 11028 21056 58006 FZRANO",
    "updatedAt": "2022-03-09T11:56:00.000Z"
  },
  {
    "airportIcao": "KRKP",
    "metar": "KRKP 091153Z AUTO 01009KT 8SM CLR 08/04 A3001 RMK AO2 SLP164 T00780044 10089 20078 53002",
    "updatedAt": "2022-03-09T11:53:00.000Z"
  },
  {
    "airportIcao": "KRKR",
    "metar": "KRKR 091235Z AUTO 10SM CLR M03/M04 A3012 RMK AO2",
    "updatedAt": "2022-03-09T12:35:00.000Z"
  },
  {
    "airportIcao": "KRKS",
    "metar": "KRKS 091231Z AUTO 06014KT 3/4SM -SN BR VV012 M14/M17 A2977 RMK AO2 P0000 T11441167",
    "updatedAt": "2022-03-09T12:31:00.000Z"
  },
  {
    "airportIcao": "KRKW",
    "metar": "KRKW 090615Z AUTO VRB06KT 100V160 2SM BR OVC003 06/06 A2988 RMK A01",
    "updatedAt": "2022-03-09T06:15:00.000Z"
  },
  {
    "airportIcao": "KRLD",
    "metar": "KRLD 091235Z AUTO 32010KT 10SM SCT080 OVC110 01/M05 A3021 RMK AO2 T00091050",
    "updatedAt": "2022-03-09T12:35:00.000Z"
  },
  {
    "airportIcao": "KRME",
    "metar": "KRME 091153Z 12004KT 10SM CLR M02/M07 A3009 RMK AO2 SLP194 T10221067 11022 21050 55010",
    "updatedAt": "2022-03-09T11:53:00.000Z"
  },
  {
    "airportIcao": "KRMG",
    "metar": "KRMG 091153Z AUTO 28005KT 3SM BR OVC006 11/09 A2986 RMK AO2 RAE1057B29E40 SLP108 P0002 60057 70121 T01110094 10111 20094 53023",
    "updatedAt": "2022-03-09T11:53:00.000Z"
  },
  {
    "airportIcao": "KRMN",
    "metar": "KRMN 091235Z AUTO 06007KT 5SM RA SCT007 BKN013 OVC070 06/04 A3002 RMK AO2 P0010 T00570041",
    "updatedAt": "2022-03-09T12:35:00.000Z"
  },
  {
    "airportIcao": "KRMY",
    "metar": "KRMY 091235Z AUTO 18003KT 10SM SCT120 M03/M04 A2994 RMK AO2 T10301045",
    "updatedAt": "2022-03-09T12:35:00.000Z"
  },
  {
    "airportIcao": "KRNC",
    "metar": "KRNC 090615Z AUTO 04004KT 10SM OVC004 06/06 A2983 RMK A01",
    "updatedAt": "2022-03-09T06:15:00.000Z"
  },
  {
    "airportIcao": "KRND",
    "metar": "KRND 091156Z AUTO 03006KT 10SM CLR 04/01 A3005 RMK AO2 SLP177 T00430013 10058 20042 53003",
    "updatedAt": "2022-03-09T11:56:00.000Z"
  },
  {
    "airportIcao": "KRNH",
    "metar": "KRNH 091235Z AUTO 29010KT 10SM CLR M08/M13 A3000 RMK AO2 T10851127",
    "updatedAt": "2022-03-09T12:35:00.000Z"
  },
  {
    "airportIcao": "KRNM",
    "metar": "KRNM 091153Z AUTO 00000KT 10SM CLR M01/M02 A3000 RMK AO2 SLP157 T10061022 10044 21006 55006",
    "updatedAt": "2022-03-09T11:53:00.000Z"
  },
  {
    "airportIcao": "KRNO",
    "metar": "KRNO 091155Z 17003KT 10SM SCT180 01/M06 A3004 RMK AO2 SLP160 T00111056 10061 20011 55003",
    "updatedAt": "2022-03-09T11:55:00.000Z"
  },
  {
    "airportIcao": "KRNP",
    "metar": "KRNP 091235Z AUTO 19003KT 10SM OVC110 M02/M04 A2993 RMK AO2 T10221043",
    "updatedAt": "2022-03-09T12:35:00.000Z"
  },
  {
    "airportIcao": "KRNT",
    "metar": "KRNT 091232Z VRB03KT 2SM BR OVC003 03/02 A3019 RMK AO2 T00330022",
    "updatedAt": "2022-03-09T12:32:00.000Z"
  },
  {
    "airportIcao": "KROA",
    "metar": "KROA 091227Z 15007KT 8SM -RA BKN002 BKN007 OVC017 06/05 A2992",
    "updatedAt": "2022-03-09T12:27:00.000Z"
  },
  {
    "airportIcao": "KROC",
    "metar": "KROC 091154Z 13005KT 10SM SCT150 OVC180 M02/M07 A3000 RMK AO2 SLP167 70001 T10171067 11017 21028 58021",
    "updatedAt": "2022-03-09T11:54:00.000Z"
  },
  {
    "airportIcao": "KROG",
    "metar": "KROG 091158Z 00000KT 5SM BR CLR M03/M04 A3007 RMK AO2 SLP190 T10331044 10017 21033 53010 FZRANO $",
    "updatedAt": "2022-03-09T11:58:00.000Z"
  },
  {
    "airportIcao": "KROS",
    "metar": "KROS 091235Z AUTO 27006KT 10SM SCT110 M12/M15 A3003 RMK AO2 T11161155",
    "updatedAt": "2022-03-09T12:35:00.000Z"
  },
  {
    "airportIcao": "KROW",
    "metar": "KROW 091151Z AUTO 00000KT 10SM CLR M02/M11 A2994 RMK AO2 SLP125 T10221111 10044 21028 55005",
    "updatedAt": "2022-03-09T11:51:00.000Z"
  },
  {
    "airportIcao": "KROX",
    "metar": "KROX 091235Z AUTO 29010G16KT 10SM M18/M20 A3006 RMK AO2",
    "updatedAt": "2022-03-09T12:35:00.000Z"
  },
  {
    "airportIcao": "KRPD",
    "metar": "KRPD 091235Z AUTO 27008KT 10SM -SN OVC024 M06/M11 A2997 RMK AO2 T10601112",
    "updatedAt": "2022-03-09T12:35:00.000Z"
  },
  {
    "airportIcao": "KRPH",
    "metar": "KRPH 091235Z AUTO 00000KT 10SM CLR M06/M07 A3011 RMK AO2 SLP790 T10561068",
    "updatedAt": "2022-03-09T12:35:00.000Z"
  },
  {
    "airportIcao": "KRPJ",
    "metar": "KRPJ 091235Z AUTO 27007KT 10SM CLR M03/M05 A2998 RMK AO2 T10331049",
    "updatedAt": "2022-03-09T12:35:00.000Z"
  },
  {
    "airportIcao": "KRPX",
    "metar": "KRPX 091055Z AUTO 20004KT M15/M21 A3006 RMK Roundup",
    "updatedAt": "2022-03-09T10:55:00.000Z"
  },
  {
    "airportIcao": "KRQB",
    "metar": "KRQB 091235Z AUTO 25005KT 10SM SCT120 M03/M05 A2989 RMK AO2 T10271046",
    "updatedAt": "2022-03-09T12:35:00.000Z"
  },
  {
    "airportIcao": "KRQE",
    "metar": "KRQE 091153Z AUTO 00000KT 10SM CLR M07/M11 A2991 RMK AO2 SLP117 T10721111 11033 21083 56011",
    "updatedAt": "2022-03-09T11:53:00.000Z"
  },
  {
    "airportIcao": "KRQO",
    "metar": "KRQO 091230Z AUTO 26005KT CLR M04/M08 A3009 RMK AO2 PWINO T10401077",
    "updatedAt": "2022-03-09T12:30:00.000Z"
  },
  {
    "airportIcao": "KRRL",
    "metar": "KRRL 091235Z AUTO 29007KT 10SM -SN OVC030 M05/M11 A2986 RMK AO2 T10551108 TSNO",
    "updatedAt": "2022-03-09T12:35:00.000Z"
  },
  {
    "airportIcao": "KRRT",
    "metar": "KRRT 091235Z AUTO 28006KT 10SM CLR M17/M21 A3004 RMK AO2",
    "updatedAt": "2022-03-09T12:35:00.000Z"
  },
  {
    "airportIcao": "KRSL",
    "metar": "KRSL 091153Z AUTO 35006KT 10SM CLR M09/M12 A3008 RMK AO2 PRESRR SLP206 T10941117 11033 21094 53003",
    "updatedAt": "2022-03-09T11:53:00.000Z"
  },
  {
    "airportIcao": "KRSN",
    "metar": "KRSN 091235Z AUTO 36007KT 10SM OVC008 04/02 A3012 RMK AO2 T00400022 TSNO",
    "updatedAt": "2022-03-09T12:35:00.000Z"
  },
  {
    "airportIcao": "KRSP",
    "metar": "KRSP 091154Z AUTO 10008G16KT -SN OVC004 A2993 RMK AO2 RAB1056E17SNE1056B17 SLPNO P0005 60005 70005 56022 $",
    "updatedAt": "2022-03-09T11:54:00.000Z"
  },
  {
    "airportIcao": "KRST",
    "metar": "KRST 091154Z AUTO 30015G23KT 9SM -SN OVC019 M08/M12 A2999 RMK AO2 SNB49 SLP176 P0000 60000 T10781117 11039 21078 53011",
    "updatedAt": "2022-03-09T11:54:00.000Z"
  },
  {
    "airportIcao": "KRSV",
    "metar": "KRSV 091235Z AUTO 33003KT 10SM SCT100 00/M02 A3003 RMK AO2 T00001020",
    "updatedAt": "2022-03-09T12:35:00.000Z"
  },
  {
    "airportIcao": "KRSW",
    "metar": "KRSW 091153Z 14004KT 10SM CLR 22/21 A3000 RMK AO2 SLP155 T02170206 10222 20211 53012",
    "updatedAt": "2022-03-09T11:53:00.000Z"
  },
  {
    "airportIcao": "KRTN",
    "metar": "KRTN 091153Z AUTO 01005KT 10SM CLR M11/M13 A2986 RMK AO2 SLP135 T11061133 11061 21128 56015",
    "updatedAt": "2022-03-09T11:53:00.000Z"
  },
  {
    "airportIcao": "KRTS",
    "metar": "KRTS 090615Z AUTO 34009KT 10SM OVC070 01/M07 A3008 RMK AO2",
    "updatedAt": "2022-03-09T06:15:00.000Z"
  },
  {
    "airportIcao": "KRUE",
    "metar": "KRUE 091238Z AUTO 29004KT 1/2SM FG VV002 02/02 A3009 RMK AO2 T00220017",
    "updatedAt": "2022-03-09T12:38:00.000Z"
  },
  {
    "airportIcao": "KRUG",
    "metar": "KRUG 091235Z AUTO 31012G18KT 10SM FEW041 M18/M21 A3014 RMK AO2",
    "updatedAt": "2022-03-09T12:35:00.000Z"
  },
  {
    "airportIcao": "KRUQ",
    "metar": "KRUQ 091235Z AUTO 29010G15KT 3SM RA OVC004 09/09 A2997 RMK AO2 P0001 T00920090",
    "updatedAt": "2022-03-09T12:35:00.000Z"
  },
  {
    "airportIcao": "KRUT",
    "metar": "KRUT 091156Z AUTO 14007KT 10SM CLR M04/M08 A3012 RMK AO2 SLP204 T10391078 11039 21050 55006 FZRANO $",
    "updatedAt": "2022-03-09T11:56:00.000Z"
  },
  {
    "airportIcao": "KRVF",
    "metar": "KRVF 090615Z AUTO 04022G28KT 10SM FEW050 OVC060 M14/M18 A3006 RMK AO2",
    "updatedAt": "2022-03-09T06:15:00.000Z"
  },
  {
    "airportIcao": "KRVJ",
    "metar": "KRVJ 091235Z AUTO 17009KT 10SM SCT005 OVC022 19/ A2988 RMK AO2 T0192////",
    "updatedAt": "2022-03-09T12:35:00.000Z"
  },
  {
    "airportIcao": "KRVL",
    "metar": "KRVL 091235Z AUTO 02003KT 1 3/4SM -SN BKN001 OVC009 01/01 A2997 RMK AO2",
    "updatedAt": "2022-03-09T12:35:00.000Z"
  },
  {
    "airportIcao": "KRVS",
    "metar": "KRVS 091153Z AUTO 00000KT 10SM CLR M04/M06 A3010 RMK AO2 SLP201 T10391061 11022 21044 53003",
    "updatedAt": "2022-03-09T11:53:00.000Z"
  },
  {
    "airportIcao": "KRWF",
    "metar": "KRWF 091201Z AUTO 33009G18KT 4SM -SN FEW017 OVC029 M10/M13 A3009 RMK AO2 P0000 T11001128",
    "updatedAt": "2022-03-09T12:01:00.000Z"
  },
  {
    "airportIcao": "KRWI",
    "metar": "KRWI 091236Z AUTO 01006KT 2 1/2SM -RA BR OVC006 08/07 A2992 RMK AO2 RAE02B20 CIG 004V009 P0000 T00780067",
    "updatedAt": "2022-03-09T12:36:00.000Z"
  },
  {
    "airportIcao": "KRWL",
    "metar": "KRWL 091241Z AUTO 05018G23KT 9SM -SN OVC009 M14/M18 A2977 RMK AO2 P0000 T11391178",
    "updatedAt": "2022-03-09T12:41:00.000Z"
  },
  {
    "airportIcao": "KRWV",
    "metar": "KRWV 091235Z AUTO 36003KT 02/01 A3010 RMK AO2 PWINO T00240013",
    "updatedAt": "2022-03-09T12:35:00.000Z"
  },
  {
    "airportIcao": "KRXE",
    "metar": "KRXE 091153Z AUTO 06008KT 10SM BKN110 M12/M19 A2993 RMK AO2 SLP182 70001 T11221189 11078 21122 53006",
    "updatedAt": "2022-03-09T11:53:00.000Z"
  },
  {
    "airportIcao": "KRYM",
    "metar": "KRYM 091156Z AUTO M M M M M M RMK AO2 SLPNO 11075 21139 RVRNO FZRANO $",
    "updatedAt": "2022-03-09T11:56:00.000Z"
  },
  {
    "airportIcao": "KRYN",
    "metar": "KRYN 090245Z 31007KT 10SM CLR 10/M03 A2994 RMK LAST",
    "updatedAt": "2022-03-09T02:45:00.000Z"
  },
  {
    "airportIcao": "KRYV",
    "metar": "KRYV 091235Z AUTO 24004KT 10SM CLR M04/M07 A2994 RMK AO2 T10411072",
    "updatedAt": "2022-03-09T12:35:00.000Z"
  },
  {
    "airportIcao": "KRYW",
    "metar": "KRYW 091235Z AUTO 02006KT 5SM BR CLR 01/00 A3006 RMK AO2 T00060000",
    "updatedAt": "2022-03-09T12:35:00.000Z"
  },
  {
    "airportIcao": "KRYY",
    "metar": "KRYY 091150Z 00000KT 3SM RA BR FEW006 BKN019 OVC055 11/11 A2984 RMK AO2 TSE07 CIG 014V025 SLP104 P0016 60040 70126 T01060106 10111 20089 55006 $",
    "updatedAt": "2022-03-09T11:50:00.000Z"
  },
  {
    "airportIcao": "KRZL",
    "metar": "KRZL 091235Z AUTO 00000KT 10SM SCT090 SCT120 M02/M03 A2998 RMK AO2",
    "updatedAt": "2022-03-09T12:35:00.000Z"
  },
  {
    "airportIcao": "KRZN",
    "metar": "KRZN 091235Z AUTO 29011G15KT 10SM CLR M11/M15 A3000 RMK AO2 T11081150",
    "updatedAt": "2022-03-09T12:35:00.000Z"
  },
  {
    "airportIcao": "KRZR",
    "metar": "KRZR 090615Z AUTO 00000KT 8SM OVC004 08/08 A2988 RMK A01",
    "updatedAt": "2022-03-09T06:15:00.000Z"
  },
  {
    "airportIcao": "KRZT",
    "metar": "KRZT 091235Z AUTO 00000KT 2SM BKN005 OVC011 00/00 A2993 RMK AO2 PWINO P0001",
    "updatedAt": "2022-03-09T12:35:00.000Z"
  },
  {
    "airportIcao": "KS21",
    "metar": "KS21 090615Z AUTO 24007G14KT 210V270 10SM OVC047 M00/M05 A3013 RMK AO2",
    "updatedAt": "2022-03-09T06:15:00.000Z"
  },
  {
    "airportIcao": "KS25",
    "metar": "KS25 091235Z AUTO 32008KT 10SM -SN SCT006 BKN024 OVC035 M14/M16 A3018 RMK AO2",
    "updatedAt": "2022-03-09T12:35:00.000Z"
  },
  {
    "airportIcao": "KS32",
    "metar": "KS32 091235Z AUTO 31009KT 6SM -SN BKN011 BKN019 OVC027 M14/M14 A3012 RMK AO2 TSNO",
    "updatedAt": "2022-03-09T12:35:00.000Z"
  },
  {
    "airportIcao": "KS34",
    "metar": "KS34 091055Z AUTO 00000KT 10SM M07/M18 A3021 RMK Plain",
    "updatedAt": "2022-03-09T10:55:00.000Z"
  },
  {
    "airportIcao": "KS39",
    "metar": "KS39 090615Z AUTO 29004KT 10SM OVC037 02/M03 A3009 RMK AO2",
    "updatedAt": "2022-03-09T06:15:00.000Z"
  },
  {
    "airportIcao": "KS52",
    "metar": "KS52 091235Z AUTO 33004KT 10SM CLR M07/M12 A3023 RMK AO2 T10701121",
    "updatedAt": "2022-03-09T12:35:00.000Z"
  },
  {
    "airportIcao": "KS59",
    "metar": "KS59 091230Z AUTO 00000KT 10SM M14/M17 A3026",
    "updatedAt": "2022-03-09T12:30:00.000Z"
  },
  {
    "airportIcao": "KS71",
    "metar": "KS71 091230Z AUTO 25008KT 10SM M16/M18 A3028",
    "updatedAt": "2022-03-09T12:30:00.000Z"
  },
  {
    "airportIcao": "KS85",
    "metar": "KS85 091225Z AUTO 30007KT 10SM FEW012 SCT040 OVC045 M14/M16 A3021 RMK A01 Culbert on",
    "updatedAt": "2022-03-09T12:25:00.000Z"
  },
  {
    "airportIcao": "KSAA",
    "metar": "KSAA 091235Z AUTO 25007KT 1 3/4SM -SN BKN007 BKN019 OVC024 M13/M13 A2972 RMK AO2",
    "updatedAt": "2022-03-09T12:35:00.000Z"
  },
  {
    "airportIcao": "KSAC",
    "metar": "KSAC 091153Z AUTO 00000KT 10SM CLR 05/03 A3000 RMK AO2 SLP159 T00500028 10117 20050 58006",
    "updatedAt": "2022-03-09T11:53:00.000Z"
  },
  {
    "airportIcao": "KSAD",
    "metar": "KSAD 091151Z AUTO 11004KT 10SM CLR M02/M15 A2992 RMK AO2 SLP123 T10171150 10044 21028 55001",
    "updatedAt": "2022-03-09T11:51:00.000Z"
  },
  {
    "airportIcao": "KSAF",
    "metar": "KSAF 091153Z AUTO 02005KT 10SM CLR M10/M14 A2990 RMK AO2 SLP135 T11001139 11033 21106 56011",
    "updatedAt": "2022-03-09T11:53:00.000Z"
  },
  {
    "airportIcao": "KSAN",
    "metar": "KSAN 091151Z 00000KT 10SM CLR 08/03 A3002 RMK AO2 SLP165 T00780028 10122 20072 55005",
    "updatedAt": "2022-03-09T11:51:00.000Z"
  },
  {
    "airportIcao": "KSAR",
    "metar": "KSAR 091235Z AUTO 00000KT 10SM CLR 00/M02 A3005 RMK AO2 T10051017",
    "updatedAt": "2022-03-09T12:35:00.000Z"
  },
  {
    "airportIcao": "KSAT",
    "metar": "KSAT 091151Z 01005KT 10SM BKN230 04/01 A3006 RMK AO2 SLP172 T00440006 10072 20039 55000",
    "updatedAt": "2022-03-09T11:51:00.000Z"
  },
  {
    "airportIcao": "KSAV",
    "metar": "KSAV 091220Z 19006KT 8SM BKN008 OVC016 20/19 A2991 RMK AO2 T02000189",
    "updatedAt": "2022-03-09T12:20:00.000Z"
  },
  {
    "airportIcao": "KSAW",
    "metar": "KSAW 091147Z 28008KT 10SM OVC035 M04/M07 A2977",
    "updatedAt": "2022-03-09T11:47:00.000Z"
  },
  {
    "airportIcao": "KSAZ",
    "metar": "KSAZ 091235Z 29010KT 10SM M16/M18 A3005 RMK AO2",
    "updatedAt": "2022-03-09T12:35:00.000Z"
  },
  {
    "airportIcao": "KSBA",
    "metar": "KSBA 091153Z AUTO 00000KT 10SM CLR 08/03 A2995 RMK AO2 SLP140 T00830033 10111 20050 56013",
    "updatedAt": "2022-03-09T11:53:00.000Z"
  },
  {
    "airportIcao": "KSBD",
    "metar": "KSBD 091240Z AUTO 00000KT 10SM CLR 05/M04 A3000 RMK AO2 T00511040",
    "updatedAt": "2022-03-09T12:40:00.000Z"
  },
  {
    "airportIcao": "KSBM",
    "metar": "KSBM 091221Z AUTO 24009KT 10SM BKN025 M03/M06 A2989 RMK AO2 T10281061",
    "updatedAt": "2022-03-09T12:21:00.000Z"
  },
  {
    "airportIcao": "KSBN",
    "metar": "KSBN 091154Z 20004KT 7SM SCT120 M03/M06 A2996 RMK AO2 SLP154 T10281056 11017 21044 55005",
    "updatedAt": "2022-03-09T11:54:00.000Z"
  },
  {
    "airportIcao": "KSBO",
    "metar": "KSBO 091235Z AUTO 19003KT 10SM SCT012 SCT017 18/18 A2987 RMK AO2",
    "updatedAt": "2022-03-09T12:35:00.000Z"
  },
  {
    "airportIcao": "KSBP",
    "metar": "KSBP 091156Z AUTO 00000KT 10SM CLR 04/01 A3001 RMK AO2 SLP163 T00390011 10083 20033 56007",
    "updatedAt": "2022-03-09T11:56:00.000Z"
  },
  {
    "airportIcao": "KSBS",
    "metar": "KSBS 091235Z AUTO 12004KT 1 1/4SM OVC013 M06/M06 A2970 RMK AO1 T10601060",
    "updatedAt": "2022-03-09T12:35:00.000Z"
  },
  {
    "airportIcao": "KSBY",
    "metar": "KSBY 091229Z 09013KT 2 1/2SM +RA BR FEW006 BKN070 OVC090 06/04 A3000 RMK AO2 PRESFR P0016 T00560044",
    "updatedAt": "2022-03-09T12:29:00.000Z"
  },
  {
    "airportIcao": "KSCD",
    "metar": "KSCD 091235Z AUTO 31004KT 2 1/2SM BR OVC005 10/10 A2991 RMK AO2 P0001 T01000096",
    "updatedAt": "2022-03-09T12:35:00.000Z"
  },
  {
    "airportIcao": "KSCH",
    "metar": "KSCH 090245Z 00000KT 15SM CLR M01/M09 A3020 RMK LAST",
    "updatedAt": "2022-03-09T02:45:00.000Z"
  },
  {
    "airportIcao": "KSCK",
    "metar": "KSCK 091155Z AUTO 23003KT 10SM CLR 05/01 A3001 RMK AO2 SLP160 T00500006 10111 20033 58002",
    "updatedAt": "2022-03-09T11:55:00.000Z"
  },
  {
    "airportIcao": "KSCR",
    "metar": "KSCR 091235Z AUTO 06003KT 10SM OVC005 08/08 A2990 RMK AO2 T00800080",
    "updatedAt": "2022-03-09T12:35:00.000Z"
  },
  {
    "airportIcao": "KSCX",
    "metar": "KSCX 090615Z AUTO 04005KT 4SM BR FEW003 BKN019 OVC023 05/05 A2987 RMK A01",
    "updatedAt": "2022-03-09T06:15:00.000Z"
  },
  {
    "airportIcao": "KSDA",
    "metar": "KSDA 091235Z AUTO 35007KT 10SM CLR M05/M08 A3013 RMK AO2",
    "updatedAt": "2022-03-09T12:35:00.000Z"
  },
  {
    "airportIcao": "KSDB",
    "metar": "KSDB 091153Z AUTO CLR 06/M07 A2999 RMK AO2 SLP131 T00561067 10072 20050 $",
    "updatedAt": "2022-03-09T11:53:00.000Z"
  },
  {
    "airportIcao": "KSDC",
    "metar": "KSDC 091235Z AUTO 14003KT 10SM CLR M01/M05 A3002 RMK AO2",
    "updatedAt": "2022-03-09T12:35:00.000Z"
  },
  {
    "airportIcao": "KSDF",
    "metar": "KSDF 091156Z 30004KT 8SM -DZ FEW010 FEW027 OVC055 03/02 A2997 RMK AO2 RAE11DZB11SNE24 SLP150 P0000 60009 70009 T00330017 10050 20017 53008",
    "updatedAt": "2022-03-09T11:56:00.000Z"
  },
  {
    "airportIcao": "KSDL",
    "metar": "KSDL 091153Z AUTO 00000KT 10SM CLR 06/M05 A2994 RMK AO2 SLP128 T00561050 10111 20056 56003",
    "updatedAt": "2022-03-09T11:53:00.000Z"
  },
  {
    "airportIcao": "KSDM",
    "metar": "KSDM 091153Z AUTO 11006KT 10SM CLR 05/M01 A3000 RMK AO2 SLP157 T00501006 10100 20044 55006",
    "updatedAt": "2022-03-09T11:53:00.000Z"
  },
  {
    "airportIcao": "KSDY",
    "metar": "KSDY 091156Z AUTO 31007KT 10SM SCT039 M14/M17 A3021 RMK AO2 SNE45 SLP279 P0000 60000 T11391167 11128 21156 55002 FZRANO",
    "updatedAt": "2022-03-09T11:56:00.000Z"
  },
  {
    "airportIcao": "KSEA",
    "metar": "KSEA 091237Z 07005KT 8SM BKN035 03/02 A3017",
    "updatedAt": "2022-03-09T12:37:00.000Z"
  },
  {
    "airportIcao": "KSEE",
    "metar": "KSEE 091235Z AUTO 000KT 10SM CLR 04/01 A3002 RMK AO2",
    "updatedAt": "2022-03-09T12:35:00.000Z"
  },
  {
    "airportIcao": "KSEF",
    "metar": "KSEF 091235Z AUTO 16008KT 10SM BKN040 22/22 A3003 RMK AO2 T02170216",
    "updatedAt": "2022-03-09T12:35:00.000Z"
  },
  {
    "airportIcao": "KSEG",
    "metar": "KSEG 091153Z AUTO 32003KT 9SM BKN017 OVC028 01/M01 A3002 RMK AO2 SNE47 SLP169 P0000 60000 T00061006 10011 21006 56016",
    "updatedAt": "2022-03-09T11:53:00.000Z"
  },
  {
    "airportIcao": "KSEM",
    "metar": "KSEM 090615Z AUTO 10004KT 1/2SM FG OVC002 12/12 A2984 RMK AO2",
    "updatedAt": "2022-03-09T06:15:00.000Z"
  },
  {
    "airportIcao": "KSEP",
    "metar": "KSEP 091235Z AUTO 21003KT 5SM CLR M03/M05 A3013 RMK AO2 T10351047",
    "updatedAt": "2022-03-09T12:35:00.000Z"
  },
  {
    "airportIcao": "KSEQ",
    "metar": "KSEQ 091158Z AUTO 11003KT 9SM R13/5500FT OVC180 03/02 A3012 RMK AO2 SLP202 70006 T00280021 10052 20028 53006",
    "updatedAt": "2022-03-09T11:58:00.000Z"
  },
  {
    "airportIcao": "KSET",
    "metar": "KSET 091154Z AUTO 28003KT 7SM CLR 00/M02 A3002 RMK AO2 SLP167 T00001022 10028 20000 53000",
    "updatedAt": "2022-03-09T11:54:00.000Z"
  },
  {
    "airportIcao": "KSEZ",
    "metar": "KSEZ 091235Z AUTO 04005KT 10SM CLR 01/M10 A2994 RMK AO2",
    "updatedAt": "2022-03-09T12:35:00.000Z"
  },
  {
    "airportIcao": "KSFB",
    "metar": "KSFB 091200Z 18008KT 10SM OVC009 22/21 A2999 RMK AO2 T02220206",
    "updatedAt": "2022-03-09T12:00:00.000Z"
  },
  {
    "airportIcao": "KSFF",
    "metar": "KSFF 091153Z AUTO 05007KT 10SM FEW080 M03/M19 A3019 RMK AO2 SLP239 T10331189 10000 21039 53003",
    "updatedAt": "2022-03-09T11:53:00.000Z"
  },
  {
    "airportIcao": "KSFM",
    "metar": "KSFM 091156Z AUTO 00000KT 10SM CLR M05/M07 A3019 RMK AO2 SLP230 T10501072 11033 21061 53001 FZRANO",
    "updatedAt": "2022-03-09T11:56:00.000Z"
  },
  {
    "airportIcao": "KSFO",
    "metar": "KSFO 091156Z 00000KT 10SM CLR 09/04 A3004 RMK AO2 SLP171 T00940039 10122 20083 55000",
    "updatedAt": "2022-03-09T11:56:00.000Z"
  },
  {
    "airportIcao": "KSFQ",
    "metar": "KSFQ 091235Z AUTO 31004G14KT 10SM -DZ OVC007 A2996 RMK AO2 P0004",
    "updatedAt": "2022-03-09T12:35:00.000Z"
  },
  {
    "airportIcao": "KSFY",
    "metar": "KSFY 091235Z AUTO 30003KT 10SM CLR M03/M05 A3002 RMK AO2",
    "updatedAt": "2022-03-09T12:35:00.000Z"
  },
  {
    "airportIcao": "KSFZ",
    "metar": "KSFZ 091156Z AUTO 00000KT 10SM CLR M01/M07 A3015 RMK AO2 SLP215 T10061072 11006 21017 58005 FZRANO",
    "updatedAt": "2022-03-09T11:56:00.000Z"
  },
  {
    "airportIcao": "KSGF",
    "metar": "KSGF 091152Z 28006KT 10SM CLR M01/M03 A3003 RMK AO2 SLP180 T10111033 10011 21039 53005",
    "updatedAt": "2022-03-09T11:52:00.000Z"
  },
  {
    "airportIcao": "KSGH",
    "metar": "KSGH 091156Z AUTO 03003KT 10SM FEW036 SCT065 OVC085 01/M01 A2992 RMK AO2 RAB26E37 SLP142 6//// 7//// T00111011 10017 20011 55003 FZRANO PNO $",
    "updatedAt": "2022-03-09T11:56:00.000Z"
  },
  {
    "airportIcao": "KSGJ",
    "metar": "KSGJ 091222Z 19006KT 5SM BR BKN009 OVC016 22/21 A2998 RMK AO2",
    "updatedAt": "2022-03-09T12:22:00.000Z"
  },
  {
    "airportIcao": "KSGR",
    "metar": "KSGR 091218Z 03008KT 10SM SCT015 07/03 A3003 RMK AO2 T00720028",
    "updatedAt": "2022-03-09T12:18:00.000Z"
  },
  {
    "airportIcao": "KSGS",
    "metar": "KSGS 091235Z AUTO 30008KT 10SM OVC023 M07/M12 A3005 RMK AO2 T10711120",
    "updatedAt": "2022-03-09T12:35:00.000Z"
  },
  {
    "airportIcao": "KSGT",
    "metar": "KSGT 091156Z AUTO 33010KT 8SM OVC008 03/02 A3009 RMK AO2 SLP190 60000 70007 T00280017 10033 20028 53020",
    "updatedAt": "2022-03-09T11:56:00.000Z"
  },
  {
    "airportIcao": "KSGU",
    "metar": "KSGU 091156Z AUTO 16003KT 10SM CLR 00/M08 A2994 RMK AO2 SLP139 T00001083 10056 21006 56008 FZRANO",
    "updatedAt": "2022-03-09T11:56:00.000Z"
  },
  {
    "airportIcao": "KSHD",
    "metar": "KSHD 091235Z AUTO 21004KT 3SM -RA BKN004 BKN036 OVC070 04/04 A2991 RMK AO2 P0004 T00390037",
    "updatedAt": "2022-03-09T12:35:00.000Z"
  },
  {
    "airportIcao": "KSHL",
    "metar": "KSHL 091235Z AUTO 33015KT 10SM BKN120 M11/M14 A3011 RMK AO2",
    "updatedAt": "2022-03-09T12:35:00.000Z"
  },
  {
    "airportIcao": "KSHN",
    "metar": "KSHN 091153Z AUTO 00000KT 1/4SM FG VV002 02/02 A3016 RMK AO2 SLP216 70003 I6000 T00170017 10050 21006 51004",
    "updatedAt": "2022-03-09T11:53:00.000Z"
  },
  {
    "airportIcao": "KSHR",
    "metar": "KSHR 091236Z AUTO 31008KT 1 3/4SM -SN OVC033 M14/M17 A3012 RMK AO2 SNE09B30 P0000 T11391172",
    "updatedAt": "2022-03-09T12:36:00.000Z"
  },
  {
    "airportIcao": "KSHV",
    "metar": "KSHV 091156Z 35008KT 10SM OVC013 05/02 A3007 RMK AO2 SLP183 70073 T00500022 10056 20044 51014",
    "updatedAt": "2022-03-09T11:56:00.000Z"
  },
  {
    "airportIcao": "KSIF",
    "metar": "KSIF 091235Z AUTO 01004KT 10SM OVC005 07/06 A2994 RMK AO2 T00650062",
    "updatedAt": "2022-03-09T12:35:00.000Z"
  },
  {
    "airportIcao": "KSIK",
    "metar": "KSIK 091235Z AUTO 00000KT 10SM BKN045 01/00 A3005 RMK AO2",
    "updatedAt": "2022-03-09T12:35:00.000Z"
  },
  {
    "airportIcao": "KSIY",
    "metar": "KSIY 091153Z AUTO 36007KT 10SM FEW055 OVC085 04/M04 A3012 RMK AO2 SLP210 T00441044 10078 20044 56009",
    "updatedAt": "2022-03-09T11:53:00.000Z"
  },
  {
    "airportIcao": "KSJC",
    "metar": "KSJC 091153Z AUTO 00000KT 10SM CLR 08/02 A3004 RMK AO2 SLP170 T00830017 10117 20072 55002",
    "updatedAt": "2022-03-09T11:53:00.000Z"
  },
  {
    "airportIcao": "KSJN",
    "metar": "KSJN 091154Z AUTO 16005KT 10SM CLR M06/M12 A2993 RMK AO2 SLP130 T10561122 11028 21072 55008",
    "updatedAt": "2022-03-09T11:54:00.000Z"
  },
  {
    "airportIcao": "KSJS",
    "metar": "KSJS 091235Z AUTO 33003KT 2SM +DZ OVC003 03/03 A2986 RMK AO2 T00300030",
    "updatedAt": "2022-03-09T12:35:00.000Z"
  },
  {
    "airportIcao": "KSJT",
    "metar": "KSJT 091151Z AUTO 00000KT 10SM CLR M06/M11 A3008 RMK AO2 SLP194 T10561106 10022 21056 53006",
    "updatedAt": "2022-03-09T11:51:00.000Z"
  },
  {
    "airportIcao": "KSJX",
    "metar": "KSJX 091235Z AUTO 24008KT 7SM -SN SCT034 BKN050 OVC075 00/M02 A2980 RMK AO2 T10051020",
    "updatedAt": "2022-03-09T12:35:00.000Z"
  },
  {
    "airportIcao": "KSKA",
    "metar": "KSKA 091158Z 06010KT 10SM CLR M06/M18 A3014 RMK AO2A SLP234 T10591177 11022 21059 53004 $",
    "updatedAt": "2022-03-09T11:58:00.000Z"
  },
  {
    "airportIcao": "KSKF",
    "metar": "KSKF 091156Z AUTO 04003KT 10SM CLR 05/01 A3005 RMK AO2 SLP177 T00470005 10083 20038 55000 $",
    "updatedAt": "2022-03-09T11:56:00.000Z"
  },
  {
    "airportIcao": "KSKX",
    "metar": "KSKX 091156Z AUTO 10004KT 10SM BKN100 M12/M14 A2991 RMK AO2 SLP179 70002 T11171139 11089 21117 56006 FZRANO",
    "updatedAt": "2022-03-09T11:56:00.000Z"
  },
  {
    "airportIcao": "KSLB",
    "metar": "KSLB 091235Z AUTO 33011G18KT 10SM FEW016 FEW024 M09/M12 A3009 RMK AO2",
    "updatedAt": "2022-03-09T12:35:00.000Z"
  },
  {
    "airportIcao": "KSLC",
    "metar": "KSLC 091236Z 27011KT 10SM BKN075 OVC100 01/00 A2984 RMK AO2 CIG 047 NW RNWY SNE020 P0000 T00110000 $",
    "updatedAt": "2022-03-09T12:36:00.000Z"
  },
  {
    "airportIcao": "KSLE",
    "metar": "KSLE 091156Z AUTO 16006KT 6SM BR BKN008 BKN014 OVC021 06/04 A3014 RMK AO2 SLP208 T00610044 10089 20061 58009",
    "updatedAt": "2022-03-09T11:56:00.000Z"
  },
  {
    "airportIcao": "KSLG",
    "metar": "KSLG 091156Z AUTO 00000KT 4SM BR CLR M04/M05 A3008 RMK AO2 SLP193 T10441050 10017 21044 53009 FZRANO",
    "updatedAt": "2022-03-09T11:56:00.000Z"
  },
  {
    "airportIcao": "KSLH",
    "metar": "KSLH 091235Z AUTO 20005KT 10SM SCT044 SCT050 OVC075 M03/M05 A2981 RMK AO2",
    "updatedAt": "2022-03-09T12:35:00.000Z"
  },
  {
    "airportIcao": "KSLI",
    "metar": "KSLI 091158Z AUTO 08005KT 10SM CLR 08/02 A2998 RMK AO2 SLP155 T00840022 10113 20075 55002",
    "updatedAt": "2022-03-09T11:58:00.000Z"
  },
  {
    "airportIcao": "KSLK",
    "metar": "KSLK 091151Z AUTO 00000KT 10SM CLR M11/M12 A3000 RMK AO2 SLP187 T11061117 11089 21111 56014",
    "updatedAt": "2022-03-09T11:51:00.000Z"
  },
  {
    "airportIcao": "KSLN",
    "metar": "KSLN 091153Z AUTO 02005KT 10SM CLR M06/M08 A3010 RMK AO2 SLP207 T10611078 11006 21067 53003",
    "updatedAt": "2022-03-09T11:53:00.000Z"
  },
  {
    "airportIcao": "KSLO",
    "metar": "KSLO 091235Z AUTO 00000KT 7SM CLR 00/00 A3003 RMK AO2 T00001001",
    "updatedAt": "2022-03-09T12:35:00.000Z"
  },
  {
    "airportIcao": "KSLR",
    "metar": "KSLR 091235Z AUTO 33006KT 10SM CLR 01/00 A3013 RMK AO2 T00101001",
    "updatedAt": "2022-03-09T12:35:00.000Z"
  },
  {
    "airportIcao": "KSMD",
    "metar": "KSMD 091235Z AUTO 00000KT 8SM CLR M02/M02 A2998 RMK A01",
    "updatedAt": "2022-03-09T12:35:00.000Z"
  },
  {
    "airportIcao": "KSME",
    "metar": "KSME 091235Z AUTO 34007KT 5SM UP BR BKN007 OVC012 05/04 A2992 RMK AO2",
    "updatedAt": "2022-03-09T12:35:00.000Z"
  },
  {
    "airportIcao": "KSMF",
    "metar": "KSMF 091153Z 00000KT 10SM BKN220 06/01 A3000 RMK AO2 SLP157 T00560006 10122 20050 58004",
    "updatedAt": "2022-03-09T11:53:00.000Z"
  },
  {
    "airportIcao": "KSMN",
    "metar": "KSMN 091156Z AUTO 34008KT 10SM BKN036 OVC043 M10/M17 A3005 RMK AO2 SLP227 70006 T11001172 11056 21100 52008 FZRANO",
    "updatedAt": "2022-03-09T11:56:00.000Z"
  },
  {
    "airportIcao": "KSMO",
    "metar": "KSMO 091151Z AUTO 05003KT 10SM CLR 09/03 A2999 RMK AO2 SLP153 T00940033 10128 20083 55005",
    "updatedAt": "2022-03-09T11:51:00.000Z"
  },
  {
    "airportIcao": "KSMP",
    "metar": "KSMP 091156Z AUTO 00000KT 10SM FEW060 M07/M09 A3005 RMK AO2 SLP212 70027 T10671089 11017 21067 55001 $",
    "updatedAt": "2022-03-09T11:56:00.000Z"
  },
  {
    "airportIcao": "KSMQ",
    "metar": "KSMQ 091153Z AUTO 01005KT 9SM OVC039 02/01 A3008 RMK AO2 RAE50 SLP189 P0001 60001 70001 T00220011 10022 20000 56009",
    "updatedAt": "2022-03-09T11:53:00.000Z"
  },
  {
    "airportIcao": "KSMS",
    "metar": "KSMS 091235Z AUTO 18004KT 5SM BR BKN005 BKN027 19/19 A2987 RMK AO2 PWINO",
    "updatedAt": "2022-03-09T12:35:00.000Z"
  },
  {
    "airportIcao": "KSMX",
    "metar": "KSMX 091151Z AUTO 13003KT 10SM CLR 04/02 A3002 RMK AO2 SLP168 T00440017 10078 20033 56008 $",
    "updatedAt": "2022-03-09T11:51:00.000Z"
  },
  {
    "airportIcao": "KSNA",
    "metar": "KSNA 091153Z AUTO 00000KT 10SM CLR 11/03 A2999 RMK AO2 SLP154 T01110033 10144 20111 55005",
    "updatedAt": "2022-03-09T11:53:00.000Z"
  },
  {
    "airportIcao": "KSNC",
    "metar": "KSNC 091235Z AUTO 00000KT 10SM CLR 01/M09 A3013 RMK AO2",
    "updatedAt": "2022-03-09T12:35:00.000Z"
  },
  {
    "airportIcao": "KSNH",
    "metar": "KSNH 090615Z AUTO 36007KT 2SM BR OVC005 05/05 A2992 RMK A01",
    "updatedAt": "2022-03-09T06:15:00.000Z"
  },
  {
    "airportIcao": "KSNK",
    "metar": "KSNK 091235Z AUTO 16005KT 10SM CLR M01/M07 A3006 RMK AO2 T10101067",
    "updatedAt": "2022-03-09T12:35:00.000Z"
  },
  {
    "airportIcao": "KSNL",
    "metar": "KSNL 091235Z AUTO 00000KT 10SM CLR M05/M07 A3009 RMK AO2 T10511072",
    "updatedAt": "2022-03-09T12:35:00.000Z"
  },
  {
    "airportIcao": "KSNS",
    "metar": "KSNS 091153Z AUTO 15004KT 10SM CLR 06/02 A3002 RMK AO2 SLP175 T00560022 10117 20056 58007 TSNO",
    "updatedAt": "2022-03-09T11:53:00.000Z"
  },
  {
    "airportIcao": "KSNT",
    "metar": "KSNT 091151Z AUTO 28003KT M11/M14 A2980 RMK AO1 SLP099 60001 70006 T11061139 11050 21106 56005",
    "updatedAt": "2022-03-09T11:51:00.000Z"
  },
  {
    "airportIcao": "KSNY",
    "metar": "KSNY 091153Z AUTO 05013KT 3/4SM -SN BR VV007 M10/M12 A2995 RMK AO2 SLP188 P0001 60002 70002 T11001117 11061 21100 55000",
    "updatedAt": "2022-03-09T11:53:00.000Z"
  },
  {
    "airportIcao": "KSOA",
    "metar": "KSOA 091235Z AUTO 00000KT 10SM CLR M05/M09 A3011 RMK AO2",
    "updatedAt": "2022-03-09T12:35:00.000Z"
  },
  {
    "airportIcao": "KSOP",
    "metar": "KSOP 091156Z AUTO 06007KT 10SM OVC004 09/09 A2990 RMK AO2 RAE54 CIG 004V009 SLP132 P0000 60004 70029 T00890089 10100 20089 58004 TSNO",
    "updatedAt": "2022-03-09T11:56:00.000Z"
  },
  {
    "airportIcao": "KSOW",
    "metar": "KSOW 091235Z AUTO 00000KT 10SM CLR M07/M11 A2994 RMK AO2",
    "updatedAt": "2022-03-09T12:35:00.000Z"
  },
  {
    "airportIcao": "KSPA",
    "metar": "KSPA 091235Z AUTO 11004KT 7SM VCTSRA SCT026 BKN050 OVC090 10/09 A2982 RMK AO2 LTG DSNT NE THRU S P0003",
    "updatedAt": "2022-03-09T12:35:00.000Z"
  },
  {
    "airportIcao": "KSPB",
    "metar": "KSPB 091242Z AUTO 00000KT 2 1/2SM BR FEW002 BKN017 OVC032 05/04 A3015 RMK AO2 T00500044",
    "updatedAt": "2022-03-09T12:42:00.000Z"
  },
  {
    "airportIcao": "KSPD",
    "metar": "KSPD 091156Z AUTO 20006KT M06/M12 A2989 RMK AO1 SLP131 T10611117 11061 21117 56011",
    "updatedAt": "2022-03-09T11:56:00.000Z"
  },
  {
    "airportIcao": "KSPF",
    "metar": "KSPF 091235Z AUTO 31010KT 10SM OVC017 M16/M18 A3010 RMK AO2",
    "updatedAt": "2022-03-09T12:35:00.000Z"
  },
  {
    "airportIcao": "KSPG",
    "metar": "KSPG 091241Z 18010KT SCT011 BKN020 BKN055 24/03 A2996 RMK AO2 T02390028 $",
    "updatedAt": "2022-03-09T12:41:00.000Z"
  },
  {
    "airportIcao": "KSPI",
    "metar": "KSPI 091152Z 00000KT 10SM FEW075 M01/M03 A3000 RMK AO2 SLP164 T10061033 10011 21006 57004",
    "updatedAt": "2022-03-09T11:52:00.000Z"
  },
  {
    "airportIcao": "KSPK",
    "metar": "KSPK 090615Z AUTO 10004KT 6SM BR SCT004 BKN009 OVC075 00/00 A2995 RMK AO2",
    "updatedAt": "2022-03-09T06:15:00.000Z"
  },
  {
    "airportIcao": "KSPS",
    "metar": "KSPS 091152Z 00000KT 10SM CLR M04/M07 A3009 RMK AO2 SLP193 T10391067 10017 21044 53006",
    "updatedAt": "2022-03-09T11:52:00.000Z"
  },
  {
    "airportIcao": "KSPW",
    "metar": "KSPW 091153Z AUTO 32014G22KT 10SM CLR M08/M13 A3010 RMK AO2 SLP214 T10831133 11039 21083 53016 TSNO",
    "updatedAt": "2022-03-09T11:53:00.000Z"
  },
  {
    "airportIcao": "KSQI",
    "metar": "KSQI 091156Z AUTO 26007KT 10SM CLR M03/M04 A3000 RMK AO2 SLP027 70001 T10331044 11017 21033 53006 FZRANO",
    "updatedAt": "2022-03-09T11:56:00.000Z"
  },
  {
    "airportIcao": "KSQL",
    "metar": "KSQL 091235Z AUTO 00000KT 9SM CLR 08/03 A3005 RMK AO2",
    "updatedAt": "2022-03-09T12:35:00.000Z"
  },
  {
    "airportIcao": "KSRB",
    "metar": "KSRB 090615Z AUTO 01004KT 6SM BR BKN014 OVC019 06/06 A2983 RMK A01",
    "updatedAt": "2022-03-09T06:15:00.000Z"
  },
  {
    "airportIcao": "KSRC",
    "metar": "KSRC 091238Z AUTO 00000KT 1SM BR VV007 M01/M01 A3009 RMK AO2 VIS 1/2V2 FZRANO",
    "updatedAt": "2022-03-09T12:38:00.000Z"
  },
  {
    "airportIcao": "KSRE",
    "metar": "KSRE 090615Z AUTO 00000KT 10SM CLR M01/M08 A3007 RMK AO2",
    "updatedAt": "2022-03-09T06:15:00.000Z"
  },
  {
    "airportIcao": "KSRQ",
    "metar": "KSRQ 091153Z 18013G18KT 10SM SCT035 BKN045 OVC050 24/22 A2996 RMK AO2 SLP146 T02390217 10239 20228 53010",
    "updatedAt": "2022-03-09T11:53:00.000Z"
  },
  {
    "airportIcao": "KSRR",
    "metar": "KSRR 091235Z AUTO 31004KT 10SM CLR M06/M20 A2993 RMK AO2",
    "updatedAt": "2022-03-09T12:35:00.000Z"
  },
  {
    "airportIcao": "KSSC",
    "metar": "KSSC 091221Z 18008KT 4SM BR FEW005 BKN007 18/18 A2985 RMK SLP109 $",
    "updatedAt": "2022-03-09T12:21:00.000Z"
  },
  {
    "airportIcao": "KSSF",
    "metar": "KSSF 091153Z AUTO 09003KT 10SM CLR 07/01 A3006 RMK AO2 SLP180 T00670011 10089 20067 55001",
    "updatedAt": "2022-03-09T11:53:00.000Z"
  },
  {
    "airportIcao": "KSSI",
    "metar": "KSSI 091153Z AUTO 18004KT 6SM BR BKN006 OVC017 21/19 A2991 RMK AO2 SLP131 70022 T02060194 10211 20194 53004",
    "updatedAt": "2022-03-09T11:53:00.000Z"
  },
  {
    "airportIcao": "KSTC",
    "metar": "KSTC 091153Z AUTO 31012KT 10SM CLR M12/M17 A3005 RMK AO2 SLP201 60000 T11221167 11067 21122 53015",
    "updatedAt": "2022-03-09T11:53:00.000Z"
  },
  {
    "airportIcao": "KSTE",
    "metar": "KSTE 091235Z AUTO 28008G19KT 10SM OVC035 M04/M13 A2991 RMK AO2 T10361135",
    "updatedAt": "2022-03-09T12:35:00.000Z"
  },
  {
    "airportIcao": "KSTF",
    "metar": "KSTF 090615Z AUTO VRB04KT 3SM BR OVC005 07/07 A2991 RMK AO2 LTG DSNT SE",
    "updatedAt": "2022-03-09T06:15:00.000Z"
  },
  {
    "airportIcao": "KSTJ",
    "metar": "KSTJ 091153Z AUTO 35009KT 10SM BKN033 M03/M06 A3011 RMK AO2 SLP203 T10331056 10011 21039 53012",
    "updatedAt": "2022-03-09T11:53:00.000Z"
  },
  {
    "airportIcao": "KSTK",
    "metar": "KSTK 091235Z AUTO 05008G14KT 10SM OVC009 M07/M08 A2995 RMK AO2",
    "updatedAt": "2022-03-09T12:35:00.000Z"
  },
  {
    "airportIcao": "KSTL",
    "metar": "KSTL 091151Z 24003KT 10SM FEW100 01/M03 A3003 RMK AO2 SLP175 T00061033 10039 20006 53001",
    "updatedAt": "2022-03-09T11:51:00.000Z"
  },
  {
    "airportIcao": "KSTP",
    "metar": "KSTP 091153Z 31015KT 10SM OVC024 M07/M12 A3005 RMK AO2 SNE08 SLP183 P0000 60000 T10721117 11039 21072 53011",
    "updatedAt": "2022-03-09T11:53:00.000Z"
  },
  {
    "airportIcao": "KSTS",
    "metar": "KSTS 091153Z 36003KT 10SM CLR 07/M01 A3003 RMK AO2 SLP162 T00721011 10128 20061 58003",
    "updatedAt": "2022-03-09T11:53:00.000Z"
  },
  {
    "airportIcao": "KSUA",
    "metar": "KSUA 091150Z 00000KT 10SM FEW028 21/20 A3004",
    "updatedAt": "2022-03-09T11:50:00.000Z"
  },
  {
    "airportIcao": "KSUE",
    "metar": "KSUE 091156Z AUTO 28008KT 10SM SCT026 M03/M08 A2986 RMK AO2 SLP119 70001 T10281078 11011 21028 53002 FZRANO",
    "updatedAt": "2022-03-09T11:56:00.000Z"
  },
  {
    "airportIcao": "KSUN",
    "metar": "KSUN 091235Z AUTO 13010KT 10SM SCT013 BKN085 OVC110 M06/M07 A2984 RMK AO2",
    "updatedAt": "2022-03-09T12:35:00.000Z"
  },
  {
    "airportIcao": "KSUS",
    "metar": "KSUS 091154Z 00000KT 10SM CLR M02/M03 A3002 RMK AO2 SLP174 T10221033 10028 21028 53004",
    "updatedAt": "2022-03-09T11:54:00.000Z"
  },
  {
    "airportIcao": "KSUT",
    "metar": "KSUT 091235Z AUTO 00000KT 5SM BR OVC008 14/13 A2990 RMK AO2 T01370131",
    "updatedAt": "2022-03-09T12:35:00.000Z"
  },
  {
    "airportIcao": "KSUU",
    "metar": "KSUU 091158Z AUTO 21008KT 10SM CLR 06/04 A3001 RMK AO2 SLP169 T00640044 10118 20034 57005 $",
    "updatedAt": "2022-03-09T11:58:00.000Z"
  },
  {
    "airportIcao": "KSUW",
    "metar": "KSUW 091235Z AUTO 27008G16KT 10SM BKN085 M11/M16 A2998 RMK AO2 T11151165",
    "updatedAt": "2022-03-09T12:35:00.000Z"
  },
  {
    "airportIcao": "KSUX",
    "metar": "KSUX 091152Z 34011KT 10SM SCT100 BKN120 M07/M13 A3013 RMK AO2 SLP219 T10671128 11044 21067 51007",
    "updatedAt": "2022-03-09T11:52:00.000Z"
  },
  {
    "airportIcao": "KSUZ",
    "metar": "KSUZ 091235Z AUTO 00000KT 5SM BR OVC005 02/02 A3009 RMK A01",
    "updatedAt": "2022-03-09T12:35:00.000Z"
  },
  {
    "airportIcao": "KSVC",
    "metar": "KSVC 091235Z AUTO 35007KT 10SM CLR M07/M19 A2994 RMK AO2 T10741191",
    "updatedAt": "2022-03-09T12:35:00.000Z"
  },
  {
    "airportIcao": "KSVE",
    "metar": "KSVE 091235Z AUTO 26004KT 10SM BKN050 OVC085 M01/M05 A3002 RMK AO2",
    "updatedAt": "2022-03-09T12:35:00.000Z"
  },
  {
    "airportIcao": "KSVH",
    "metar": "KSVH 090955Z AUTO 04004KT 10SM OVC006 09/08 A2989 RMK AO2 T00880080",
    "updatedAt": "2022-03-09T09:55:00.000Z"
  },
  {
    "airportIcao": "KSVN",
    "metar": "KSVN 091211Z 19006KT 6SM BR BKN006 OVC013 20/19 A2988 RMK AO2A CIG 006V008 SLP121",
    "updatedAt": "2022-03-09T12:11:00.000Z"
  },
  {
    "airportIcao": "KSWF",
    "metar": "KSWF 091145Z 00000KT 10SM OVC090 00/M07 A3009",
    "updatedAt": "2022-03-09T11:45:00.000Z"
  },
  {
    "airportIcao": "KSWO",
    "metar": "KSWO 091153Z AUTO 22003KT 10SM CLR M05/M07 A3007 RMK AO2 SLP189 I1000 I6000 T10501067 11028 21061 53002",
    "updatedAt": "2022-03-09T11:53:00.000Z"
  },
  {
    "airportIcao": "KSWW",
    "metar": "KSWW 091235Z AUTO 22007KT 10SM CLR M01/M07 A3009 RMK AO2 T10151069",
    "updatedAt": "2022-03-09T12:35:00.000Z"
  },
  {
    "airportIcao": "KSXK",
    "metar": "KSXK 091235Z AUTO 33016G22KT 10SM OVC110 M09/M13 A3011 RMK AO2",
    "updatedAt": "2022-03-09T12:35:00.000Z"
  },
  {
    "airportIcao": "KSXS",
    "metar": "KSXS 091234Z AUTO 26008KT 8SM -RA FEW014 SCT022 BKN027 BKN036 BKN055 20/19 A2984 RMK AO2 LTG DSNT S RAB34 CIG 027V055 SLP105 $",
    "updatedAt": "2022-03-09T12:34:00.000Z"
  },
  {
    "airportIcao": "KSXT",
    "metar": "KSXT 091156Z AUTO 00000KT 10SM UP OVC013 M01/M03 A3009 RMK AO2 UPB40SNE40 SLP204 P0000 60000 T10111028 10017 21011 56011",
    "updatedAt": "2022-03-09T11:56:00.000Z"
  },
  {
    "airportIcao": "KSXU",
    "metar": "KSXU 091235Z AUTO 00000KT 10SM CLR M06/M11 A2991 RMK AO2 T10631111",
    "updatedAt": "2022-03-09T12:35:00.000Z"
  },
  {
    "airportIcao": "KSYF",
    "metar": "KSYF 091235Z AUTO 11010KT 10SM OVC022 M07/M09 A3000 RMK AO2 T10661086 PWINO",
    "updatedAt": "2022-03-09T12:35:00.000Z"
  },
  {
    "airportIcao": "KSYI",
    "metar": "KSYI 090615Z AUTO 34008KT 6SM BR BKN005 OVC015 06/05 A2986 RMK A01",
    "updatedAt": "2022-03-09T06:15:00.000Z"
  },
  {
    "airportIcao": "KSYM",
    "metar": "KSYM 091235Z AUTO 34006KT 3SM -RA BKN005 OVC009 03/02 A2992 RMK AO2 P0009",
    "updatedAt": "2022-03-09T12:35:00.000Z"
  },
  {
    "airportIcao": "KSYN",
    "metar": "KSYN 091235Z AUTO 29015G20KT 10SM -SN OVC020 M07/M11 A3004 RMK AO2 T10731109",
    "updatedAt": "2022-03-09T12:35:00.000Z"
  },
  {
    "airportIcao": "KSYR",
    "metar": "KSYR 091154Z 09005KT 10SM OVC160 M04/M06 A3005 RMK AO2 SLP179 OVC V BKN T10391061 11033 21044 56016",
    "updatedAt": "2022-03-09T11:54:00.000Z"
  },
  {
    "airportIcao": "KSZL",
    "metar": "KSZL 091156Z 25006KT 10SM FEW070 M02/M05 A3002 RMK AO2A SLP177 T10251050 11006 21032 53010 $",
    "updatedAt": "2022-03-09T11:56:00.000Z"
  },
  {
    "airportIcao": "KSZT",
    "metar": "KSZT 091235Z AUTO 03009KT 10SM SCT095 M05/M18 A3023 RMK AO2",
    "updatedAt": "2022-03-09T12:35:00.000Z"
  },
  {
    "airportIcao": "KSZY",
    "metar": "KSZY 090615Z AUTO VRB04G11KT 4SM BR OVC009 04/04 A2994 RMK A01",
    "updatedAt": "2022-03-09T06:15:00.000Z"
  },
  {
    "airportIcao": "KT35",
    "metar": "KT35 091235Z AUTO 30003KT 5SM HZ CLR A3011 RMK AO2",
    "updatedAt": "2022-03-09T12:35:00.000Z"
  },
  {
    "airportIcao": "KT41",
    "metar": "KT41 091230Z AUTO 01013KT 10SM BKN010 06/04 A3001 RMK AO2 T00630040",
    "updatedAt": "2022-03-09T12:30:00.000Z"
  },
  {
    "airportIcao": "KT69",
    "metar": "KT69 091235Z AUTO 01006KT 10SM 06/04 A3002 RMK A01",
    "updatedAt": "2022-03-09T12:35:00.000Z"
  },
  {
    "airportIcao": "KT70",
    "metar": "KT70 091158Z AUTO 05009KT 10SM CLR 03/M00 A2999 RMK AO2 SLP153 7//// T00251002 10100 20025 50003 $",
    "updatedAt": "2022-03-09T11:58:00.000Z"
  },
  {
    "airportIcao": "KT74",
    "metar": "KT74 091235Z AUTO 33008KT 7SM BR CLR 01/00 A3010 RMK AO2 T00091001",
    "updatedAt": "2022-03-09T12:35:00.000Z"
  },
  {
    "airportIcao": "KT78",
    "metar": "KT78 091235Z AUTO 36010G17KT 10SM OVC009 06/05 A3001 RMK AO2",
    "updatedAt": "2022-03-09T12:35:00.000Z"
  },
  {
    "airportIcao": "KT82",
    "metar": "KT82 091235Z AUTO 19003KT 10SM CLR M01/M03 A3006 RMK AO2 T10111026",
    "updatedAt": "2022-03-09T12:35:00.000Z"
  },
  {
    "airportIcao": "KT89",
    "metar": "KT89 090615Z AUTO 02012G20KT FEW048 FEW055 13/M08 A2994 RMK A01",
    "updatedAt": "2022-03-09T06:15:00.000Z"
  },
  {
    "airportIcao": "KTAD",
    "metar": "KTAD 091154Z AUTO 35003KT 10SM CLR M08/M12 A2981 RMK AO2 SLP113 T10831122 11072 21111 56015",
    "updatedAt": "2022-03-09T11:54:00.000Z"
  },
  {
    "airportIcao": "KTAN",
    "metar": "KTAN 091152Z AUTO 00000KT 10SM CLR M01/M04 A3017 RMK AO2 SLP216 T10111039 11011 21039 58006",
    "updatedAt": "2022-03-09T11:52:00.000Z"
  },
  {
    "airportIcao": "KTAZ",
    "metar": "KTAZ 091238Z AUTO 25003KT 10SM CLR 00/M02 A3002 RMK AO2",
    "updatedAt": "2022-03-09T12:38:00.000Z"
  },
  {
    "airportIcao": "KTBN",
    "metar": "KTBN 091156Z AUTO 23003KT 10SM CLR M03/M04 A3002 RMK AO2 SLP178 T10321042 10020 21032 53005",
    "updatedAt": "2022-03-09T11:56:00.000Z"
  },
  {
    "airportIcao": "KTBR",
    "metar": "KTBR 091235Z AUTO 20009KT 10SM BKN010 OVC018 20/18 A2989 RMK AO2 T01950175",
    "updatedAt": "2022-03-09T12:35:00.000Z"
  },
  {
    "airportIcao": "KTBX",
    "metar": "KTBX 091235Z AUTO OVC004 A2987 RMK AO2 PWINO",
    "updatedAt": "2022-03-09T12:35:00.000Z"
  },
  {
    "airportIcao": "KTCC",
    "metar": "KTCC 091153Z AUTO 28006KT 10SM CLR M07/M12 A2991 RMK AO2 SLP134 T10721117 11006 21078 56008",
    "updatedAt": "2022-03-09T11:53:00.000Z"
  },
  {
    "airportIcao": "KTCL",
    "metar": "KTCL 091153Z AUTO 32007KT 9SM OVC008 08/07 A2995 RMK AO2 CIG 006V011 SLP142 60027 70069 T00830067 10100 20083 $",
    "updatedAt": "2022-03-09T11:53:00.000Z"
  },
  {
    "airportIcao": "KTCM",
    "metar": "KTCM 091218Z AUTO 00000KT 1/4SM R16/1600V1800FT FG VV000 03/03 A3016 RMK AO2 SLP219 $",
    "updatedAt": "2022-03-09T12:18:00.000Z"
  },
  {
    "airportIcao": "KTCS",
    "metar": "KTCS 091153Z AUTO 31007KT 10SM CLR M02/ A2993 RMK AO2 SLP113 T1022 10033 21028 55005",
    "updatedAt": "2022-03-09T11:53:00.000Z"
  },
  {
    "airportIcao": "KTCY",
    "metar": "KTCY 090615Z AUTO 00000KT 10SM CLR 11/M00 A3002 RMK A01",
    "updatedAt": "2022-03-09T06:15:00.000Z"
  },
  {
    "airportIcao": "KTDF",
    "metar": "KTDF 091235Z AUTO 04005KT 10SM OVC005 05/05 A2993 RMK AO2",
    "updatedAt": "2022-03-09T12:35:00.000Z"
  },
  {
    "airportIcao": "KTDR",
    "metar": "KTDR 091233Z AUTO 26012G21KT 2SM +TSRA FEW004 FEW012 OVC017 20/19 A2986 RMK AO2 VIS 1 1/2V2 RAB04 CIG 007V017 SLP115 $",
    "updatedAt": "2022-03-09T12:33:00.000Z"
  },
  {
    "airportIcao": "KTDZ",
    "metar": "KTDZ 091153Z AUTO 00000KT 8SM OVC038 00/M03 A2997 RMK AO2 SLP155 T00001028 10006 21006 55009",
    "updatedAt": "2022-03-09T11:53:00.000Z"
  },
  {
    "airportIcao": "KTEB",
    "metar": "KTEB 091151Z 14008KT 7SM -DZ BKN018 BKN026 OVC065 03/M01 A3011 RMK AO2 DZB48 SLP194 P0000 60000 T00331011 10044 20033 56009",
    "updatedAt": "2022-03-09T11:51:00.000Z"
  },
  {
    "airportIcao": "KTEW",
    "metar": "KTEW 091235Z AUTO 00000KT 10SM BKN110 M02/M04 A2994 RMK AO2 T10231045",
    "updatedAt": "2022-03-09T12:35:00.000Z"
  },
  {
    "airportIcao": "KTEX",
    "metar": "KTEX 091235Z AUTO 00000KT 4SM -SN OVC042 M07/M08 A2984 RMK AO2",
    "updatedAt": "2022-03-09T12:35:00.000Z"
  },
  {
    "airportIcao": "KTFP",
    "metar": "KTFP 091215Z AUTO 01007KT 10SM CLR 07/05 A3001 RMK AO2 T00730053",
    "updatedAt": "2022-03-09T12:15:00.000Z"
  },
  {
    "airportIcao": "KTGI",
    "metar": "KTGI 091235Z AUTO 07018G25KT 3SM BKN005 OVC011 07/06 A2993 RMK AO1 P0017 T00670061",
    "updatedAt": "2022-03-09T12:35:00.000Z"
  },
  {
    "airportIcao": "KTHA",
    "metar": "KTHA 090615Z AUTO 34004KT 4SM BR OVC004 05/05 A2983 RMK A01",
    "updatedAt": "2022-03-09T06:15:00.000Z"
  },
  {
    "airportIcao": "KTHM",
    "metar": "KTHM 091055Z AUTO 05008KT 10SM M06/M19 A3023 RMK Thomp on Fall",
    "updatedAt": "2022-03-09T10:55:00.000Z"
  },
  {
    "airportIcao": "KTHV",
    "metar": "KTHV 091235Z AUTO 14011KT 8SM -RA BKN026 OVC043 03/M01 A3001 RMK AO2 P0001 T00331006",
    "updatedAt": "2022-03-09T12:35:00.000Z"
  },
  {
    "airportIcao": "KTIF",
    "metar": "KTIF 091235Z AUTO 01008KT 4SM -SN SCT013 OVC020 M11/M14 A3012 RMK AO2 T11121136",
    "updatedAt": "2022-03-09T12:35:00.000Z"
  },
  {
    "airportIcao": "KTIK",
    "metar": "KTIK 091156Z AUTO 00000KT 10SM CLR 00/M08 A3005 RMK AO2 SLP192 T00001077 10009 21012 53003 $",
    "updatedAt": "2022-03-09T11:56:00.000Z"
  },
  {
    "airportIcao": "KTIP",
    "metar": "KTIP 091235Z AUTO 24003KT 7SM BKN090 00/M02 A2999 RMK AO2 T10051021",
    "updatedAt": "2022-03-09T12:35:00.000Z"
  },
  {
    "airportIcao": "KTIW",
    "metar": "KTIW 091205Z AUTO 02005KT 8SM SCT004 03/03 A3017 RMK AO2 T00330033 $",
    "updatedAt": "2022-03-09T12:05:00.000Z"
  },
  {
    "airportIcao": "KTIX",
    "metar": "KTIX 091147Z 19005KT 5SM BR SCT015 22/21 A3001",
    "updatedAt": "2022-03-09T11:47:00.000Z"
  },
  {
    "airportIcao": "KTKC",
    "metar": "KTKC 091235Z AUTO 32006G17KT 10SM SCT019 OVC024 M10/M14 A3011 RMK AO2 T11001145",
    "updatedAt": "2022-03-09T12:35:00.000Z"
  },
  {
    "airportIcao": "KTKI",
    "metar": "KTKI 091153Z 15004KT 10SM CLR M03/M06 A3011 RMK AO2 SLP212 T10331056 10011 21039 53014 $",
    "updatedAt": "2022-03-09T11:53:00.000Z"
  },
  {
    "airportIcao": "KTKV",
    "metar": "KTKV 091235Z AUTO 28006KT 7SM BKN023 OVC029 M06/M10 A2986 RMK AO2 T10581104 PWINO",
    "updatedAt": "2022-03-09T12:35:00.000Z"
  },
  {
    "airportIcao": "KTKX",
    "metar": "KTKX 091235Z AUTO 30004KT 10SM CLR 03/03 A3006 RMK AO2",
    "updatedAt": "2022-03-09T12:35:00.000Z"
  },
  {
    "airportIcao": "KTLH",
    "metar": "KTLH 091234Z 20005KT 2 1/2SM -DZ BR OVC007 22/21 A2990",
    "updatedAt": "2022-03-09T12:34:00.000Z"
  },
  {
    "airportIcao": "KTMA",
    "metar": "KTMA 091235Z AUTO 19009G16KT 10SM OVC008 21/20 A2987 RMK AO2 T02070196",
    "updatedAt": "2022-03-09T12:35:00.000Z"
  },
  {
    "airportIcao": "KTMB",
    "metar": "KTMB 091153Z 14004KT 10SM FEW035 23/21 A3001 RMK AO2 SLP163 T02280206 10239 20228 53009",
    "updatedAt": "2022-03-09T11:53:00.000Z"
  },
  {
    "airportIcao": "KTME",
    "metar": "KTME 091235Z AUTO 03008KT 7SM CLR 05/04 A3005 RMK AO2",
    "updatedAt": "2022-03-09T12:35:00.000Z"
  },
  {
    "airportIcao": "KTMK",
    "metar": "KTMK 091235Z AUTO 00000KT 7SM SCT002 BKN022 OVC032 07/06 A3015 RMK AO2 P0001",
    "updatedAt": "2022-03-09T12:35:00.000Z"
  },
  {
    "airportIcao": "KTMT",
    "metar": "KTMT 091235Z AUTO 23003KT 10SM SCT042 OVC050 00/M03 A2995 RMK AO2 T10031033",
    "updatedAt": "2022-03-09T12:35:00.000Z"
  },
  {
    "airportIcao": "KTNB",
    "metar": "KTNB 091235Z AUTO 13003KT 10SM -RA BKN003 OVC006 06/06 A2986 RMK AO2 T00590059",
    "updatedAt": "2022-03-09T12:35:00.000Z"
  },
  {
    "airportIcao": "KTNU",
    "metar": "KTNU 091235Z AUTO 34009KT 10SM BKN028 M03/M05 A3007 RMK A01",
    "updatedAt": "2022-03-09T12:35:00.000Z"
  },
  {
    "airportIcao": "KTOA",
    "metar": "KTOA 090348Z 27011KT 10SM SKC 14/01 A3002 RMK LAST",
    "updatedAt": "2022-03-09T03:48:00.000Z"
  },
  {
    "airportIcao": "KTOB",
    "metar": "KTOB 091235Z AUTO 30013G18KT 10SM -SN M09/M13 A3002 RMK AO2",
    "updatedAt": "2022-03-09T12:35:00.000Z"
  },
  {
    "airportIcao": "KTOC",
    "metar": "KTOC 091237Z AUTO 00000KT 5SM RA SCT002 BKN006 OVC033 11/10 A2984 RMK AO2",
    "updatedAt": "2022-03-09T12:37:00.000Z"
  },
  {
    "airportIcao": "KTOI",
    "metar": "KTOI 091212Z AUTO 28004KT 10SM -RA BKN007 BKN010 OVC025 16/13 A2988 RMK AO2 RAB05 P0001 T01560133",
    "updatedAt": "2022-03-09T12:12:00.000Z"
  },
  {
    "airportIcao": "KTOL",
    "metar": "KTOL 091152Z 00000KT 9SM OVC036 00/M04 A2997 RMK AO2 SLP154 T00001039 10006 21006 55006",
    "updatedAt": "2022-03-09T11:52:00.000Z"
  },
  {
    "airportIcao": "KTOP",
    "metar": "KTOP 091153Z AUTO 34005KT 10SM SCT032 M02/M06 A3011 RMK AO2 SLP201 T10171056 10033 21022 53013",
    "updatedAt": "2022-03-09T11:53:00.000Z"
  },
  {
    "airportIcao": "KTOR",
    "metar": "KTOR 091201Z AUTO 07009KT 9SM -SN OVC017 M11/M13 A3001 RMK AO2 P0000 T11111133",
    "updatedAt": "2022-03-09T12:01:00.000Z"
  },
  {
    "airportIcao": "KTPA",
    "metar": "KTPA 091153Z 16007KT 10SM OVC012 24/21 A2998 RMK AO2 SLP150 T02390211 10250 20239 53006",
    "updatedAt": "2022-03-09T11:53:00.000Z"
  },
  {
    "airportIcao": "KTPF",
    "metar": "KTPF 091235Z AUTO 18008KT 10SM OVC012 24/24 A2999 RMK AO2",
    "updatedAt": "2022-03-09T12:35:00.000Z"
  },
  {
    "airportIcao": "KTPH",
    "metar": "KTPH 091156Z AUTO 33011KT 10SM CLR 01/M06 A2995 RMK AO2 SLP130 T00061056 10022 21028 56013",
    "updatedAt": "2022-03-09T11:56:00.000Z"
  },
  {
    "airportIcao": "KTPL",
    "metar": "KTPL 091151Z AUTO 33007KT 4SM BR CLR M01/M01 A3011 RMK AO2 SLP195 70001 T10061011 10011 21017 53004 FZRANO",
    "updatedAt": "2022-03-09T11:51:00.000Z"
  },
  {
    "airportIcao": "KTQE",
    "metar": "KTQE 091154Z AUTO 32007KT 10SM CLR M08/M11 A3015 RMK AO2 SLP217 T10781106 11028 21078 53012",
    "updatedAt": "2022-03-09T11:54:00.000Z"
  },
  {
    "airportIcao": "KTQH",
    "metar": "KTQH 091235Z AUTO 00000KT 10SM CLR M05/M06 A3011 RMK AO2",
    "updatedAt": "2022-03-09T12:35:00.000Z"
  },
  {
    "airportIcao": "KTQK",
    "metar": "KTQK 091235Z AUTO 08009KT 10SM OVC013 M06/M08 A3004 RMK AO2 T10571077",
    "updatedAt": "2022-03-09T12:35:00.000Z"
  },
  {
    "airportIcao": "KTQV",
    "metar": "KTQV 090615Z AUTO 10011G17KT 4SM BR OVC005 08/07 A2997 RMK A01",
    "updatedAt": "2022-03-09T06:15:00.000Z"
  },
  {
    "airportIcao": "KTRI",
    "metar": "KTRI 091153Z 00000KT 10SM OVC065 10/09 A2976 RMK AO2 SLP064 60049 70093 T01000089 10100 20083 56028",
    "updatedAt": "2022-03-09T11:53:00.000Z"
  },
  {
    "airportIcao": "KTRK",
    "metar": "KTRK 091238Z AUTO 00000KT 10SM CLR M06/M07 A3003 RMK AO2",
    "updatedAt": "2022-03-09T12:38:00.000Z"
  },
  {
    "airportIcao": "KTRL",
    "metar": "KTRL 091153Z AUTO 33003KT 10SM CLR M01/M03 A3011 RMK AO2 SLP197 70002 T10061028 10022 21033 51010",
    "updatedAt": "2022-03-09T11:53:00.000Z"
  },
  {
    "airportIcao": "KTRM",
    "metar": "KTRM 091152Z AUTO 34004KT 10SM CLR 02/M04 A2993 RMK AO2 SLP134 7//// T00221044 10089 20022 56009 $",
    "updatedAt": "2022-03-09T11:52:00.000Z"
  },
  {
    "airportIcao": "KTSP",
    "metar": "KTSP 091235Z AUTO 28006KT 10SM CLR 02/M05 A3003 RMK AO2",
    "updatedAt": "2022-03-09T12:35:00.000Z"
  },
  {
    "airportIcao": "KTTA",
    "metar": "KTTA 091235Z AUTO 04003KT 10SM BKN006 OVC018 07/07 A2991 RMK AO2 T00740074",
    "updatedAt": "2022-03-09T12:35:00.000Z"
  },
  {
    "airportIcao": "KTTF",
    "metar": "KTTF 091235Z AUTO 00000KT 7SM SCT120 M01/M03 A2996 RMK AO2 T10111029",
    "updatedAt": "2022-03-09T12:35:00.000Z"
  },
  {
    "airportIcao": "KTTN",
    "metar": "KTTN 091153Z 06005KT 10SM OVC110 03/01 A3008 RMK AO2 SLP181 T00330006 10039 20022 56010",
    "updatedAt": "2022-03-09T11:53:00.000Z"
  },
  {
    "airportIcao": "KTTS",
    "metar": "KTTS 091156Z AUTO 18006KT 10SM CLR 21/20 A2998 RMK AO2 SLP156 70026 T02050200 10219 20204 52010 $",
    "updatedAt": "2022-03-09T11:56:00.000Z"
  },
  {
    "airportIcao": "KTUL",
    "metar": "KTUL 091153Z 34004KT 10SM CLR M04/M06 A3009 RMK AO2 SLP195 T10441056 10006 21044 53006",
    "updatedAt": "2022-03-09T11:53:00.000Z"
  },
  {
    "airportIcao": "KTUP",
    "metar": "KTUP 091153Z 34008KT 10SM OVC012 06/04 A3001 RMK AO2 SLP162 60003 70078 T00560039 10067 20056 53027 $",
    "updatedAt": "2022-03-09T11:53:00.000Z"
  },
  {
    "airportIcao": "KTUS",
    "metar": "KTUS 091153Z 15005KT 10SM CLR 02/M12 A2996 RMK AO2 SLP132 7//// T00221117 10078 20022 55003 $",
    "updatedAt": "2022-03-09T11:53:00.000Z"
  },
  {
    "airportIcao": "KTVC",
    "metar": "KTVC 091219Z 19008KT 10SM BKN028 OVC075 M02/M06 A2984 RMK AO2 T10221061",
    "updatedAt": "2022-03-09T12:19:00.000Z"
  },
  {
    "airportIcao": "KTVF",
    "metar": "KTVF 091156Z AUTO 31015KT 10SM OVC026 M17/M21 A3009 RMK AO2 SNE13 SLP220 P0000 60000 T11721206 11139 21172 53015 FZRANO",
    "updatedAt": "2022-03-09T11:56:00.000Z"
  },
  {
    "airportIcao": "KTVI",
    "metar": "KTVI 091235Z AUTO 21008KT 10SM OVC006 21/20 A2991 RMK AO2 LTG DSNT SW",
    "updatedAt": "2022-03-09T12:35:00.000Z"
  },
  {
    "airportIcao": "KTVK",
    "metar": "KTVK 091235Z AUTO 31006KT 10SM CLR M04/M04 A3008 RMK AO2",
    "updatedAt": "2022-03-09T12:35:00.000Z"
  },
  {
    "airportIcao": "KTVL",
    "metar": "KTVL 091153Z AUTO 17004KT 10SM CLR M04/M07 A3002 RMK AO2 SLP159 T10391067 11022 21044 58010",
    "updatedAt": "2022-03-09T11:53:00.000Z"
  },
  {
    "airportIcao": "KTVR",
    "metar": "KTVR 091222Z AUTO 33005KT 10SM BKN016 OVC036 07/04 A3005 RMK AO2 T00720044",
    "updatedAt": "2022-03-09T12:22:00.000Z"
  },
  {
    "airportIcao": "KTVY",
    "metar": "KTVY 091235Z AUTO 00000KT 1 3/4SM -SN BKN004 OVC010 00/00 A2986 RMK AO2 P0001",
    "updatedAt": "2022-03-09T12:35:00.000Z"
  },
  {
    "airportIcao": "KTWF",
    "metar": "KTWF 091226Z AUTO 28016KT 1 1/4SM -SN BR OVC007 M01/M02 A2988 RMK AO2 PK WND 29027/1204 SNB1154 P0001 T10111022",
    "updatedAt": "2022-03-09T12:26:00.000Z"
  },
  {
    "airportIcao": "KTWM",
    "metar": "KTWM 091235Z AUTO 28009G16KT 10SM CLR M12/M16 A2987 RMK AO2",
    "updatedAt": "2022-03-09T12:35:00.000Z"
  },
  {
    "airportIcao": "KTWT",
    "metar": "KTWT 091235Z AUTO 00000KT 7SM BKN085 OVC100 02/00 A3003 RMK AO2",
    "updatedAt": "2022-03-09T12:35:00.000Z"
  },
  {
    "airportIcao": "KTXK",
    "metar": "KTXK 091153Z 00000KT 1/4SM FG VV002 03/02 A3009 RMK AO2 SLP190 70016 T00280017 10050 20028 53013",
    "updatedAt": "2022-03-09T11:53:00.000Z"
  },
  {
    "airportIcao": "KTXW",
    "metar": "KTXW 091235Z AUTO 34009KT 10SM SCT014 OVC036 09/07 A3004 RMK AO2 T00930072",
    "updatedAt": "2022-03-09T12:35:00.000Z"
  },
  {
    "airportIcao": "KTYL",
    "metar": "KTYL 091235Z AUTO 20006KT 10SM CLR M08/M09 A2995 RMK AO2",
    "updatedAt": "2022-03-09T12:35:00.000Z"
  },
  {
    "airportIcao": "KTYQ",
    "metar": "KTYQ 091235Z AUTO 00000KT 7SM BKN110 M01/M03 A2998 RMK AO2 T10061026",
    "updatedAt": "2022-03-09T12:35:00.000Z"
  },
  {
    "airportIcao": "KTYR",
    "metar": "KTYR 091153Z AUTO 00000KT 10SM CLR M01/M02 A3008 RMK AO2 SLP188 70015 I1000 I6000 T10061017 10028 21011 51011",
    "updatedAt": "2022-03-09T11:53:00.000Z"
  },
  {
    "airportIcao": "KTYS",
    "metar": "KTYS 091153Z VRB05KT 2SM -RA BR OVC004 09/09 A2982 RMK AO2 SFC VIS 2 1/2 RAB24 PRESRR SLP096 P0000 60043 70128 T00890089 10100 20083 53025 $",
    "updatedAt": "2022-03-09T11:53:00.000Z"
  },
  {
    "airportIcao": "KTZR",
    "metar": "KTZR 091215Z COR 34004KT 10SM SCT043 BKN060 OVC085 02/M02 A2992",
    "updatedAt": "2022-03-09T12:15:00.000Z"
  },
  {
    "airportIcao": "KU42",
    "metar": "KU42 091235Z AUTO 00000KT 2 1/2SM BKN003 BKN006 OVC010 00/00 A2985 RMK AO1 T00000000",
    "updatedAt": "2022-03-09T12:35:00.000Z"
  },
  {
    "airportIcao": "KU52",
    "metar": "KU52 090615Z AUTO 00000KT 10SM FEW045 FEW055 BKN075 M00/M07 A2994 RMK AO2",
    "updatedAt": "2022-03-09T06:15:00.000Z"
  },
  {
    "airportIcao": "KU55",
    "metar": "KU55 090615Z AUTO 15007KT 10SM M03/M07 A2997 RMK A01",
    "updatedAt": "2022-03-09T06:15:00.000Z"
  },
  {
    "airportIcao": "KU68",
    "metar": "KU68 091235Z AUTO 29010KT 10SM BKN060 BKN080 OVC095 M13/M18 A3009 RMK AO2",
    "updatedAt": "2022-03-09T12:35:00.000Z"
  },
  {
    "airportIcao": "KU69",
    "metar": "KU69 090615Z AUTO 00000KT 10SM SCT065 M03/M06 A2984 RMK A01",
    "updatedAt": "2022-03-09T06:15:00.000Z"
  },
  {
    "airportIcao": "KUAO",
    "metar": "KUAO 091153Z AUTO 36005KT 5SM -RA BR OVC005 06/04 A3017 RMK AO2 RAB1055 SLP215 P0003 60010 70010 T00560044 10083 20056 55003",
    "updatedAt": "2022-03-09T11:53:00.000Z"
  },
  {
    "airportIcao": "KUBE",
    "metar": "KUBE 091235Z AUTO 28013KT 7SM -SN OVC018 M07/M11 A2996 RMK AO2",
    "updatedAt": "2022-03-09T12:35:00.000Z"
  },
  {
    "airportIcao": "KUCP",
    "metar": "KUCP 091156Z AUTO 02003KT 10SM OVC080 00/M03 A2991 RMK AO2 SLP156 T00001033 10006 20000 56018",
    "updatedAt": "2022-03-09T11:56:00.000Z"
  },
  {
    "airportIcao": "KUCY",
    "metar": "KUCY 090615Z AUTO 35006KT 4SM BR SCT009 BKN015 OVC032 03/02 A2999 RMK A01",
    "updatedAt": "2022-03-09T06:15:00.000Z"
  },
  {
    "airportIcao": "KUDG",
    "metar": "KUDG 091233Z AUTO 05005KT 2 1/2SM BR OVC004 12/12 A2990 RMK AO2",
    "updatedAt": "2022-03-09T12:33:00.000Z"
  },
  {
    "airportIcao": "KUES",
    "metar": "KUES 091145Z 24005KT 10SM CLR M04/M07 A2993",
    "updatedAt": "2022-03-09T11:45:00.000Z"
  },
  {
    "airportIcao": "KUGN",
    "metar": "KUGN 091155Z 25004KT 10SM CLR M01/M05 A2993 RMK AO2 SLP149 T10111050 11006 21039 55004",
    "updatedAt": "2022-03-09T11:55:00.000Z"
  },
  {
    "airportIcao": "KUIL",
    "metar": "KUIL 091153Z AUTO 05009KT 10SM FEW085 03/M03 A3017 RMK AO2 SLP219 70002 T00281028 10033 21006 51002",
    "updatedAt": "2022-03-09T11:53:00.000Z"
  },
  {
    "airportIcao": "KUIN",
    "metar": "KUIN 091154Z AUTO 25004KT 10SM CLR M02/M04 A3001 RMK AO2 SLP169 T10171044 10000 21022 55001 TSNO",
    "updatedAt": "2022-03-09T11:54:00.000Z"
  },
  {
    "airportIcao": "KUKF",
    "metar": "KUKF 091235Z AUTO 08005KT 10SM -DZ OVC002 07/07 A2991 RMK AO2 P0001",
    "updatedAt": "2022-03-09T12:35:00.000Z"
  },
  {
    "airportIcao": "KUKI",
    "metar": "KUKI 091156Z AUTO 00000KT 10SM CLR 06/M02 A3008 RMK AO2 SLP182 T00561022 10122 20044 55003",
    "updatedAt": "2022-03-09T11:56:00.000Z"
  },
  {
    "airportIcao": "KUKL",
    "metar": "KUKL 091235Z AUTO 01009KT 10SM OVC017 00/M04 A3010 RMK AO2 T10031040",
    "updatedAt": "2022-03-09T12:35:00.000Z"
  },
  {
    "airportIcao": "KUKT",
    "metar": "KUKT 091235Z AUTO 06004KT 10SM OVC044 02/00 A3006 RMK A01",
    "updatedAt": "2022-03-09T12:35:00.000Z"
  },
  {
    "airportIcao": "KULM",
    "metar": "KULM 091235Z AUTO 32014G21KT 10SM -SN SCT019 OVC027 M09/M12 A3010 RMK AO2",
    "updatedAt": "2022-03-09T12:35:00.000Z"
  },
  {
    "airportIcao": "KULS",
    "metar": "KULS 091235Z AUTO 00000KT 10SM BKN005 M07/M09 A2998 RMK AO2",
    "updatedAt": "2022-03-09T12:35:00.000Z"
  },
  {
    "airportIcao": "KUMP",
    "metar": "KUMP 091235Z AUTO 00000KT 7SM OVC090 01/00 A2998 RMK AO2 T00061005",
    "updatedAt": "2022-03-09T12:35:00.000Z"
  },
  {
    "airportIcao": "KUNI",
    "metar": "KUNI 091235Z AUTO 36006KT 7SM UP SCT004 BKN026 OVC031 01/01 A2990 RMK AO2 T00120012",
    "updatedAt": "2022-03-09T12:35:00.000Z"
  },
  {
    "airportIcao": "KUNO",
    "metar": "KUNO 091153Z AUTO 31004KT 10SM CLR M01/M03 A3003 RMK AO2 SLP175 60000 T10061033 10039 21006 53009 TSNO",
    "updatedAt": "2022-03-09T11:53:00.000Z"
  },
  {
    "airportIcao": "KUNU",
    "metar": "KUNU 091235Z AUTO 25005KT 10SM OVC023 M05/M07 A2993 RMK AO2 T10491071",
    "updatedAt": "2022-03-09T12:35:00.000Z"
  },
  {
    "airportIcao": "KUNV",
    "metar": "KUNV 091242Z 00000KT 1SM -SN OVC012 M01/M01 A2994",
    "updatedAt": "2022-03-09T12:42:00.000Z"
  },
  {
    "airportIcao": "KUOX",
    "metar": "KUOX 091235Z AUTO 03007KT 010V070 10SM OVC007 03/03 A3005 RMK AO2 PWINO",
    "updatedAt": "2022-03-09T12:35:00.000Z"
  },
  {
    "airportIcao": "KUSE",
    "metar": "KUSE 090615Z AUTO 30003KT 10SM SCT030 M01/M01 A3003 RMK AO2",
    "updatedAt": "2022-03-09T06:15:00.000Z"
  },
  {
    "airportIcao": "KUTA",
    "metar": "KUTA 091235Z AUTO 34006KT 10SM OVC012 03/02 A3008 RMK AO2 TSNO",
    "updatedAt": "2022-03-09T12:35:00.000Z"
  },
  {
    "airportIcao": "KUTS",
    "metar": "KUTS 091153Z AUTO 36004KT 5SM BR CLR 04/02 A3007 RMK AO2 SLP182 70123 T00390022 10061 20039 53001",
    "updatedAt": "2022-03-09T11:53:00.000Z"
  },
  {
    "airportIcao": "KUUU",
    "metar": "KUUU 091153Z AUTO 11004KT 10SM BKN120 01/M07 A3016 RMK AO2 SLP214 T00111072 10011 21011 58009 TSNO",
    "updatedAt": "2022-03-09T11:53:00.000Z"
  },
  {
    "airportIcao": "KUVA",
    "metar": "KUVA 091235Z AUTO 03003KT 10SM CLR 04/00 A3009 RMK AO2 T00370000",
    "updatedAt": "2022-03-09T12:35:00.000Z"
  },
  {
    "airportIcao": "KUXL",
    "metar": "KUXL 091215Z AUTO 36008G14KT 10SM OVC010 07/05 A3002 RMK AO2 T00680048",
    "updatedAt": "2022-03-09T12:15:00.000Z"
  },
  {
    "airportIcao": "KUYF",
    "metar": "KUYF 091235Z AUTO 01007KT 10SM 01/M01 A2992 RMK AO2",
    "updatedAt": "2022-03-09T12:35:00.000Z"
  },
  {
    "airportIcao": "KUZA",
    "metar": "KUZA 091236Z AUTO 35008KT 1 1/2SM RA BR OVC003 11/10 A2993 RMK AO2 LTG DSNT W AND NW RAE19B29 CIG 002V008 P0004 T01110100 $",
    "updatedAt": "2022-03-09T12:36:00.000Z"
  },
  {
    "airportIcao": "KVAD",
    "metar": "KVAD 091202Z AUTO 20009KT 10SM OVC007 21/20 A2990 RMK AO2 SLP126 $",
    "updatedAt": "2022-03-09T12:02:00.000Z"
  },
  {
    "airportIcao": "KVAY",
    "metar": "KVAY 091241Z AUTO 15009G16KT 10SM -RA FEW015 BKN020 OVC090 05/01 A3008 RMK AO2 RAB38 P0000 T00500011",
    "updatedAt": "2022-03-09T12:41:00.000Z"
  },
  {
    "airportIcao": "KVBG",
    "metar": "KVBG 091236Z AUTO 14003KT 6SM BR BKN002 03/03 A3001 RMK AO2 BKN V SCT SLP166",
    "updatedAt": "2022-03-09T12:36:00.000Z"
  },
  {
    "airportIcao": "KVBT",
    "metar": "KVBT 091156Z AUTO 00000KT 4SM BR CLR M04/M04 A3008 RMK AO2 SLP198 T10391044 10022 21039 53009 FZRANO",
    "updatedAt": "2022-03-09T11:56:00.000Z"
  },
  {
    "airportIcao": "KVBW",
    "metar": "KVBW 091235Z AUTO 00000KT 10SM OVC006 04/04 A2989 RMK AO1 P0004 T00410041",
    "updatedAt": "2022-03-09T12:35:00.000Z"
  },
  {
    "airportIcao": "KVCB",
    "metar": "KVCB 091153Z AUTO 00000KT 10SM CLR 06/01 A3001 RMK AO2 SLP163 T00560006 10144 20050 56006 $",
    "updatedAt": "2022-03-09T11:53:00.000Z"
  },
  {
    "airportIcao": "KVCT",
    "metar": "KVCT 091151Z AUTO 03010KT 10SM CLR 07/03 A3004 RMK AO2 SLP172 T00670028 10078 20067 53002",
    "updatedAt": "2022-03-09T11:51:00.000Z"
  },
  {
    "airportIcao": "KVCV",
    "metar": "KVCV 090455Z AUTO 24007KT 9SM CLR 09/M11 A3007 RMK AO2",
    "updatedAt": "2022-03-09T04:55:00.000Z"
  },
  {
    "airportIcao": "KVDF",
    "metar": "KVDF 091235Z AUTO 19008KT 7SM OVC010 23/22 A3000 RMK AO2",
    "updatedAt": "2022-03-09T12:35:00.000Z"
  },
  {
    "airportIcao": "KVDI",
    "metar": "KVDI 091235Z AUTO 19007KT 10SM BKN020 20/18 A2987 RMK AO2",
    "updatedAt": "2022-03-09T12:35:00.000Z"
  },
  {
    "airportIcao": "KVEL",
    "metar": "KVEL 091153Z AUTO 30005KT 10SM FEW042 BKN050 BKN100 M02/M08 A2976 RMK AO2 SLP088 T10171078 11011 21028 56017",
    "updatedAt": "2022-03-09T11:53:00.000Z"
  },
  {
    "airportIcao": "KVER",
    "metar": "KVER 091235Z AUTO 27003KT 10SM SCT075 M01/M02 A3007 RMK AO2 T10071019",
    "updatedAt": "2022-03-09T12:35:00.000Z"
  },
  {
    "airportIcao": "KVES",
    "metar": "KVES 091230Z AUTO 01004KT 10SM -SN SCT023 BKN029 OVC037 00/M01 A2995 RMK AO2",
    "updatedAt": "2022-03-09T12:30:00.000Z"
  },
  {
    "airportIcao": "KVGC",
    "metar": "KVGC 091235Z AUTO 00000KT 10SM CLR M03/M06 A3002 RMK AO2",
    "updatedAt": "2022-03-09T12:35:00.000Z"
  },
  {
    "airportIcao": "KVGT",
    "metar": "KVGT 091153Z AUTO 00000KT 10SM CLR 07/M10 A2991 RMK AO2 SLP141 T00671100 10106 20061 55009",
    "updatedAt": "2022-03-09T11:53:00.000Z"
  },
  {
    "airportIcao": "KVHN",
    "metar": "KVHN 091235Z AUTO 25007KT 10SM CLR M01/M14 A3000 RMK AO2 T10121144",
    "updatedAt": "2022-03-09T12:35:00.000Z"
  },
  {
    "airportIcao": "KVIH",
    "metar": "KVIH 091153Z AUTO 27005KT 9SM CLR M02/M04 A3003 RMK AO2 SLP177 T10221039 10017 21022 53007 TSNO",
    "updatedAt": "2022-03-09T11:53:00.000Z"
  },
  {
    "airportIcao": "KVIS",
    "metar": "KVIS 091156Z AUTO 13004KT 10SM CLR 06/03 A3002 RMK AO2 SLP176 7//// T00610033 10089 20050 56006",
    "updatedAt": "2022-03-09T11:56:00.000Z"
  },
  {
    "airportIcao": "KVJI",
    "metar": "KVJI 091235Z AUTO 05003KT 10SM SCT035 BKN065 OVC080 08/08 A2978 RMK AO2 T00800080",
    "updatedAt": "2022-03-09T12:35:00.000Z"
  },
  {
    "airportIcao": "KVKS",
    "metar": "KVKS 091235Z AUTO 34006KT 10SM BKN009 OVC015 06/06 A3004 RMK A01",
    "updatedAt": "2022-03-09T12:35:00.000Z"
  },
  {
    "airportIcao": "KVLD",
    "metar": "KVLD 091153Z 19005KT 6SM BR OVC005 21/21 A2991 RMK AO2 SLP136 T02110206 10211 20178 53005",
    "updatedAt": "2022-03-09T11:53:00.000Z"
  },
  {
    "airportIcao": "KVLL",
    "metar": "KVLL 091235Z AUTO 21003KT 10SM CLR M02/M04 A2997 RMK AO2 T10221041",
    "updatedAt": "2022-03-09T12:35:00.000Z"
  },
  {
    "airportIcao": "KVNC",
    "metar": "KVNC 091235Z AUTO 16009KT 4SM BR SCT029 BKN037 24/24 A3000 RMK AO2",
    "updatedAt": "2022-03-09T12:35:00.000Z"
  },
  {
    "airportIcao": "KVNW",
    "metar": "KVNW 091235Z AUTO 00000KT 10SM OVC100 00/M02 A2996 RMK AO2",
    "updatedAt": "2022-03-09T12:35:00.000Z"
  },
  {
    "airportIcao": "KVNY",
    "metar": "KVNY 091151Z AUTO 00000KT 10SM CLR 09/M01 A2997 RMK AO2 SLP146 T00891006 10139 20072 55002",
    "updatedAt": "2022-03-09T11:51:00.000Z"
  },
  {
    "airportIcao": "KVOA",
    "metar": "KVOA 091240Z AUTO 33012G19KT 10SM BKN005 BKN008 OVC013 19/18 A2989 RMK A01",
    "updatedAt": "2022-03-09T12:40:00.000Z"
  },
  {
    "airportIcao": "KVOK",
    "metar": "KVOK 091156Z AUTO 29012G19KT 10SM OVC032 M04/M11 A2993 RMK AO2 SLP150 T10401115 10000 21040 53007",
    "updatedAt": "2022-03-09T11:56:00.000Z"
  },
  {
    "airportIcao": "KVPC",
    "metar": "KVPC 091235Z AUTO 29006KT 8SM OVC005 10/10 A2987 RMK AO2",
    "updatedAt": "2022-03-09T12:35:00.000Z"
  },
  {
    "airportIcao": "KVPS",
    "metar": "KVPS 091203Z AUTO 22003KT 10SM BKN013 OVC021 20/19 A2983 RMK AO2 LTG DSNT SE RAE1158 CIG 012 RWY12 SLP108 $",
    "updatedAt": "2022-03-09T12:03:00.000Z"
  },
  {
    "airportIcao": "KVPZ",
    "metar": "KVPZ 091156Z AUTO 00000KT 8SM OVC110 M03/M04 A2997 RMK AO2 SLP156 T10281044 11022 21039 56005",
    "updatedAt": "2022-03-09T11:56:00.000Z"
  },
  {
    "airportIcao": "KVQQ",
    "metar": "KVQQ 091229Z COR 19006KT 4SM BR BKN009 BKN012 22/22 A2995",
    "updatedAt": "2022-03-09T12:29:00.000Z"
  },
  {
    "airportIcao": "KVRB",
    "metar": "KVRB 091202Z 19005KT 9SM SCT022 22/22 A3003 RMK AO2 T02170217",
    "updatedAt": "2022-03-09T12:02:00.000Z"
  },
  {
    "airportIcao": "KVSF",
    "metar": "KVSF 091154Z AUTO 00000KT 10SM CLR M04/M07 A3016 RMK AO2 SLP221 T10441067 11039 21050 55001",
    "updatedAt": "2022-03-09T11:54:00.000Z"
  },
  {
    "airportIcao": "KVTA",
    "metar": "KVTA 091236Z AUTO 05003KT 3SM -SN OVC031 03/M02 A2990 RMK AO2 SNB12 P0000 T00281022",
    "updatedAt": "2022-03-09T12:36:00.000Z"
  },
  {
    "airportIcao": "KVTI",
    "metar": "KVTI 091235Z AUTO 29007KT 10SM SCT028 M03/M07 A3005 RMK AO2 T10351067",
    "updatedAt": "2022-03-09T12:35:00.000Z"
  },
  {
    "airportIcao": "KVTN",
    "metar": "KVTN 091152Z AUTO 35013KT 10SM OVC027 M10/M16 A3014 RMK AO2 SLP242 T11001161 11056 21100 55001",
    "updatedAt": "2022-03-09T11:52:00.000Z"
  },
  {
    "airportIcao": "KVTP",
    "metar": "KVTP 091235Z AUTO 26013G22KT 10SM CLR M12/M15 A2971 RMK AO2",
    "updatedAt": "2022-03-09T12:35:00.000Z"
  },
  {
    "airportIcao": "KVUJ",
    "metar": "KVUJ 091235Z AUTO 08003KT 5SM BR OVC005 10/10 A2993 RMK AO2 T00990096",
    "updatedAt": "2022-03-09T12:35:00.000Z"
  },
  {
    "airportIcao": "KVUO",
    "metar": "KVUO 091214Z AUTO 11010KT 4SM -RA BR BKN007 OVC014 05/03 A3017 RMK AO2 RAB09 P0001 T00500033",
    "updatedAt": "2022-03-09T12:14:00.000Z"
  },
  {
    "airportIcao": "KVVS",
    "metar": "KVVS 091235Z AUTO 07003KT 3 1/2SM -RA BR BKN013 BKN019 OVC027 04/03 A2987 RMK AO2 P0003 T00350027",
    "updatedAt": "2022-03-09T12:35:00.000Z"
  },
  {
    "airportIcao": "KVVV",
    "metar": "KVVV 091235Z AUTO 34011KT 10SM SCT012 SCT018 OVC044 M13/M15 A3015 RMK AO2",
    "updatedAt": "2022-03-09T12:35:00.000Z"
  },
  {
    "airportIcao": "KVWU",
    "metar": "KVWU 091235Z AUTO 28007KT 10SM SCT060 SCT100 M16/M18 A3001 RMK AO2",
    "updatedAt": "2022-03-09T12:35:00.000Z"
  },
  {
    "airportIcao": "KVYS",
    "metar": "KVYS 091235Z AUTO 27008KT 10SM CLR M01/M04 A3000 RMK AO2 T10071036",
    "updatedAt": "2022-03-09T12:35:00.000Z"
  },
  {
    "airportIcao": "KW13",
    "metar": "KW13 091235Z AUTO 12008KT 5SM BKN009 BKN026 OVC065 03/03 A2990 RMK AO1 P0006 T00300028",
    "updatedAt": "2022-03-09T12:35:00.000Z"
  },
  {
    "airportIcao": "KW22",
    "metar": "KW22 091235Z AUTO 02010KT 1 1/2SM RA FEW004 SCT012 OVC019 04/04 A2980 RMK AO2",
    "updatedAt": "2022-03-09T12:35:00.000Z"
  },
  {
    "airportIcao": "KW29",
    "metar": "KW29 091235Z AUTO 09004KT 3 1/2SM RA BR BKN008 BKN032 OVC080 04/ RMK AO2 P0004 T0041////",
    "updatedAt": "2022-03-09T12:35:00.000Z"
  },
  {
    "airportIcao": "KW31",
    "metar": "KW31 091235Z AUTO 00000KT 10SM OVC004 05/05 A2993 RMK AO1 T00470047",
    "updatedAt": "2022-03-09T12:35:00.000Z"
  },
  {
    "airportIcao": "KW43",
    "metar": "KW43 091235Z AUTO 34004KT 10SM BKN011 OVC090 M16/M18 A3007 RMK AO2",
    "updatedAt": "2022-03-09T12:35:00.000Z"
  },
  {
    "airportIcao": "KW63",
    "metar": "KW63 091235Z AUTO 04004KT 10SM OVC006 05/05 A2993 RMK AO1",
    "updatedAt": "2022-03-09T12:35:00.000Z"
  },
  {
    "airportIcao": "KW75",
    "metar": "KW75 091235Z AUTO 06009G14KT 10SM OVC005 06/M22 A2993 RMK AO1 P0008 T00601224",
    "updatedAt": "2022-03-09T12:35:00.000Z"
  },
  {
    "airportIcao": "KW78",
    "metar": "KW78 091235Z AUTO 07003KT 10SM OVC007 06/05 A2994 RMK AO1 T00550047",
    "updatedAt": "2022-03-09T12:35:00.000Z"
  },
  {
    "airportIcao": "KW81",
    "metar": "KW81 091235Z AUTO 00000KT 7SM OVC004 04/03 A2995 RMK AO1 T00430030",
    "updatedAt": "2022-03-09T12:35:00.000Z"
  },
  {
    "airportIcao": "KW96",
    "metar": "KW96 091235Z AUTO 03003KT 10SM OVC006 05/05 A2996 RMK AO1 T00480048",
    "updatedAt": "2022-03-09T12:35:00.000Z"
  },
  {
    "airportIcao": "KW99",
    "metar": "KW99 091235Z AUTO 34003KT 5SM UP BKN007 OVC021 02/02 A2992 RMK AO2 P0003 T00220022",
    "updatedAt": "2022-03-09T12:35:00.000Z"
  },
  {
    "airportIcao": "KWAL",
    "metar": "KWAL 091238Z AUTO 05018G26KT 5SM +RA BR SCT007 OVC046 07/05 A3001",
    "updatedAt": "2022-03-09T12:38:00.000Z"
  },
  {
    "airportIcao": "KWBF",
    "metar": "KWBF 091230Z AUTO VRB03KT 2 1/2SM BR SCT007 BKN017 21/21 A2991 RMK A01",
    "updatedAt": "2022-03-09T12:30:00.000Z"
  },
  {
    "airportIcao": "KWDG",
    "metar": "KWDG 091215Z 35008KT 10SM SKC M06/M09 A3007 RMK FIRST",
    "updatedAt": "2022-03-09T12:15:00.000Z"
  },
  {
    "airportIcao": "KWDR",
    "metar": "KWDR 091235Z AUTO 00000KT 4SM RA SCT003 BKN030 OVC070 11/10 A2987 RMK AO2",
    "updatedAt": "2022-03-09T12:35:00.000Z"
  },
  {
    "airportIcao": "KWHP",
    "metar": "KWHP 090350Z 00000KT 10SM SKC 15/M05 A3005",
    "updatedAt": "2022-03-09T03:50:00.000Z"
  },
  {
    "airportIcao": "KWJF",
    "metar": "KWJF 091156Z AUTO 00000KT 10SM CLR 06/M06 A2998 RMK AO2 SLP150 T00561056 10100 20044 55007",
    "updatedAt": "2022-03-09T11:56:00.000Z"
  },
  {
    "airportIcao": "KWLD",
    "metar": "KWLD 091154Z AUTO 14003KT 10SM CLR M04/M07 A3008 RMK AO2 SLP196 T10391067 11011 21050 53006",
    "updatedAt": "2022-03-09T11:54:00.000Z"
  },
  {
    "airportIcao": "KWMC",
    "metar": "KWMC 091242Z AUTO 30007KT 10SM BKN028 OVC060 02/M02 A2995 RMK AO2 T00171022",
    "updatedAt": "2022-03-09T12:42:00.000Z"
  },
  {
    "airportIcao": "KWRB",
    "metar": "KWRB 091231Z 15004KT 10SM SCT010 OVC100 17/17 A2983 RMK AO2A SLP103",
    "updatedAt": "2022-03-09T12:31:00.000Z"
  },
  {
    "airportIcao": "KWRI",
    "metar": "KWRI 091156Z 11005KT 10SM CLR 04/01 A3008 RMK AO2A SLP187 T00430012 10043 20015 56007",
    "updatedAt": "2022-03-09T11:56:00.000Z"
  },
  {
    "airportIcao": "KWRL",
    "metar": "KWRL 091237Z AUTO 31008KT 2 1/2SM -SN OVC036 M14/M17 A3006 RMK AO2 P0000 T11391167",
    "updatedAt": "2022-03-09T12:37:00.000Z"
  },
  {
    "airportIcao": "KWST",
    "metar": "KWST 091153Z AUTO 00000KT 10SM OVC100 00/M06 A3016 RMK AO2 SLP213 T00001056 10006 21006 58013",
    "updatedAt": "2022-03-09T11:53:00.000Z"
  },
  {
    "airportIcao": "KWVI",
    "metar": "KWVI 091153Z AUTO 34004KT 10SM CLR 06/03 A3003 RMK AO2 SLP168 T00560028 10083 20050 58009",
    "updatedAt": "2022-03-09T11:53:00.000Z"
  },
  {
    "airportIcao": "KWVL",
    "metar": "KWVL 091156Z AUTO 00000KT 10SM CLR M06/M09 A3014 RMK AO2 SLP239 T10611089 11044 21072 57013 FZRANO",
    "updatedAt": "2022-03-09T11:56:00.000Z"
  },
  {
    "airportIcao": "KWWD",
    "metar": "KWWD 091156Z AUTO 07007KT 7SM RA BKN050 OVC065 04/03 A3009 RMK AO2 SLP192 P0011 60033 70033 T00440028 10067 20044 58001 $",
    "updatedAt": "2022-03-09T11:56:00.000Z"
  },
  {
    "airportIcao": "KWWR",
    "metar": "KWWR 091235Z AUTO 00000KT 10SM CLR M06/M08 A3006 RMK AO2",
    "updatedAt": "2022-03-09T12:35:00.000Z"
  },
  {
    "airportIcao": "KX07",
    "metar": "KX07 091235Z AUTO 18006KT 4SM BR BKN032 BKN049 BKN065 22/22 A3002 RMK A01",
    "updatedAt": "2022-03-09T12:35:00.000Z"
  },
  {
    "airportIcao": "KX26",
    "metar": "KX26 091235Z AUTO 16005KT 10SM SCT021 SCT065 21/21 A3003 RMK AO2 T02140208",
    "updatedAt": "2022-03-09T12:35:00.000Z"
  },
  {
    "airportIcao": "KX60",
    "metar": "KX60 091235Z AUTO 19007KT 7SM SCT007 BKN018 OVC024 22/22 A2996 RMK AO2 T0219////",
    "updatedAt": "2022-03-09T12:35:00.000Z"
  },
  {
    "airportIcao": "KXBP",
    "metar": "KXBP 091230Z AUTO 00000KT 10SM CLR M04/M04 A3013 RMK AO2 T10421042",
    "updatedAt": "2022-03-09T12:30:00.000Z"
  },
  {
    "airportIcao": "KXER",
    "metar": "KXER 091235Z AUTO 34004G10KT 5SM BR BKN011 BKN027 18/16 A2995 RMK A01",
    "updatedAt": "2022-03-09T12:35:00.000Z"
  },
  {
    "airportIcao": "KXIF",
    "metar": "KXIF 091158Z AUTO 05006KT 3SM -SN BR CLR 01/00 A2972 RMK AO2 RAE1058SNB1058E02PLB02E18PLB21E44SNB44 SLP074 P0005 60005 70005 58090 $",
    "updatedAt": "2022-03-09T11:58:00.000Z"
  },
  {
    "airportIcao": "KXLL",
    "metar": "KXLL 091235Z AUTO 07004KT 10SM OVC044 03/M01 A3007 RMK AO2",
    "updatedAt": "2022-03-09T12:35:00.000Z"
  },
  {
    "airportIcao": "KXMR",
    "metar": "KXMR 091156Z AUTO 20008KT 10SM CLR 22/20 A2999 RMK AO2 SLP159 T02180202 10226 20212 52012 $",
    "updatedAt": "2022-03-09T11:56:00.000Z"
  },
  {
    "airportIcao": "KXNA",
    "metar": "KXNA 091153Z 00000KT 8SM CLR M03/M04 A3006 RMK AO2 SLP188 T10281039 10022 21028 53009",
    "updatedAt": "2022-03-09T11:53:00.000Z"
  },
  {
    "airportIcao": "KXNO",
    "metar": "KXNO 091221Z AUTO 16007KT 10SM SCT008 OVC017 19/19 A2987 RMK AO2 CIG 009V017 SLP116 $",
    "updatedAt": "2022-03-09T12:21:00.000Z"
  },
  {
    "airportIcao": "KXNX",
    "metar": "KXNX 090615Z AUTO 32006KT 3SM BR FEW025 OVC030 05/05 A2994 RMK A01",
    "updatedAt": "2022-03-09T06:15:00.000Z"
  },
  {
    "airportIcao": "KXSA",
    "metar": "KXSA 091235Z AUTO 36003KT 10SM OVC004 05/05 A2997 RMK AO2 P0001 T00510051",
    "updatedAt": "2022-03-09T12:35:00.000Z"
  },
  {
    "airportIcao": "KXVG",
    "metar": "KXVG 091233Z AUTO 28007KT 7SM SCT023 SCT029 M15/M18 A3000 RMK AO2",
    "updatedAt": "2022-03-09T12:33:00.000Z"
  },
  {
    "airportIcao": "KXWA",
    "metar": "KXWA 091151Z AUTO 31008KT 10SM OVC046 M16/M18 A3015 RMK AO2 SLP275 60001 70002 T11561183 11133 21156 53000",
    "updatedAt": "2022-03-09T11:51:00.000Z"
  },
  {
    "airportIcao": "KY19",
    "metar": "KY19 091235Z AUTO 28010KT 3SM -SN FEW007 SCT037 OVC046 M14/M15 A3016 RMK AO2",
    "updatedAt": "2022-03-09T12:35:00.000Z"
  },
  {
    "airportIcao": "KY23",
    "metar": "KY23 091235Z AUTO 28010G17KT 10SM OVC025 M06/M12 A2997 RMK AO2 T10631122",
    "updatedAt": "2022-03-09T12:35:00.000Z"
  },
  {
    "airportIcao": "KY31",
    "metar": "KY31 091235Z AUTO 27005KT 7SM CLR M08/M09 A2987 RMK AO2 T10761095",
    "updatedAt": "2022-03-09T12:35:00.000Z"
  },
  {
    "airportIcao": "KY49",
    "metar": "KY49 091235Z AUTO 29007KT 10SM SCT019 SCT030 BKN041 M16/M18 A3001 RMK AO2 T11581185",
    "updatedAt": "2022-03-09T12:35:00.000Z"
  },
  {
    "airportIcao": "KY50",
    "metar": "KY50 091156Z AUTO 28010KT FEW032 M04/M09 A2993 RMK AO2 SLP142 6//// 7//// T10441089 11006 21044 PWINO FZRANO $",
    "updatedAt": "2022-03-09T11:56:00.000Z"
  },
  {
    "airportIcao": "KY51",
    "metar": "KY51 091235Z AUTO 29010G14KT 10SM CLR M06/M09 A2996 RMK AO1 T10621088",
    "updatedAt": "2022-03-09T12:35:00.000Z"
  },
  {
    "airportIcao": "KY63",
    "metar": "KY63 091235Z AUTO 32012KT 10SM CLR M16/M18 A3013 RMK AO2 T11601185",
    "updatedAt": "2022-03-09T12:35:00.000Z"
  },
  {
    "airportIcao": "KY70",
    "metar": "KY70 091235Z AUTO 22006KT 10SM SCT110 M02/M03 A2992 RMK AO2 T10161027",
    "updatedAt": "2022-03-09T12:35:00.000Z"
  },
  {
    "airportIcao": "KYIP",
    "metar": "KYIP 091153Z 20003KT 7SM CLR M02/M05 A2997 RMK AO2 SLP152 T10221050 10000 21022 51001",
    "updatedAt": "2022-03-09T11:53:00.000Z"
  },
  {
    "airportIcao": "KYKM",
    "metar": "KYKM 091153Z AUTO 34004KT 10SM OVC095 02/M06 A3019 RMK AO2 SLP234 70008 T00171061 10039 20011 53011",
    "updatedAt": "2022-03-09T11:53:00.000Z"
  },
  {
    "airportIcao": "KYKN",
    "metar": "KYKN 091156Z AUTO 34013G20KT 10SM BKN110 M09/M13 A3016 RMK AO2 SLP246 T10891128 11056 21089 53008 FZRANO",
    "updatedAt": "2022-03-09T11:56:00.000Z"
  },
  {
    "airportIcao": "KYNG",
    "metar": "KYNG 091151Z 02003KT 10SM OVC090 00/M04 A2991 RMK AO2 SLP138 VIRGA T00001039 10000 21006 56016",
    "updatedAt": "2022-03-09T11:51:00.000Z"
  },
  {
    "airportIcao": "KZPH",
    "metar": "KZPH 091235Z AUTO 10SM OVC008 22/21 A3000 RMK A02 T02170211",
    "updatedAt": "2022-03-09T12:35:00.000Z"
  },
  {
    "airportIcao": "KZZV",
    "metar": "KZZV 091211Z AUTO 34003KT 3/4SM -SN BR BKN002 OVC009 01/00 A2991 RMK AO2 P0002 T00060000",
    "updatedAt": "2022-03-09T12:11:00.000Z"
  },
  {
    "airportIcao": "LATI",
    "metar": "LATI 091220Z VRB05KT CAVOK 12/M07 Q1014 NOSIG",
    "updatedAt": "2022-03-09T12:20:00.000Z"
  },
  {
    "airportIcao": "LBBG",
    "metar": "LBBG 091200Z 35008KT 9999 SCT033 BKN046 04/M03 Q1018 NOSIG",
    "updatedAt": "2022-03-09T12:00:00.000Z"
  },
  {
    "airportIcao": "LBGO",
    "metar": "LBGO 091200Z AUTO VRB09KT 9999 -RA FEW005/// SCT009/// OVC018/// 01/01 Q1018 NOSIG",
    "updatedAt": "2022-03-09T12:00:00.000Z"
  },
  {
    "airportIcao": "LBIA",
    "metar": "LBIA 091200Z 18004KT 9999 BKN040 BKN100 04/M04 Q1016",
    "updatedAt": "2022-03-09T12:00:00.000Z"
  },
  {
    "airportIcao": "LBPD",
    "metar": "LBPD 091200Z AUTO 29008KT 250V320 9999 OVC071/// 04/M05 Q1016 NOSIG",
    "updatedAt": "2022-03-09T12:00:00.000Z"
  },
  {
    "airportIcao": "LBPG",
    "metar": "LBPG 091200Z 33004KT 2000 HZ BKN007 OVC033 04/M04 Q1016",
    "updatedAt": "2022-03-09T12:00:00.000Z"
  },
  {
    "airportIcao": "LBPL",
    "metar": "LBPL 091230Z 03006KT 7000 HZ BKN007 02/M02 Q1018",
    "updatedAt": "2022-03-09T12:30:00.000Z"
  },
  {
    "airportIcao": "LBSF",
    "metar": "LBSF 091200Z 30008KT 270V340 9999 FEW050 OVC074 02/M06 Q1015 TEMPO 5000 SNRA",
    "updatedAt": "2022-03-09T12:00:00.000Z"
  },
  {
    "airportIcao": "LBWB",
    "metar": "LBWB 091200Z 36016KT 9999 BKN030 BKN100 03/M05 Q1016",
    "updatedAt": "2022-03-09T12:00:00.000Z"
  },
  {
    "airportIcao": "LBWN",
    "metar": "LBWN 091200Z 35013KT 9999 SCT030 03/M08 Q1017 NOSIG",
    "updatedAt": "2022-03-09T12:00:00.000Z"
  },
  {
    "airportIcao": "LCEN",
    "metar": "LCEN 091220Z 30018KT 9999 FEW020CB SCT025 BKN100 16/08 Q1005 NOSIG RMK RWY11 31018KT",
    "updatedAt": "2022-03-09T12:20:00.000Z"
  },
  {
    "airportIcao": "LCLK",
    "metar": "LCLK 091230Z 21006KT 170V250 9999 VCSH FEW018 SCT035 18/12 Q1005 NOSIG",
    "updatedAt": "2022-03-09T12:30:00.000Z"
  },
  {
    "airportIcao": "LCPH",
    "metar": "LCPH 091230Z 30010KT 250V320 9999 SCT026 FEW032CB SCT048 BKN080 16/11 Q1007",
    "updatedAt": "2022-03-09T12:30:00.000Z"
  },
  {
    "airportIcao": "LCRA",
    "metar": "LCRA 091220Z 26017KT 9999 FEW030CB 17/09 Q1006 NOSIG",
    "updatedAt": "2022-03-09T12:20:00.000Z"
  },
  {
    "airportIcao": "LDDU",
    "metar": "LDDU 091230Z VRB09G19KT CAVOK 10/M10 Q1016 NOSIG",
    "updatedAt": "2022-03-09T12:30:00.000Z"
  },
  {
    "airportIcao": "LDOS",
    "metar": "LDOS 091230Z 30010KT CAVOK 07/M05 Q1022",
    "updatedAt": "2022-03-09T12:30:00.000Z"
  },
  {
    "airportIcao": "LDPL",
    "metar": "LDPL 091230Z 28013KT CAVOK 11/M04 Q1022 NOSIG",
    "updatedAt": "2022-03-09T12:30:00.000Z"
  },
  {
    "airportIcao": "LDRI",
    "metar": "LDRI 091230Z 01007KT 300V070 9999 FEW033 12/M07 Q1022",
    "updatedAt": "2022-03-09T12:30:00.000Z"
  },
  {
    "airportIcao": "LDSP",
    "metar": "LDSP 091230Z 35009KT 310V030 CAVOK 13/M07 Q1019 NOSIG",
    "updatedAt": "2022-03-09T12:30:00.000Z"
  },
  {
    "airportIcao": "LDZA",
    "metar": "LDZA 091230Z 06008KT 360V140 CAVOK 10/M04 Q1023 NOSIG",
    "updatedAt": "2022-03-09T12:30:00.000Z"
  },
  {
    "airportIcao": "LDZD",
    "metar": "LDZD 091230Z 05007KT 350V120 CAVOK 11/M08 Q1021 BECMG 34008KT",
    "updatedAt": "2022-03-09T12:30:00.000Z"
  },
  {
    "airportIcao": "LEAB",
    "metar": "LEAB 091230Z VRB05KT 9999 FEW040 14/02 Q1022 NOSIG",
    "updatedAt": "2022-03-09T12:30:00.000Z"
  },
  {
    "airportIcao": "LEAG",
    "metar": "LEAG 091230Z AUTO 09010KT 9999 FEW021 15/11 Q1021",
    "updatedAt": "2022-03-09T12:30:00.000Z"
  },
  {
    "airportIcao": "LEAL",
    "metar": "LEAL 091230Z 10007KT 070V170 9999 FEW018 SCT022 16/10 Q1023 NOSIG",
    "updatedAt": "2022-03-09T12:30:00.000Z"
  },
  {
    "airportIcao": "LEAM",
    "metar": "LEAM 091230Z 21006KT 160V230 9999 FEW050 17/11 Q1022",
    "updatedAt": "2022-03-09T12:30:00.000Z"
  },
  {
    "airportIcao": "LEAO",
    "metar": "LEAO 091230Z 16005KT 120V250 9999 SCT035 14/03 Q1021",
    "updatedAt": "2022-03-09T12:30:00.000Z"
  },
  {
    "airportIcao": "LEAS",
    "metar": "LEAS 091230Z 19004KT 9999 FEW067 SCT076 14/07 Q1013 NOSIG",
    "updatedAt": "2022-03-09T12:30:00.000Z"
  },
  {
    "airportIcao": "LEBA",
    "metar": "LEBA 091230Z 03005KT CAVOK 18/05 Q1020",
    "updatedAt": "2022-03-09T12:30:00.000Z"
  },
  {
    "airportIcao": "LEBB",
    "metar": "LEBB 091230Z 17008KT 120V230 9999 BKN068 15/05 Q1017 TEMPO RA",
    "updatedAt": "2022-03-09T12:30:00.000Z"
  },
  {
    "airportIcao": "LEBG",
    "metar": "LEBG 091230Z 20014KT 170V230 9999 SCT025 BKN041 09/04 Q1018",
    "updatedAt": "2022-03-09T12:30:00.000Z"
  },
  {
    "airportIcao": "LEBL",
    "metar": "LEBL 091230Z 10005KT 050V130 9999 FEW018 14/09 Q1023 NOSIG",
    "updatedAt": "2022-03-09T12:30:00.000Z"
  },
  {
    "airportIcao": "LEBR",
    "metar": "LEBR 091230Z AUTO 13010KT 110V200 9999 BKN036 14/05 Q1021",
    "updatedAt": "2022-03-09T12:30:00.000Z"
  },
  {
    "airportIcao": "LEBT",
    "metar": "LEBT 091230Z AUTO 09007KT 040V150 CAVOK 16/07 Q1022",
    "updatedAt": "2022-03-09T12:30:00.000Z"
  },
  {
    "airportIcao": "LEBZ",
    "metar": "LEBZ 091230Z 23006KT 140V280 9999 SCT038 18/08 Q1020",
    "updatedAt": "2022-03-09T12:30:00.000Z"
  },
  {
    "airportIcao": "LECH",
    "metar": "LECH 091230Z AUTO 11007KT 070V160 9999 FEW019 12/08 Q1023",
    "updatedAt": "2022-03-09T12:30:00.000Z"
  },
  {
    "airportIcao": "LECO",
    "metar": "LECO 091236Z 21009KT 160V250 7000 RA FEW014 BKN020 BKN030 12/10 Q1013 TEMPO 3000",
    "updatedAt": "2022-03-09T12:36:00.000Z"
  },
  {
    "airportIcao": "LECV",
    "metar": "LECV 091230Z 22006KT 160V260 9999 FEW014 OVC027 08/04 Q1021",
    "updatedAt": "2022-03-09T12:30:00.000Z"
  },
  {
    "airportIcao": "LEDA",
    "metar": "LEDA 091230Z 10005KT 9999 FEW020 14/06 Q1022",
    "updatedAt": "2022-03-09T12:30:00.000Z"
  },
  {
    "airportIcao": "LEEC",
    "metar": "LEEC 091230Z 03006KT CAVOK 17/10 Q1021",
    "updatedAt": "2022-03-09T12:30:00.000Z"
  },
  {
    "airportIcao": "LEGA",
    "metar": "LEGA 091230Z 19012KT CAVOK 17/00 Q1021",
    "updatedAt": "2022-03-09T12:30:00.000Z"
  },
  {
    "airportIcao": "LEGE",
    "metar": "LEGE 091230Z 19012KT 160V220 9999 FEW030 SCT060 14/08 Q1022",
    "updatedAt": "2022-03-09T12:30:00.000Z"
  },
  {
    "airportIcao": "LEGR",
    "metar": "LEGR 091230Z VRB01KT CAVOK 17/05 Q1020",
    "updatedAt": "2022-03-09T12:30:00.000Z"
  },
  {
    "airportIcao": "LEGT",
    "metar": "LEGT 091230Z 19008KT 140V260 9999 SCT034 13/05 Q1021",
    "updatedAt": "2022-03-09T12:30:00.000Z"
  },
  {
    "airportIcao": "LEHC",
    "metar": "LEHC 091230Z 13006KT 080V200 9999 FEW011 10/07 Q1022",
    "updatedAt": "2022-03-09T12:30:00.000Z"
  },
  {
    "airportIcao": "LEIB",
    "metar": "LEIB 091230Z 13006KT 070V170 9999 SCT018 16/12 Q1023 NOSIG",
    "updatedAt": "2022-03-09T12:30:00.000Z"
  },
  {
    "airportIcao": "LEJR",
    "metar": "LEJR 091230Z 14010KT 100V200 9999 FEW025 19/10 Q1020",
    "updatedAt": "2022-03-09T12:30:00.000Z"
  },
  {
    "airportIcao": "LELC",
    "metar": "LELC 091230Z 11005KT 070V160 9999 FEW020 17/08 Q1023 NOSIG",
    "updatedAt": "2022-03-09T12:30:00.000Z"
  },
  {
    "airportIcao": "LELL",
    "metar": "LELL 091230Z 15002KT 9999 FEW010 SCT050 13/10 Q1023",
    "updatedAt": "2022-03-09T12:30:00.000Z"
  },
  {
    "airportIcao": "LELN",
    "metar": "LELN 091230Z 16008KT 4000 -RA BR BKN002 05/05 Q1017",
    "updatedAt": "2022-03-09T12:30:00.000Z"
  },
  {
    "airportIcao": "LELO",
    "metar": "LELO 091230Z 20004KT 150V240 9999 FEW025 11/06 Q1020",
    "updatedAt": "2022-03-09T12:30:00.000Z"
  },
  {
    "airportIcao": "LEMD",
    "metar": "LEMD 091230Z 21007KT 150V280 9999 FEW035 BKN045 13/05 Q1021 NOSIG",
    "updatedAt": "2022-03-09T12:30:00.000Z"
  },
  {
    "airportIcao": "LEMG",
    "metar": "LEMG 091230Z 13008KT 090V160 9999 FEW022 17/11 Q1022 NOSIG",
    "updatedAt": "2022-03-09T12:30:00.000Z"
  },
  {
    "airportIcao": "LEMH",
    "metar": "LEMH 091230Z 17007KT 110V220 9999 SCT024 14/07 Q1024",
    "updatedAt": "2022-03-09T12:30:00.000Z"
  },
  {
    "airportIcao": "LEMI",
    "metar": "LEMI 091230Z 15006KT 110V280 CAVOK 17/05 Q1022",
    "updatedAt": "2022-03-09T12:30:00.000Z"
  },
  {
    "airportIcao": "LEMO",
    "metar": "LEMO 091230Z 16001KT CAVOK 19/08 Q1020 NOSIG",
    "updatedAt": "2022-03-09T12:30:00.000Z"
  },
  {
    "airportIcao": "LEPA",
    "metar": "LEPA 091230Z 23009KT 9999 SCT024 16/09 Q1023 NOSIG",
    "updatedAt": "2022-03-09T12:30:00.000Z"
  },
  {
    "airportIcao": "LEPP",
    "metar": "LEPP 091230Z 17012KT 130V220 9999 FEW032 BKN038 14/05 Q1019",
    "updatedAt": "2022-03-09T12:30:00.000Z"
  },
  {
    "airportIcao": "LERI",
    "metar": "LERI 091230Z VRB03KT CAVOK 18/05 Q1022 NOSIG",
    "updatedAt": "2022-03-09T12:30:00.000Z"
  },
  {
    "airportIcao": "LERL",
    "metar": "LERL 091200Z 06005KT 320V130 9999 SCT030 14/04 Q1021",
    "updatedAt": "2022-03-09T12:00:00.000Z"
  },
  {
    "airportIcao": "LERS",
    "metar": "LERS 091230Z 14007KT 070V190 9999 SCT028 15/08 Q1023",
    "updatedAt": "2022-03-09T12:30:00.000Z"
  },
  {
    "airportIcao": "LERT",
    "metar": "LERT 091230Z 15005KT 070V200 9999 FEW022 18/11 Q1020 NOSIG",
    "updatedAt": "2022-03-09T12:30:00.000Z"
  },
  {
    "airportIcao": "LESA",
    "metar": "LESA 091230Z 22018KT 9999 FEW022 SCT045 11/06 Q1019",
    "updatedAt": "2022-03-09T12:30:00.000Z"
  },
  {
    "airportIcao": "LESB",
    "metar": "LESB 091230Z AUTO 21011KT CAVOK 15/08 Q1023",
    "updatedAt": "2022-03-09T12:30:00.000Z"
  },
  {
    "airportIcao": "LESO",
    "metar": "LESO 091230Z 22013KT 190V260 CAVOK 18/05 Q1017",
    "updatedAt": "2022-03-09T12:30:00.000Z"
  },
  {
    "airportIcao": "LEST",
    "metar": "LEST 091230Z 21019G36KT 170V260 7000 RA FEW008 BKN016 BKN035 10/09 Q1013 TEMPO 3000 RA BKN010",
    "updatedAt": "2022-03-09T12:30:00.000Z"
  },
  {
    "airportIcao": "LESU",
    "metar": "LESU 090830Z 00000KT 9999 FEW013 BKN045 BKN066 04/03 Q1022",
    "updatedAt": "2022-03-09T08:30:00.000Z"
  },
  {
    "airportIcao": "LETL",
    "metar": "LETL 091230Z AUTO 19012KT 170V230 CAVOK 11/M00 Q1021",
    "updatedAt": "2022-03-09T12:30:00.000Z"
  },
  {
    "airportIcao": "LETO",
    "metar": "LETO 091230Z 20005KT 150V240 9999 FEW035 16/08 Q1021 NOSIG",
    "updatedAt": "2022-03-09T12:30:00.000Z"
  },
  {
    "airportIcao": "LETU",
    "metar": "LETU 091230Z AUTO 11010KT 080V160 9999 NSC 14/06 Q1021",
    "updatedAt": "2022-03-09T12:30:00.000Z"
  },
  {
    "airportIcao": "LEVC",
    "metar": "LEVC 091230Z 08008KT 040V120 9999 FEW020 15/08 Q1023 NOSIG",
    "updatedAt": "2022-03-09T12:30:00.000Z"
  },
  {
    "airportIcao": "LEVD",
    "metar": "LEVD 091230Z 19009KT 9999 SCT012 BKN029 09/08 Q1018",
    "updatedAt": "2022-03-09T12:30:00.000Z"
  },
  {
    "airportIcao": "LEVS",
    "metar": "LEVS 091230Z 17007KT 100V260 9999 BKN032 BKN039 12/04 Q1021",
    "updatedAt": "2022-03-09T12:30:00.000Z"
  },
  {
    "airportIcao": "LEVT",
    "metar": "LEVT 091230Z 25006KT 210V280 9999 -RA FEW035 BKN050 09/06 Q1019",
    "updatedAt": "2022-03-09T12:30:00.000Z"
  },
  {
    "airportIcao": "LEVX",
    "metar": "LEVX 091230Z 21019KT 150V240 9999 SCT021 BKN026 BKN032 13/09 Q1014 TEMPO 3000 RA BKN010",
    "updatedAt": "2022-03-09T12:30:00.000Z"
  },
  {
    "airportIcao": "LEXJ",
    "metar": "LEXJ 091230Z 21015G28KT 160V250 9999 FEW080 14/05 Q1014",
    "updatedAt": "2022-03-09T12:30:00.000Z"
  },
  {
    "airportIcao": "LEZG",
    "metar": "LEZG 091230Z 09010KT 060V120 9999 FEW050 14/06 Q1021",
    "updatedAt": "2022-03-09T12:30:00.000Z"
  },
  {
    "airportIcao": "LEZL",
    "metar": "LEZL 091230Z 05003KT 9999 FEW027 18/08 Q1020 NOSIG",
    "updatedAt": "2022-03-09T12:30:00.000Z"
  },
  {
    "airportIcao": "LFAC",
    "metar": "LFAC 091230Z AUTO 21010KT 9999 FEW026 12/06 Q1019",
    "updatedAt": "2022-03-09T12:30:00.000Z"
  },
  {
    "airportIcao": "LFAQ",
    "metar": "LFAQ 091230Z AUTO 19012KT 9999 FEW026 12/06 Q1020 NOSIG",
    "updatedAt": "2022-03-09T12:30:00.000Z"
  },
  {
    "airportIcao": "LFAT",
    "metar": "LFAT 091230Z AUTO 13011KT CAVOK 11/06 Q1019 NOSIG",
    "updatedAt": "2022-03-09T12:30:00.000Z"
  },
  {
    "airportIcao": "LFBA",
    "metar": "LFBA 091230Z AUTO 13011KT CAVOK 15/08 Q1019 NOSIG",
    "updatedAt": "2022-03-09T12:30:00.000Z"
  },
  {
    "airportIcao": "LFBC",
    "metar": "LFBC 091230Z AUTO 16013KT CAVOK 17/04 Q1017 NOSIG",
    "updatedAt": "2022-03-09T12:30:00.000Z"
  },
  {
    "airportIcao": "LFBD",
    "metar": "LFBD 091230Z AUTO 13012KT CAVOK 16/08 Q1018 NOSIG",
    "updatedAt": "2022-03-09T12:30:00.000Z"
  },
  {
    "airportIcao": "LFBE",
    "metar": "LFBE 091230Z AUTO 13012KT 090V160 CAVOK 15/08 Q1019 NOSIG",
    "updatedAt": "2022-03-09T12:30:00.000Z"
  },
  {
    "airportIcao": "LFBG",
    "metar": "LFBG 091230Z AUTO 14016KT CAVOK 16/06 Q1018 NOSIG",
    "updatedAt": "2022-03-09T12:30:00.000Z"
  },
  {
    "airportIcao": "LFBH",
    "metar": "LFBH 091230Z AUTO 15015KT 120V180 CAVOK 15/08 Q1017 TEMPO 14015G25KT",
    "updatedAt": "2022-03-09T12:30:00.000Z"
  },
  {
    "airportIcao": "LFBI",
    "metar": "LFBI 091230Z AUTO 16012KT 130V190 CAVOK 15/06 Q1019 NOSIG",
    "updatedAt": "2022-03-09T12:30:00.000Z"
  },
  {
    "airportIcao": "LFBL",
    "metar": "LFBL 091230Z AUTO 15013KT 9999 BKN031 BKN037 13/05 Q1019 NOSIG",
    "updatedAt": "2022-03-09T12:30:00.000Z"
  },
  {
    "airportIcao": "LFBM",
    "metar": "LFBM 091230Z AUTO 10008KT 080V140 CAVOK 17/05 Q1018 NOSIG",
    "updatedAt": "2022-03-09T12:30:00.000Z"
  },
  {
    "airportIcao": "LFBO",
    "metar": "LFBO 091230Z AUTO 14014KT 100V170 9999 FEW009 SCT023 14/08 Q1020 NOSIG",
    "updatedAt": "2022-03-09T12:30:00.000Z"
  },
  {
    "airportIcao": "LFBP",
    "metar": "LFBP 091230Z AUTO 10007KT 020V180 CAVOK 18/02 Q1017 NOSIG",
    "updatedAt": "2022-03-09T12:30:00.000Z"
  },
  {
    "airportIcao": "LFBT",
    "metar": "LFBT 091230Z AUTO 03007KT 350V100 CAVOK 16/00 Q1018 NOSIG",
    "updatedAt": "2022-03-09T12:30:00.000Z"
  },
  {
    "airportIcao": "LFBU",
    "metar": "LFBU 091230Z AUTO 14012KT 090V170 CAVOK 15/05 Q1019 NOSIG",
    "updatedAt": "2022-03-09T12:30:00.000Z"
  },
  {
    "airportIcao": "LFBX",
    "metar": "LFBX 091230Z AUTO 16006KT 110V220 9999 BKN040 16/07 Q1019",
    "updatedAt": "2022-03-09T12:30:00.000Z"
  },
  {
    "airportIcao": "LFBY",
    "metar": "LFBY 091200Z 14008KT 080V190 CAVOK 17/04 Q1018",
    "updatedAt": "2022-03-09T12:00:00.000Z"
  },
  {
    "airportIcao": "LFBZ",
    "metar": "LFBZ 091230Z AUTO 20008KT 150V260 CAVOK 17/05 Q1017 TEMPO 20015G25KT",
    "updatedAt": "2022-03-09T12:30:00.000Z"
  },
  {
    "airportIcao": "LFCK",
    "metar": "LFCK 091230Z AUTO 12018KT CAVOK 14/06 Q1021 TEMPO 12022G35KT",
    "updatedAt": "2022-03-09T12:30:00.000Z"
  },
  {
    "airportIcao": "LFCR",
    "metar": "LFCR 091230Z AUTO 12015KT 9999 BKN024 BKN029 11/04 Q1020 NOSIG",
    "updatedAt": "2022-03-09T12:30:00.000Z"
  },
  {
    "airportIcao": "LFGA",
    "metar": "LFGA 091230Z AUTO VRB03KT CAVOK 12/M02 Q1023",
    "updatedAt": "2022-03-09T12:30:00.000Z"
  },
  {
    "airportIcao": "LFGJ",
    "metar": "LFGJ 091230Z AUTO 24007KT 180V280 CAVOK 13/04 Q1022 NOSIG",
    "updatedAt": "2022-03-09T12:30:00.000Z"
  },
  {
    "airportIcao": "LFHP",
    "metar": "LFHP 091230Z AUTO 22006KT 180V270 9999 BKN040 OVC046 10/01 Q1020",
    "updatedAt": "2022-03-09T12:30:00.000Z"
  },
  {
    "airportIcao": "LFJL",
    "metar": "LFJL 091230Z AUTO 17008KT 140V200 CAVOK 12/01 Q1023 NOSIG",
    "updatedAt": "2022-03-09T12:30:00.000Z"
  },
  {
    "airportIcao": "LFJR",
    "metar": "LFJR 091230Z AUTO 15012KT 120V190 CAVOK 15/07 Q1018",
    "updatedAt": "2022-03-09T12:30:00.000Z"
  },
  {
    "airportIcao": "LFKB",
    "metar": "LFKB 091230Z AUTO 02007KT 340V060 CAVOK 13/M05 Q1024 NOSIG",
    "updatedAt": "2022-03-09T12:30:00.000Z"
  },
  {
    "airportIcao": "LFKC",
    "metar": "LFKC 091230Z AUTO 34008KT 300V030 CAVOK 13/M02 Q1023 NOSIG",
    "updatedAt": "2022-03-09T12:30:00.000Z"
  },
  {
    "airportIcao": "LFKF",
    "metar": "LFKF 091230Z AUTO 35005KT 300V060 CAVOK 14/M00 Q1023 BECMG 23012KT",
    "updatedAt": "2022-03-09T12:30:00.000Z"
  },
  {
    "airportIcao": "LFKJ",
    "metar": "LFKJ 091230Z AUTO 23009KT CAVOK 14/04 Q1023 NOSIG",
    "updatedAt": "2022-03-09T12:30:00.000Z"
  },
  {
    "airportIcao": "LFKS",
    "metar": "LFKS 091230Z AUTO 06010KT 020V080 CAVOK 13/M02 Q1023",
    "updatedAt": "2022-03-09T12:30:00.000Z"
  },
  {
    "airportIcao": "LFLB",
    "metar": "LFLB 091230Z AUTO 35005KT 310V010 CAVOK 11/01 Q1023 NOSIG",
    "updatedAt": "2022-03-09T12:30:00.000Z"
  },
  {
    "airportIcao": "LFLC",
    "metar": "LFLC 091230Z AUTO 16010KT CAVOK 15/02 Q1020 NOSIG",
    "updatedAt": "2022-03-09T12:30:00.000Z"
  },
  {
    "airportIcao": "LFLL",
    "metar": "LFLL 091230Z 20010KT 9999 FEW043 13/01 Q1022 NOSIG",
    "updatedAt": "2022-03-09T12:30:00.000Z"
  },
  {
    "airportIcao": "LFLN",
    "metar": "LFLN 091230Z AUTO VRB03KT 9999 FEW036 14/05 Q1021 NOSIG",
    "updatedAt": "2022-03-09T12:30:00.000Z"
  },
  {
    "airportIcao": "LFLP",
    "metar": "LFLP 091230Z AUTO 22003KT 130V260 CAVOK 12/01 Q1022 NOSIG",
    "updatedAt": "2022-03-09T12:30:00.000Z"
  },
  {
    "airportIcao": "LFLS",
    "metar": "LFLS 091230Z AUTO 22010KT 200V260 9999 BKN045 12/03 Q1022 NOSIG",
    "updatedAt": "2022-03-09T12:30:00.000Z"
  },
  {
    "airportIcao": "LFLU",
    "metar": "LFLU 091230Z AUTO 20010KT 9999 FEW042 OVC050 12/03 Q1022",
    "updatedAt": "2022-03-09T12:30:00.000Z"
  },
  {
    "airportIcao": "LFLV",
    "metar": "LFLV 091230Z AUTO VRB04KT CAVOK 15/02 Q1020",
    "updatedAt": "2022-03-09T12:30:00.000Z"
  },
  {
    "airportIcao": "LFLW",
    "metar": "LFLW 091230Z AUTO 14011KT 9999 ////// 11/03 Q1020",
    "updatedAt": "2022-03-09T12:30:00.000Z"
  },
  {
    "airportIcao": "LFLX",
    "metar": "LFLX 091230Z AUTO 17008KT 120V220 9999 BKN039 BKN046 15/06 Q1020 NOSIG",
    "updatedAt": "2022-03-09T12:30:00.000Z"
  },
  {
    "airportIcao": "LFLY",
    "metar": "LFLY 091230Z AUTO 16009KT 110V190 CAVOK 14/03 Q1022 NOSIG",
    "updatedAt": "2022-03-09T12:30:00.000Z"
  },
  {
    "airportIcao": "LFMC",
    "metar": "LFMC 091230Z AUTO 10004KT 050V130 9999 ////// 14/02 Q1023",
    "updatedAt": "2022-03-09T12:30:00.000Z"
  },
  {
    "airportIcao": "LFMD",
    "metar": "LFMD 091230Z AUTO 17008KT 140V200 9999 FEW048 13/06 Q1024 NOSIG",
    "updatedAt": "2022-03-09T12:30:00.000Z"
  },
  {
    "airportIcao": "LFMH",
    "metar": "LFMH 091230Z AUTO VRB04KT CAVOK 14/01 Q1021",
    "updatedAt": "2022-03-09T12:30:00.000Z"
  },
  {
    "airportIcao": "LFMI",
    "metar": "LFMI 091230Z AUTO 18011KT 150V220 9999 FEW035 14/05 Q1024 NOSIG",
    "updatedAt": "2022-03-09T12:30:00.000Z"
  },
  {
    "airportIcao": "LFMK",
    "metar": "LFMK 091230Z AUTO 07016KT 9999 BKN018 BKN026 14/09 Q1021 BECMG 09016G28KT BKN013",
    "updatedAt": "2022-03-09T12:30:00.000Z"
  },
  {
    "airportIcao": "LFML",
    "metar": "LFML 091230Z AUTO 20009KT 160V240 9999 SCT041 BKN056 16/06 Q1024 NOSIG",
    "updatedAt": "2022-03-09T12:30:00.000Z"
  },
  {
    "airportIcao": "LFMN",
    "metar": "LFMN 091230Z 17007KT 9999 SCT046 13/03 Q1024 NOSIG",
    "updatedAt": "2022-03-09T12:30:00.000Z"
  },
  {
    "airportIcao": "LFMO",
    "metar": "LFMO 091230Z AUTO 20003KT 130V240 9999 FEW044 BKN062 13/03 Q1024 NOSIG",
    "updatedAt": "2022-03-09T12:30:00.000Z"
  },
  {
    "airportIcao": "LFMP",
    "metar": "LFMP 091230Z AUTO 10013KT 070V130 9999 SCT039 BKN046 16/08 Q1021 TEMPO 15015G25KT",
    "updatedAt": "2022-03-09T12:30:00.000Z"
  },
  {
    "airportIcao": "LFMT",
    "metar": "LFMT 091230Z AUTO 13004KT 9999 BKN044 OVC052 12/08 Q1024 NOSIG",
    "updatedAt": "2022-03-09T12:30:00.000Z"
  },
  {
    "airportIcao": "LFMU",
    "metar": "LFMU 091230Z AUTO 14006KT 100V180 9999 FEW012 SCT031 BKN037 13/09 Q1023 NOSIG",
    "updatedAt": "2022-03-09T12:30:00.000Z"
  },
  {
    "airportIcao": "LFMV",
    "metar": "LFMV 091230Z AUTO 22004KT 170V240 9999 BKN058 13/03 Q1024 NOSIG",
    "updatedAt": "2022-03-09T12:30:00.000Z"
  },
  {
    "airportIcao": "LFMY",
    "metar": "LFMY 091230Z AUTO 21008KT 170V240 9999 FEW040 OVC056 15/05 Q1024 NOSIG",
    "updatedAt": "2022-03-09T12:30:00.000Z"
  },
  {
    "airportIcao": "LFOA",
    "metar": "LFOA 091230Z AUTO 15009KT 110V170 9999 SCT044 SCT250 15/04 Q1020 NOSIG",
    "updatedAt": "2022-03-09T12:30:00.000Z"
  },
  {
    "airportIcao": "LFOB",
    "metar": "LFOB 091230Z AUTO 16010KT 9999 SCT018 11/06 Q1020 NOSIG",
    "updatedAt": "2022-03-09T12:30:00.000Z"
  },
  {
    "airportIcao": "LFOE",
    "metar": "LFOE 091230Z AUTO 16010KT 9999 BKN018 12/07 Q1019 NOSIG",
    "updatedAt": "2022-03-09T12:30:00.000Z"
  },
  {
    "airportIcao": "LFOH",
    "metar": "LFOH 091230Z AUTO 16012KT 130V200 CAVOK 12/05 Q1017 TEMPO 17015G25KT",
    "updatedAt": "2022-03-09T12:30:00.000Z"
  },
  {
    "airportIcao": "LFOJ",
    "metar": "LFOJ 091230Z AUTO 18011KT 150V210 9999 SCT039 14/05 Q1019 NOSIG",
    "updatedAt": "2022-03-09T12:30:00.000Z"
  },
  {
    "airportIcao": "LFOK",
    "metar": "LFOK 091230Z AUTO 20003KT 110V240 CAVOK 13/04 Q1022 NOSIG",
    "updatedAt": "2022-03-09T12:30:00.000Z"
  },
  {
    "airportIcao": "LFOP",
    "metar": "LFOP 091230Z AUTO 15013KT 9999 BKN020 BKN026 10/05 Q1018 NOSIG",
    "updatedAt": "2022-03-09T12:30:00.000Z"
  },
  {
    "airportIcao": "LFOT",
    "metar": "LFOT 091230Z AUTO 17010KT 140V200 9999 FEW034 14/06 Q1019 NOSIG",
    "updatedAt": "2022-03-09T12:30:00.000Z"
  },
  {
    "airportIcao": "LFOV",
    "metar": "LFOV 091230Z AUTO 17013KT 130V200 CAVOK 13/06 Q1017",
    "updatedAt": "2022-03-09T12:30:00.000Z"
  },
  {
    "airportIcao": "LFOZ",
    "metar": "LFOZ 091230Z AUTO 20008KT 150V220 9999 FEW041 15/05 Q1020",
    "updatedAt": "2022-03-09T12:30:00.000Z"
  },
  {
    "airportIcao": "LFPB",
    "metar": "LFPB 091230Z AUTO 17009KT 120V200 9999 FEW034 14/05 Q1020 NOSIG",
    "updatedAt": "2022-03-09T12:30:00.000Z"
  },
  {
    "airportIcao": "LFPG",
    "metar": "LFPG 091230Z 19009KT 150V220 9999 FEW030 13/05 Q1020 NOSIG",
    "updatedAt": "2022-03-09T12:30:00.000Z"
  },
  {
    "airportIcao": "LFPM",
    "metar": "LFPM 091230Z AUTO 18004KT 080V250 9999 BKN038/// 15/06 Q1020",
    "updatedAt": "2022-03-09T12:30:00.000Z"
  },
  {
    "airportIcao": "LFPN",
    "metar": "LFPN 091230Z AUTO 18009KT 140V220 9999 FEW028/// 14/05 Q1020 NOSIG",
    "updatedAt": "2022-03-09T12:30:00.000Z"
  },
  {
    "airportIcao": "LFPO",
    "metar": "LFPO 091230Z 18007KT 120V260 9999 FEW034 14/05 Q1020 NOSIG",
    "updatedAt": "2022-03-09T12:30:00.000Z"
  },
  {
    "airportIcao": "LFPT",
    "metar": "LFPT 091230Z AUTO 18007KT 140V210 9999 FEW023 12/06 Q1020",
    "updatedAt": "2022-03-09T12:30:00.000Z"
  },
  {
    "airportIcao": "LFPV",
    "metar": "LFPV 091230Z AUTO 19007KT 140V230 9999 SCT029/// SCT034/// 13/06 Q1020 NOSIG",
    "updatedAt": "2022-03-09T12:30:00.000Z"
  },
  {
    "airportIcao": "LFQA",
    "metar": "LFQA 091230Z AUTO 13006KT CAVOK 13/03 Q1021",
    "updatedAt": "2022-03-09T12:30:00.000Z"
  },
  {
    "airportIcao": "LFQB",
    "metar": "LFQB 091230Z AUTO VRB03KT CAVOK 14/04 Q1021",
    "updatedAt": "2022-03-09T12:30:00.000Z"
  },
  {
    "airportIcao": "LFQG",
    "metar": "LFQG 091230Z AUTO 11010KT CAVOK 14/05 Q1021",
    "updatedAt": "2022-03-09T12:30:00.000Z"
  },
  {
    "airportIcao": "LFQQ",
    "metar": "LFQQ 091230Z AUTO 17012KT CAVOK 13/05 Q1020 NOSIG",
    "updatedAt": "2022-03-09T12:30:00.000Z"
  },
  {
    "airportIcao": "LFRB",
    "metar": "LFRB 091230Z AUTO 17021KT 9999 -RADZ FEW024 SCT031 BKN037 12/08 Q1010 TEMPO 4000 RA BKN012 BECMG 17020G35KT",
    "updatedAt": "2022-03-09T12:30:00.000Z"
  },
  {
    "airportIcao": "LFRC",
    "metar": "LFRC 091230Z AUTO 16015KT 9999 FEW029 13/05 Q1015 TEMPO 16015G25KT",
    "updatedAt": "2022-03-09T12:30:00.000Z"
  },
  {
    "airportIcao": "LFRD",
    "metar": "LFRD 091230Z AUTO 17015KT CAVOK 12/06 Q1014 BECMG 16015G25KT",
    "updatedAt": "2022-03-09T12:30:00.000Z"
  },
  {
    "airportIcao": "LFRG",
    "metar": "LFRG 091230Z AUTO 17012KT 130V210 9999 BKN027 12/06 Q1018 TEMPO 17015G25KT",
    "updatedAt": "2022-03-09T12:30:00.000Z"
  },
  {
    "airportIcao": "LFRH",
    "metar": "LFRH 091230Z AUTO 14018KT 9999 BKN010 BKN022 BKN094 10/08 Q1013 TEMPO 3000 RA BECMG 15015G30KT",
    "updatedAt": "2022-03-09T12:30:00.000Z"
  },
  {
    "airportIcao": "LFRI",
    "metar": "LFRI 091230Z AUTO 14013KT 110V180 9999 FEW021 13/08 Q1016 TEMPO 16015G25KT",
    "updatedAt": "2022-03-09T12:30:00.000Z"
  },
  {
    "airportIcao": "LFRJ",
    "metar": "LFRJ 091230Z AUTO 17026G41KT 9999 FEW035 SCT060 BKN074 13/06 Q1010 TEMPO 4000 RA",
    "updatedAt": "2022-03-09T12:30:00.000Z"
  },
  {
    "airportIcao": "LFRK",
    "metar": "LFRK 091230Z AUTO 17017KT 9999 BKN033 13/06 Q1016 TEMPO 16015G25KT",
    "updatedAt": "2022-03-09T12:30:00.000Z"
  },
  {
    "airportIcao": "LFRL",
    "metar": "LFRL 091230Z AUTO 16020KT 9999 FEW021 OVC052 11/08 Q1010 TEMPO 4000 RA BKN010 BECMG 17015G30KT",
    "updatedAt": "2022-03-09T12:30:00.000Z"
  },
  {
    "airportIcao": "LFRM",
    "metar": "LFRM 091230Z AUTO 17009KT 130V220 9999 FEW036 15/05 Q1018 NOSIG",
    "updatedAt": "2022-03-09T12:30:00.000Z"
  },
  {
    "airportIcao": "LFRN",
    "metar": "LFRN 091230Z AUTO 16014KT 9999 FEW035 BKN190 14/07 Q1015 TEMPO 16015G25KT",
    "updatedAt": "2022-03-09T12:30:00.000Z"
  },
  {
    "airportIcao": "LFRO",
    "metar": "LFRO 091230Z AUTO 16016G28KT CAVOK 12/06 Q1012",
    "updatedAt": "2022-03-09T12:30:00.000Z"
  },
  {
    "airportIcao": "LFRQ",
    "metar": "LFRQ 091230Z AUTO 15014G24KT 110V180 9999 -DZ OVC009 11/09 Q1012 TEMPO 17020G35KT 4500 -RA BKN010",
    "updatedAt": "2022-03-09T12:30:00.000Z"
  },
  {
    "airportIcao": "LFRS",
    "metar": "LFRS 091230Z AUTO 15016KT CAVOK 14/07 Q1016 TEMPO 16015G25KT",
    "updatedAt": "2022-03-09T12:30:00.000Z"
  },
  {
    "airportIcao": "LFRT",
    "metar": "LFRT 091230Z AUTO 16013G23KT 130V190 9999 FEW031 BKN140 12/06 Q1013",
    "updatedAt": "2022-03-09T12:30:00.000Z"
  },
  {
    "airportIcao": "LFRU",
    "metar": "LFRU 091230Z AUTO 17017G35KT 9999 BKN039 BKN094 BKN180 13/05 Q1011",
    "updatedAt": "2022-03-09T12:30:00.000Z"
  },
  {
    "airportIcao": "LFRV",
    "metar": "LFRV 091230Z AUTO 17019KT 140V200 CAVOK 11/05 Q1014",
    "updatedAt": "2022-03-09T12:30:00.000Z"
  },
  {
    "airportIcao": "LFRZ",
    "metar": "LFRZ 091230Z AUTO 16018KT CAVOK 13/07 Q1015 TEMPO 17015G28KT",
    "updatedAt": "2022-03-09T12:30:00.000Z"
  },
  {
    "airportIcao": "LFSB",
    "metar": "LFSB 091237Z VRB03KT CAVOK 13/M01 Q1022 NOSIG",
    "updatedAt": "2022-03-09T12:37:00.000Z"
  },
  {
    "airportIcao": "LFSD",
    "metar": "LFSD 091230Z AUTO 17005KT 110V250 CAVOK 12/03 Q1022",
    "updatedAt": "2022-03-09T12:30:00.000Z"
  },
  {
    "airportIcao": "LFSG",
    "metar": "LFSG 091230Z AUTO 20008KT 160V230 CAVOK 11/01 Q1022",
    "updatedAt": "2022-03-09T12:30:00.000Z"
  },
  {
    "airportIcao": "LFSI",
    "metar": "LFSI 091230Z AUTO 27004KT 210V330 CAVOK 14/01 Q1022",
    "updatedAt": "2022-03-09T12:30:00.000Z"
  },
  {
    "airportIcao": "LFSL",
    "metar": "LFSL 091230Z AUTO 16009KT 110V200 9999 BKN037 14/05 Q1020 NOSIG",
    "updatedAt": "2022-03-09T12:30:00.000Z"
  },
  {
    "airportIcao": "LFSM",
    "metar": "LFSM 091230Z AUTO VRB04KT CAVOK 13/M00 Q1022",
    "updatedAt": "2022-03-09T12:30:00.000Z"
  },
  {
    "airportIcao": "LFSN",
    "metar": "LFSN 091230Z AUTO 18007KT 150V210 CAVOK 13/02 Q1022",
    "updatedAt": "2022-03-09T12:30:00.000Z"
  },
  {
    "airportIcao": "LFSO",
    "metar": "LFSO 091230Z AUTO VRB05KT CAVOK 12/01 Q1022 NOSIG",
    "updatedAt": "2022-03-09T12:30:00.000Z"
  },
  {
    "airportIcao": "LFST",
    "metar": "LFST 091230Z AUTO VRB03KT CAVOK 12/M04 Q1023 NOSIG",
    "updatedAt": "2022-03-09T12:30:00.000Z"
  },
  {
    "airportIcao": "LFSX",
    "metar": "LFSX 091230Z AUTO VRB03KT CAVOK 13/02 Q1022",
    "updatedAt": "2022-03-09T12:30:00.000Z"
  },
  {
    "airportIcao": "LFTH",
    "metar": "LFTH 091230Z AUTO 22007KT 170V250 9999 FEW042 BKN058 14/06 Q1024 NOSIG",
    "updatedAt": "2022-03-09T12:30:00.000Z"
  },
  {
    "airportIcao": "LFTW",
    "metar": "LFTW 091230Z AUTO 19008KT 150V220 9999 SCT038 BKN046 OVC052 13/05 Q1023 NOSIG",
    "updatedAt": "2022-03-09T12:30:00.000Z"
  },
  {
    "airportIcao": "LFVP",
    "metar": "LFVP 091200Z 30026KT 9999 BKN030 M01/M07 Q1009 NOSIG",
    "updatedAt": "2022-03-09T12:00:00.000Z"
  },
  {
    "airportIcao": "LFYR",
    "metar": "LFYR 091230Z AUTO 16007KT 130V200 9999 BKN040 15/05 Q1020 NOSIG",
    "updatedAt": "2022-03-09T12:30:00.000Z"
  },
  {
    "airportIcao": "LGAD",
    "metar": "LGAD 091220Z 33006KT 9999 FEW018TCU BKN025 BKN070 10/03 Q1010",
    "updatedAt": "2022-03-09T12:20:00.000Z"
  },
  {
    "airportIcao": "LGAL",
    "metar": "LGAL 091220Z 02015KT 9999 SCT030 07/M05 Q1015",
    "updatedAt": "2022-03-09T12:20:00.000Z"
  },
  {
    "airportIcao": "LGAV",
    "metar": "LGAV 091220Z 34015G26KT 300V010 7000 DZ FEW010 BKN025 06/01 Q1012 NOSIG",
    "updatedAt": "2022-03-09T12:20:00.000Z"
  },
  {
    "airportIcao": "LGBL",
    "metar": "LGBL 091220Z 27009KT 7000 SCT008 BKN020 OVC070 03/02 Q1016",
    "updatedAt": "2022-03-09T12:20:00.000Z"
  },
  {
    "airportIcao": "LGEL",
    "metar": "LGEL 091220Z 34012KT 8000 -RA FEW012 BKN025 OVC070 05/03 Q1012 RERA",
    "updatedAt": "2022-03-09T12:20:00.000Z"
  },
  {
    "airportIcao": "LGHI",
    "metar": "LGHI 091150Z 36015KT 320V050 9999 FEW025 10/04 Q1009",
    "updatedAt": "2022-03-09T11:50:00.000Z"
  },
  {
    "airportIcao": "LGIO",
    "metar": "LGIO 091220Z AUTO 22004KT 170V280 //// // ////// 06/M02 Q1012 RE//",
    "updatedAt": "2022-03-09T12:20:00.000Z"
  },
  {
    "airportIcao": "LGIR",
    "metar": "LGIR 091220Z 30013KT 9999 -RA FEW018TCU BKN025 BKN080 11/07 Q1009 NOSIG",
    "updatedAt": "2022-03-09T12:20:00.000Z"
  },
  {
    "airportIcao": "LGKC",
    "metar": "LGKC 091150Z 33004KT 9999 VCTS FEW012 FEW018CB SCT025 09/06 Q1010",
    "updatedAt": "2022-03-09T11:50:00.000Z"
  },
  {
    "airportIcao": "LGKF",
    "metar": "LGKF 091150Z 36008KT 9999 SCT012 FEW016TCU SCT070 07/06 Q1010",
    "updatedAt": "2022-03-09T11:50:00.000Z"
  },
  {
    "airportIcao": "LGKL",
    "metar": "LGKL 091220Z 30006KT 9999 -DZ FEW025TCU BKN030 BKN080 10/04 Q1010",
    "updatedAt": "2022-03-09T12:20:00.000Z"
  },
  {
    "airportIcao": "LGKO",
    "metar": "LGKO 091220Z 29006KT 9999 -TSRA FEW016CB SCT020 11/07 Q1007",
    "updatedAt": "2022-03-09T12:20:00.000Z"
  },
  {
    "airportIcao": "LGKP",
    "metar": "LGKP 091220Z 30018KT 9999 FEW016TCU SCT020 14/07 Q1007",
    "updatedAt": "2022-03-09T12:20:00.000Z"
  },
  {
    "airportIcao": "LGKR",
    "metar": "LGKR 091220Z 10004KT 9999 FEW035 12/00 Q1012 NOSIG",
    "updatedAt": "2022-03-09T12:20:00.000Z"
  },
  {
    "airportIcao": "LGKV",
    "metar": "LGKV 091220Z 08012KT 9999 BKN045 08/M06 Q1015",
    "updatedAt": "2022-03-09T12:20:00.000Z"
  },
  {
    "airportIcao": "LGKZ",
    "metar": "LGKZ 091150Z 34010KT 8000 SCT005 SCT020 OVC070 01/M07 Q1014",
    "updatedAt": "2022-03-09T11:50:00.000Z"
  },
  {
    "airportIcao": "LGLM",
    "metar": "LGLM 091220Z 04017G28KT 9999 SCT025 07/M02 Q1014",
    "updatedAt": "2022-03-09T12:20:00.000Z"
  },
  {
    "airportIcao": "LGLR",
    "metar": "LGLR 091150Z 02014KT 9999 FEW012 SCT030 BKN070 05/M02 Q1015 BLU",
    "updatedAt": "2022-03-09T11:50:00.000Z"
  },
  {
    "airportIcao": "LGMK",
    "metar": "LGMK 091220Z 36010KT 9999 FEW010 BKN025 10/07 Q1008",
    "updatedAt": "2022-03-09T12:20:00.000Z"
  },
  {
    "airportIcao": "LGMT",
    "metar": "LGMT 091220Z 01010KT 9999 FEW020 10/03 Q1011",
    "updatedAt": "2022-03-09T12:20:00.000Z"
  },
  {
    "airportIcao": "LGNX",
    "metar": "LGNX 091050Z VRB03KT 9999 -RA FEW018 BKN025 09/07 Q1009",
    "updatedAt": "2022-03-09T10:50:00.000Z"
  },
  {
    "airportIcao": "LGPA",
    "metar": "LGPA 091220Z AUTO 33005KT 250V360 //// -RA ////// 08/06 Q1009 RE//",
    "updatedAt": "2022-03-09T12:20:00.000Z"
  },
  {
    "airportIcao": "LGPZ",
    "metar": "LGPZ 091220Z 04008KT 9999 FEW015 BKN030 BKN070 11/00 Q1011",
    "updatedAt": "2022-03-09T12:20:00.000Z"
  },
  {
    "airportIcao": "LGRP",
    "metar": "LGRP 091220Z 28011KT 9999 -RA SCT010 FEW015CB BKN020 12/09 Q1006 RETS NOSIG",
    "updatedAt": "2022-03-09T12:20:00.000Z"
  },
  {
    "airportIcao": "LGRX",
    "metar": "LGRX 091220Z 03012KT 9999 -RA FEW018TCU SCT020 BKN070 10/03 Q1010",
    "updatedAt": "2022-03-09T12:20:00.000Z"
  },
  {
    "airportIcao": "LGSA",
    "metar": "LGSA 091220Z 31010KT 9999 FEW018TCU BKN025 10/08 Q1008",
    "updatedAt": "2022-03-09T12:20:00.000Z"
  },
  {
    "airportIcao": "LGSK",
    "metar": "LGSK 091150Z 01013KT 7000 -DZ FEW014 BKN025 07/03 Q1014",
    "updatedAt": "2022-03-09T11:50:00.000Z"
  },
  {
    "airportIcao": "LGSM",
    "metar": "LGSM 091150Z 36008KT 9999 FEW025 12/05 Q1009",
    "updatedAt": "2022-03-09T11:50:00.000Z"
  },
  {
    "airportIcao": "LGSO",
    "metar": "LGSO 091220Z AUTO 01017KT //// // ////// 11/04 Q1009 RE//",
    "updatedAt": "2022-03-09T12:20:00.000Z"
  },
  {
    "airportIcao": "LGSR",
    "metar": "LGSR 091220Z 35009KT 9999 SCT020 11/09 Q1008",
    "updatedAt": "2022-03-09T12:20:00.000Z"
  },
  {
    "airportIcao": "LGSY",
    "metar": "LGSY 091150Z 02017G27KT 9999 -DZ FEW015 BKN020 07/02 Q1013 RMK BKN070 BLU",
    "updatedAt": "2022-03-09T11:50:00.000Z"
  },
  {
    "airportIcao": "LGTG",
    "metar": "LGTG 091150Z 28007KT 4000 -RA FEW008 BKN020 OVC060 01/01 Q1014 GRN",
    "updatedAt": "2022-03-09T11:50:00.000Z"
  },
  {
    "airportIcao": "LGTS",
    "metar": "LGTS 091220Z 34008KT 9999 SCT030 07/M03 Q1016 NOSIG",
    "updatedAt": "2022-03-09T12:20:00.000Z"
  },
  {
    "airportIcao": "LGZA",
    "metar": "LGZA 091220Z 34010KT 4000 TSGR SCT009 FEW016CB BKN018 BKN070 05/04 Q1010",
    "updatedAt": "2022-03-09T12:20:00.000Z"
  },
  {
    "airportIcao": "LHBP",
    "metar": "LHBP 091230Z 31010KT 280V340 CAVOK 10/M04 Q1020 NOSIG",
    "updatedAt": "2022-03-09T12:30:00.000Z"
  },
  {
    "airportIcao": "LHDC",
    "metar": "LHDC 091215Z AUTO 33009KT 300V010 8000 BKN033 03/M01 Q1021 NOSIG",
    "updatedAt": "2022-03-09T12:15:00.000Z"
  },
  {
    "airportIcao": "LHKE",
    "metar": "LHKE 091215Z 36010KT 320V040 CAVOK 09/M05 Q1020 NOSIG RMK BLU",
    "updatedAt": "2022-03-09T12:15:00.000Z"
  },
  {
    "airportIcao": "LHPA",
    "metar": "LHPA 091215Z 34014KT CAVOK 09/M03 Q1022 NOSIG RMK BLU",
    "updatedAt": "2022-03-09T12:15:00.000Z"
  },
  {
    "airportIcao": "LHPP",
    "metar": "LHPP 091215Z AUTO 29008KT CAVOK 06/M07 Q1021",
    "updatedAt": "2022-03-09T12:15:00.000Z"
  },
  {
    "airportIcao": "LHPR",
    "metar": "LHPR 091215Z AUTO 34019KT CAVOK 08/M03 Q1022 NOSIG",
    "updatedAt": "2022-03-09T12:15:00.000Z"
  },
  {
    "airportIcao": "LHSM",
    "metar": "LHSM 091215Z AUTO 01011KT 330V070 9000 NSC 09/M03 Q1022 NOSIG",
    "updatedAt": "2022-03-09T12:15:00.000Z"
  },
  {
    "airportIcao": "LHSN",
    "metar": "LHSN 091215Z 03002KT 9999 FEW046 BKN060 OVC083 07/M05 Q1020 NOSIG RMK BLU",
    "updatedAt": "2022-03-09T12:15:00.000Z"
  },
  {
    "airportIcao": "LIBA",
    "metar": "LIBA 091155Z 35010G20KT 9999 SCT050 10/00 Q1019",
    "updatedAt": "2022-03-09T11:55:00.000Z"
  },
  {
    "airportIcao": "LIBC",
    "metar": "LIBC 091211Z 33017G27KT 9999 SCT020 09/M03 Q1016",
    "updatedAt": "2022-03-09T12:11:00.000Z"
  },
  {
    "airportIcao": "LIBD",
    "metar": "LIBD 091220Z 36011KT 330V040 CAVOK 10/M03 Q1018",
    "updatedAt": "2022-03-09T12:20:00.000Z"
  },
  {
    "airportIcao": "LIBF",
    "metar": "LIBF 091150Z 36019G30KT 9999 SCT030 10/M03 Q1020",
    "updatedAt": "2022-03-09T11:50:00.000Z"
  },
  {
    "airportIcao": "LIBG",
    "metar": "LIBG 091150Z 35017KT 9999 SCT040 09/M00 Q1017",
    "updatedAt": "2022-03-09T11:50:00.000Z"
  },
  {
    "airportIcao": "LIBH",
    "metar": "LIBH 091155Z 36018KT 9999 SCT020 BKN025 10/M04 Q1017 RMK BKN QUK 2 QUL 1 E VIS MAR 25 KM VIS MIN 9999",
    "updatedAt": "2022-03-09T11:55:00.000Z"
  },
  {
    "airportIcao": "LIBN",
    "metar": "LIBN 091155Z 36018KT 9999 FEW035 SCT050 08/M03 Q1015",
    "updatedAt": "2022-03-09T11:55:00.000Z"
  },
  {
    "airportIcao": "LIBP",
    "metar": "LIBP 091220Z AUTO 01015KT 340V040 9999 NCD 10/M01 Q1022",
    "updatedAt": "2022-03-09T12:20:00.000Z"
  },
  {
    "airportIcao": "LIBQ",
    "metar": "LIBQ 091155Z 03008KT 9999 SCT004 BKN040 M06/M08 Q1011",
    "updatedAt": "2022-03-09T11:55:00.000Z"
  },
  {
    "airportIcao": "LIBR",
    "metar": "LIBR 091220Z 36016KT 9999 FEW020 SCT040 09/M04 Q1016",
    "updatedAt": "2022-03-09T12:20:00.000Z"
  },
  {
    "airportIcao": "LIBV",
    "metar": "LIBV 091155Z 36018G28KT 9000 FEW030 SCT046 06/M06 Q1016",
    "updatedAt": "2022-03-09T11:55:00.000Z"
  },
  {
    "airportIcao": "LIBY",
    "metar": "LIBY 091155Z 01017KT CAVOK 09/M03 Q1013 RMK SKC QUK 5 QUL 3 N VIS MAR 20 KM VIS MIN 9999",
    "updatedAt": "2022-03-09T11:55:00.000Z"
  },
  {
    "airportIcao": "LICA",
    "metar": "LICA 091220Z AUTO 28015KT 240V310 9999 // BKN077/// 10/M03 Q1017",
    "updatedAt": "2022-03-09T12:20:00.000Z"
  },
  {
    "airportIcao": "LICB",
    "metar": "LICB 091220Z AUTO 35012KT 310V020 9999 BKN060/// 10/M02 Q1018",
    "updatedAt": "2022-03-09T12:20:00.000Z"
  },
  {
    "airportIcao": "LICC",
    "metar": "LICC 091220Z 09016KT 060V120 9999 SCT070 12/M03 Q1017",
    "updatedAt": "2022-03-09T12:20:00.000Z"
  },
  {
    "airportIcao": "LICD",
    "metar": "LICD 091220Z AUTO 35016KT 9999 FEW046/// BKN054/// 14/02 Q1020",
    "updatedAt": "2022-03-09T12:20:00.000Z"
  },
  {
    "airportIcao": "LICF",
    "metar": "LICF 091155Z 01010G26KT 9999 SCT035 09/M05 Q1017 RMK BKN SCT080 QUK 2 QUL 1 NE VIS MAR 16 KM MON LIB NC VIS MIN 9999",
    "updatedAt": "2022-03-09T11:55:00.000Z"
  },
  {
    "airportIcao": "LICG",
    "metar": "LICG 091150Z 36014KT 9999 FEW030 12/01 Q1021",
    "updatedAt": "2022-03-09T11:50:00.000Z"
  },
  {
    "airportIcao": "LICJ",
    "metar": "LICJ 091220Z AUTO 03012KT 9999 BKN051/// 11/00 Q1021",
    "updatedAt": "2022-03-09T12:20:00.000Z"
  },
  {
    "airportIcao": "LICL",
    "metar": "LICL 091155Z 35007KT 9999 BKN030 12/01 Q1018 RMK BKN QUK 1 QUL 0 VIS MAR 14 KM VIS MIN 9999",
    "updatedAt": "2022-03-09T11:55:00.000Z"
  },
  {
    "airportIcao": "LICR",
    "metar": "LICR 091220Z AUTO 35017G27KT 9999 SCT067/// 11/M02 Q1018",
    "updatedAt": "2022-03-09T12:20:00.000Z"
  },
  {
    "airportIcao": "LICT",
    "metar": "LICT 091155Z 01010KT 9999 SCT022 11/00 Q1021",
    "updatedAt": "2022-03-09T11:55:00.000Z"
  },
  {
    "airportIcao": "LICZ",
    "metar": "LICZ 091155Z 30020KT 9999 SCT030 BKN070 11/M05 Q1017",
    "updatedAt": "2022-03-09T11:55:00.000Z"
  },
  {
    "airportIcao": "LIEA",
    "metar": "LIEA 091220Z VRB05KT CAVOK 13/M00 Q1023",
    "updatedAt": "2022-03-09T12:20:00.000Z"
  },
  {
    "airportIcao": "LIEB",
    "metar": "LIEB 091155Z 06023KT CAVOK 11/01 Q1022 RMK SKC QUK 3 QUL 1 NE VIS MAR 30 KM MON LIB VIS MIN 9999",
    "updatedAt": "2022-03-09T11:55:00.000Z"
  },
  {
    "airportIcao": "LIEC",
    "metar": "LIEC 091155Z 10015KT 9999 FEW025 13/04 Q1021 RMK FEW QUK 3 QUL 0 VIS MAR 20 KM VIS MIN 9999",
    "updatedAt": "2022-03-09T11:55:00.000Z"
  },
  {
    "airportIcao": "LIED",
    "metar": "LIED 091155Z 33005KT 9999 FEW025 14/M00 Q1021",
    "updatedAt": "2022-03-09T11:55:00.000Z"
  },
  {
    "airportIcao": "LIEE",
    "metar": "LIEE 091220Z AUTO 25006KT 220V280 9999 NCD 15/M01 Q1022",
    "updatedAt": "2022-03-09T12:20:00.000Z"
  },
  {
    "airportIcao": "LIEO",
    "metar": "LIEO 091220Z 03009KT 350V080 CAVOK 13/M03 Q1024",
    "updatedAt": "2022-03-09T12:20:00.000Z"
  },
  {
    "airportIcao": "LIMA",
    "metar": "LIMA 091150Z 30002KT 7000 NSC 09/M04 Q1024",
    "updatedAt": "2022-03-09T11:50:00.000Z"
  },
  {
    "airportIcao": "LIMC",
    "metar": "LIMC 091220Z 23006KT 130V280 CAVOK 10/M04 Q1023 NOSIG",
    "updatedAt": "2022-03-09T12:20:00.000Z"
  },
  {
    "airportIcao": "LIME",
    "metar": "LIME 091220Z 24006KT 200V270 CAVOK 10/M05 Q1023 NOSIG",
    "updatedAt": "2022-03-09T12:20:00.000Z"
  },
  {
    "airportIcao": "LIMF",
    "metar": "LIMF 091220Z VRB03KT CAVOK 09/M03 Q1023",
    "updatedAt": "2022-03-09T12:20:00.000Z"
  },
  {
    "airportIcao": "LIMG",
    "metar": "LIMG 091150Z VRB04KT CAVOK 12/01 Q1024",
    "updatedAt": "2022-03-09T11:50:00.000Z"
  },
  {
    "airportIcao": "LIMH",
    "metar": "LIMH 091155Z 22003KT CAVOK M05/M22 Q1019",
    "updatedAt": "2022-03-09T11:55:00.000Z"
  },
  {
    "airportIcao": "LIMJ",
    "metar": "LIMJ 091220Z 21004KT CAVOK 11/01 Q1024",
    "updatedAt": "2022-03-09T12:20:00.000Z"
  },
  {
    "airportIcao": "LIMK",
    "metar": "LIMK 091155Z 12001KT CAVOK 05/M01 Q1022",
    "updatedAt": "2022-03-09T11:55:00.000Z"
  },
  {
    "airportIcao": "LIML",
    "metar": "LIML 091220Z 25006KT 210V300 CAVOK 10/M03 Q1023 NOSIG",
    "updatedAt": "2022-03-09T12:20:00.000Z"
  },
  {
    "airportIcao": "LIMN",
    "metar": "LIMN 091155Z /////KT CAVOK 10/M04 Q1023",
    "updatedAt": "2022-03-09T11:55:00.000Z"
  },
  {
    "airportIcao": "LIMP",
    "metar": "LIMP 091150Z VRB03KT CAVOK 11/M05 Q1024",
    "updatedAt": "2022-03-09T11:50:00.000Z"
  },
  {
    "airportIcao": "LIMS",
    "metar": "LIMS 091155Z 33004KT CAVOK 10/01 Q1023",
    "updatedAt": "2022-03-09T11:55:00.000Z"
  },
  {
    "airportIcao": "LIMU",
    "metar": "LIMU 091155Z 17006KT CAVOK 11/02 Q1024",
    "updatedAt": "2022-03-09T11:55:00.000Z"
  },
  {
    "airportIcao": "LIMV",
    "metar": "LIMV 091155Z /////KT CAVOK 08/M05 Q1023",
    "updatedAt": "2022-03-09T11:55:00.000Z"
  },
  {
    "airportIcao": "LIMW",
    "metar": "LIMW 091220Z AUTO 10013KT 9999 NCD 12/M06 Q1020",
    "updatedAt": "2022-03-09T12:20:00.000Z"
  },
  {
    "airportIcao": "LIMY",
    "metar": "LIMY 091155Z VRB03KT 7000 NSC 08/M01 Q1022",
    "updatedAt": "2022-03-09T11:55:00.000Z"
  },
  {
    "airportIcao": "LIMZ",
    "metar": "LIMZ 091220Z AUTO VRB04KT 9999 NCD 09/M02 Q1023",
    "updatedAt": "2022-03-09T12:20:00.000Z"
  },
  {
    "airportIcao": "LIPA",
    "metar": "LIPA 091155Z 20006KT CAVOK 11/M01 Q1022",
    "updatedAt": "2022-03-09T11:55:00.000Z"
  },
  {
    "airportIcao": "LIPB",
    "metar": "LIPB 091150Z VRB04KT CAVOK 11/M07 Q1022 RMK MON LIB",
    "updatedAt": "2022-03-09T11:50:00.000Z"
  },
  {
    "airportIcao": "LIPC",
    "metar": "LIPC 091155Z 30003KT CAVOK 11/M03 Q1024 RMK SKC VIS MIN 9999 WIND THR11 25003KT WIND THR29 04004KT BLU",
    "updatedAt": "2022-03-09T11:55:00.000Z"
  },
  {
    "airportIcao": "LIPE",
    "metar": "LIPE 091220Z VRB03KT CAVOK 12/M05 Q1023",
    "updatedAt": "2022-03-09T12:20:00.000Z"
  },
  {
    "airportIcao": "LIPF",
    "metar": "LIPF 091155Z /////KT CAVOK 14/01 Q1024",
    "updatedAt": "2022-03-09T11:55:00.000Z"
  },
  {
    "airportIcao": "LIPH",
    "metar": "LIPH 091220Z 23008KT 190V290 CAVOK 12/M07 Q1023",
    "updatedAt": "2022-03-09T12:20:00.000Z"
  },
  {
    "airportIcao": "LIPI",
    "metar": "LIPI 091155Z VRB05KT CAVOK 11/M03 Q1023",
    "updatedAt": "2022-03-09T11:55:00.000Z"
  },
  {
    "airportIcao": "LIPK",
    "metar": "LIPK 091150Z VRB02KT CAVOK 12/M05 Q1024",
    "updatedAt": "2022-03-09T11:50:00.000Z"
  },
  {
    "airportIcao": "LIPL",
    "metar": "LIPL 091155Z 25007KT CAVOK 09/01 Q1023",
    "updatedAt": "2022-03-09T11:55:00.000Z"
  },
  {
    "airportIcao": "LIPO",
    "metar": "LIPO 091220Z AUTO 22009KT 190V270 9999 NCD 11/M05 Q1023",
    "updatedAt": "2022-03-09T12:20:00.000Z"
  },
  {
    "airportIcao": "LIPQ",
    "metar": "LIPQ 091220Z AUTO 24007KT 9999 NCD 12/M03 Q1023",
    "updatedAt": "2022-03-09T12:20:00.000Z"
  },
  {
    "airportIcao": "LIPS",
    "metar": "LIPS 091155Z 23004KT CAVOK 10/M03 Q1023",
    "updatedAt": "2022-03-09T11:55:00.000Z"
  },
  {
    "airportIcao": "LIPU",
    "metar": "LIPU 091150Z VRB03KT 8000 NSC 12/M04 Q1023",
    "updatedAt": "2022-03-09T11:50:00.000Z"
  },
  {
    "airportIcao": "LIPX",
    "metar": "LIPX 091220Z 25007KT 210V300 CAVOK 11/M05 Q1023",
    "updatedAt": "2022-03-09T12:20:00.000Z"
  },
  {
    "airportIcao": "LIPY",
    "metar": "LIPY 091220Z AUTO 33014KT 9999 OVC240/// 09/01 Q1024",
    "updatedAt": "2022-03-09T12:20:00.000Z"
  },
  {
    "airportIcao": "LIPZ",
    "metar": "LIPZ 091220Z 19006KT CAVOK 11/M02 Q1023 NOSIG",
    "updatedAt": "2022-03-09T12:20:00.000Z"
  },
  {
    "airportIcao": "LIQC",
    "metar": "LIQC 091155Z 21005KT 9999 SCT030 10/M01 Q1019 RMK SCT QUK 1 QUL 1 N VIS MAR 35 KM VIS MIN 9999",
    "updatedAt": "2022-03-09T11:55:00.000Z"
  },
  {
    "airportIcao": "LIQN",
    "metar": "LIQN 091150Z VRB03KT CAVOK 10/M06 Q1020",
    "updatedAt": "2022-03-09T11:50:00.000Z"
  },
  {
    "airportIcao": "LIQO",
    "metar": "LIQO 091155Z AUTO 29009KT //// 06/M05 Q1021",
    "updatedAt": "2022-03-09T11:55:00.000Z"
  },
  {
    "airportIcao": "LIQW",
    "metar": "LIQW 091155Z /////KT CAVOK 12/03 Q1024",
    "updatedAt": "2022-03-09T11:55:00.000Z"
  },
  {
    "airportIcao": "LIRA",
    "metar": "LIRA 091220Z AUTO VRB04KT 9999 NCD 12/M06 Q1020",
    "updatedAt": "2022-03-09T12:20:00.000Z"
  },
  {
    "airportIcao": "LIRE",
    "metar": "LIRE 091155Z 35006KT CAVOK 12/M01 Q1021",
    "updatedAt": "2022-03-09T11:55:00.000Z"
  },
  {
    "airportIcao": "LIRF",
    "metar": "LIRF 091220Z 02006KT 340V060 CAVOK 13/M06 Q1021 NOSIG",
    "updatedAt": "2022-03-09T12:20:00.000Z"
  },
  {
    "airportIcao": "LIRG",
    "metar": "LIRG 091155Z 29011KT CAVOK 11/M04 Q1021 RMK SKC MON NE LIB NC VIS MIN 9999 BLU",
    "updatedAt": "2022-03-09T11:55:00.000Z"
  },
  {
    "airportIcao": "LIRH",
    "metar": "LIRH 091155Z 26005KT 9999 FEW035 12/M04 Q1019",
    "updatedAt": "2022-03-09T11:55:00.000Z"
  },
  {
    "airportIcao": "LIRI",
    "metar": "LIRI 091150Z 35009KT 300V030 9999 SCT040 10/M03 Q1019",
    "updatedAt": "2022-03-09T11:50:00.000Z"
  },
  {
    "airportIcao": "LIRK",
    "metar": "LIRK 091155Z AUTO 09011KT 040V120 //// M05/M10 Q1017",
    "updatedAt": "2022-03-09T11:55:00.000Z"
  },
  {
    "airportIcao": "LIRL",
    "metar": "LIRL 091155Z 20004KT CAVOK 13/M03 Q1020",
    "updatedAt": "2022-03-09T11:55:00.000Z"
  },
  {
    "airportIcao": "LIRM",
    "metar": "LIRM 091155Z /////KT 9999 SCT040 11/M01 Q1020",
    "updatedAt": "2022-03-09T11:55:00.000Z"
  },
  {
    "airportIcao": "LIRN",
    "metar": "LIRN 091220Z 06006KT 360V110 9999 SCT050 12/M04 Q1020 NOSIG",
    "updatedAt": "2022-03-09T12:20:00.000Z"
  },
  {
    "airportIcao": "LIRP",
    "metar": "LIRP 091215Z 33008KT CAVOK 12/M00 Q1024 NOSIG",
    "updatedAt": "2022-03-09T12:15:00.000Z"
  },
  {
    "airportIcao": "LIRQ",
    "metar": "LIRQ 091220Z VRB03KT CAVOK 14/M06 Q1023",
    "updatedAt": "2022-03-09T12:20:00.000Z"
  },
  {
    "airportIcao": "LIRS",
    "metar": "LIRS 091155Z 04011KT 360V060 CAVOK 13/M03 Q1023 RMK SKC VIS MIN 9999 WIND THR03 05011KT WIND THR21 05010KT 360V070 BLU",
    "updatedAt": "2022-03-09T11:55:00.000Z"
  },
  {
    "airportIcao": "LIRT",
    "metar": "LIRT 091155Z ///07KT 9999 BKN011 M00/M07 Q1015",
    "updatedAt": "2022-03-09T11:55:00.000Z"
  },
  {
    "airportIcao": "LIRU",
    "metar": "LIRU 091150Z 01005KT 310V060 CAVOK 12/M03 Q1021",
    "updatedAt": "2022-03-09T11:50:00.000Z"
  },
  {
    "airportIcao": "LIRV",
    "metar": "LIRV 091155Z 03013KT CAVOK 10/M02 Q1021",
    "updatedAt": "2022-03-09T11:55:00.000Z"
  },
  {
    "airportIcao": "LIRX",
    "metar": "LIRX 091155Z 36003KT CAVOK 09/M02 Q1021 RMK SKC VIS MIN 9999 VIS MAR 30 KM",
    "updatedAt": "2022-03-09T11:55:00.000Z"
  },
  {
    "airportIcao": "LIRZ",
    "metar": "LIRZ 091220Z AUTO 04013KT 9999 NCD 10/M02 Q1022",
    "updatedAt": "2022-03-09T12:20:00.000Z"
  },
  {
    "airportIcao": "LIVC",
    "metar": "LIVC 091155Z AUTO 35003KT //// M02/M12 Q1020",
    "updatedAt": "2022-03-09T11:55:00.000Z"
  },
  {
    "airportIcao": "LIVD",
    "metar": "LIVD 091155Z ///05KT CAVOK 06/M08 Q1019",
    "updatedAt": "2022-03-09T11:55:00.000Z"
  },
  {
    "airportIcao": "LIVE",
    "metar": "LIVE 091155Z 03008KT CAVOK 05/M13 Q1018",
    "updatedAt": "2022-03-09T11:55:00.000Z"
  },
  {
    "airportIcao": "LIVF",
    "metar": "LIVF 091155Z 06002KT CAVOK 05/M08 Q1021",
    "updatedAt": "2022-03-09T11:55:00.000Z"
  },
  {
    "airportIcao": "LIVM",
    "metar": "LIVM 091155Z AUTO VRB03KT //// 10/M03 Q1025",
    "updatedAt": "2022-03-09T11:55:00.000Z"
  },
  {
    "airportIcao": "LIVO",
    "metar": "LIVO 091155Z 10004KT CAVOK 09/M04 Q1019",
    "updatedAt": "2022-03-09T11:55:00.000Z"
  },
  {
    "airportIcao": "LIVP",
    "metar": "LIVP 091155Z 05007KT 010V070 CAVOK M02/M17 Q1018",
    "updatedAt": "2022-03-09T11:55:00.000Z"
  },
  {
    "airportIcao": "LIVR",
    "metar": "LIVR 091155Z 13008KT CAVOK 00/M13 Q1018",
    "updatedAt": "2022-03-09T11:55:00.000Z"
  },
  {
    "airportIcao": "LIVT",
    "metar": "LIVT 091155Z 30001KT CAVOK 09/01 Q1023",
    "updatedAt": "2022-03-09T11:55:00.000Z"
  },
  {
    "airportIcao": "LJCE",
    "metar": "LJCE 091230Z 15004KT 110V200 CAVOK 11/M04 Q1023 RMK BLU",
    "updatedAt": "2022-03-09T12:30:00.000Z"
  },
  {
    "airportIcao": "LJLJ",
    "metar": "LJLJ 091230Z VRB03KT CAVOK 09/M06 Q1022 NOSIG",
    "updatedAt": "2022-03-09T12:30:00.000Z"
  },
  {
    "airportIcao": "LJMB",
    "metar": "LJMB 091230Z 06008KT 350V120 9999 FEW027 10/M06 Q1022",
    "updatedAt": "2022-03-09T12:30:00.000Z"
  },
  {
    "airportIcao": "LJPZ",
    "metar": "LJPZ 091230Z 30006KT 260V330 CAVOK 11/M06 Q1023",
    "updatedAt": "2022-03-09T12:30:00.000Z"
  },
  {
    "airportIcao": "LKCV",
    "metar": "LKCV 091230Z 32005KT CAVOK 09/M04 Q1024 NOSIG RMK BLU BLU",
    "updatedAt": "2022-03-09T12:30:00.000Z"
  },
  {
    "airportIcao": "LKKB",
    "metar": "LKKB 091200Z 32006KT 270V010 CAVOK 08/M07 Q1024 NOSIG",
    "updatedAt": "2022-03-09T12:00:00.000Z"
  },
  {
    "airportIcao": "LKKU",
    "metar": "LKKU 091200Z 03009KT 010V080 9999 FEW046 09/M06 Q1022",
    "updatedAt": "2022-03-09T12:00:00.000Z"
  },
  {
    "airportIcao": "LKKV",
    "metar": "LKKV 091230Z VRB04KT CAVOK 09/M12 Q1023",
    "updatedAt": "2022-03-09T12:30:00.000Z"
  },
  {
    "airportIcao": "LKLN",
    "metar": "LKLN 091200Z AUTO 18003KT 110V230 CAVOK 09/M06 Q1025",
    "updatedAt": "2022-03-09T12:00:00.000Z"
  },
  {
    "airportIcao": "LKMT",
    "metar": "LKMT 091230Z 36012KT 330V030 9999 FEW047 08/M04 Q1023 NOSIG",
    "updatedAt": "2022-03-09T12:30:00.000Z"
  },
  {
    "airportIcao": "LKNA",
    "metar": "LKNA 091230Z 34009KT 310V020 CAVOK 08/M05 Q1023 NOSIG RMK BLU BLU",
    "updatedAt": "2022-03-09T12:30:00.000Z"
  },
  {
    "airportIcao": "LKPD",
    "metar": "LKPD 091230Z 34005KT 290V040 CAVOK 08/M04 Q1024 NOSIG RMK BLU BLU",
    "updatedAt": "2022-03-09T12:30:00.000Z"
  },
  {
    "airportIcao": "LKPR",
    "metar": "LKPR 091230Z 36005KT 310V040 CAVOK 09/M06 Q1024 NOSIG",
    "updatedAt": "2022-03-09T12:30:00.000Z"
  },
  {
    "airportIcao": "LKTB",
    "metar": "LKTB 091230Z 33013KT CAVOK 10/M06 Q1022 NOSIG",
    "updatedAt": "2022-03-09T12:30:00.000Z"
  },
  {
    "airportIcao": "LKVO",
    "metar": "LKVO 091200Z 29003KT 200V320 CAVOK 09/M06 Q1025",
    "updatedAt": "2022-03-09T12:00:00.000Z"
  },
  {
    "airportIcao": "LLBG",
    "metar": "LLBG 091220Z 31010KT 9999 SCT030 18/10 Q1007 NOSIG",
    "updatedAt": "2022-03-09T12:20:00.000Z"
  },
  {
    "airportIcao": "LLER",
    "metar": "LLER 091150Z 17011KT CAVOK 27/04 Q1004",
    "updatedAt": "2022-03-09T11:50:00.000Z"
  },
  {
    "airportIcao": "LLHA",
    "metar": "LLHA 091232Z 30005KT 9999 -RA SCT035 16/13 Q1007 RMK BKN060",
    "updatedAt": "2022-03-09T12:32:00.000Z"
  },
  {
    "airportIcao": "LLIB",
    "metar": "LLIB 091150Z AUTO VRB03KT 9999 FEW050 13/12 Q1007 RMK BKN080",
    "updatedAt": "2022-03-09T11:50:00.000Z"
  },
  {
    "airportIcao": "LMML",
    "metar": "LMML 091145Z 34015KT 310V010 9999 SCT049 12/00 Q1019 NOSIG",
    "updatedAt": "2022-03-09T11:45:00.000Z"
  },
  {
    "airportIcao": "LOAN",
    "metar": "LOAN 091200Z 36008KT 9999 FEW060",
    "updatedAt": "2022-03-09T12:00:00.000Z"
  },
  {
    "airportIcao": "LOAV",
    "metar": "LOAV 091200Z 33005KT 9999 FEW035 08/M02",
    "updatedAt": "2022-03-09T12:00:00.000Z"
  },
  {
    "airportIcao": "LOWG",
    "metar": "LOWG 091220Z VRB03KT 9999 FEW070 09/M06 Q1022 NOSIG",
    "updatedAt": "2022-03-09T12:20:00.000Z"
  },
  {
    "airportIcao": "LOWI",
    "metar": "LOWI 091220Z 15004KT 090V230 CAVOK 10/M08 Q1022 NOSIG",
    "updatedAt": "2022-03-09T12:20:00.000Z"
  },
  {
    "airportIcao": "LOWK",
    "metar": "LOWK 091220Z 12004KT 070V200 9999 FEW060 09/M08 Q1022 NOSIG",
    "updatedAt": "2022-03-09T12:20:00.000Z"
  },
  {
    "airportIcao": "LOWL",
    "metar": "LOWL 091220Z AUTO VRB03KT 9999 SCT075 09/M06 Q1024 NOSIG",
    "updatedAt": "2022-03-09T12:20:00.000Z"
  },
  {
    "airportIcao": "LOWS",
    "metar": "LOWS 091220Z 31005KT 230V010 9999 FEW080 10/M06 Q1023 NOSIG",
    "updatedAt": "2022-03-09T12:20:00.000Z"
  },
  {
    "airportIcao": "LOWW",
    "metar": "LOWW 091220Z 34009KT CAVOK 10/M03 Q1023 NOSIG",
    "updatedAt": "2022-03-09T12:20:00.000Z"
  },
  {
    "airportIcao": "LOXT",
    "metar": "LOXT 091220Z 30006KT 50KM SCT050CU 11/M02 Q1024 NOSIG RMK WIND INFO EST/SCT",
    "updatedAt": "2022-03-09T12:20:00.000Z"
  },
  {
    "airportIcao": "LOXZ",
    "metar": "LOXZ 091220Z VRB03KT 50KM FEW060SC 08/M07 Q1021 NOSIG",
    "updatedAt": "2022-03-09T12:20:00.000Z"
  },
  {
    "airportIcao": "LPAR",
    "metar": "LPAR 091200Z 22014KT 9999 FEW020 SCT028 17/10 Q1019",
    "updatedAt": "2022-03-09T12:00:00.000Z"
  },
  {
    "airportIcao": "LPAZ",
    "metar": "LPAZ 091230Z 31011KT 9999 FEW024 17/12 Q1019",
    "updatedAt": "2022-03-09T12:30:00.000Z"
  },
  {
    "airportIcao": "LPBJ",
    "metar": "LPBJ 091200Z 22006KT 160V260 9999 FEW025 17/07 Q1021",
    "updatedAt": "2022-03-09T12:00:00.000Z"
  },
  {
    "airportIcao": "LPCS",
    "metar": "LPCS 091230Z 20012KT 9999 FEW016 BKN028 15/11 Q1019",
    "updatedAt": "2022-03-09T12:30:00.000Z"
  },
  {
    "airportIcao": "LPFL",
    "metar": "LPFL 091230Z 20017G32KT 160V240 9999 FEW016 SCT030 17/13 Q1014",
    "updatedAt": "2022-03-09T12:30:00.000Z"
  },
  {
    "airportIcao": "LPFR",
    "metar": "LPFR 091230Z 11011KT 080V140 9999 FEW015 17/10 Q1020",
    "updatedAt": "2022-03-09T12:30:00.000Z"
  },
  {
    "airportIcao": "LPHR",
    "metar": "LPHR 091230Z 25010KT 9999 FEW014 17/13 Q1018",
    "updatedAt": "2022-03-09T12:30:00.000Z"
  },
  {
    "airportIcao": "LPLA",
    "metar": "LPLA 091200Z /////KT 9999 FEW025 17/13 Q1018",
    "updatedAt": "2022-03-09T12:00:00.000Z"
  },
  {
    "airportIcao": "LPMA",
    "metar": "LPMA 091230Z 20007KT 9999 FEW016 BKN030 18/09 Q1021",
    "updatedAt": "2022-03-09T12:30:00.000Z"
  },
  {
    "airportIcao": "LPMR",
    "metar": "LPMR 091200Z 20011KT 9999 SCT015 BKN035 16/11 Q1018",
    "updatedAt": "2022-03-09T12:00:00.000Z"
  },
  {
    "airportIcao": "LPMT",
    "metar": "LPMT 091200Z 23011KT 9999 SCT028 17/09 Q1019",
    "updatedAt": "2022-03-09T12:00:00.000Z"
  },
  {
    "airportIcao": "LPOV",
    "metar": "LPOV 091200Z 19014KT 150V210 9999 -SHRA BKN018 14/12 Q1017",
    "updatedAt": "2022-03-09T12:00:00.000Z"
  },
  {
    "airportIcao": "LPPD",
    "metar": "LPPD 091230Z 28008KT 250V310 9999 FEW018 16/11 Q1019",
    "updatedAt": "2022-03-09T12:30:00.000Z"
  },
  {
    "airportIcao": "LPPR",
    "metar": "LPPR 091230Z 19019KT 9999 -RA FEW009 SCT014 BKN045 14/11 Q1016",
    "updatedAt": "2022-03-09T12:30:00.000Z"
  },
  {
    "airportIcao": "LPPS",
    "metar": "LPPS 091230Z 12008KT 9999 FEW015 SCT030 17/10 Q1021",
    "updatedAt": "2022-03-09T12:30:00.000Z"
  },
  {
    "airportIcao": "LPPT",
    "metar": "LPPT 091230Z 21015KT 9999 SCT022 BKN030 15/10 Q1020",
    "updatedAt": "2022-03-09T12:30:00.000Z"
  },
  {
    "airportIcao": "LPST",
    "metar": "LPST 091200Z 21012KT 9999 SCT022 BKN028 15/10 Q1019",
    "updatedAt": "2022-03-09T12:00:00.000Z"
  },
  {
    "airportIcao": "LQBK",
    "metar": "LQBK 091230Z 35005KT 290V050 9999 FEW040 07/M05 Q1022 NOSIG",
    "updatedAt": "2022-03-09T12:30:00.000Z"
  },
  {
    "airportIcao": "LQMO",
    "metar": "LQMO 091230Z VRB07KT 9999 FEW045 SCT073 09/M08 Q1018",
    "updatedAt": "2022-03-09T12:30:00.000Z"
  },
  {
    "airportIcao": "LQSA",
    "metar": "LQSA 091230Z 32006KT 300V020 9999 SCT035 BKN045 03/M05 Q1020 NOSIG",
    "updatedAt": "2022-03-09T12:30:00.000Z"
  },
  {
    "airportIcao": "LQTZ",
    "metar": "LQTZ 091230Z 25003KT 170V300 9999 BKN030 03/M04 Q1021",
    "updatedAt": "2022-03-09T12:30:00.000Z"
  },
  {
    "airportIcao": "LRAR",
    "metar": "LRAR 091230Z 35010KT 9999 BKN033 03/M03 Q1020",
    "updatedAt": "2022-03-09T12:30:00.000Z"
  },
  {
    "airportIcao": "LRBC",
    "metar": "LRBC 091230Z 35012KT 9999 BKN045 M00/M09 Q1020",
    "updatedAt": "2022-03-09T12:30:00.000Z"
  },
  {
    "airportIcao": "LRBM",
    "metar": "LRBM 091230Z 12007KT 080V160 CAVOK 05/M11 Q1019",
    "updatedAt": "2022-03-09T12:30:00.000Z"
  },
  {
    "airportIcao": "LRBO",
    "metar": "LRBO 091200Z 02024KT 9999 FEW040 BKN060 03/M09 Q1019 BLU BLU",
    "updatedAt": "2022-03-09T12:00:00.000Z"
  },
  {
    "airportIcao": "LRBS",
    "metar": "LRBS 091230Z 12005KT 070V200 9999 FEW048 02/M04 Q1019 NOSIG",
    "updatedAt": "2022-03-09T12:30:00.000Z"
  },
  {
    "airportIcao": "LRCK",
    "metar": "LRCK 091230Z 35019KT 5000 BR BKN045 FEW048CB 01/M04 Q1017 TEMPO VRB15G25 5000 -SHSN SCT030CB",
    "updatedAt": "2022-03-09T12:30:00.000Z"
  },
  {
    "airportIcao": "LRCL",
    "metar": "LRCL 091230Z 34005KT 240V050 9999 BKN058 03/M11 Q1018",
    "updatedAt": "2022-03-09T12:30:00.000Z"
  },
  {
    "airportIcao": "LRCT",
    "metar": "LRCT 091200Z 01010KT 9999 BKN050 03/M12 Q1018 BLU BLU",
    "updatedAt": "2022-03-09T12:00:00.000Z"
  },
  {
    "airportIcao": "LRCV",
    "metar": "LRCV 091230Z 07012KT 9999 SCT018 BKN030 02/M03 Q1017",
    "updatedAt": "2022-03-09T12:30:00.000Z"
  },
  {
    "airportIcao": "LRFT",
    "metar": "LRFT 091200Z 35014G24KT 9999 BKN040 02/M05 Q1019 BLU WHT",
    "updatedAt": "2022-03-09T12:00:00.000Z"
  },
  {
    "airportIcao": "LRIA",
    "metar": "LRIA 091230Z 35012KT 9999 BKN048 01/M07 Q1020",
    "updatedAt": "2022-03-09T12:30:00.000Z"
  },
  {
    "airportIcao": "LROD",
    "metar": "LROD 091230Z 33010KT 300V360 9999 SCT037 05/M03 Q1020",
    "updatedAt": "2022-03-09T12:30:00.000Z"
  },
  {
    "airportIcao": "LROP",
    "metar": "LROP 091230Z 13003KT 070V180 CAVOK 02/M06 Q1019 NOSIG",
    "updatedAt": "2022-03-09T12:30:00.000Z"
  },
  {
    "airportIcao": "LRSB",
    "metar": "LRSB 091230Z 24006KT 9999 SCT043 BKN065 M00/M08 Q1018",
    "updatedAt": "2022-03-09T12:30:00.000Z"
  },
  {
    "airportIcao": "LRSM",
    "metar": "LRSM 091230Z 34008KT 280V020 CAVOK 06/M09 Q1019",
    "updatedAt": "2022-03-09T12:30:00.000Z"
  },
  {
    "airportIcao": "LRSV",
    "metar": "LRSV 091200Z 35008KT 310V020 9999 FEW036 M00/M08 Q1019",
    "updatedAt": "2022-03-09T12:00:00.000Z"
  },
  {
    "airportIcao": "LRTC",
    "metar": "LRTC 091230Z 35018KT 9999 -SHSN FEW022 SCT032CB BKN041 01/M04 Q1018",
    "updatedAt": "2022-03-09T12:30:00.000Z"
  },
  {
    "airportIcao": "LRTM",
    "metar": "LRTM 091230Z 03004KT 350V060 CAVOK 03/M12 Q1018",
    "updatedAt": "2022-03-09T12:30:00.000Z"
  },
  {
    "airportIcao": "LRTR",
    "metar": "LRTR 091230Z 34017KT 9999 BKN036 04/M04 Q1020 NOSIG",
    "updatedAt": "2022-03-09T12:30:00.000Z"
  },
  {
    "airportIcao": "LRTZ",
    "metar": "LRTZ 091200Z 01014KT 9000 GS SCT020 BKN040 BKN080 01/M04 Q1017 BLU BLU",
    "updatedAt": "2022-03-09T12:00:00.000Z"
  },
  {
    "airportIcao": "LSGC",
    "metar": "LSGC 091220Z 11004KT 040V170 CAVOK 09/M04 Q1021",
    "updatedAt": "2022-03-09T12:20:00.000Z"
  },
  {
    "airportIcao": "LSGG",
    "metar": "LSGG 091220Z VRB03KT CAVOK 09/M02 Q1023 NOSIG",
    "updatedAt": "2022-03-09T12:20:00.000Z"
  },
  {
    "airportIcao": "LSGS",
    "metar": "LSGS 091220Z VRB03KT CAVOK 11/M09 Q1021",
    "updatedAt": "2022-03-09T12:20:00.000Z"
  },
  {
    "airportIcao": "LSMA",
    "metar": "LSMA 091220Z 05009KT 020V080 CAVOK 09/M02 Q1023 RMK BLU",
    "updatedAt": "2022-03-09T12:20:00.000Z"
  },
  {
    "airportIcao": "LSMD",
    "metar": "LSMD 091220Z 27003KT 190V340 CAVOK 11/M04 Q1023 RMK BLU",
    "updatedAt": "2022-03-09T12:20:00.000Z"
  },
  {
    "airportIcao": "LSME",
    "metar": "LSME 091220Z VRB02KT CAVOK 10/M02 Q1023 RMK BLU",
    "updatedAt": "2022-03-09T12:20:00.000Z"
  },
  {
    "airportIcao": "LSMM",
    "metar": "LSMM 091220Z 25008KT CAVOK 09/M07 Q1022 RMK BLU",
    "updatedAt": "2022-03-09T12:20:00.000Z"
  },
  {
    "airportIcao": "LSMP",
    "metar": "LSMP 091220Z VRB01KT 9000 NSC 10/M01 Q1023 RMK BLU",
    "updatedAt": "2022-03-09T12:20:00.000Z"
  },
  {
    "airportIcao": "LSZA",
    "metar": "LSZA 091220Z 19005KT 150V220 CAVOK 12/M05 Q1022 NOSIG",
    "updatedAt": "2022-03-09T12:20:00.000Z"
  },
  {
    "airportIcao": "LSZB",
    "metar": "LSZB 091220Z 30005KT 260V330 CAVOK 10/M03 Q1022 NOSIG",
    "updatedAt": "2022-03-09T12:20:00.000Z"
  },
  {
    "airportIcao": "LSZC",
    "metar": "LSZC 091220Z 08004KT 040V100 CAVOK 09/M04 Q1023",
    "updatedAt": "2022-03-09T12:20:00.000Z"
  },
  {
    "airportIcao": "LSZG",
    "metar": "LSZG 091220Z 22005KT CAVOK 10/M02 Q1023 NOSIG",
    "updatedAt": "2022-03-09T12:20:00.000Z"
  },
  {
    "airportIcao": "LSZH",
    "metar": "LSZH 091220Z VRB02KT CAVOK 10/M04 Q1023 NOSIG",
    "updatedAt": "2022-03-09T12:20:00.000Z"
  },
  {
    "airportIcao": "LSZL",
    "metar": "LSZL 091220Z 25006KT CAVOK 09/M04 Q1023 RMK BLU",
    "updatedAt": "2022-03-09T12:20:00.000Z"
  },
  {
    "airportIcao": "LSZR",
    "metar": "LSZR 091220Z VRB02KT CAVOK 08/M03 Q1023 NOSIG RMK H",
    "updatedAt": "2022-03-09T12:20:00.000Z"
  },
  {
    "airportIcao": "LSZS",
    "metar": "LSZS 091220Z 00000KT CAVOK 03/M17 Q1019 RMK N TL170",
    "updatedAt": "2022-03-09T12:20:00.000Z"
  },
  {
    "airportIcao": "LTAB",
    "metar": "LTAB 091150Z 34004KT 290V020 9999 BKN033 BKN090 05/M06 Q1007 NOSIG RMK RWY06 34005KT",
    "updatedAt": "2022-03-09T11:50:00.000Z"
  },
  {
    "airportIcao": "LTAC",
    "metar": "LTAC 091220Z 06006KT 030V100 9999 SCT040 BKN100 02/M06 Q1007 NOSIG RMK RWY21L 04006KT 020V080 RWY03L 01004KT 330V060 RWY21R 05005KT 360V090",
    "updatedAt": "2022-03-09T12:20:00.000Z"
  },
  {
    "airportIcao": "LTAD",
    "metar": "LTAD 091150Z 29010KT 270V350 9999 BKN030 BKN090 05/M04 Q1008 NOSIG RMK RWY29 27009KT",
    "updatedAt": "2022-03-09T11:50:00.000Z"
  },
  {
    "airportIcao": "LTAE",
    "metar": "LTAE 091150Z 32010KT 9999 SCT035 BKN100 04/M06 Q1008 NOSIG RMK RWY21 33009KT",
    "updatedAt": "2022-03-09T11:50:00.000Z"
  },
  {
    "airportIcao": "LTAF",
    "metar": "LTAF 091220Z 21010KT 9999 SCT035 BKN100 16/09 Q1004 TEMPO -TSRA RMK RWY23 23009KT 4CU035 6AC100",
    "updatedAt": "2022-03-09T12:20:00.000Z"
  },
  {
    "airportIcao": "LTAG",
    "metar": "LTAG 091220Z 20006KT 9999 FEW025CB SCT030 BKN080 17/09 Q1004 TEMPO -TSRA RMK 2CB025 4CU030 7AC080",
    "updatedAt": "2022-03-09T12:20:00.000Z"
  },
  {
    "airportIcao": "LTAH",
    "metar": "LTAH 091150Z 32008KT 290V350 9999 BKN030 BKN100 02/M04 Q1008 RMK RWY13 34007KT 310V020",
    "updatedAt": "2022-03-09T11:50:00.000Z"
  },
  {
    "airportIcao": "LTAI",
    "metar": "LTAI 091220Z 16009KT 140V200 9999 BKN030 16/05 Q1005 NOSIG RMK RWY18C 17010KT 130V190 RWY36R 17009KT 140V200 RWY18L 17009KT 150V210",
    "updatedAt": "2022-03-09T12:20:00.000Z"
  },
  {
    "airportIcao": "LTAJ",
    "metar": "LTAJ 091220Z 24008KT 210V280 9999 SCT030TCU SCT035 12/06 Q1003 NOSIG RMK RWY10 25009KT 220V280 3TCU030 3CU035",
    "updatedAt": "2022-03-09T12:20:00.000Z"
  },
  {
    "airportIcao": "LTAL",
    "metar": "LTAL 091150Z 34006KT 310V010 2000 -SN BR FEW010 BKN023 OVC070 M03/M04 Q1008",
    "updatedAt": "2022-03-09T11:50:00.000Z"
  },
  {
    "airportIcao": "LTAN",
    "metar": "LTAN 091218Z 02013KT 7000 -SN FEW008 BKN022 BKN080 01/M01 Q1006 NOSIG RMK RWY19 01012KT",
    "updatedAt": "2022-03-09T12:18:00.000Z"
  },
  {
    "airportIcao": "LTAP",
    "metar": "LTAP 091220Z 03013KT 9999 FEW015 BKN035 BKN090 03/M02 Q1008 NOSIG RMK RWY23 04014KT",
    "updatedAt": "2022-03-09T12:20:00.000Z"
  },
  {
    "airportIcao": "LTAR",
    "metar": "LTAR 091150Z 35012KT 6000 -SN SCT006 BKN025 OVC070 M02/M04 Q1004 RMK RWY19 32015KT",
    "updatedAt": "2022-03-09T11:50:00.000Z"
  },
  {
    "airportIcao": "LTAS",
    "metar": "LTAS 091150Z 01006KT 340V040 9999 SCT030 BKN080 05/00 Q1015 RESHRA",
    "updatedAt": "2022-03-09T11:50:00.000Z"
  },
  {
    "airportIcao": "LTAT",
    "metar": "LTAT 091220Z 05004KT 010V090 9999 -RA SCT015 BKN035 OVC090 08/04 Q1004 NOSIG RMK RWY03 02004KT 310V050",
    "updatedAt": "2022-03-09T12:20:00.000Z"
  },
  {
    "airportIcao": "LTAU",
    "metar": "LTAU 091220Z 30005KT 8000 -SHSNRA SCT009 BKN025 BKN080 04/02 Q1005 NOSIG RMK RWY07 28005KT",
    "updatedAt": "2022-03-09T12:20:00.000Z"
  },
  {
    "airportIcao": "LTAV",
    "metar": "LTAV 091150Z 33007KT 300V010 9999 BKN033 BKN100 01/M05 Q1007 RMK RWY11 34008KT",
    "updatedAt": "2022-03-09T11:50:00.000Z"
  },
  {
    "airportIcao": "LTAY",
    "metar": "LTAY 091150Z 07008KT 9999 SCT030 BKN100 07/00 Q1006",
    "updatedAt": "2022-03-09T11:50:00.000Z"
  },
  {
    "airportIcao": "LTAZ",
    "metar": "LTAZ 091220Z 29009KT 9999 FEW015 SCT035 BKN090 06/M02 Q1006 RMK RWY29 30010KT",
    "updatedAt": "2022-03-09T12:20:00.000Z"
  },
  {
    "airportIcao": "LTBA",
    "metar": "LTBA 091220Z 05018KT 9999 BKN025 BKN080 05/M00 Q1015 RESHRA NOSIG RMK RWY23 04015KT",
    "updatedAt": "2022-03-09T12:20:00.000Z"
  },
  {
    "airportIcao": "LTBD",
    "metar": "LTBD 091150Z VRB03KT 9999 VCSH FEW020CB SCT030 BKN100 14/03 Q1006 RETS",
    "updatedAt": "2022-03-09T11:50:00.000Z"
  },
  {
    "airportIcao": "LTBF",
    "metar": "LTBF 091150Z 02022KT 9999 FEW015 SCT035 07/M00 Q1012 NOSIG RMK RWY18 01022KT",
    "updatedAt": "2022-03-09T11:50:00.000Z"
  },
  {
    "airportIcao": "LTBG",
    "metar": "LTBG 091150Z 35024KT 9999 FEW015 BKN035 06/00 Q1014 NOSIG RMK RWY18 35023G33KT",
    "updatedAt": "2022-03-09T11:50:00.000Z"
  },
  {
    "airportIcao": "LTBH",
    "metar": "LTBH 091150Z 06020G30KT 9999 BKN030 07/M00 Q1014",
    "updatedAt": "2022-03-09T11:50:00.000Z"
  },
  {
    "airportIcao": "LTBI",
    "metar": "LTBI 091150Z 34011KT 9999 BKN035 02/M04 Q1010 NOSIG RMK RWY08 34012KT",
    "updatedAt": "2022-03-09T11:50:00.000Z"
  },
  {
    "airportIcao": "LTBJ",
    "metar": "LTBJ 091220Z 35016KT 9999 SCT030 BKN100 11/02 Q1007 NOSIG RMK RWY16 36014KT",
    "updatedAt": "2022-03-09T12:20:00.000Z"
  },
  {
    "airportIcao": "LTBL",
    "metar": "LTBL 091150Z 07007KT 330V130 9999 SCT040 BKN100 11/03 Q1009 NOSIG RMK RWY17 04012KT 010V070",
    "updatedAt": "2022-03-09T11:50:00.000Z"
  },
  {
    "airportIcao": "LTBO",
    "metar": "LTBO 091150Z 05008KT 020V090 9999 BKN030 BKN090 05/M02 Q1007",
    "updatedAt": "2022-03-09T11:50:00.000Z"
  },
  {
    "airportIcao": "LTBQ",
    "metar": "LTBQ 091212Z 36009KT 8000 -SHSNRA SCT010 BKN025 04/01 Q1015 NOSIG RMK RWY09 01010KT 340V050",
    "updatedAt": "2022-03-09T12:12:00.000Z"
  },
  {
    "airportIcao": "LTBR",
    "metar": "LTBR 091220Z 01008KT 9999 BKN030 BKN080 05/M02 Q1013 NOSIG RMK RWY07 35008KT 310V040",
    "updatedAt": "2022-03-09T12:20:00.000Z"
  },
  {
    "airportIcao": "LTBS",
    "metar": "LTBS 091220Z 22010KT 9999 SCT020 BKN120 14/06 Q1006 NOSIG RMK RWY19 21011KT 3CU020 5AC120",
    "updatedAt": "2022-03-09T12:20:00.000Z"
  },
  {
    "airportIcao": "LTBT",
    "metar": "LTBT 091150Z 01010KT 330V110 9999 SCT035 BKN090 10/03 Q1009 RMK RWY13 01013KT 340V040",
    "updatedAt": "2022-03-09T11:50:00.000Z"
  },
  {
    "airportIcao": "LTBU",
    "metar": "LTBU 091220Z 02019KT 9999 BKN030 06/M04 Q1015 RMK RWY22 03018KT",
    "updatedAt": "2022-03-09T12:20:00.000Z"
  },
  {
    "airportIcao": "LTBY",
    "metar": "LTBY 091150Z 34012KT 310V010 9999 BKN030 01/M04 Q1009",
    "updatedAt": "2022-03-09T11:50:00.000Z"
  },
  {
    "airportIcao": "LTCA",
    "metar": "LTCA 091215Z 10004KT 350V160 9999 FEW020 BKN033 BKN090 07/04 Q1003 RERA NOSIG RMK RWY07 08003KT 030V150 2ST020 5SC033 7AS090",
    "updatedAt": "2022-03-09T12:15:00.000Z"
  },
  {
    "airportIcao": "LTCB",
    "metar": "LTCB 091150Z 26008KT 9999 -SHRA SCT012 BKN028 05/02 Q1013",
    "updatedAt": "2022-03-09T11:50:00.000Z"
  },
  {
    "airportIcao": "LTCC",
    "metar": "LTCC 091220Z 32009KT 9999 SCT035 BKN090 08/05 Q1003 NOSIG RMK RWY16 32010KT 270V350 4CU035 6AC090",
    "updatedAt": "2022-03-09T12:20:00.000Z"
  },
  {
    "airportIcao": "LTCD",
    "metar": "LTCD 091150Z VRB02KT 9999 SCT012 BKN028 OVC070 06/03 Q1003 NOSIG",
    "updatedAt": "2022-03-09T11:50:00.000Z"
  },
  {
    "airportIcao": "LTCE",
    "metar": "LTCE 091220Z 25006KT 1400 R26L/P1500D R08R/1500D R26R/P1500D R08L/1200N -SN BR FEW005 BKN020 OVC070 01/00 Q1001 NOSIG RMK RWY08R 00000KT RWY26R 24005KT RWY08L 00000KT 2ST005 6SC020 8AS070",
    "updatedAt": "2022-03-09T12:20:00.000Z"
  },
  {
    "airportIcao": "LTCF",
    "metar": "LTCF 091150Z VRB01KT 0700 R06/1300D R24/1200N SN BCFG FEW002 BKN020 OVC070 M00/M00 Q1001",
    "updatedAt": "2022-03-09T11:50:00.000Z"
  },
  {
    "airportIcao": "LTCG",
    "metar": "LTCG 091220Z 31017KT 7000 -SHRA SCT012 BKN028 06/04 Q1012 TEMPO 3500 SHRA BR BKN008 BKN025 RMK RWY29 30017KT",
    "updatedAt": "2022-03-09T12:20:00.000Z"
  },
  {
    "airportIcao": "LTCI",
    "metar": "LTCI 091150Z 16010KT 130V200 9999 -RA SCT012 BKN025 BKN070 06/01 Q1003 NOSIG RMK RWY21 15010KT 120V180 3ST012 5SC025 7AS070",
    "updatedAt": "2022-03-09T11:50:00.000Z"
  },
  {
    "airportIcao": "LTCJ",
    "metar": "LTCJ 091220Z 18007KT 4500 BR BKN023 BKN080 11/07 Q1002 RMK RWY20 16005KT 130V210 5CU023 7AC080",
    "updatedAt": "2022-03-09T12:20:00.000Z"
  },
  {
    "airportIcao": "LTCK",
    "metar": "LTCK 091150Z 30003KT 1000 R29/1300U R11/1400U -SN FEW002 BKN025 OVC060 00/00 Q1002 RMK RWY11 29003KT",
    "updatedAt": "2022-03-09T11:50:00.000Z"
  },
  {
    "airportIcao": "LTCL",
    "metar": "LTCL 091150Z 18014KT 9000 -SHRA BKN030 BKN080 10/07 Q1004 RESHRA",
    "updatedAt": "2022-03-09T11:50:00.000Z"
  },
  {
    "airportIcao": "LTCM",
    "metar": "LTCM 091150Z 27011KT 9999 SCT010 BKN028 04/02 Q1014 RERA",
    "updatedAt": "2022-03-09T11:50:00.000Z"
  },
  {
    "airportIcao": "LTCN",
    "metar": "LTCN 091150Z 27006KT 220V300 9999 SCT035 BKN090 13/06 Q1003 NOSIG",
    "updatedAt": "2022-03-09T11:50:00.000Z"
  },
  {
    "airportIcao": "LTCO",
    "metar": "LTCO 091211Z 13003KT 1200 R16/P1500N R34/1200N -SN BR FEW007 BKN020 OVC060 01/00 Q1001",
    "updatedAt": "2022-03-09T12:11:00.000Z"
  },
  {
    "airportIcao": "LTCP",
    "metar": "LTCP 091150Z 23007KT 170V290 9999 FEW015 SCT033 BKN080 11/07 Q1003",
    "updatedAt": "2022-03-09T11:50:00.000Z"
  },
  {
    "airportIcao": "LTCR",
    "metar": "LTCR 091150Z 11010KT 1600 BR BKN019 BKN030 12/09 Q1002",
    "updatedAt": "2022-03-09T11:50:00.000Z"
  },
  {
    "airportIcao": "LTCS",
    "metar": "LTCS 091220Z 32011KT 9999 BKN020 10/05 Q1004 RMK RWY22 28011KT 5CU020",
    "updatedAt": "2022-03-09T12:20:00.000Z"
  },
  {
    "airportIcao": "LTCT",
    "metar": "LTCT 091150Z 00000KT 9999 -RA BKN035 OVC070 10/M00 Q1001",
    "updatedAt": "2022-03-09T11:50:00.000Z"
  },
  {
    "airportIcao": "LTCU",
    "metar": "LTCU 091150Z 17004KT 1800 -SN BR SCT008 BKN030 OVC080 00/00 Q1004",
    "updatedAt": "2022-03-09T11:50:00.000Z"
  },
  {
    "airportIcao": "LTCV",
    "metar": "LTCV 091210Z 12014KT 1600 -DZ BCFG SCT006 BKN030 BKN090 09/09 Q1005 RERA",
    "updatedAt": "2022-03-09T12:10:00.000Z"
  },
  {
    "airportIcao": "LTCW",
    "metar": "LTCW 091150Z 13010KT 0650 R11/0650D R29/0700N SN FZFG BKN005 OVC017 M00/M00 Q1005",
    "updatedAt": "2022-03-09T11:50:00.000Z"
  },
  {
    "airportIcao": "LTDA",
    "metar": "LTDA 091150Z 20010KT 9999 SCT035 BKN080 15/09 Q1005 NOSIG",
    "updatedAt": "2022-03-09T11:50:00.000Z"
  },
  {
    "airportIcao": "LTFA",
    "metar": "LTFA 091150Z 03015KT 9999 FEW035 SCT100 BKN200 11/02 Q1009 RMK RWY17 03017KT",
    "updatedAt": "2022-03-09T11:50:00.000Z"
  },
  {
    "airportIcao": "LTFC",
    "metar": "LTFC 091220Z 34004KT 250V040 9999 BKN030 08/M00 Q1005 RESHRA RMK RWY23 30004KT 240V030",
    "updatedAt": "2022-03-09T12:20:00.000Z"
  },
  {
    "airportIcao": "LTFD",
    "metar": "LTFD 091150Z 03024KT 9999 SCT030 08/M01 Q1012",
    "updatedAt": "2022-03-09T11:50:00.000Z"
  },
  {
    "airportIcao": "LTFE",
    "metar": "LTFE 091220Z 26011KT 9999 FEW020CB SCT030 BKN090 14/03 Q1006 TEMPO -TSRA RMK RWY10 25014KT",
    "updatedAt": "2022-03-09T12:20:00.000Z"
  },
  {
    "airportIcao": "LTFG",
    "metar": "LTFG 091236Z 20008KT 110V240 9999 -SHRA FEW020CB BKN025 16/11 Q1006",
    "updatedAt": "2022-03-09T12:36:00.000Z"
  },
  {
    "airportIcao": "LTFH",
    "metar": "LTFH 091150Z 34010KT 7000 -SHRA SCT010 BKN026 BKN080 04/02 Q1013 NOSIG",
    "updatedAt": "2022-03-09T11:50:00.000Z"
  },
  {
    "airportIcao": "LTFJ",
    "metar": "LTFJ 091220Z 01013KT 9999 SCT018 BKN035 05/M00 Q1015 RESHRA NOSIG RMK RWY24 35012KT",
    "updatedAt": "2022-03-09T12:20:00.000Z"
  },
  {
    "airportIcao": "LTFK",
    "metar": "LTFK 091150Z VRB10KT 9999 BKN028 BKN080 07/M00 Q1013",
    "updatedAt": "2022-03-09T11:50:00.000Z"
  },
  {
    "airportIcao": "LTFM",
    "metar": "LTFM 091220Z 36017KT 8000 -SHSN FEW017 BKN025 03/M00 Q1016 NOSIG RMK RWY17L 36012KT RWY34L 36016KT RWY16R 02014KT 350V050 RWY36 35016KT RWY18 36015KT",
    "updatedAt": "2022-03-09T12:20:00.000Z"
  },
  {
    "airportIcao": "LUKK",
    "metar": "LUKK 091230Z 36012KT 9999 -SHSN BKN022CB OVC032 00/M06 Q1019 TEMPO 01016G26KT 3000 SHSN BKN010 SCT015CB",
    "updatedAt": "2022-03-09T12:30:00.000Z"
  },
  {
    "airportIcao": "LWOH",
    "metar": "LWOH 091230Z 01011G21KT 330V040 9999 FEW040 04/M10 Q1013",
    "updatedAt": "2022-03-09T12:30:00.000Z"
  },
  {
    "airportIcao": "LWSK",
    "metar": "LWSK 091230Z 03010KT 360V070 9999 SCT043 BKN076 04/M07 Q1017 NOSIG",
    "updatedAt": "2022-03-09T12:30:00.000Z"
  },
  {
    "airportIcao": "LXGB",
    "metar": "LXGB 091221Z 08010KT 9999 FEW012 SCT018 BKN250 16/12 Q1021 TEMPO FEW018",
    "updatedAt": "2022-03-09T12:21:00.000Z"
  },
  {
    "airportIcao": "LYBE",
    "metar": "LYBE 091230Z 34010KT CAVOK 03/M04 Q1022 NOSIG",
    "updatedAt": "2022-03-09T12:30:00.000Z"
  },
  {
    "airportIcao": "LYBT",
    "metar": "LYBT 091230Z 29010KT 270V330 9999 BKN040 04/M05 Q1022 NOSIG",
    "updatedAt": "2022-03-09T12:30:00.000Z"
  },
  {
    "airportIcao": "LYKV",
    "metar": "LYKV 091230Z 29007KT 3500 SN FEW005 BKN012 BKN027 01/M01 Q1021 TEMPO 2000 BKN008",
    "updatedAt": "2022-03-09T12:30:00.000Z"
  },
  {
    "airportIcao": "LYNI",
    "metar": "LYNI 091230Z 32013KT 9999 SCT027 BKN040 03/M07 Q1019 NOSIG",
    "updatedAt": "2022-03-09T12:30:00.000Z"
  },
  {
    "airportIcao": "LYPG",
    "metar": "LYPG 091230Z 01022G32KT CAVOK 10/M12 Q1017 NOSIG",
    "updatedAt": "2022-03-09T12:30:00.000Z"
  },
  {
    "airportIcao": "LYTV",
    "metar": "LYTV 091230Z 35010G21KT CAVOK 11/M09 Q1017 NOSIG",
    "updatedAt": "2022-03-09T12:30:00.000Z"
  },
  {
    "airportIcao": "LYVR",
    "metar": "LYVR 091230Z 34017KT 9999 FEW030 04/M06 Q1020 NOSIG",
    "updatedAt": "2022-03-09T12:30:00.000Z"
  },
  {
    "airportIcao": "LZIB",
    "metar": "LZIB 091230Z 31011KT 280V340 9999 FEW048 10/M02 Q1023 NOSIG",
    "updatedAt": "2022-03-09T12:30:00.000Z"
  },
  {
    "airportIcao": "LZKZ",
    "metar": "LZKZ 091230Z 04004KT 330V070 9999 SCT013 BKN025 03/01 Q1020 NOSIG",
    "updatedAt": "2022-03-09T12:30:00.000Z"
  },
  {
    "airportIcao": "LZPP",
    "metar": "LZPP 091230Z 34016KT 9999 FEW040 09/M03 Q1022",
    "updatedAt": "2022-03-09T12:30:00.000Z"
  },
  {
    "airportIcao": "LZTT",
    "metar": "LZTT 091230Z 24009KT 9999 FEW023 BKN043 03/M03 Q1018 NOSIG",
    "updatedAt": "2022-03-09T12:30:00.000Z"
  },
  {
    "airportIcao": "LZZI",
    "metar": "LZZI 091230Z 03011KT 340V050 9999 FEW042 08/M08 Q1022",
    "updatedAt": "2022-03-09T12:30:00.000Z"
  },
  {
    "airportIcao": "MBGT",
    "metar": "MBGT 090100Z 02012KT 9999 SCT015TCU SCT050 25/20 Q1018",
    "updatedAt": "2022-03-09T01:00:00.000Z"
  },
  {
    "airportIcao": "MBPV",
    "metar": "MBPV 091200Z 07005KT 9999 SCT012 24/19 Q1017",
    "updatedAt": "2022-03-09T12:00:00.000Z"
  },
  {
    "airportIcao": "MDAB",
    "metar": "MDAB 091200Z 00000KT 9999 SCT016 22/21 Q1018",
    "updatedAt": "2022-03-09T12:00:00.000Z"
  },
  {
    "airportIcao": "MDBH",
    "metar": "MDBH 091200Z 00000KT 9999 FEW018 23/21 Q1017",
    "updatedAt": "2022-03-09T12:00:00.000Z"
  },
  {
    "airportIcao": "MDCY",
    "metar": "MDCY 091200Z 00000KT 9999 SCT016 20/20 Q1017",
    "updatedAt": "2022-03-09T12:00:00.000Z"
  },
  {
    "airportIcao": "MDJB",
    "metar": "MDJB 091200Z 00000KT 9999 FEW016 20/19 Q1017",
    "updatedAt": "2022-03-09T12:00:00.000Z"
  },
  {
    "airportIcao": "MDLR",
    "metar": "MDLR 091200Z 04004KT 9999 FEW016 23/22 Q1015",
    "updatedAt": "2022-03-09T12:00:00.000Z"
  },
  {
    "airportIcao": "MDPC",
    "metar": "MDPC 091200Z 08010KT 9999 SCT020 26/21 Q1017",
    "updatedAt": "2022-03-09T12:00:00.000Z"
  },
  {
    "airportIcao": "MDPP",
    "metar": "MDPP 091200Z 00000KT 9999 SCT018 21/20 Q1017",
    "updatedAt": "2022-03-09T12:00:00.000Z"
  },
  {
    "airportIcao": "MDSD",
    "metar": "MDSD 091200Z 01004KT 9999 FEW016 22/20 Q1017",
    "updatedAt": "2022-03-09T12:00:00.000Z"
  },
  {
    "airportIcao": "MDST",
    "metar": "MDST 091200Z 00000KT 9999 SCT016 19/19 Q1017",
    "updatedAt": "2022-03-09T12:00:00.000Z"
  },
  {
    "airportIcao": "MGCB",
    "metar": "MGCB 091200Z 27004KT CAVOK 13/12 QFE868.8",
    "updatedAt": "2022-03-09T12:00:00.000Z"
  },
  {
    "airportIcao": "MGES",
    "metar": "MGES 091200Z 00000KT 4000 BR OVC015 20/19 QFE907.9",
    "updatedAt": "2022-03-09T12:00:00.000Z"
  },
  {
    "airportIcao": "MGGT",
    "metar": "MGGT 091200Z 00000KT 8000 FEW012 SCT200 17/16 Q1019 A3009 BR",
    "updatedAt": "2022-03-09T12:00:00.000Z"
  },
  {
    "airportIcao": "MGHT",
    "metar": "MGHT 091200Z 00000KT CAVOK 11/11",
    "updatedAt": "2022-03-09T12:00:00.000Z"
  },
  {
    "airportIcao": "MGMM",
    "metar": "MGMM 091200Z 00000KT CAVOK 20/19 Q1012 A2988",
    "updatedAt": "2022-03-09T12:00:00.000Z"
  },
  {
    "airportIcao": "MGPB",
    "metar": "MGPB 091200Z 00000KT 9999 FEW018 23/23 Q1010 A2983 FEW090",
    "updatedAt": "2022-03-09T12:00:00.000Z"
  },
  {
    "airportIcao": "MGQZ",
    "metar": "MGQZ 091200Z 00000KT 5000 BR OVC016 12/11 QFE772/0",
    "updatedAt": "2022-03-09T12:00:00.000Z"
  },
  {
    "airportIcao": "MGRT",
    "metar": "MGRT 091200Z 00000KT 8000 OVC016 24/23 Q1014 A2994 BR VOL. SANTA MARIA Y SANTIAGUITO EN ACTIVIDAD",
    "updatedAt": "2022-03-09T12:00:00.000Z"
  },
  {
    "airportIcao": "MGSJ",
    "metar": "MGSJ 091200Z 00000KT 8000 OVC200 25/25 Q1012 A2988 BR",
    "updatedAt": "2022-03-09T12:00:00.000Z"
  },
  {
    "airportIcao": "MGTU",
    "metar": "MGTU 091200Z 00000KT 9999 OVC018 25/23",
    "updatedAt": "2022-03-09T12:00:00.000Z"
  },
  {
    "airportIcao": "MGZA",
    "metar": "MGZA 091200Z 00000KT 9999 SCT022 OVC090 24/22 QFE986/5",
    "updatedAt": "2022-03-09T12:00:00.000Z"
  },
  {
    "airportIcao": "MHCA",
    "metar": "MHCA 091200Z 00000KT 9999 FEW028 22/21",
    "updatedAt": "2022-03-09T12:00:00.000Z"
  },
  {
    "airportIcao": "MHCH",
    "metar": "MHCH 091200Z 02004KT 9999 FEW030 24/21",
    "updatedAt": "2022-03-09T12:00:00.000Z"
  },
  {
    "airportIcao": "MHGS",
    "metar": "MHGS 091200Z 00000KT 9999 SCT034 20/19",
    "updatedAt": "2022-03-09T12:00:00.000Z"
  },
  {
    "airportIcao": "MHLC",
    "metar": "MHLC 091200Z VRB02KT 9999 FEW030 BKN070 22/21 Q1010 A2983 NOSIG",
    "updatedAt": "2022-03-09T12:00:00.000Z"
  },
  {
    "airportIcao": "MHLE",
    "metar": "MHLE 091200Z 00000KT 9999 FEW018 13/13",
    "updatedAt": "2022-03-09T12:00:00.000Z"
  },
  {
    "airportIcao": "MHLM",
    "metar": "MHLM 091200Z 00000KT 9999 FEW026 22/20 Q1010 A2983 NOSIG",
    "updatedAt": "2022-03-09T12:00:00.000Z"
  },
  {
    "airportIcao": "MHNO",
    "metar": "MHNO 091200Z 00000KT 9999 SCT030 SCT090 21/20",
    "updatedAt": "2022-03-09T12:00:00.000Z"
  },
  {
    "airportIcao": "MHPL",
    "metar": "MHPL 091200Z 00000KT 9999 FEW020 24/22 Q1014",
    "updatedAt": "2022-03-09T12:00:00.000Z"
  },
  {
    "airportIcao": "MHPR",
    "metar": "MHPR 091200Z 00000KT 8000 FEW042 SCT090 19/15 Q1016 A3001 NOSIG",
    "updatedAt": "2022-03-09T12:00:00.000Z"
  },
  {
    "airportIcao": "MHRO",
    "metar": "MHRO 091200Z 10018KT 9999 FEW020 SCT080 27/22 Q1011 A2986 NOSIG",
    "updatedAt": "2022-03-09T12:00:00.000Z"
  },
  {
    "airportIcao": "MHSR",
    "metar": "MHSR 091200Z 22008KT 9999 OVC020 20/19",
    "updatedAt": "2022-03-09T12:00:00.000Z"
  },
  {
    "airportIcao": "MHTE",
    "metar": "MHTE 091200Z 00000KT 9999 SCT028 22/22 Q1008 A2977",
    "updatedAt": "2022-03-09T12:00:00.000Z"
  },
  {
    "airportIcao": "MHTG",
    "metar": "MHTG 091200Z 00000KT 9999 SCT026 BKN080 20/15 Q1019 A3009 NOSIG",
    "updatedAt": "2022-03-09T12:00:00.000Z"
  },
  {
    "airportIcao": "MHTR",
    "metar": "MHTR 091200Z 00000KT 9999 FEW025 SCT080 25/20",
    "updatedAt": "2022-03-09T12:00:00.000Z"
  },
  {
    "airportIcao": "MHYR",
    "metar": "MHYR 091200Z 00000KT 9999 SCT020 SCT080 19/19",
    "updatedAt": "2022-03-09T12:00:00.000Z"
  },
  {
    "airportIcao": "MKJP",
    "metar": "MKJP 091200Z 33009KT 9999 FEW022 25/20 Q1015",
    "updatedAt": "2022-03-09T12:00:00.000Z"
  },
  {
    "airportIcao": "MKJS",
    "metar": "MKJS 091200Z VRB02KT 9999 FEW024 23/18 Q1015",
    "updatedAt": "2022-03-09T12:00:00.000Z"
  },
  {
    "airportIcao": "MMAA",
    "metar": "MMAA 091148Z 31004KT 6SM SKC 19/15 A2983 RMK SLP100 52004 956 HZY",
    "updatedAt": "2022-03-09T11:48:00.000Z"
  },
  {
    "airportIcao": "MMAS",
    "metar": "MMAS 091104Z RTD 16004KT 7SM SKC 11/01 A3010 RMK HZY",
    "updatedAt": "2022-03-09T11:04:00.000Z"
  },
  {
    "airportIcao": "MMBT",
    "metar": "MMBT 090046Z 00000KT 8SM FEW030 29/16 A2980 RMK 8/100 HZY",
    "updatedAt": "2022-03-09T00:46:00.000Z"
  },
  {
    "airportIcao": "MMCB",
    "metar": "MMCB 090059Z RTD 21006KT 10SM FEW090 27/02 A2994 RMK 8/030 CI",
    "updatedAt": "2022-03-09T00:59:00.000Z"
  },
  {
    "airportIcao": "MMCE",
    "metar": "MMCE 091203Z RTD 14015KT 7SM SKC 25/22 A2981 RMK SLP093 5//// 976 AS RTS",
    "updatedAt": "2022-03-09T12:03:00.000Z"
  },
  {
    "airportIcao": "MMCL",
    "metar": "MMCL 090447Z 21004KT 10SM SKC 14/11 A2991 RMK HZY",
    "updatedAt": "2022-03-09T04:47:00.000Z"
  },
  {
    "airportIcao": "MMCM",
    "metar": "MMCM 091202Z RTD 11015KT 7SM BKN020 BKN100 26/23 A2987 RMK SLP116 5//// 971 8/520 RTS",
    "updatedAt": "2022-03-09T12:02:00.000Z"
  },
  {
    "airportIcao": "MMCN",
    "metar": "MMCN 090149Z 26003KT 8SM SKC 13/M01 A2989 RMK HZY",
    "updatedAt": "2022-03-09T01:49:00.000Z"
  },
  {
    "airportIcao": "MMCP",
    "metar": "MMCP 090450Z 14005KT 7SM SKC 27/21 A2986 RMK HZY",
    "updatedAt": "2022-03-09T04:50:00.000Z"
  },
  {
    "airportIcao": "MMCS",
    "metar": "MMCS 090346Z 36010KT 10SM SKC 10/M13 A2997",
    "updatedAt": "2022-03-09T03:46:00.000Z"
  },
  {
    "airportIcao": "MMCU",
    "metar": "MMCU 091140Z 21005KT 10SM SKC M01/M13 A2997 RMK SLP134 5//// 9// RTS",
    "updatedAt": "2022-03-09T11:40:00.000Z"
  },
  {
    "airportIcao": "MMCV",
    "metar": "MMCV 091240Z E34012KT 9SM OVC015 14/05 A3001 RMK 8/5//",
    "updatedAt": "2022-03-09T12:40:00.000Z"
  },
  {
    "airportIcao": "MMCZ",
    "metar": "MMCZ 091244Z 14005KT 7SM SCT015 24/23 A2991 RMK 8/500 RTS",
    "updatedAt": "2022-03-09T12:44:00.000Z"
  },
  {
    "airportIcao": "MMDO",
    "metar": "MMDO 091054Z 15003KT 7SM SKC 06/M02 A3005 RMK RTS",
    "updatedAt": "2022-03-09T10:54:00.000Z"
  },
  {
    "airportIcao": "MMEP",
    "metar": "MMEP 090051Z 33006KT 12SM SKC 23/13 A2995",
    "updatedAt": "2022-03-09T00:51:00.000Z"
  },
  {
    "airportIcao": "MMGL",
    "metar": "MMGL 090852Z 00000KT 10SM SKC 12/04 A3007 RMK SLP080 57011 959",
    "updatedAt": "2022-03-09T08:52:00.000Z"
  },
  {
    "airportIcao": "MMGM",
    "metar": "MMGM 090148Z 00000KT 10SM SKC 19/05 A2987",
    "updatedAt": "2022-03-09T01:48:00.000Z"
  },
  {
    "airportIcao": "MMHO",
    "metar": "MMHO 090656Z 00000KT 10SM SKC 10/M02 A2996 RMK HZY",
    "updatedAt": "2022-03-09T06:56:00.000Z"
  },
  {
    "airportIcao": "MMIO",
    "metar": "MMIO 090502Z RTD 00000KT 10SM SKC 10/02 A3004",
    "updatedAt": "2022-03-09T05:02:00.000Z"
  },
  {
    "airportIcao": "MMLO",
    "metar": "MMLO 090945Z 01006KT 8SM SKC 09/02 A3016 RMK RTS",
    "updatedAt": "2022-03-09T09:45:00.000Z"
  },
  {
    "airportIcao": "MMLP",
    "metar": "MMLP 090348Z 00000KT 10SM SKC 16/06 A2998 NOSIG",
    "updatedAt": "2022-03-09T03:48:00.000Z"
  },
  {
    "airportIcao": "MMMD",
    "metar": "MMMD 090851Z 00000KT 6SM SKC 23/21 A2984",
    "updatedAt": "2022-03-09T08:51:00.000Z"
  },
  {
    "airportIcao": "MMML",
    "metar": "MMML 090857Z RTD 06004KT 10SM SKC 07/M08 A2996 RMK SLP146 57007 993",
    "updatedAt": "2022-03-09T08:57:00.000Z"
  },
  {
    "airportIcao": "MMMM",
    "metar": "MMMM 091146Z 00000KT 7SM SKC 05/M02 A3013 RMK SLP100 52002 973 HZY",
    "updatedAt": "2022-03-09T11:46:00.000Z"
  },
  {
    "airportIcao": "MMMV",
    "metar": "MMMV 090057Z RTD 04015KT 10SM SKC 17/07 A2988",
    "updatedAt": "2022-03-09T00:57:00.000Z"
  },
  {
    "airportIcao": "MMMX",
    "metar": "MMMX 091242Z 00000KT 12SM SKC 12/01 A3022 NOSIG RMK ISOL CI",
    "updatedAt": "2022-03-09T12:42:00.000Z"
  },
  {
    "airportIcao": "MMMZ",
    "metar": "MMMZ 090648Z 00000KT 8SM SKC 10/09 A2991 RMK HZY",
    "updatedAt": "2022-03-09T06:48:00.000Z"
  },
  {
    "airportIcao": "MMOX",
    "metar": "MMOX 091158Z RTD 01003KT 7SM SKC 12/06 A3016 RMK SLP102 5//// 942 HZY RTS",
    "updatedAt": "2022-03-09T11:58:00.000Z"
  },
  {
    "airportIcao": "MMPA",
    "metar": "MMPA 090046Z 09006KT 4SM BKN012 OVC025 21/18 A2980 RMK 8/8// HZY",
    "updatedAt": "2022-03-09T00:46:00.000Z"
  },
  {
    "airportIcao": "MMPB",
    "metar": "MMPB 091241Z 30002KT 8SM SKC 07/00 A3024 RMK HZY RTS",
    "updatedAt": "2022-03-09T12:41:00.000Z"
  },
  {
    "airportIcao": "MMPN",
    "metar": "MMPN 091240Z 00000KT 20SM SKC 10/07 A3012 RMK CI RTS",
    "updatedAt": "2022-03-09T12:40:00.000Z"
  },
  {
    "airportIcao": "MMPQ",
    "metar": "MMPQ 090047Z 00000KT 5SM SKC 30/24 A2968 RMK HZY",
    "updatedAt": "2022-03-09T00:47:00.000Z"
  },
  {
    "airportIcao": "MMPR",
    "metar": "MMPR 091243Z 04004KT 15SM SKC 16/15 A2990 RMK CS AC SC RTS",
    "updatedAt": "2022-03-09T12:43:00.000Z"
  },
  {
    "airportIcao": "MMPS",
    "metar": "MMPS 091152Z 05005KT 15SM SKC 22/16 A2984 RMK RTS",
    "updatedAt": "2022-03-09T11:52:00.000Z"
  },
  {
    "airportIcao": "MMQT",
    "metar": "MMQT 090245Z 10006KT 8SM SKC 18/00 A3015",
    "updatedAt": "2022-03-09T02:45:00.000Z"
  },
  {
    "airportIcao": "MMRX",
    "metar": "MMRX 090256Z 36006KT 8SM OVC025 10/06 A2998 RMK SLP148 52021 9// 8/5// HZY",
    "updatedAt": "2022-03-09T02:56:00.000Z"
  },
  {
    "airportIcao": "MMSD",
    "metar": "MMSD 090345Z 29007KT 12SM SKC 17/10 A2997",
    "updatedAt": "2022-03-09T03:45:00.000Z"
  },
  {
    "airportIcao": "MMSL",
    "metar": "MMSL 090151Z 22005KT 7SM SKC 19/12 A2996",
    "updatedAt": "2022-03-09T01:51:00.000Z"
  },
  {
    "airportIcao": "MMSM",
    "metar": "MMSM 091233Z 23002KT 7SM SKC 06/01 A3024 RMK HZY DU SC",
    "updatedAt": "2022-03-09T12:33:00.000Z"
  },
  {
    "airportIcao": "MMSP",
    "metar": "MMSP 091147Z 18014KT 6SM SKC 15/02 A3000 RMK SLP015 52007 982",
    "updatedAt": "2022-03-09T11:47:00.000Z"
  },
  {
    "airportIcao": "MMTC",
    "metar": "MMTC 091040Z 00000KT 8SM SKC 15/00 A2991 RMK HZY RTS",
    "updatedAt": "2022-03-09T10:40:00.000Z"
  },
  {
    "airportIcao": "MMTG",
    "metar": "MMTG 091116Z RTD 00000KT 5SM SKC 18/14 A2990 RMK FU HZ RTS",
    "updatedAt": "2022-03-09T11:16:00.000Z"
  },
  {
    "airportIcao": "MMTJ",
    "metar": "MMTJ 091148Z 11004KT 10SM SKC 08/02 A3003 RMK SLP171 57007 990",
    "updatedAt": "2022-03-09T11:48:00.000Z"
  },
  {
    "airportIcao": "MMTM",
    "metar": "MMTM 091156Z 29004KT 7SM OVC020 16/14 A2993 RMK SLP135 5//// 967 8/5// RTS",
    "updatedAt": "2022-03-09T11:56:00.000Z"
  },
  {
    "airportIcao": "MMTO",
    "metar": "MMTO 091147Z 21004KT 6SM SKC 04/00 A3027 RMK SLP080 57010 966 HZY",
    "updatedAt": "2022-03-09T11:47:00.000Z"
  },
  {
    "airportIcao": "MMTP",
    "metar": "MMTP 090645Z 00000KT 8SM SCT070 25/25 A2986 RMK 8/070",
    "updatedAt": "2022-03-09T06:45:00.000Z"
  },
  {
    "airportIcao": "MMUN",
    "metar": "MMUN 091145Z 11005KT 7SM SCT015 26/23 A2991 RMK SLP125 52009 971 8/100 CI",
    "updatedAt": "2022-03-09T11:45:00.000Z"
  },
  {
    "airportIcao": "MMVA",
    "metar": "MMVA 091106Z 00000KT 1 1/2SM BR HZ SCT005 OVC010 22/22 A2980 RMK 8/6// VRB CONDS RTS",
    "updatedAt": "2022-03-09T11:06:00.000Z"
  },
  {
    "airportIcao": "MMVR",
    "metar": "MMVR 091207Z RTD E36012KT 6SM SCT012 BKN030 OVC070 22/19 A2985 RMK SLP074 5//// 991 8/67/ HZ RTS",
    "updatedAt": "2022-03-09T12:07:00.000Z"
  },
  {
    "airportIcao": "MMZC",
    "metar": "MMZC 091055Z 17010KT 10SM SKC 09/M04 A3005",
    "updatedAt": "2022-03-09T10:55:00.000Z"
  },
  {
    "airportIcao": "MNBL",
    "metar": "MNBL 091200Z 00000KT 9999 FEW022 23/23 Q1012",
    "updatedAt": "2022-03-09T12:00:00.000Z"
  },
  {
    "airportIcao": "MNCH",
    "metar": "MNCH 091200Z 00000KT 9999 FEW024CB 22/22 Q1011 CB/SW",
    "updatedAt": "2022-03-09T12:00:00.000Z"
  },
  {
    "airportIcao": "MNJG",
    "metar": "MNJG 091200Z 09006KT 6000 SCT006 BKN010 18/17 Q1012 BR",
    "updatedAt": "2022-03-09T12:00:00.000Z"
  },
  {
    "airportIcao": "MNJU",
    "metar": "MNJU 091200Z 00000KT 9999 FEW020 23/20 Q1011",
    "updatedAt": "2022-03-09T12:00:00.000Z"
  },
  {
    "airportIcao": "MNMG",
    "metar": "MNMG 091200Z 00000KT 9999 FEW020 21/20 Q1011 A2988 1AC070 1CI300 NOSIG",
    "updatedAt": "2022-03-09T12:00:00.000Z"
  },
  {
    "airportIcao": "MNPC",
    "metar": "MNPC 091200Z 09004KT 7000 BKN016 26/24 Q1012 HZ",
    "updatedAt": "2022-03-09T12:00:00.000Z"
  },
  {
    "airportIcao": "MNRS",
    "metar": "MNRS 091200Z 05004KT 9999 SCT013 24/22 Q1011",
    "updatedAt": "2022-03-09T12:00:00.000Z"
  },
  {
    "airportIcao": "MPBO",
    "metar": "MPBO 091100Z 26004KT 9000 FEW030 24/23 Q1012 RMK HZ ALQDS",
    "updatedAt": "2022-03-09T11:00:00.000Z"
  },
  {
    "airportIcao": "MPDA",
    "metar": "MPDA 091200Z 05006KT 9999 FEW014 22/19 Q1010",
    "updatedAt": "2022-03-09T12:00:00.000Z"
  },
  {
    "airportIcao": "MPMG",
    "metar": "MPMG 091200Z 34003KT 9999 FEW020 23/23 Q1011 NOSIG",
    "updatedAt": "2022-03-09T12:00:00.000Z"
  },
  {
    "airportIcao": "MPPA",
    "metar": "MPPA 091200Z 29003KT 9999 FEW020 22/21 Q1011",
    "updatedAt": "2022-03-09T12:00:00.000Z"
  },
  {
    "airportIcao": "MPTO",
    "metar": "MPTO 091200Z VRB02KT 9999 FEW020 22/20 Q1010 NOSIG",
    "updatedAt": "2022-03-09T12:00:00.000Z"
  },
  {
    "airportIcao": "MRLB",
    "metar": "MRLB 091200Z 14004KT CAVOK 23/18 A2985",
    "updatedAt": "2022-03-09T12:00:00.000Z"
  },
  {
    "airportIcao": "MRLM",
    "metar": "MRLM 091200Z 23004KT 9999 FEW015 20/18 A2990",
    "updatedAt": "2022-03-09T12:00:00.000Z"
  },
  {
    "airportIcao": "MROC",
    "metar": "MROC 091200Z 03006KT CAVOK 17/13 A2999 NOSIG",
    "updatedAt": "2022-03-09T12:00:00.000Z"
  },
  {
    "airportIcao": "MRPV",
    "metar": "MRPV 091200Z 14008KT CAVOK 18/12 A3001 NOSIG",
    "updatedAt": "2022-03-09T12:00:00.000Z"
  },
  {
    "airportIcao": "MSAC",
    "metar": "MSAC 091150Z 10003KT 9999 BKN030 27/24 Q1008 A2978",
    "updatedAt": "2022-03-09T11:50:00.000Z"
  },
  {
    "airportIcao": "MSLP",
    "metar": "MSLP 091150Z 08003KT 9999 FEW063 24/22 Q1011 A2985 NOSIG",
    "updatedAt": "2022-03-09T11:50:00.000Z"
  },
  {
    "airportIcao": "MUCC",
    "metar": "MUCC 091150Z 11004KT 9000 FEW020 23/21 Q1016",
    "updatedAt": "2022-03-09T11:50:00.000Z"
  },
  {
    "airportIcao": "MUCF",
    "metar": "MUCF 091159Z AUTO 04002KT 20/20 Q1016",
    "updatedAt": "2022-03-09T11:59:00.000Z"
  },
  {
    "airportIcao": "MUCL",
    "metar": "MUCL 091150Z 13006KT 9000 FEW020 23/21 Q1015",
    "updatedAt": "2022-03-09T11:50:00.000Z"
  },
  {
    "airportIcao": "MUCM",
    "metar": "MUCM 091150Z 07006KT 9000 FEW018 21/20 Q1017",
    "updatedAt": "2022-03-09T11:50:00.000Z"
  },
  {
    "airportIcao": "MUCU",
    "metar": "MUCU 091150Z 34005KT 9000 FEW020 22/19 Q1016",
    "updatedAt": "2022-03-09T11:50:00.000Z"
  },
  {
    "airportIcao": "MUGM",
    "metar": "MUGM 091151Z 35006KT 10SM FEW030 22/19 A3002 RMK AO2 SLP165 T02170189 10228 20211 53017 $",
    "updatedAt": "2022-03-09T11:51:00.000Z"
  },
  {
    "airportIcao": "MUHA",
    "metar": "MUHA 091150Z 10003KT 9000 FEW030 20/20 Q1015",
    "updatedAt": "2022-03-09T11:50:00.000Z"
  },
  {
    "airportIcao": "MUHG",
    "metar": "MUHG 091150Z 11004KT 9000 FEW020 22/20 Q1017",
    "updatedAt": "2022-03-09T11:50:00.000Z"
  },
  {
    "airportIcao": "MUSC",
    "metar": "MUSC 091150Z 08002KT 9000 NSC 20/19 Q1017",
    "updatedAt": "2022-03-09T11:50:00.000Z"
  },
  {
    "airportIcao": "MUVR",
    "metar": "MUVR 091150Z VRB01KT 6000 VCFG FEW030 19/19 Q1016",
    "updatedAt": "2022-03-09T11:50:00.000Z"
  },
  {
    "airportIcao": "MWCB",
    "metar": "MWCB 091200Z 09005KT 9999 FEW018 26/23 Q1015",
    "updatedAt": "2022-03-09T12:00:00.000Z"
  },
  {
    "airportIcao": "MWCR",
    "metar": "MWCR 091200Z 11004KT 9999 FEW023 25/23 Q1014",
    "updatedAt": "2022-03-09T12:00:00.000Z"
  },
  {
    "airportIcao": "MYGF",
    "metar": "MYGF 091200Z 16008KT 9999 SCT016 24/21 A3005",
    "updatedAt": "2022-03-09T12:00:00.000Z"
  },
  {
    "airportIcao": "MYNN",
    "metar": "MYNN 091100Z 15010KT 9999 FEW018 23/21 A3005",
    "updatedAt": "2022-03-09T11:00:00.000Z"
  },
  {
    "airportIcao": "MYSM",
    "metar": "MYSM 091200Z AUTO 11006KT 9999 SCT021 24/21 A3009",
    "updatedAt": "2022-03-09T12:00:00.000Z"
  },
  {
    "airportIcao": "MZBZ",
    "metar": "MZBZ 091200Z 12004KT 9999 BKN018 26/23 A2986 Q1011 NOSIG",
    "updatedAt": "2022-03-09T12:00:00.000Z"
  },
  {
    "airportIcao": "NCAI",
    "metar": "NCAI 091200Z AUTO 05003KT //// ////// 25/23 Q1011",
    "updatedAt": "2022-03-09T12:00:00.000Z"
  },
  {
    "airportIcao": "NCAT",
    "metar": "NCAT 091200Z AUTO 34003KT //// ////// ///// ////",
    "updatedAt": "2022-03-09T12:00:00.000Z"
  },
  {
    "airportIcao": "NCMH",
    "metar": "NCMH 091200Z AUTO 04003KT //// ////// ///// Q1010",
    "updatedAt": "2022-03-09T12:00:00.000Z"
  },
  {
    "airportIcao": "NCMK",
    "metar": "NCMK 091200Z AUTO 07002KT //// ////// ///// Q1010",
    "updatedAt": "2022-03-09T12:00:00.000Z"
  },
  {
    "airportIcao": "NCMR",
    "metar": "NCMR 091200Z AUTO 07003KT //// ////// ///// Q1011",
    "updatedAt": "2022-03-09T12:00:00.000Z"
  },
  {
    "airportIcao": "NCNS",
    "metar": "NCNS 091200Z AUTO 03004KT //// ////// 27/23 Q1010",
    "updatedAt": "2022-03-09T12:00:00.000Z"
  },
  {
    "airportIcao": "NCPL",
    "metar": "NCPL 091200Z AUTO 32003KT //// ////// 27/25 Q1010",
    "updatedAt": "2022-03-09T12:00:00.000Z"
  },
  {
    "airportIcao": "NCPY",
    "metar": "NCPY 091200Z AUTO 05008KT //// ////// 28/23 Q1010",
    "updatedAt": "2022-03-09T12:00:00.000Z"
  },
  {
    "airportIcao": "NCRG",
    "metar": "NCRG 091230Z AUTO 33006KT 9999 SCT029/// SCT041/// BKN049/// 26/24 Q1010 RERA",
    "updatedAt": "2022-03-09T12:30:00.000Z"
  },
  {
    "airportIcao": "NCRK",
    "metar": "NCRK 091200Z AUTO 08003KT //// ////// 27/22 Q1010",
    "updatedAt": "2022-03-09T12:00:00.000Z"
  },
  {
    "airportIcao": "NCSW",
    "metar": "NCSW 091000Z AUTO 08002KT //// ////// 28/23 Q1011",
    "updatedAt": "2022-03-09T10:00:00.000Z"
  },
  {
    "airportIcao": "NFFN",
    "metar": "NFFN 091200Z 00000KT 9999 FEW025TCU SCT045 BKN100 24/24 Q1009 NOSIG",
    "updatedAt": "2022-03-09T12:00:00.000Z"
  },
  {
    "airportIcao": "NFNA",
    "metar": "NFNA 091200Z 34004KT 310V010 9999 VCSH FEW012 FEW016CB SCT018TCU BKN043 24/24 Q1009",
    "updatedAt": "2022-03-09T12:00:00.000Z"
  },
  {
    "airportIcao": "NFNL",
    "metar": "NFNL 090100Z 27010KT 9999 SCT028 32/24 Q1009",
    "updatedAt": "2022-03-09T01:00:00.000Z"
  },
  {
    "airportIcao": "NFNM",
    "metar": "NFNM 090100Z 00000KT 9999 TS FEW017CB SCT300 29/26 Q////",
    "updatedAt": "2022-03-09T01:00:00.000Z"
  },
  {
    "airportIcao": "NFNS",
    "metar": "NFNS 090210Z 15006KT 9999 TS FEW018CB SCT026TCU BKN048 31/25 Q1008",
    "updatedAt": "2022-03-09T02:10:00.000Z"
  },
  {
    "airportIcao": "NFTF",
    "metar": "NFTF 091200Z 12004KT 9999 -SHRA FEW009 SCT017TCU 24/24 Q1009",
    "updatedAt": "2022-03-09T12:00:00.000Z"
  },
  {
    "airportIcao": "NFTL",
    "metar": "NFTL 091200Z 23004KT 9999 FEW017TCU 27/23 Q1008",
    "updatedAt": "2022-03-09T12:00:00.000Z"
  },
  {
    "airportIcao": "NFTV",
    "metar": "NFTV 091200Z 00000KT 9999 FEW020 25/24 Q1009",
    "updatedAt": "2022-03-09T12:00:00.000Z"
  },
  {
    "airportIcao": "NGFU",
    "metar": "NGFU 091200Z 02005KT 9999 FEW018TCU BKN100 27/25 Q1008",
    "updatedAt": "2022-03-09T12:00:00.000Z"
  },
  {
    "airportIcao": "NGTA",
    "metar": "NGTA 091200Z 11007KT 9999 FEW019 BKN300 27/23 Q1008",
    "updatedAt": "2022-03-09T12:00:00.000Z"
  },
  {
    "airportIcao": "NIUE",
    "metar": "NIUE 091200Z AUTO 36008KT 26/24 Q1009",
    "updatedAt": "2022-03-09T12:00:00.000Z"
  },
  {
    "airportIcao": "NLWW",
    "metar": "NLWW 091230Z AUTO VRB02KT 9999 FEW030/// 27/24 Q1008 TEMPO 4000 SHRA FEW020CB BKN025",
    "updatedAt": "2022-03-09T12:30:00.000Z"
  },
  {
    "airportIcao": "NSFA",
    "metar": "NSFA 091200Z 03005KT 9999 SCT023 26/24 Q1010",
    "updatedAt": "2022-03-09T12:00:00.000Z"
  },
  {
    "airportIcao": "NSTU",
    "metar": "NSTU 091150Z 35010KT 10SM SCT018 SCT040 BKN200 28/24 A2981 RMK SLP095 70002 8/401 T02820241 10290 20280 57007",
    "updatedAt": "2022-03-09T11:50:00.000Z"
  },
  {
    "airportIcao": "NTAA",
    "metar": "NTAA 091230Z 14002KT 9999 FEW023 25/21 Q1012 NOSIG",
    "updatedAt": "2022-03-09T12:30:00.000Z"
  },
  {
    "airportIcao": "NVSC",
    "metar": "NVSC 091200Z 00000KT 9999 SCT020 26/25 Q1010",
    "updatedAt": "2022-03-09T12:00:00.000Z"
  },
  {
    "airportIcao": "NVSG",
    "metar": "NVSG 090900Z VRB02KT 9999 FEW020 BKN290 26/25 Q1010",
    "updatedAt": "2022-03-09T09:00:00.000Z"
  },
  {
    "airportIcao": "NVSL",
    "metar": "NVSL 090600Z AUTO 09005KT //// // NCD 29/25 Q1008",
    "updatedAt": "2022-03-09T06:00:00.000Z"
  },
  {
    "airportIcao": "NVSS",
    "metar": "NVSS 091200Z 30002KT 9999 FEW020 FEW025CB24 Q1010 RMK LGTING VIS",
    "updatedAt": "2022-03-09T12:00:00.000Z"
  },
  {
    "airportIcao": "NVVA",
    "metar": "NVVA 091200Z 00000KT 9999 FEW025 24/22 Q1011",
    "updatedAt": "2022-03-09T12:00:00.000Z"
  },
  {
    "airportIcao": "NVVV",
    "metar": "NVVV 091200Z 07001KT 9999 SCT020 BKN040 24/23 Q1011",
    "updatedAt": "2022-03-09T12:00:00.000Z"
  },
  {
    "airportIcao": "NVVW",
    "metar": "NVVW 090600Z AUTO 08002KT //// // NCD 29/23 Q1009",
    "updatedAt": "2022-03-09T06:00:00.000Z"
  },
  {
    "airportIcao": "NWWW",
    "metar": "NWWW 091230Z AUTO 00000KT CAVOK 23/22 Q1012 NOSIG",
    "updatedAt": "2022-03-09T12:30:00.000Z"
  },
  {
    "airportIcao": "NZAA",
    "metar": "NZAA 091230Z AUTO 11004KT 9999 NCD 17/14 Q1022 NOSIG",
    "updatedAt": "2022-03-09T12:30:00.000Z"
  },
  {
    "airportIcao": "NZCH",
    "metar": "NZCH 091230Z AUTO 02004KT 9999 OVC006/// 16/15 Q1024 NOSIG",
    "updatedAt": "2022-03-09T12:30:00.000Z"
  },
  {
    "airportIcao": "NZCM",
    "metar": "NZCM 091155Z AUTO 07019G25KT 9999 M18/M25 A2942 RMK AO2 PK WND 07030/1059 SLP969 T11801251 11176 21191 411571201 57001 $",
    "updatedAt": "2022-03-09T11:55:00.000Z"
  },
  {
    "airportIcao": "NZSP",
    "metar": "NZSP 091150Z 12016KT 0800 IC FEW000 FEW010 M57/ A2857 RMK IC FEW000 CLN AIR 11012KT ALL WNDS GRID SDG/HDP",
    "updatedAt": "2022-03-09T11:50:00.000Z"
  },
  {
    "airportIcao": "NZWN",
    "metar": "NZWN 091230Z AUTO 18010KT 9999 OVC011/// 17/15 Q1024 NOSIG",
    "updatedAt": "2022-03-09T12:30:00.000Z"
  },
  {
    "airportIcao": "OBBI",
    "metar": "OBBI 091230Z 08007KT CAVOK 25/17 Q1009 NOSIG",
    "updatedAt": "2022-03-09T12:30:00.000Z"
  },
  {
    "airportIcao": "OEAB",
    "metar": "OEAB 091200Z 21009KT CAVOK 27/03 Q1020 NOSIG",
    "updatedAt": "2022-03-09T12:00:00.000Z"
  },
  {
    "airportIcao": "OEAH",
    "metar": "OEAH 091200Z 04006KT 7000 NSC 31/01 Q1008 NOSIG",
    "updatedAt": "2022-03-09T12:00:00.000Z"
  },
  {
    "airportIcao": "OEAO",
    "metar": "OEAO 091200Z 21016KT CAVOK 35/M04 Q1007 NOSIG",
    "updatedAt": "2022-03-09T12:00:00.000Z"
  },
  {
    "airportIcao": "OEAR",
    "metar": "OEAR 091200Z 18006KT CAVOK 36/17 Q1007",
    "updatedAt": "2022-03-09T12:00:00.000Z"
  },
  {
    "airportIcao": "OEBA",
    "metar": "OEBA 091200Z 20008KT CAVOK 32/12 Q1015 NOSIG",
    "updatedAt": "2022-03-09T12:00:00.000Z"
  },
  {
    "airportIcao": "OEBH",
    "metar": "OEBH 091200Z 06010KT CAVOK 36/02 Q1010 NOSIG",
    "updatedAt": "2022-03-09T12:00:00.000Z"
  },
  {
    "airportIcao": "OEDF",
    "metar": "OEDF 091200Z 06004KT 6000 NSC 31/02 Q1008 NOSIG",
    "updatedAt": "2022-03-09T12:00:00.000Z"
  },
  {
    "airportIcao": "OEDM",
    "metar": "OEDM 091200Z 18015KT 9000 NSC 35/M01 Q1010",
    "updatedAt": "2022-03-09T12:00:00.000Z"
  },
  {
    "airportIcao": "OEDR",
    "metar": "OEDR 091200Z 06006KT 7000 NSC 27/12 Q1008 NOSIG",
    "updatedAt": "2022-03-09T12:00:00.000Z"
  },
  {
    "airportIcao": "OEGN",
    "metar": "OEGN 091200Z 21016KT 9999 FEW030 31/22 Q1007 NOSIG",
    "updatedAt": "2022-03-09T12:00:00.000Z"
  },
  {
    "airportIcao": "OEGS",
    "metar": "OEGS 091200Z 18011KT CAVOK 35/10 Q1007",
    "updatedAt": "2022-03-09T12:00:00.000Z"
  },
  {
    "airportIcao": "OEGT",
    "metar": "OEGT 091200Z 33004KT CAVOK 23/04 Q1004 NOSIG",
    "updatedAt": "2022-03-09T12:00:00.000Z"
  },
  {
    "airportIcao": "OEHL",
    "metar": "OEHL 091200Z 24026KT CAVOK 32/M03 Q1009",
    "updatedAt": "2022-03-09T12:00:00.000Z"
  },
  {
    "airportIcao": "OEJN",
    "metar": "OEJN 091200Z 21009KT 8000 NSC 34/16 Q1005 NOSIG",
    "updatedAt": "2022-03-09T12:00:00.000Z"
  },
  {
    "airportIcao": "OEKJ",
    "metar": "OEKJ 091200Z 16010KT 8000 NSC 34/M02 Q1012",
    "updatedAt": "2022-03-09T12:00:00.000Z"
  },
  {
    "airportIcao": "OEKM",
    "metar": "OEKM 091200Z 22008KT CAVOK 30/05 Q1019 NOSIG",
    "updatedAt": "2022-03-09T12:00:00.000Z"
  },
  {
    "airportIcao": "OEMA",
    "metar": "OEMA 091200Z 26017KT CAVOK 37/M03 Q1009 NOSIG",
    "updatedAt": "2022-03-09T12:00:00.000Z"
  },
  {
    "airportIcao": "OENG",
    "metar": "OENG 091200Z 09010KT CAVOK 36/M06 Q1013 NOSIG",
    "updatedAt": "2022-03-09T12:00:00.000Z"
  },
  {
    "airportIcao": "OEPA",
    "metar": "OEPA 091200Z 15018KT 5000 BLDU NSC 31/06 Q1007 NOSIG",
    "updatedAt": "2022-03-09T12:00:00.000Z"
  },
  {
    "airportIcao": "OEPS",
    "metar": "OEPS 091156Z 15011G17KT 9999 SCT150 SCT250 33/M03 A2991 RMK AO2A SLP102 WND DATA ESTMD T03271027 10329 20210 57032",
    "updatedAt": "2022-03-09T11:56:00.000Z"
  },
  {
    "airportIcao": "OERF",
    "metar": "OERF 091200Z 19015KT 5000 BLDU NSC 35/M01 Q1004 NOSIG",
    "updatedAt": "2022-03-09T12:00:00.000Z"
  },
  {
    "airportIcao": "OERK",
    "metar": "OERK 091200Z 18011KT 7000 NSC 30/00 Q1011 NOSIG",
    "updatedAt": "2022-03-09T12:00:00.000Z"
  },
  {
    "airportIcao": "OERR",
    "metar": "OERR 091200Z 30009KT 8000 SKC 30/M05 Q1003 NOSIG",
    "updatedAt": "2022-03-09T12:00:00.000Z"
  },
  {
    "airportIcao": "OESH",
    "metar": "OESH 091200Z 11009KT CAVOK 38/00 Q1009 NOSIG",
    "updatedAt": "2022-03-09T12:00:00.000Z"
  },
  {
    "airportIcao": "OESK",
    "metar": "OESK 091200Z 28013KT CAVOK 32/M04 Q1006 NOSIG",
    "updatedAt": "2022-03-09T12:00:00.000Z"
  },
  {
    "airportIcao": "OETB",
    "metar": "OETB 091200Z 20017KT 5000 BLDU NSC 31/M02 Q1006 NOSIG",
    "updatedAt": "2022-03-09T12:00:00.000Z"
  },
  {
    "airportIcao": "OETF",
    "metar": "OETF 091200Z 32014KT 9999 FEW030 SCT080 32/06 Q1016 NOSIG",
    "updatedAt": "2022-03-09T12:00:00.000Z"
  },
  {
    "airportIcao": "OETR",
    "metar": "OETR 091200Z 30008KT CAVOK 22/08 Q1006 NOSIG",
    "updatedAt": "2022-03-09T12:00:00.000Z"
  },
  {
    "airportIcao": "OEWD",
    "metar": "OEWD 091200Z 12016KT 8000 NSC 35/07 Q1009 NOSIG",
    "updatedAt": "2022-03-09T12:00:00.000Z"
  },
  {
    "airportIcao": "OEWJ",
    "metar": "OEWJ 091200Z 18011KT CAVOK 27/20 Q1005 NOSIG",
    "updatedAt": "2022-03-09T12:00:00.000Z"
  },
  {
    "airportIcao": "OEYN",
    "metar": "OEYN 091200Z 19012KT CAVOK 31/14 Q1004 NOSIG",
    "updatedAt": "2022-03-09T12:00:00.000Z"
  },
  {
    "airportIcao": "OIAA",
    "metar": "OIAA 091150Z 12008KT 7000 NSC 29/05 Q1008 NOSIG",
    "updatedAt": "2022-03-09T11:50:00.000Z"
  },
  {
    "airportIcao": "OIAG",
    "metar": "OIAG 091200Z 21010KT 6000 FEW040 31/03 Q1009",
    "updatedAt": "2022-03-09T12:00:00.000Z"
  },
  {
    "airportIcao": "OIAH",
    "metar": "OIAH 091200Z 16004KT CAVOK 27/05 Q1013",
    "updatedAt": "2022-03-09T12:00:00.000Z"
  },
  {
    "airportIcao": "OIAI",
    "metar": "OIAI 091100Z 16006KT 4000 DU NSC 26/08 Q1009",
    "updatedAt": "2022-03-09T11:00:00.000Z"
  },
  {
    "airportIcao": "OIAM",
    "metar": "OIAM 091200Z 19008KT 6000 NSC 29/12 Q1009",
    "updatedAt": "2022-03-09T12:00:00.000Z"
  },
  {
    "airportIcao": "OIAW",
    "metar": "OIAW 091222Z 19004KT 8000 SCT040 30/02 Q1007",
    "updatedAt": "2022-03-09T12:22:00.000Z"
  },
  {
    "airportIcao": "OIBA",
    "metar": "OIBA 091200Z 25006KT CAVOK 29/18 Q1009",
    "updatedAt": "2022-03-09T12:00:00.000Z"
  },
  {
    "airportIcao": "OIBB",
    "metar": "OIBB 091150Z 22006KT 3000 DU NSC 27/14 Q1008 A2979 NOSIG",
    "updatedAt": "2022-03-09T11:50:00.000Z"
  },
  {
    "airportIcao": "OIBH",
    "metar": "OIBH 091200Z 21008KT 5000 HZ NSC 26/13 Q1008 A2978",
    "updatedAt": "2022-03-09T12:00:00.000Z"
  },
  {
    "airportIcao": "OIBJ",
    "metar": "OIBJ 091200Z 21008KT 5000 DU NSC 26/10 Q1013 A2992",
    "updatedAt": "2022-03-09T12:00:00.000Z"
  },
  {
    "airportIcao": "OIBK",
    "metar": "OIBK 091200Z 14006KT 8000 NSC 29/17 Q1010 NOSIG",
    "updatedAt": "2022-03-09T12:00:00.000Z"
  },
  {
    "airportIcao": "OIBL",
    "metar": "OIBL 091200Z 18004KT CAVOK 28/16 Q1010",
    "updatedAt": "2022-03-09T12:00:00.000Z"
  },
  {
    "airportIcao": "OIBP",
    "metar": "OIBP 091200Z 18014KT 6000 NSC 30/20 Q1009 A2980",
    "updatedAt": "2022-03-09T12:00:00.000Z"
  },
  {
    "airportIcao": "OIBQ",
    "metar": "OIBQ 091200Z 35004KT 4000 DU NSC 25/16 Q1009",
    "updatedAt": "2022-03-09T12:00:00.000Z"
  },
  {
    "airportIcao": "OIBS",
    "metar": "OIBS 091200Z 15006KT 5000 HZ NSC 28/19 Q1010",
    "updatedAt": "2022-03-09T12:00:00.000Z"
  },
  {
    "airportIcao": "OIBV",
    "metar": "OIBV 091200Z 12016KT 7000 NSC 26/19 Q1009",
    "updatedAt": "2022-03-09T12:00:00.000Z"
  },
  {
    "airportIcao": "OICC",
    "metar": "OICC 091230Z 10006KT 9999 FEW040CB SCT045 BKN090 13/02 Q1011 A2987",
    "updatedAt": "2022-03-09T12:30:00.000Z"
  },
  {
    "airportIcao": "OICI",
    "metar": "OICI 091230Z 12008KT 8000 FEW035CB SCT040 BKN080 14/04 Q1012 A2991",
    "updatedAt": "2022-03-09T12:30:00.000Z"
  },
  {
    "airportIcao": "OICJ",
    "metar": "OICJ 091100Z 22008KT 8000 FEW035CB SCT040 BKN090 10/00 Q1016",
    "updatedAt": "2022-03-09T11:00:00.000Z"
  },
  {
    "airportIcao": "OICK",
    "metar": "OICK 091153Z 11006KT 7000 FEW040CB SCT045 BKN090 16/03 Q1012",
    "updatedAt": "2022-03-09T11:53:00.000Z"
  },
  {
    "airportIcao": "OICM",
    "metar": "OICM 091100Z 14019G21KT 7000 SCT040 BKN090 26/08 Q1007",
    "updatedAt": "2022-03-09T11:00:00.000Z"
  },
  {
    "airportIcao": "OICS",
    "metar": "OICS 091200Z 19012KT 9000 -SHRA FEW030CB SCT035 OVC090 10/05 Q1010 A2983",
    "updatedAt": "2022-03-09T12:00:00.000Z"
  },
  {
    "airportIcao": "OIFK",
    "metar": "OIFK 091100Z 14002KT CAVOK 23/M00 Q1009 A2982",
    "updatedAt": "2022-03-09T11:00:00.000Z"
  },
  {
    "airportIcao": "OIFM",
    "metar": "OIFM 091230Z 25021KT 9999 FEW040 23/M08 Q1012 A2991",
    "updatedAt": "2022-03-09T12:30:00.000Z"
  },
  {
    "airportIcao": "OIFS",
    "metar": "OIFS 091155Z 25014KT 9999 SCT040 15/M09 Q1016",
    "updatedAt": "2022-03-09T11:55:00.000Z"
  },
  {
    "airportIcao": "OIGG",
    "metar": "OIGG 091230Z 02006KT 9999 SCT025 BKN170 13/09 Q1006",
    "updatedAt": "2022-03-09T12:30:00.000Z"
  },
  {
    "airportIcao": "OIGK",
    "metar": "OIGK 091050Z 23008KT 9999 SCT035 BKN080 10/M04 Q1009",
    "updatedAt": "2022-03-09T10:50:00.000Z"
  },
  {
    "airportIcao": "OIHH",
    "metar": "OIHH 091200Z 22008G19KT 9999 FEW035CB SCT040 12/00 Q1009 A2982",
    "updatedAt": "2022-03-09T12:00:00.000Z"
  },
  {
    "airportIcao": "OIHM",
    "metar": "OIHM 091200Z AUTO 15011KT //// // ////// 12/M00 Q1013",
    "updatedAt": "2022-03-09T12:00:00.000Z"
  },
  {
    "airportIcao": "OIHR",
    "metar": "OIHR 091100Z 26019G29KT 7000 FEW030CB BKN035 15/M01 Q1011",
    "updatedAt": "2022-03-09T11:00:00.000Z"
  },
  {
    "airportIcao": "OIIE",
    "metar": "OIIE 091230Z 15004KT 9999 FEW040 BKN100 16/M01 Q1010",
    "updatedAt": "2022-03-09T12:30:00.000Z"
  },
  {
    "airportIcao": "OIII",
    "metar": "OIII 091230Z 16006KT 6000 SCT035 FEW040CB OVC100 15/M02 Q1011 A2986",
    "updatedAt": "2022-03-09T12:30:00.000Z"
  },
  {
    "airportIcao": "OIIK",
    "metar": "OIIK 091153Z 14017KT CAVOK 14/00 Q1008",
    "updatedAt": "2022-03-09T11:53:00.000Z"
  },
  {
    "airportIcao": "OIIP",
    "metar": "OIIP 091200Z 15008KT 7000 FEW030CB SCT035 BKN100 13/M04 Q1009 A2981",
    "updatedAt": "2022-03-09T12:00:00.000Z"
  },
  {
    "airportIcao": "OIIS",
    "metar": "OIIS 091100Z 22002KT 9999 FEW035 SCT200 19/M04 Q1012",
    "updatedAt": "2022-03-09T11:00:00.000Z"
  },
  {
    "airportIcao": "OIKB",
    "metar": "OIKB 091230Z 18014KT 6000 FEW025 27/21 Q1011 A2985",
    "updatedAt": "2022-03-09T12:30:00.000Z"
  },
  {
    "airportIcao": "OIKK",
    "metar": "OIKK 091150Z 14012KT 8000 FEW035CB SCT040 BKN100 19/01 Q1017 A3004",
    "updatedAt": "2022-03-09T11:50:00.000Z"
  },
  {
    "airportIcao": "OIKO",
    "metar": "OIKO 091100Z 19008KT 6000 NSC 29/19 Q1011",
    "updatedAt": "2022-03-09T11:00:00.000Z"
  },
  {
    "airportIcao": "OIKQ",
    "metar": "OIKQ 091200Z 23010KT CAVOK 30/17 Q1010 NOSIG",
    "updatedAt": "2022-03-09T12:00:00.000Z"
  },
  {
    "airportIcao": "OIMB",
    "metar": "OIMB 091200Z 29016KT CAVOK 22/M14 Q1015 A2997",
    "updatedAt": "2022-03-09T12:00:00.000Z"
  },
  {
    "airportIcao": "OIMC",
    "metar": "OIMC 091150Z AUTO 10004KT //// // ////// 20/08 Q1014",
    "updatedAt": "2022-03-09T11:50:00.000Z"
  },
  {
    "airportIcao": "OIMD",
    "metar": "OIMD 091154Z AUTO 05004KT //// // ////// 21/06 Q1010",
    "updatedAt": "2022-03-09T11:54:00.000Z"
  },
  {
    "airportIcao": "OIMM",
    "metar": "OIMM 091220Z 10008KT 9999 FEW040 BKN190 18/02 Q1013 A2994",
    "updatedAt": "2022-03-09T12:20:00.000Z"
  },
  {
    "airportIcao": "OIMN",
    "metar": "OIMN 091200Z 18012KT CAVOK 15/M01 Q1013",
    "updatedAt": "2022-03-09T12:00:00.000Z"
  },
  {
    "airportIcao": "OIMQ",
    "metar": "OIMQ 091200Z AUTO 27004KT //// // ////// 20/02 Q1014",
    "updatedAt": "2022-03-09T12:00:00.000Z"
  },
  {
    "airportIcao": "OIMS",
    "metar": "OIMS 091200Z 00000KT CAVOK 19/M01 Q1013",
    "updatedAt": "2022-03-09T12:00:00.000Z"
  },
  {
    "airportIcao": "OINB",
    "metar": "OINB 091100Z 01004KT CAVOK 15/08 Q1006",
    "updatedAt": "2022-03-09T11:00:00.000Z"
  },
  {
    "airportIcao": "OINE",
    "metar": "OINE 091200Z 00000KT 9999 SCT100 BKN180 19/12 Q1007",
    "updatedAt": "2022-03-09T12:00:00.000Z"
  },
  {
    "airportIcao": "OING",
    "metar": "OING 091200Z 00000KT 7000 NSC 16/11 Q1007 NOSIG",
    "updatedAt": "2022-03-09T12:00:00.000Z"
  },
  {
    "airportIcao": "OINK",
    "metar": "OINK 091100Z 33004KT CAVOK 21/08 Q1005 A2969",
    "updatedAt": "2022-03-09T11:00:00.000Z"
  },
  {
    "airportIcao": "OINN",
    "metar": "OINN 091200Z 02004KT 6000 SCT018 BKN170 13/10 Q1005",
    "updatedAt": "2022-03-09T12:00:00.000Z"
  },
  {
    "airportIcao": "OINR",
    "metar": "OINR 091200Z 10002KT 4000 BR BKN015 OVC090 12/10 Q1006",
    "updatedAt": "2022-03-09T12:00:00.000Z"
  },
  {
    "airportIcao": "OINZ",
    "metar": "OINZ 091200Z 03004KT CAVOK 16/07 Q1006",
    "updatedAt": "2022-03-09T12:00:00.000Z"
  },
  {
    "airportIcao": "OISA",
    "metar": "OISA 091100Z 22016KT CAVOK 19/M06 Q1015 A2999",
    "updatedAt": "2022-03-09T11:00:00.000Z"
  },
  {
    "airportIcao": "OISF",
    "metar": "OISF 091200Z 21006KT 8000 NSC 24/02 Q1015 A3000",
    "updatedAt": "2022-03-09T12:00:00.000Z"
  },
  {
    "airportIcao": "OISL",
    "metar": "OISL 091200Z 25008KT CAVOK 29/07 Q1011 A2988 NOSIG",
    "updatedAt": "2022-03-09T12:00:00.000Z"
  },
  {
    "airportIcao": "OISR",
    "metar": "OISR 091200Z 19006KT 7000 NSC 32/12 Q1011 A2987 NOSIG",
    "updatedAt": "2022-03-09T12:00:00.000Z"
  },
  {
    "airportIcao": "OISS",
    "metar": "OISS 091230Z 27012KT 9999 FEW035 23/M05 Q1016 A3000",
    "updatedAt": "2022-03-09T12:30:00.000Z"
  },
  {
    "airportIcao": "OISY",
    "metar": "OISY 091200Z 21010KT 9999 SCT050 19/M05 Q1019",
    "updatedAt": "2022-03-09T12:00:00.000Z"
  },
  {
    "airportIcao": "OITL",
    "metar": "OITL 091230Z 21019KT 9999 SCT040 BKN045CB BKN090 12/M05 Q1004",
    "updatedAt": "2022-03-09T12:30:00.000Z"
  },
  {
    "airportIcao": "OITM",
    "metar": "OITM 091200Z 22014KT 9999 SCT035 BKN090 OVC170 10/M03 Q1005",
    "updatedAt": "2022-03-09T12:00:00.000Z"
  },
  {
    "airportIcao": "OITP",
    "metar": "OITP 091200Z 11012KT 9999 BKN030 OVC080 10/04 Q1011",
    "updatedAt": "2022-03-09T12:00:00.000Z"
  },
  {
    "airportIcao": "OITR",
    "metar": "OITR 091152Z 20016G28KT 9999 VCSH SCT035CB SCT040 BKN090 07/01 Q1004 NOSIG",
    "updatedAt": "2022-03-09T11:52:00.000Z"
  },
  {
    "airportIcao": "OITT",
    "metar": "OITT 091230Z 23014KT 9999 SCT030 FEW032CB OVC070 11/M00 Q1005 A2968",
    "updatedAt": "2022-03-09T12:30:00.000Z"
  },
  {
    "airportIcao": "OITU",
    "metar": "OITU 091050Z 16023KT 9999 BKN040 OVC090 08/M01 Q1002",
    "updatedAt": "2022-03-09T10:50:00.000Z"
  },
  {
    "airportIcao": "OITZ",
    "metar": "OITZ 091200Z 17010KT 8000 FEW035CB SCT040 OVC080 12/M02 Q1006 A2972",
    "updatedAt": "2022-03-09T12:00:00.000Z"
  },
  {
    "airportIcao": "OIYY",
    "metar": "OIYY 091220Z 21004KT 9999 FEW040 27/M05 Q1012",
    "updatedAt": "2022-03-09T12:20:00.000Z"
  },
  {
    "airportIcao": "OIZB",
    "metar": "OIZB 091200Z 06010KT 6000 NSC 30/04 Q1010",
    "updatedAt": "2022-03-09T12:00:00.000Z"
  },
  {
    "airportIcao": "OIZH",
    "metar": "OIZH 091200Z 05008KT 9999 FEW035CB FEW040TCU BKN100 BKN200 23/03 Q1016 A3001 NOSIG",
    "updatedAt": "2022-03-09T12:00:00.000Z"
  },
  {
    "airportIcao": "OIZI",
    "metar": "OIZI 091200Z 28012KT 8000 FEW040 OVC090 29/07 Q1013",
    "updatedAt": "2022-03-09T12:00:00.000Z"
  },
  {
    "airportIcao": "OIZJ",
    "metar": "OIZJ 091200Z 16012KT 7000 NSC 25/23 Q1010",
    "updatedAt": "2022-03-09T12:00:00.000Z"
  },
  {
    "airportIcao": "OJAI",
    "metar": "OJAI 091200Z 27015KT 5000 BLDU SCT035 20/05 Q1007 NOSIG",
    "updatedAt": "2022-03-09T12:00:00.000Z"
  },
  {
    "airportIcao": "OJAM",
    "metar": "OJAM 091200Z 28011KT 7000 FEW030 18/08 Q1007 NOSIG",
    "updatedAt": "2022-03-09T12:00:00.000Z"
  },
  {
    "airportIcao": "OJAQ",
    "metar": "OJAQ 091200Z 16009KT 7000 NSC 27/06 Q1003 NOSIG",
    "updatedAt": "2022-03-09T12:00:00.000Z"
  },
  {
    "airportIcao": "OKAS",
    "metar": "OKAS 091158Z 14015G20KT 9000 HZ FEW100 30/04 A2975 RMK AO2A SLP071 T03000038 10300 20213 57023 $",
    "updatedAt": "2022-03-09T11:58:00.000Z"
  },
  {
    "airportIcao": "OKBK",
    "metar": "OKBK 091200Z 14011KT CAVOK 27/07 Q1009 NOSIG",
    "updatedAt": "2022-03-09T12:00:00.000Z"
  },
  {
    "airportIcao": "OLBA",
    "metar": "OLBA 091200Z 16007KT 8000 FEW026 SCT050 16/11 Q1009 NOSIG",
    "updatedAt": "2022-03-09T12:00:00.000Z"
  },
  {
    "airportIcao": "OMAA",
    "metar": "OMAA 091236Z 34010KT CAVOK 36/04 Q1009 NOSIG",
    "updatedAt": "2022-03-09T12:36:00.000Z"
  },
  {
    "airportIcao": "OMAD",
    "metar": "OMAD 091200Z 22004KT 140V280 CAVOK 37/04 Q1009 NOSIG",
    "updatedAt": "2022-03-09T12:00:00.000Z"
  },
  {
    "airportIcao": "OMAL",
    "metar": "OMAL 091200Z 21010KT CAVOK 34/05 Q1011 NOSIG",
    "updatedAt": "2022-03-09T12:00:00.000Z"
  },
  {
    "airportIcao": "OMDB",
    "metar": "OMDB 091200Z 33009KT 300V360 CAVOK 31/15 Q1010 NOSIG",
    "updatedAt": "2022-03-09T12:00:00.000Z"
  },
  {
    "airportIcao": "OMDW",
    "metar": "OMDW 091200Z 33010KT CAVOK 33/14 Q1010 NOSIG",
    "updatedAt": "2022-03-09T12:00:00.000Z"
  },
  {
    "airportIcao": "OMFJ",
    "metar": "OMFJ 091200Z 100074KT 050V120 7000 SCT025 27/21 Q1011 A2987",
    "updatedAt": "2022-03-09T12:00:00.000Z"
  },
  {
    "airportIcao": "OMRK",
    "metar": "OMRK 091200Z 36011KT CAVOK 31/14 Q1010 A2985",
    "updatedAt": "2022-03-09T12:00:00.000Z"
  },
  {
    "airportIcao": "OMSJ",
    "metar": "OMSJ 091200Z 32008KT CAVOK 31/14 Q1010 NOSIG",
    "updatedAt": "2022-03-09T12:00:00.000Z"
  },
  {
    "airportIcao": "OOAD",
    "metar": "OOAD 091150Z AUTO VRB04KT 9999 // NCD 34/06 Q1013 NOSIG",
    "updatedAt": "2022-03-09T11:50:00.000Z"
  },
  {
    "airportIcao": "OODQ",
    "metar": "OODQ 091150Z AUTO 11011KT CAVOK ////// 27/19 Q1012 NOSIG RMK RH61? MAX28 0",
    "updatedAt": "2022-03-09T11:50:00.000Z"
  },
  {
    "airportIcao": "OOKB",
    "metar": "OOKB 091150Z 01012KT CAVOK 30/13 Q1011 NOSIG",
    "updatedAt": "2022-03-09T11:50:00.000Z"
  },
  {
    "airportIcao": "OOMS",
    "metar": "OOMS 091150Z 05007KT 020V080 CAVOK 27/21 Q1010 NOSIG",
    "updatedAt": "2022-03-09T11:50:00.000Z"
  },
  {
    "airportIcao": "OOSA",
    "metar": "OOSA 091150Z 20012KT CAVOK 28/18 Q1012 NOSIG",
    "updatedAt": "2022-03-09T11:50:00.000Z"
  },
  {
    "airportIcao": "OOSH",
    "metar": "OOSH 091150Z AUTO 04007KT //// ////// 27/21 Q1011",
    "updatedAt": "2022-03-09T11:50:00.000Z"
  },
  {
    "airportIcao": "OPFA",
    "metar": "OPFA 091155Z 00000KT 6000 SCT200 28/13 Q1013 NOSIG",
    "updatedAt": "2022-03-09T11:55:00.000Z"
  },
  {
    "airportIcao": "OPIS",
    "metar": "OPIS 091230Z 31007KT 6000 FEW040 SCT100 20/10 Q1015 TEMPO 3602 0G30KT",
    "updatedAt": "2022-03-09T12:30:00.000Z"
  },
  {
    "airportIcao": "OPKC",
    "metar": "OPKC 091225Z 26012KT 5000 HZ NSC 30/06 Q1011 NOSIG",
    "updatedAt": "2022-03-09T12:25:00.000Z"
  },
  {
    "airportIcao": "OPLA",
    "metar": "OPLA 091225Z 32010KT 7000 FEW100 27/08 Q1012 NOSIG RMK QFE984 A29.89",
    "updatedAt": "2022-03-09T12:25:00.000Z"
  },
  {
    "airportIcao": "OPMT",
    "metar": "OPMT 091230Z 00000KT 6000 HZ SCT100 29/12 Q1011 NOSIG",
    "updatedAt": "2022-03-09T12:30:00.000Z"
  },
  {
    "airportIcao": "OPNH",
    "metar": "OPNH 091200Z 31502KT 6000 NSC 31/16 Q1010 NOSIG",
    "updatedAt": "2022-03-09T12:00:00.000Z"
  },
  {
    "airportIcao": "OPPS",
    "metar": "OPPS 091230Z 31012KT 9999 FEW040 BKN100 21/11 Q1015",
    "updatedAt": "2022-03-09T12:30:00.000Z"
  },
  {
    "airportIcao": "OPSK",
    "metar": "OPSK 091200Z 05008KT 4000 HZ NSC 30/14 Q1012 NOSIG",
    "updatedAt": "2022-03-09T12:00:00.000Z"
  },
  {
    "airportIcao": "OPST",
    "metar": "OPST 091155Z 23006KT 5000 HZ SCT100 26/12 Q1013 NOSIG RH42",
    "updatedAt": "2022-03-09T11:55:00.000Z"
  },
  {
    "airportIcao": "ORBI",
    "metar": "ORBI 091230Z 17016KT 8000 NSC 27/05 Q1005",
    "updatedAt": "2022-03-09T12:30:00.000Z"
  },
  {
    "airportIcao": "ORER",
    "metar": "ORER 091200Z 13010KT 6000 RA SCT035 OVC070 13/08 Q1008",
    "updatedAt": "2022-03-09T12:00:00.000Z"
  },
  {
    "airportIcao": "ORMM",
    "metar": "ORMM 091200Z 13006KT CAVOK 30/01 Q1008 NOSIG",
    "updatedAt": "2022-03-09T12:00:00.000Z"
  },
  {
    "airportIcao": "ORNI",
    "metar": "ORNI 091200Z 14022KT 2500 BLDU NSC 29/03 Q1004 NOSIG",
    "updatedAt": "2022-03-09T12:00:00.000Z"
  },
  {
    "airportIcao": "ORSU",
    "metar": "ORSU 091200Z 09004KT 4000 RA OVC040 11/11 Q1012",
    "updatedAt": "2022-03-09T12:00:00.000Z"
  },
  {
    "airportIcao": "OSAP",
    "metar": "OSAP 091200Z 26006KT 9999 SCT026 BKN100 15/08 Q1005",
    "updatedAt": "2022-03-09T12:00:00.000Z"
  },
  {
    "airportIcao": "OSDI",
    "metar": "OSDI 091200Z 21010KT 9999 SCT030 BKN100 BKN200 14/09 Q1006",
    "updatedAt": "2022-03-09T12:00:00.000Z"
  },
  {
    "airportIcao": "OSKL",
    "metar": "OSKL 091000Z 07013KT 3000 BR SCT026 OVC100 10/07 Q1004",
    "updatedAt": "2022-03-09T10:00:00.000Z"
  },
  {
    "airportIcao": "OSLK",
    "metar": "OSLK 091200Z 24006KT 9999 FEW026 SCT030 BKN100 16/09 Q1006",
    "updatedAt": "2022-03-09T12:00:00.000Z"
  },
  {
    "airportIcao": "OTBD",
    "metar": "OTBD 091230Z 09008KT 6000 NSC 25/18 Q1009 NOSIG",
    "updatedAt": "2022-03-09T12:30:00.000Z"
  },
  {
    "airportIcao": "OTBH",
    "metar": "OTBH 091227Z 08011KT 5000 HZ CLR 29/16 A2981 RMK TWR VIS 5000 SLP096 $",
    "updatedAt": "2022-03-09T12:27:00.000Z"
  },
  {
    "airportIcao": "OTHH",
    "metar": "OTHH 091200Z 08008KT 6000 NSC 25/19 Q1009 NOSIG",
    "updatedAt": "2022-03-09T12:00:00.000Z"
  },
  {
    "airportIcao": "PAAD",
    "metar": "PAAD 091235Z AUTO 06014KT 5SM BR OVC060 M19/M20 A3058 RMK AO2 T11861205",
    "updatedAt": "2022-03-09T12:35:00.000Z"
  },
  {
    "airportIcao": "PAAQ",
    "metar": "PAAQ 091153Z AUTO 35011KT 7SM -SN OVC045 M02/M06 A3028 RMK AO2 SNE11B42 SLP259 P0000 60000 T10171061 10006 21017 58020 TSNO",
    "updatedAt": "2022-03-09T11:53:00.000Z"
  },
  {
    "airportIcao": "PABA",
    "metar": "PABA 091152Z AUTO 06013KT 10SM -SN BKN014 OVC036 M18/M21 A3060",
    "updatedAt": "2022-03-09T11:52:00.000Z"
  },
  {
    "airportIcao": "PABE",
    "metar": "PABE 091153Z 03011KT 9SM -SN OVC095 01/M01 A2998 RMK AO2 SLP153 P0000 60000 T00111011 10017 20006 58030",
    "updatedAt": "2022-03-09T11:53:00.000Z"
  },
  {
    "airportIcao": "PABI",
    "metar": "PABI 091153Z AUTO 12014KT 10SM OVC100 M06/M14 A3019",
    "updatedAt": "2022-03-09T11:53:00.000Z"
  },
  {
    "airportIcao": "PABL",
    "metar": "PABL 091239Z AUTO 34006KT 10SM BKN006 OVC016 M07/M08 A3033 RMK AO2 FZRANO",
    "updatedAt": "2022-03-09T12:39:00.000Z"
  },
  {
    "airportIcao": "PABR",
    "metar": "PABR 091153Z AUTO 05009KT 10SM CLR M21/M24 A3073",
    "updatedAt": "2022-03-09T11:53:00.000Z"
  },
  {
    "airportIcao": "PABT",
    "metar": "PABT 091153Z 00000KT 10SM -SN OVC090 M11/M12 A3023 RMK AO2 SNB53 SLP258 PCPN VRY LGT 60003 70006 4/036 T11061122 11072 21117 56017",
    "updatedAt": "2022-03-09T11:53:00.000Z"
  },
  {
    "airportIcao": "PABV",
    "metar": "PABV 091236Z AUTO 00000KT 3SM -SN BR OVC026 M02/M04 A3029 RMK AO2 P0000 FZRANO",
    "updatedAt": "2022-03-09T12:36:00.000Z"
  },
  {
    "airportIcao": "PACD",
    "metar": "PACD 091153Z AUTO 24003KT 10SM SCT029 BKN039 OVC110 01/01 A2969",
    "updatedAt": "2022-03-09T11:53:00.000Z"
  },
  {
    "airportIcao": "PACM",
    "metar": "PACM 091156Z AUTO 01005KT 10SM OVC005 M03/M03 A3015 RMK AO2 SLP206 60000 T10281028 10006 21028 56018 FZRANO",
    "updatedAt": "2022-03-09T11:56:00.000Z"
  },
  {
    "airportIcao": "PACV",
    "metar": "PACV 091153Z 03003KT 10SM OVC085 00/M03 A3040 RMK AO2 SLP296 T00001033 10011 21006 58014 $",
    "updatedAt": "2022-03-09T11:53:00.000Z"
  },
  {
    "airportIcao": "PACZ",
    "metar": "PACZ 091235Z AUTO 04028KT 1/4SM -FZDZ FZFG VV002 M04/M05 A3002 RMK AO2 PK WND 04034/1223 SLP173",
    "updatedAt": "2022-03-09T12:35:00.000Z"
  },
  {
    "airportIcao": "PADK",
    "metar": "PADK 091156Z AUTO 09017KT 10SM -RA OVC019 04/02 A2946",
    "updatedAt": "2022-03-09T11:56:00.000Z"
  },
  {
    "airportIcao": "PADL",
    "metar": "PADL 091156Z AUTO 02013KT 5SM -SN BR OVC025 01/01 A2996",
    "updatedAt": "2022-03-09T11:56:00.000Z"
  },
  {
    "airportIcao": "PADM",
    "metar": "PADM 091156Z AUTO 00000KT 10SM FEW070 01/M02 A3011 RMK AO2 SLP202 T00061017 10017 20006 56024 FZRANO",
    "updatedAt": "2022-03-09T11:56:00.000Z"
  },
  {
    "airportIcao": "PADQ",
    "metar": "PADQ 091238Z AUTO 04008KT 2 1/2SM -RA BR OVC005 06/04 A3012",
    "updatedAt": "2022-03-09T12:38:00.000Z"
  },
  {
    "airportIcao": "PADU",
    "metar": "PADU 091204Z AUTO 01004KT 10SM OVC014 03/01 A2968 RMK AO2",
    "updatedAt": "2022-03-09T12:04:00.000Z"
  },
  {
    "airportIcao": "PAEC",
    "metar": "PAEC 090154Z 00000KT 20SM BKN050 OVC060 M02/M08 A3040 RMK NOSPECI LAST",
    "updatedAt": "2022-03-09T01:54:00.000Z"
  },
  {
    "airportIcao": "PAED",
    "metar": "PAED 091218Z 01009KT 1SM -SN OVC018 M02/M03 A3026 RMK AO2A SLP245 $",
    "updatedAt": "2022-03-09T12:18:00.000Z"
  },
  {
    "airportIcao": "PAEG",
    "metar": "PAEG 091153Z AUTO 12007KT 10SM BKN100 M05/M13 A3023 RMK AO2 SLP251 T10501133 11039 21050 58018 TSNO",
    "updatedAt": "2022-03-09T11:53:00.000Z"
  },
  {
    "airportIcao": "PAEH",
    "metar": "PAEH 091214Z AUTO 08025G34KT 040V130 6SM RA OVC008 02/02 A2979",
    "updatedAt": "2022-03-09T12:14:00.000Z"
  },
  {
    "airportIcao": "PAEI",
    "metar": "PAEI 091156Z COR 00000KT 10SM OVC050 M07/M09 A3019 RMK AO2A SLP235 4/032 T10691087 11044 21069 57020 $ COR 1215",
    "updatedAt": "2022-03-09T11:56:00.000Z"
  },
  {
    "airportIcao": "PAEN",
    "metar": "PAEN 091224Z AUTO 01009KT 1 1/4SM -SN BR FEW006 OVC014 M01/M02 A3027 RMK AO2 P0000 T10111017 TSNO",
    "updatedAt": "2022-03-09T12:24:00.000Z"
  },
  {
    "airportIcao": "PAFA",
    "metar": "PAFA 091153Z 04003KT 10SM BKN042 BKN050 BKN080 M06/M09 A3022",
    "updatedAt": "2022-03-09T11:53:00.000Z"
  },
  {
    "airportIcao": "PAFB",
    "metar": "PAFB 091158Z 00000KT 10SM OVC042 M07/M10 A3026",
    "updatedAt": "2022-03-09T11:58:00.000Z"
  },
  {
    "airportIcao": "PAFE",
    "metar": "PAFE 091156Z AUTO 06004KT 10SM CLR M03/M05 A3049 RMK AO2 SLP336 T10331050 11017 21039 58010 FZRANO $",
    "updatedAt": "2022-03-09T11:56:00.000Z"
  },
  {
    "airportIcao": "PAFM",
    "metar": "PAFM 091156Z AUTO 30004KT 10SM FEW043 OVC110 M07/M08 A3031 RMK AO2 SNB01E21 SLP273 P0000 60000 70003 T10671083 11050 21067 56012 FZRANO",
    "updatedAt": "2022-03-09T11:56:00.000Z"
  },
  {
    "airportIcao": "PAFR",
    "metar": "PAFR 091218Z AUTO 36008KT 4SM -SN BR FEW021 OVC032 M02/M03 A3023 RMK AO2 UPE18SNB18 SLP247",
    "updatedAt": "2022-03-09T12:18:00.000Z"
  },
  {
    "airportIcao": "PAFS",
    "metar": "PAFS 091201Z AUTO 05008KT 10SM OVC075 M03/M06 A3015",
    "updatedAt": "2022-03-09T12:01:00.000Z"
  },
  {
    "airportIcao": "PAGA",
    "metar": "PAGA 091238Z AUTO 00000KT 2SM BR OVC003 M04/M05 A3023 RMK AO2 UPE1158 CIG 003V007 P0000 FZRANO",
    "updatedAt": "2022-03-09T12:38:00.000Z"
  },
  {
    "airportIcao": "PAGK",
    "metar": "PAGK 091153Z AUTO 00000KT 10SM OVC100 M12/M14 A3032 RMK AO2 SLP315 I6/// T11221144 11111 21144 58021 TSNO $",
    "updatedAt": "2022-03-09T11:53:00.000Z"
  },
  {
    "airportIcao": "PAGL",
    "metar": "PAGL 091156Z AUTO 34003KT 10SM CLR M07/M09 A3028 RMK AO2 SLP249 T10721089 11050 21106 58005 PWINO FZRANO $",
    "updatedAt": "2022-03-09T11:56:00.000Z"
  },
  {
    "airportIcao": "PAGM",
    "metar": "PAGM 090656Z AUTO 04020KT 9SM OVC005 M06/M07 A3036 RMK AO2 SNE39 SLP288 P0000 T10611067 FZRANO",
    "updatedAt": "2022-03-09T06:56:00.000Z"
  },
  {
    "airportIcao": "PAGN",
    "metar": "PAGN 091156Z AUTO 15003KT 10SM CLR M03/M05 A3048 RMK AO2 SLP312 T10331050 11017 21039 58011 FZRANO",
    "updatedAt": "2022-03-09T11:56:00.000Z"
  },
  {
    "airportIcao": "PAGS",
    "metar": "PAGS 091156Z AUTO 00000KT 10SM CLR M07/M08 A3046 RMK AO2 SLP315 T10721083 11033 21072 58015 FZRANO",
    "updatedAt": "2022-03-09T11:56:00.000Z"
  },
  {
    "airportIcao": "PAGY",
    "metar": "PAGY 091153Z AUTO 00000KT 10SM CLR M03/M11 A3044 RMK AO2 SLP308 T10331111 10000 21033 58022 TSNO",
    "updatedAt": "2022-03-09T11:53:00.000Z"
  },
  {
    "airportIcao": "PAHC",
    "metar": "PAHC 091156Z AUTO 03005KT 10SM SCT037 SCT095 OVC120 00/M02 A3011 RMK AO2 SLP200 T00001022 10017 20000 58020 FZRANO $",
    "updatedAt": "2022-03-09T11:56:00.000Z"
  },
  {
    "airportIcao": "PAHL",
    "metar": "PAHL 091241Z AUTO 01004KT 2SM -SN BR OVC033 M07/M07 A3023 RMK AO2 P0001 FZRANO",
    "updatedAt": "2022-03-09T12:41:00.000Z"
  },
  {
    "airportIcao": "PAHO",
    "metar": "PAHO 091153Z AUTO 36003KT 10SM OVC050 02/01 A3024 RMK AO2 SLP239 60003 70006 T00170006 10022 20017 57017 TSNO",
    "updatedAt": "2022-03-09T11:53:00.000Z"
  },
  {
    "airportIcao": "PAHP",
    "metar": "PAHP 091156Z AUTO 05019KT 10SM OVC048 00/M01 A3007 RMK AO2 SLP181 T00001006 10006 21006 56025 FZRANO",
    "updatedAt": "2022-03-09T11:56:00.000Z"
  },
  {
    "airportIcao": "PAHX",
    "metar": "PAHX 091202Z AUTO 03011KT 10SM OVC049 M01/M02 A3015 RMK AO2 SLP210 T10111017 11006 21011 58016 FZRANO $",
    "updatedAt": "2022-03-09T12:02:00.000Z"
  },
  {
    "airportIcao": "PAHY",
    "metar": "PAHY 091156Z AUTO 00000KT 7SM CLR M02/M03 A3043 RMK AO2 SLP302 T10171028 10033 21022 58001 FZRANO $",
    "updatedAt": "2022-03-09T11:56:00.000Z"
  },
  {
    "airportIcao": "PAIG",
    "metar": "PAIG 091238Z AUTO 07017G24KT 1/2SM FG OVC055 02/00 A2998 RMK AO2 PK WND 05026/1224 P0002 PWINO FZRANO $",
    "updatedAt": "2022-03-09T12:38:00.000Z"
  },
  {
    "airportIcao": "PAII",
    "metar": "PAII 091156Z AUTO 10016G22KT 10SM -RA OVC070 04/03 A2991 RMK AO2 SLP126 P0004 60010 70044 T00440033 10044 20028 58027",
    "updatedAt": "2022-03-09T11:56:00.000Z"
  },
  {
    "airportIcao": "PAIK",
    "metar": "PAIK 091230Z AUTO 00000KT 3SM BR FEW001 M13/M14 A3035 RMK AO2 FZRANO",
    "updatedAt": "2022-03-09T12:30:00.000Z"
  },
  {
    "airportIcao": "PAIL",
    "metar": "PAIL 090603Z 09016G25KT 10SM -RA OVC031 01/00 A3023 RMK A02 P0000 T00110000",
    "updatedAt": "2022-03-09T06:03:00.000Z"
  },
  {
    "airportIcao": "PAIM",
    "metar": "PAIM 091231Z AUTO 20002KT 1 1/4SM SN OVC018 M08/M09 A3016 RMK AO2 SLP244",
    "updatedAt": "2022-03-09T12:31:00.000Z"
  },
  {
    "airportIcao": "PAIN",
    "metar": "PAIN 091156Z AUTO VRB04KT 10SM OVC095 M04/M10 A3017 RMK AO2 SLP251 T10391100 11017 21056 58026 FZRANO",
    "updatedAt": "2022-03-09T11:56:00.000Z"
  },
  {
    "airportIcao": "PAJN",
    "metar": "PAJN 091153Z 10003KT 10SM CLR M06/M08 A3047",
    "updatedAt": "2022-03-09T11:53:00.000Z"
  },
  {
    "airportIcao": "PAJZ",
    "metar": "PAJZ 091232Z AUTO 11018G29KT 7SM -RA SCT010 SCT019 OVC041 01/M01 A3006 RMK AO2 PK WND 12029/1229 UPB12E27 P0003 FZRANO $",
    "updatedAt": "2022-03-09T12:32:00.000Z"
  },
  {
    "airportIcao": "PAKF",
    "metar": "PAKF 091213Z AUTO 26004KT 10SM SCT005 OVC021 01/01 A2969 RMK AO2 FZRANO",
    "updatedAt": "2022-03-09T12:13:00.000Z"
  },
  {
    "airportIcao": "PAKH",
    "metar": "PAKH 091215Z AUTO 08017G23KT 10SM -RA FEW019 BKN044 OVC055 06/04 A2997 RMK AO2 P0000",
    "updatedAt": "2022-03-09T12:15:00.000Z"
  },
  {
    "airportIcao": "PAKI",
    "metar": "PAKI 091156Z AUTO 04016KT OVC038 01/00 A2991 RMK AO2 SLP133 P0001 60002 70002 T00060000 10011 20006 58034 PWINO FZRANO $",
    "updatedAt": "2022-03-09T11:56:00.000Z"
  },
  {
    "airportIcao": "PAKK",
    "metar": "PAKK 091156Z AUTO 01009G16KT 10SM FEW029 M06/M07 A3022 RMK AO2 SLP245 60000 70010 T10561072 11033 21061 55007 FZRANO",
    "updatedAt": "2022-03-09T11:56:00.000Z"
  },
  {
    "airportIcao": "PAKN",
    "metar": "PAKN 091154Z 10014G24KT 10SM -RA BKN040 OVC070 04/02 A2990",
    "updatedAt": "2022-03-09T11:54:00.000Z"
  },
  {
    "airportIcao": "PAKP",
    "metar": "PAKP 091232Z AUTO 05019G27KT 1 1/4SM -SN BR OVC033 M17/M19 A3023 RMK AO2 PK WND 05027/1227 P0000 FZRANO",
    "updatedAt": "2022-03-09T12:32:00.000Z"
  },
  {
    "airportIcao": "PAKT",
    "metar": "PAKT 091153Z AUTO 00000KT 10SM CLR M04/M07 A3045",
    "updatedAt": "2022-03-09T11:53:00.000Z"
  },
  {
    "airportIcao": "PAKU",
    "metar": "PAKU 090345Z 06021KT 3SM R06/P6000FT BLSN BR FEW003 SCT100 BKN120 M18/M19 A3049 RMK LAST",
    "updatedAt": "2022-03-09T03:45:00.000Z"
  },
  {
    "airportIcao": "PAKV",
    "metar": "PAKV 091153Z AUTO 00000KT 10SM BKN008 BKN018 OVC080 M06/M10 A3025 RMK AO2 SLP247 60000 70009 T10611100 11028 21067 56015 TSNO $",
    "updatedAt": "2022-03-09T11:53:00.000Z"
  },
  {
    "airportIcao": "PAKW",
    "metar": "PAKW 091053Z AUTO 04008KT 10SM CLR 00/M08 A3043 RMK AO2 SLP307 T00001083 TSNO",
    "updatedAt": "2022-03-09T10:53:00.000Z"
  },
  {
    "airportIcao": "PAKX",
    "metar": "PAKX 091235Z AUTO 05011G17KT 360V060 10SM BKN065 OVC075 02/M01 A3008 RMK AO2",
    "updatedAt": "2022-03-09T12:35:00.000Z"
  },
  {
    "airportIcao": "PALH",
    "metar": "PALH 091221Z 01008KT 1SM -SN BR FEW005 OVC021 M02/M03 A3029 RMK AO2 P0001 T10221033",
    "updatedAt": "2022-03-09T12:21:00.000Z"
  },
  {
    "airportIcao": "PALP",
    "metar": "PALP 090447Z 05015KT 10SM BKN080 OVC110 M18/M21 A3054 RMK LAST",
    "updatedAt": "2022-03-09T04:47:00.000Z"
  },
  {
    "airportIcao": "PALU",
    "metar": "PALU 090355Z AUTO",
    "updatedAt": "2022-03-09T03:55:00.000Z"
  },
  {
    "airportIcao": "PAMB",
    "metar": "PAMB 091156Z AUTO 04018KT 3SM -SN FEW004 OVC022 A2994 RMK AO2 SLPNO P0010 60019 70024 10006 20000 58023 FZRANO $",
    "updatedAt": "2022-03-09T11:56:00.000Z"
  },
  {
    "airportIcao": "PAMC",
    "metar": "PAMC 091153Z 28004KT 10SM OVC050 M03/M06 A3016 RMK AO2 SLP220 T10331056 11011 21044 58019",
    "updatedAt": "2022-03-09T11:53:00.000Z"
  },
  {
    "airportIcao": "PAMD",
    "metar": "PAMD 091151Z AUTO 09014KT 9SM OVC016 03/01 A3033 RMK AO2 RAE32 SLP259 P0000 60000 T00330011 10039 20033 58016",
    "updatedAt": "2022-03-09T11:51:00.000Z"
  },
  {
    "airportIcao": "PAMH",
    "metar": "PAMH 091156Z AUTO 00000KT 10SM BKN050 OVC060 M06/M09 A3018 RMK AO2 SLP226 T10611094 11044 21072 58020 FZRANO",
    "updatedAt": "2022-03-09T11:56:00.000Z"
  },
  {
    "airportIcao": "PAMK",
    "metar": "PAMK 091241Z AUTO 04019G25KT 10SM -SN SCT007 OVC016 M03/M04 A3020 RMK AO2 UPB25E34SNB1159E25B34 P0000 FZRANO",
    "updatedAt": "2022-03-09T12:41:00.000Z"
  },
  {
    "airportIcao": "PAMM",
    "metar": "PAMM 091156Z AUTO 07006KT 10SM CLR 04/M13 A3045 RMK AO2 SLP300 T00391133 10056 20033 55006 $",
    "updatedAt": "2022-03-09T11:56:00.000Z"
  },
  {
    "airportIcao": "PAMO",
    "metar": "PAMO 091156Z AUTO 03011KT 10SM OVC065 00/M01 A3010 RMK AO2 SLP200 7//// T00001006 10006 20000 56021 FZRANO",
    "updatedAt": "2022-03-09T11:56:00.000Z"
  },
  {
    "airportIcao": "PAMR",
    "metar": "PAMR 091229Z 36005KT 1SM -SN BR FEW009 OVC017 M02/M03 A3027 RMK AO2 P0002 T10171033",
    "updatedAt": "2022-03-09T12:29:00.000Z"
  },
  {
    "airportIcao": "PANA",
    "metar": "PANA 091156Z AUTO 04007KT 10SM FEW037 OVC100 02/M01 A2997 RMK AO2 SLP148 T00171011 10022 20017 58030 FZRANO TSNO",
    "updatedAt": "2022-03-09T11:56:00.000Z"
  },
  {
    "airportIcao": "PANC",
    "metar": "PANC 091221Z 02005KT 1 1/4SM -SN BKN004 BKN015 OVC020 M01/M04 A3027",
    "updatedAt": "2022-03-09T12:21:00.000Z"
  },
  {
    "airportIcao": "PANI",
    "metar": "PANI 091221Z AUTO VRB04KT 8SM UP OVC014 01/00 A3011 RMK AO2 RAE20UPB20 P0002 FZRANO $",
    "updatedAt": "2022-03-09T12:21:00.000Z"
  },
  {
    "airportIcao": "PANN",
    "metar": "PANN 091153Z AUTO 08003KT 10SM OVC040 M03/M11 A3020 RMK AO2 UPB08E52 SLP235 P0000 60000 T10281106 11028 21061 58017 TSNO",
    "updatedAt": "2022-03-09T11:53:00.000Z"
  },
  {
    "airportIcao": "PANV",
    "metar": "PANV 091156Z AUTO 03010KT 10SM OVC004 M02/M03 A3011 RMK AO2 SLP307 T10221028 11017 21022 58019 FZRANO TSNO",
    "updatedAt": "2022-03-09T11:56:00.000Z"
  },
  {
    "airportIcao": "PANW",
    "metar": "PANW 091156Z AUTO 09014G21KT 8SM RA OVC038 01/00 A3000 RMK AO2 SLP165 P0007 60020 70020 T00060000 10006 20000 56026 FZRANO",
    "updatedAt": "2022-03-09T11:56:00.000Z"
  },
  {
    "airportIcao": "PAOH",
    "metar": "PAOH 091156Z AUTO 00000KT 10SM CLR M07/M08 A3046 RMK AO2 SLP314 7//// T10671078 11028 21067 58014 FZRANO",
    "updatedAt": "2022-03-09T11:56:00.000Z"
  },
  {
    "airportIcao": "PAOM",
    "metar": "PAOM 091153Z AUTO 04019KT 10SM CLR M04/M08 A3027",
    "updatedAt": "2022-03-09T11:53:00.000Z"
  },
  {
    "airportIcao": "PAOO",
    "metar": "PAOO 091156Z AUTO 02021KT 10SM FEW060 OVC075 01/M01 A2998 RMK AO2 PK WND 02027/1142 SLP159 T00111006 10028 20011 58028 FZRANO TSNO $",
    "updatedAt": "2022-03-09T11:56:00.000Z"
  },
  {
    "airportIcao": "PAOR",
    "metar": "PAOR 091153Z 11006KT 10SM BKN075 OVC095 M08/M14 A3020",
    "updatedAt": "2022-03-09T11:53:00.000Z"
  },
  {
    "airportIcao": "PAOT",
    "metar": "PAOT 091153Z AUTO 03009KT 10SM CLR M12/M13 A3035",
    "updatedAt": "2022-03-09T11:53:00.000Z"
  },
  {
    "airportIcao": "PAOU",
    "metar": "PAOU 091156Z AUTO 07008KT 6SM BR OVC042 02/01 A2973 RMK AO2 SLP065 60000 T00170011 10022 20006 57019 FZRANO",
    "updatedAt": "2022-03-09T11:56:00.000Z"
  },
  {
    "airportIcao": "PAPG",
    "metar": "PAPG 091156Z AUTO 24003KT 10SM CLR M05/M06 A3048 RMK AO2 SLP325 T10501061 11039 21050 58007 FZRANO",
    "updatedAt": "2022-03-09T11:56:00.000Z"
  },
  {
    "airportIcao": "PAPH",
    "metar": "PAPH 091156Z AUTO 16013G23KT 10SM SCT120 07/03 A2979 RMK AO2 PK WND 15033/1110 SLP089 60000 T00670033 10089 20061 56019",
    "updatedAt": "2022-03-09T11:56:00.000Z"
  },
  {
    "airportIcao": "PAPM",
    "metar": "PAPM 091156Z AUTO 06012KT 10SM -RA OVC017 01/01 A2986 RMK AO2 UPE21RAB21 SLP115 P0002 60009 70013 T00110006 10011 20006 56032 FZRANO",
    "updatedAt": "2022-03-09T11:56:00.000Z"
  },
  {
    "airportIcao": "PAPN",
    "metar": "PAPN 091156Z AUTO 11021G28KT 10SM FEW065 SCT080 SCT100 05/03 A2985 RMK AO2 PK WND 11035/1123 RAE05 SLP109 P0000 60000 T00500028 10056 20044 55011",
    "updatedAt": "2022-03-09T11:56:00.000Z"
  },
  {
    "airportIcao": "PAPO",
    "metar": "PAPO 091156Z AUTO 03011KT 10SM CLR M10/M13 A3055 RMK AO2 SLP344 T11001128 11100 21144 51015 FZRANO",
    "updatedAt": "2022-03-09T11:56:00.000Z"
  },
  {
    "airportIcao": "PAPT",
    "metar": "PAPT 090150Z 18005KT 25SM OVC060 M01/M01 A3036 RMK NO SPECI LAST",
    "updatedAt": "2022-03-09T01:50:00.000Z"
  },
  {
    "airportIcao": "PAQH",
    "metar": "PAQH 091056Z AUTO 01009KT 10SM -RA OVC032 02/02 A2995 RMK AO2 SLP141 P0010 T00220017 FZRANO",
    "updatedAt": "2022-03-09T10:56:00.000Z"
  },
  {
    "airportIcao": "PAQT",
    "metar": "PAQT 091153Z AUTO 04012KT 3SM -SN OVC046 M18/M21 A3065 RMK AO2 SLP379 T11831211 11178 21183 53011 TSNO PNO $",
    "updatedAt": "2022-03-09T11:53:00.000Z"
  },
  {
    "airportIcao": "PARC",
    "metar": "PARC 091217Z AUTO 00000KT 2SM -SN BR BKN021 OVC026 M13/M16 A3010 RMK AO2 P0000 FZRANO",
    "updatedAt": "2022-03-09T12:17:00.000Z"
  },
  {
    "airportIcao": "PARS",
    "metar": "PARS 091156Z AUTO 03007KT 10SM OVC040 01/M02 A3007 RMK AO2 SLP186 70010 T00061017 10017 20006 58025 FZRANO $",
    "updatedAt": "2022-03-09T11:56:00.000Z"
  },
  {
    "airportIcao": "PARY",
    "metar": "PARY 091214Z AUTO 09005KT 3SM BR OVC003 M07/M08 A3018",
    "updatedAt": "2022-03-09T12:14:00.000Z"
  },
  {
    "airportIcao": "PASA",
    "metar": "PASA 091235Z AUTO 04009KT 1 3/4SM BR OVC003 A3036 RMK AO2 VIS 1 1/4V2 1/2 FZRANO $",
    "updatedAt": "2022-03-09T12:35:00.000Z"
  },
  {
    "airportIcao": "PASC",
    "metar": "PASC 091153Z 05015KT 3SM -SN OVC048 M18/M21 A3059",
    "updatedAt": "2022-03-09T11:53:00.000Z"
  },
  {
    "airportIcao": "PASD",
    "metar": "PASD 091110Z AUTO VRB04KT 7SM BKN007 OVC018 04/03 A2975 RMK AO2 RAE04 P0000 $",
    "updatedAt": "2022-03-09T11:10:00.000Z"
  },
  {
    "airportIcao": "PASH",
    "metar": "PASH 091105Z AUTO 35011KT 1 1/2SM -SN BR OVC003 M07/M08 A3044 RMK AO2 P0000 FZRANO",
    "updatedAt": "2022-03-09T11:05:00.000Z"
  },
  {
    "airportIcao": "PASI",
    "metar": "PASI 091153Z 00000KT 10SM CLR M01/M05 A3041",
    "updatedAt": "2022-03-09T11:53:00.000Z"
  },
  {
    "airportIcao": "PASK",
    "metar": "PASK 091156Z AUTO 29004KT 10SM CLR M11/M13 A3034 RMK AO2 SLP271 60000 T11111128 11056 21111 58004 FZRANO",
    "updatedAt": "2022-03-09T11:56:00.000Z"
  },
  {
    "airportIcao": "PASL",
    "metar": "PASL 091216Z AUTO 00000KT 1 3/4SM -SN BR BKN005 BKN008 OVC015 00/M02 A3015 RMK AO2 P0002 FZRANO",
    "updatedAt": "2022-03-09T12:16:00.000Z"
  },
  {
    "airportIcao": "PASM",
    "metar": "PASM 091156Z AUTO 04012KT 10SM OVC065 01/M01 A3009 RMK AO2 SLP200 T00061006 10011 20000 58025 FZRANO",
    "updatedAt": "2022-03-09T11:56:00.000Z"
  },
  {
    "airportIcao": "PASN",
    "metar": "PASN 091238Z AUTO 05014KT 2SM BR OVC002 M01/M02 A2981",
    "updatedAt": "2022-03-09T12:38:00.000Z"
  },
  {
    "airportIcao": "PASO",
    "metar": "PASO 091221Z AUTO 00000KT 7SM SCT008 BKN024 OVC033 01/00 A3022 RMK AO2 T00060000 TSNO",
    "updatedAt": "2022-03-09T12:21:00.000Z"
  },
  {
    "airportIcao": "PASV",
    "metar": "PASV 091155Z AUTO 05008KT 10SM -RA OVC018 01/01 A3005",
    "updatedAt": "2022-03-09T11:55:00.000Z"
  },
  {
    "airportIcao": "PASX",
    "metar": "PASX 091233Z AUTO 02004KT 2SM -SN BR BKN007 OVC013 M01/M02 A3028 RMK AO2 VIS 1 1/2V3 P0000 FZRANO",
    "updatedAt": "2022-03-09T12:33:00.000Z"
  },
  {
    "airportIcao": "PASY",
    "metar": "PASY 091155Z 08026G30KT 040V110 7SM OVC013 03/02 A2940 RMK AO2A PK WND 09031/1127 CIG 012V016 SLP958 WND DATA ESTMD 60002 12-HR ESTMD PCPN T00300019 10030 20024 56011 RVRNO PNO FZRANO $",
    "updatedAt": "2022-03-09T11:55:00.000Z"
  },
  {
    "airportIcao": "PATA",
    "metar": "PATA 091152Z AUTO 04005KT 10SM OVC020 M07/M09 A3024 RMK AO2 SLP246 T10671094 11061 21072 56018 TSNO",
    "updatedAt": "2022-03-09T11:52:00.000Z"
  },
  {
    "airportIcao": "PATC",
    "metar": "PATC 091235Z AUTO 02021KT 1/4SM -FZDZ FZFG VV003 M08/M08 A3037 RMK AO2 SLP294",
    "updatedAt": "2022-03-09T12:35:00.000Z"
  },
  {
    "airportIcao": "PATG",
    "metar": "PATG 091156Z AUTO 02011KT 8SM -RA OVC020 01/01 A2990 RMK AO2 UPB38E42 SLP221 P0009 60027 70046 T00110011 10011 20011 58030 FZRANO",
    "updatedAt": "2022-03-09T11:56:00.000Z"
  },
  {
    "airportIcao": "PATK",
    "metar": "PATK 091203Z AUTO 00000KT 1SM -SN BR VV014 M02/M04 A3031",
    "updatedAt": "2022-03-09T12:03:00.000Z"
  },
  {
    "airportIcao": "PATL",
    "metar": "PATL 091230Z AUTO 00000KT 10SM -RA OVC039 M02/M04 A3015",
    "updatedAt": "2022-03-09T12:30:00.000Z"
  },
  {
    "airportIcao": "PATO",
    "metar": "PATO 091153Z AUTO 12007G23KT 070V160 10SM OVC060 03/M07 A3035 RMK AO2 SLP278 T00331072 10039 20022 58015 TSNO",
    "updatedAt": "2022-03-09T11:53:00.000Z"
  },
  {
    "airportIcao": "PATQ",
    "metar": "PATQ 091156Z AUTO 04011KT 10SM CLR M22/M24 A3070",
    "updatedAt": "2022-03-09T11:56:00.000Z"
  },
  {
    "airportIcao": "PAUN",
    "metar": "PAUN 091204Z AUTO 30003KT 10SM SCT019 M03/M04 A3021 RMK AO2 FZRANO",
    "updatedAt": "2022-03-09T12:04:00.000Z"
  },
  {
    "airportIcao": "PAUT",
    "metar": "PAUT 091235Z AUTO 10SM CLR A2965 RMK AO2",
    "updatedAt": "2022-03-09T12:35:00.000Z"
  },
  {
    "airportIcao": "PAVA",
    "metar": "PAVA 091156Z AUTO 02019KT 10SM OVC055 M01/M02 A3007 RMK AO2 PK WND 03026/1112 SLP186 T10111017 10006 21011 56027 FZRANO",
    "updatedAt": "2022-03-09T11:56:00.000Z"
  },
  {
    "airportIcao": "PAVC",
    "metar": "PAVC 091156Z AUTO 06011KT 9SM OVC011 04/03 A2971 RMK AO2 RAE08 SLP063 P0000 60000 T00440033 10044 20033 58016",
    "updatedAt": "2022-03-09T11:56:00.000Z"
  },
  {
    "airportIcao": "PAVD",
    "metar": "PAVD 091156Z AUTO 03003KT 10SM OVC085 M02/M06 A3047",
    "updatedAt": "2022-03-09T11:56:00.000Z"
  },
  {
    "airportIcao": "PAVL",
    "metar": "PAVL 091153Z AUTO 06009G16KT 10SM CLR M09/M14 A3043 RMK AO2 SLP303 70001 T10941144 11089 21156 50003 TSNO",
    "updatedAt": "2022-03-09T11:53:00.000Z"
  },
  {
    "airportIcao": "PAWD",
    "metar": "PAWD 091214Z AUTO 00000KT 2 1/2SM -SN BR BKN008 OVC026 01/00 A3033 RMK AO2 P0000 T00060000 TSNO",
    "updatedAt": "2022-03-09T12:14:00.000Z"
  },
  {
    "airportIcao": "PAWG",
    "metar": "PAWG 091156Z AUTO",
    "updatedAt": "2022-03-09T11:56:00.000Z"
  },
  {
    "airportIcao": "PAWI",
    "metar": "PAWI 091153Z AUTO 05007KT 10SM M21/M24 A3070 RMK AO2 SLP398 T12111239 11156 21211 TSNO $",
    "updatedAt": "2022-03-09T11:53:00.000Z"
  },
  {
    "airportIcao": "PAWM",
    "metar": "PAWM 091156Z AUTO 36011KT 10SM CLR M07/M08 A3027 RMK AO2 SLP256 T10721083 11050 21078 58005 FZRANO",
    "updatedAt": "2022-03-09T11:56:00.000Z"
  },
  {
    "airportIcao": "PAWN",
    "metar": "PAWN 091156Z AUTO 02008KT 10SM CLR M10/M13 A3041 RMK AO2 SLP312 T11001128 11089 21161 53000 FZRANO",
    "updatedAt": "2022-03-09T11:56:00.000Z"
  },
  {
    "airportIcao": "PAWS",
    "metar": "PAWS 091238Z AUTO 00000KT 3SM -SN BR BKN023 BKN030 OVC038 M02/M03 A3028 RMK AO2 UPB04E08SNE04B08 P0000 FZRANO",
    "updatedAt": "2022-03-09T12:38:00.000Z"
  },
  {
    "airportIcao": "PAYA",
    "metar": "PAYA 091153Z AUTO 00000KT 10SM CLR M05/M06 A3043 RMK AO2 SLP303 I6001 T10501061 11028 21056 58013 TSNO",
    "updatedAt": "2022-03-09T11:53:00.000Z"
  },
  {
    "airportIcao": "PAZK",
    "metar": "PAZK 091156Z AUTO 04004KT 10SM OVC060 M10/M12 A3015 RMK AO2 SLP285 T11001122 11100 21128 58019 FZRANO",
    "updatedAt": "2022-03-09T11:56:00.000Z"
  },
  {
    "airportIcao": "PFCL",
    "metar": "PFCL 091156Z AUTO 03014KT 10SM -RA OVC021 01/00 A2994 RMK AO2 SLP133 P0010 60025 70047 T00060000 10011 20006 58024 FZRANO TSNO",
    "updatedAt": "2022-03-09T11:56:00.000Z"
  },
  {
    "airportIcao": "PFEL",
    "metar": "PFEL 091156Z AUTO 01016G23KT 10SM SCT020 M06/M08 A3025 RMK AO2 SLP247 70007 T10561078 11033 21078 58009 FZRANO",
    "updatedAt": "2022-03-09T11:56:00.000Z"
  },
  {
    "airportIcao": "PFKT",
    "metar": "PFKT 091214Z AUTO 00000KT 10SM BKN018 M08/M09 A3041 RMK AO2 FZRANO",
    "updatedAt": "2022-03-09T12:14:00.000Z"
  },
  {
    "airportIcao": "PFKW",
    "metar": "PFKW 091156Z AUTO 06013KT 10SM BKN095 OVC120 03/M01 A2997 RMK AO2 SLP149 T00281011 10028 20022 58030",
    "updatedAt": "2022-03-09T11:56:00.000Z"
  },
  {
    "airportIcao": "PFNO",
    "metar": "PFNO 091156Z AUTO 34003KT 10SM CLR M11/M13 A3034 RMK AO2 SLP362 60000 T11111128 11056 21111 58006 FZRANO",
    "updatedAt": "2022-03-09T11:56:00.000Z"
  },
  {
    "airportIcao": "PFWS",
    "metar": "PFWS 091056Z AUTO 10009KT 10SM -RA OVC032 04/02 A2997 RMK AO2 SLP192 P0002 T00390017",
    "updatedAt": "2022-03-09T10:56:00.000Z"
  },
  {
    "airportIcao": "PFYU",
    "metar": "PFYU 091156Z AUTO 00000KT 5SM -SN BR FEW030 OVC046 M12/M14 A3028",
    "updatedAt": "2022-03-09T11:56:00.000Z"
  },
  {
    "airportIcao": "PGRO",
    "metar": "PGRO 090750Z 12005KT 7SM FEW015 29/23 A2982 RMK LAST",
    "updatedAt": "2022-03-09T07:50:00.000Z"
  },
  {
    "airportIcao": "PGSN",
    "metar": "PGSN 091154Z 10004KT 10SM CLR 26/23 A2990 RMK AO2 SLP147 T02610233 10294 20256 51017",
    "updatedAt": "2022-03-09T11:54:00.000Z"
  },
  {
    "airportIcao": "PGUA",
    "metar": "PGUA 091156Z AUTO 12008KT 10SM FEW014 26/23 A2991 RMK AO2 SLP119 T02570226 10283 20252 52017 TSNO $",
    "updatedAt": "2022-03-09T11:56:00.000Z"
  },
  {
    "airportIcao": "PGUM",
    "metar": "PGUM 091154Z 10004KT 10SM CLR 27/24 A2991 RMK AO2 SLP120 T02670239 10294 20267 51018",
    "updatedAt": "2022-03-09T11:54:00.000Z"
  },
  {
    "airportIcao": "PGWT",
    "metar": "PGWT 090855Z 18003KT 7SM FEW017 FEW100 27/23 A2984 RMK LAST",
    "updatedAt": "2022-03-09T08:55:00.000Z"
  },
  {
    "airportIcao": "PHBK",
    "metar": "PHBK 091151Z AUTO 07004KT 10SM CLR 21/15 A3006 RMK AO2 SLP179 T02060150 10233 20206 55005",
    "updatedAt": "2022-03-09T11:51:00.000Z"
  },
  {
    "airportIcao": "PHHI",
    "metar": "PHHI 091156Z AUTO 28004KT 10SM CLR 17/15 A3006 RMK AO2 SLP172 70009 T01650148 10213 20161 58013 $",
    "updatedAt": "2022-03-09T11:56:00.000Z"
  },
  {
    "airportIcao": "PHJR",
    "metar": "PHJR 091153Z AUTO 03004KT 10SM CLR 22/17 A3005 RMK AO2 SLP181 T02170167 10239 20211 58013 TSNO",
    "updatedAt": "2022-03-09T11:53:00.000Z"
  },
  {
    "airportIcao": "PHKO",
    "metar": "PHKO 091153Z AUTO 00000KT 10SM CLR 24/17 A3003",
    "updatedAt": "2022-03-09T11:53:00.000Z"
  },
  {
    "airportIcao": "PHLI",
    "metar": "PHLI 091153Z AUTO 30006KT 10SM FEW026 BKN049 19/19 A3008",
    "updatedAt": "2022-03-09T11:53:00.000Z"
  },
  {
    "airportIcao": "PHMK",
    "metar": "PHMK 091154Z AUTO 00000KT 10SM CLR 17/15 A3005 RMK AO2 SLP179 T01670150 10228 20167 58013 TSNO",
    "updatedAt": "2022-03-09T11:54:00.000Z"
  },
  {
    "airportIcao": "PHNG",
    "metar": "PHNG 090457Z 09004KT 7SM FEW025 24/19 A3001 RMK SLP158 T02390189",
    "updatedAt": "2022-03-09T04:57:00.000Z"
  },
  {
    "airportIcao": "PHNL",
    "metar": "PHNL 091153Z 02003KT 10SM CLR 22/17 A3003",
    "updatedAt": "2022-03-09T11:53:00.000Z"
  },
  {
    "airportIcao": "PHNY",
    "metar": "PHNY 091156Z AUTO 06006KT 10SM CLR 18/ A3009 RMK AO2 SLP171 70006 T0178 10200 20172 58011",
    "updatedAt": "2022-03-09T11:56:00.000Z"
  },
  {
    "airportIcao": "PHOG",
    "metar": "PHOG 091154Z AUTO 01005KT 10SM CLR 21/19 A3005",
    "updatedAt": "2022-03-09T11:54:00.000Z"
  },
  {
    "airportIcao": "PHSF",
    "metar": "PHSF 091228Z AUTO 06004KT 1 5/8SM BR BKN002 09/09 A3033 RMK AO2 VIS 1 5/8V4 LTG DSNT NE SLP162 $",
    "updatedAt": "2022-03-09T12:28:00.000Z"
  },
  {
    "airportIcao": "PHTO",
    "metar": "PHTO 091231Z AUTO 23004KT 10SM FEW020 21/18 A3004",
    "updatedAt": "2022-03-09T12:31:00.000Z"
  },
  {
    "airportIcao": "PKMR",
    "metar": "PKMR 091151Z 06012KT 15SM FEW015 SCT050 BKN300 28/24 A2981 RMK SLP097 8/801 T02800240 10285 20270 58003",
    "updatedAt": "2022-03-09T11:51:00.000Z"
  },
  {
    "airportIcao": "PKWA",
    "metar": "PKWA 091240Z AUTO 06014KT 10SM SCT026 SCT033 28/23 A2986",
    "updatedAt": "2022-03-09T12:40:00.000Z"
  },
  {
    "airportIcao": "PLCH",
    "metar": "PLCH 091200Z 11008KT 9999 SCT020 25/20 Q1008",
    "updatedAt": "2022-03-09T12:00:00.000Z"
  },
  {
    "airportIcao": "PMDY",
    "metar": "PMDY 091219Z AUTO 09035G57KT 10SM CLR A3009 RMK AO2 WSHFT 1154 FZRANO $",
    "updatedAt": "2022-03-09T12:19:00.000Z"
  },
  {
    "airportIcao": "PPIT",
    "metar": "PPIT 091156Z AUTO 05014KT 3SM -SN FEW011 OVC024 00/ A2999 RMK AO2 RAB15E27 SLP159 P0000 60000 T0000 10006 20000 56026 FZRANO TSNO",
    "updatedAt": "2022-03-09T11:56:00.000Z"
  },
  {
    "airportIcao": "PPIZ",
    "metar": "PPIZ 091156Z AUTO 05013KT 4SM -SN BR CLR M22/M24 A3069 RMK AO2 SNB22 SLP395 6//// 7//// T12221244 11183 21228 51018 FZRANO PNO $",
    "updatedAt": "2022-03-09T11:56:00.000Z"
  },
  {
    "airportIcao": "PTKK",
    "metar": "PTKK 091150Z VRB05KT 15SM FEW014 SCT120 OVC280 27/25 A2983 RMK SLP105 70003 8/171 T02720247 10290 20267 52014",
    "updatedAt": "2022-03-09T11:50:00.000Z"
  },
  {
    "airportIcao": "PTPN",
    "metar": "PTPN 090150Z 13010KT 15SM SCT018 BKN130 OVC300 31/25 A2978 RMK LAST",
    "updatedAt": "2022-03-09T01:50:00.000Z"
  },
  {
    "airportIcao": "PTRO",
    "metar": "PTRO 091150Z 04003KT 14SM BKN015 BKN110 BKN290 25/24 A2984",
    "updatedAt": "2022-03-09T11:50:00.000Z"
  },
  {
    "airportIcao": "PTSA",
    "metar": "PTSA 090251Z 03015KT 10SM BKN019TCU BKN130 OVC300 29/25 A2974 RMK TCU W LAST",
    "updatedAt": "2022-03-09T02:51:00.000Z"
  },
  {
    "airportIcao": "PTTP",
    "metar": "PTTP 091154Z 11008KT 15SM BKN018TCU OVC130 27/24 A2988 RMK TCU ALQDS SLP117 70008 8/27/ T02700242 10286 20270 52014",
    "updatedAt": "2022-03-09T11:54:00.000Z"
  },
  {
    "airportIcao": "PTYA",
    "metar": "PTYA 091155Z 00000KT 12SM FEW016 SCT130 BKN300 26/25 A2987 RMK SLP117 60005 70005 8/171 T02610248 10300 20261 52019",
    "updatedAt": "2022-03-09T11:55:00.000Z"
  },
  {
    "airportIcao": "PWAK",
    "metar": "PWAK 091159Z AUTO 12006KT 9999 CLR 26/22 A2999 RMK AO2 SLP162 50005",
    "updatedAt": "2022-03-09T11:59:00.000Z"
  },
  {
    "airportIcao": "RCFN",
    "metar": "RCFN 091200Z 32004KT 290V020 9999 FEW025 BKN055 20/13 Q1019 NOSIG RMK A3010",
    "updatedAt": "2022-03-09T12:00:00.000Z"
  },
  {
    "airportIcao": "RCKH",
    "metar": "RCKH 091230Z 36007KT 330V030 9999 FEW016 SCT035 BKN050 22/11 Q1016 NOSIG RMK A3001",
    "updatedAt": "2022-03-09T12:30:00.000Z"
  },
  {
    "airportIcao": "RCMQ",
    "metar": "RCMQ 091230Z 00000KT 2400 BR BKN004 BKN012 15/15 Q1015 RMK A3000 APCH CLD BKN004",
    "updatedAt": "2022-03-09T12:30:00.000Z"
  },
  {
    "airportIcao": "RCNN",
    "metar": "RCNN 091230Z 02005KT 9999 FEW012 SCT060 17/08 Q1016 RMK A3002",
    "updatedAt": "2022-03-09T12:30:00.000Z"
  },
  {
    "airportIcao": "RCSS",
    "metar": "RCSS 091230Z 08014KT 9999 FEW025 BKN045 20/12 Q1016 WS R10 NOSIG RMK A3003",
    "updatedAt": "2022-03-09T12:30:00.000Z"
  },
  {
    "airportIcao": "RCTP",
    "metar": "RCTP 091230Z 07013KT 9999 FEW020 20/14 Q1015 NOSIG RMK A3000",
    "updatedAt": "2022-03-09T12:30:00.000Z"
  },
  {
    "airportIcao": "RJAA",
    "metar": "RJAA 091230Z 02006KT 9999 FEW030 05/00 Q1021 NOSIG",
    "updatedAt": "2022-03-09T12:30:00.000Z"
  },
  {
    "airportIcao": "RJAF",
    "metar": "RJAF 090900Z 33010KT 9999 FEW060 06/M07 Q1018",
    "updatedAt": "2022-03-09T09:00:00.000Z"
  },
  {
    "airportIcao": "RJAH",
    "metar": "RJAH 091200Z 01004KT 9999 FEW030 SCT/// 02/M02 Q1021",
    "updatedAt": "2022-03-09T12:00:00.000Z"
  },
  {
    "airportIcao": "RJAW",
    "metar": "RJAW 091200Z 35009KT 9999 SCT020 17/08 Q1015 RMK 3CU020 A3000",
    "updatedAt": "2022-03-09T12:00:00.000Z"
  },
  {
    "airportIcao": "RJBB",
    "metar": "RJBB 091230Z 36010KT 9999 FEW030 10/05 Q1022 NOSIG",
    "updatedAt": "2022-03-09T12:30:00.000Z"
  },
  {
    "airportIcao": "RJBD",
    "metar": "RJBD 091000Z 34010KT 9999 FEW035 SCT060 12/M02 Q1019",
    "updatedAt": "2022-03-09T10:00:00.000Z"
  },
  {
    "airportIcao": "RJBE",
    "metar": "RJBE 091200Z 08004KT 030V100 CAVOK 09/02 Q1022",
    "updatedAt": "2022-03-09T12:00:00.000Z"
  },
  {
    "airportIcao": "RJBT",
    "metar": "RJBT 090900Z 02003KT 9999 FEW030 08/03 Q1021",
    "updatedAt": "2022-03-09T09:00:00.000Z"
  },
  {
    "airportIcao": "RJCB",
    "metar": "RJCB 091100Z 19004KT 9999 FEW040 M03/M05 Q1019",
    "updatedAt": "2022-03-09T11:00:00.000Z"
  },
  {
    "airportIcao": "RJCC",
    "metar": "RJCC 091230Z VRB02KT 9999 FEW030 M04/M06 Q1021",
    "updatedAt": "2022-03-09T12:30:00.000Z"
  },
  {
    "airportIcao": "RJCH",
    "metar": "RJCH 091100Z 35004KT 9999 FEW030 02/M03 Q1021",
    "updatedAt": "2022-03-09T11:00:00.000Z"
  },
  {
    "airportIcao": "RJCK",
    "metar": "RJCK 091100Z VRB01KT 9999 FEW030 M02/M04 Q1020",
    "updatedAt": "2022-03-09T11:00:00.000Z"
  },
  {
    "airportIcao": "RJCM",
    "metar": "RJCM 091100Z VRB02KT 9999 FEW040 M05/M09 Q1019",
    "updatedAt": "2022-03-09T11:00:00.000Z"
  },
  {
    "airportIcao": "RJCN",
    "metar": "RJCN 090900Z VRB01KT 9999 FEW040 M02/M10 Q1019",
    "updatedAt": "2022-03-09T09:00:00.000Z"
  },
  {
    "airportIcao": "RJCO",
    "metar": "RJCO 091100Z 17003KT 9999 FEW030 M02/M04 Q1022",
    "updatedAt": "2022-03-09T11:00:00.000Z"
  },
  {
    "airportIcao": "RJCW",
    "metar": "RJCW 090900Z 23005KT 9999 FEW040 SCT070 00/M04 Q1017",
    "updatedAt": "2022-03-09T09:00:00.000Z"
  },
  {
    "airportIcao": "RJDB",
    "metar": "RJDB 091200Z AUTO 03006KT 9999 NCD 11/06 Q1022",
    "updatedAt": "2022-03-09T12:00:00.000Z"
  },
  {
    "airportIcao": "RJDC",
    "metar": "RJDC 091200Z 36004KT CAVOK 09/02 Q1022",
    "updatedAt": "2022-03-09T12:00:00.000Z"
  },
  {
    "airportIcao": "RJDT",
    "metar": "RJDT 091100Z VRB01KT CAVOK 10/05 Q1022",
    "updatedAt": "2022-03-09T11:00:00.000Z"
  },
  {
    "airportIcao": "RJEB",
    "metar": "RJEB 090700Z 12003KT 9999 FEW030 SCT050 01/M06 Q1018",
    "updatedAt": "2022-03-09T07:00:00.000Z"
  },
  {
    "airportIcao": "RJEC",
    "metar": "RJEC 091100Z 18005KT 9999 FEW040 M03/M08 Q1019",
    "updatedAt": "2022-03-09T11:00:00.000Z"
  },
  {
    "airportIcao": "RJFE",
    "metar": "RJFE 091000Z 01003KT CAVOK 10/04 Q1021",
    "updatedAt": "2022-03-09T10:00:00.000Z"
  },
  {
    "airportIcao": "RJFF",
    "metar": "RJFF 091230Z 07004KT 360V090 CAVOK 09/04 Q1023 NOSIG",
    "updatedAt": "2022-03-09T12:30:00.000Z"
  },
  {
    "airportIcao": "RJFG",
    "metar": "RJFG 090900Z 29012KT 9999 FEW030 13/05 Q1019",
    "updatedAt": "2022-03-09T09:00:00.000Z"
  },
  {
    "airportIcao": "RJFK",
    "metar": "RJFK 091200Z 06003KT 020V100 CAVOK 09/01 Q1021 RMK A3017",
    "updatedAt": "2022-03-09T12:00:00.000Z"
  },
  {
    "airportIcao": "RJFM",
    "metar": "RJFM 091200Z 26005KT 9999 FEW030 09/05 Q1021",
    "updatedAt": "2022-03-09T12:00:00.000Z"
  },
  {
    "airportIcao": "RJFO",
    "metar": "RJFO 091200Z 30008KT CAVOK 11/03 Q1022",
    "updatedAt": "2022-03-09T12:00:00.000Z"
  },
  {
    "airportIcao": "RJFR",
    "metar": "RJFR 091200Z 29004KT 9999 FEW020 10/05 Q1022",
    "updatedAt": "2022-03-09T12:00:00.000Z"
  },
  {
    "airportIcao": "RJFS",
    "metar": "RJFS 091200Z 02006KT CAVOK 09/04 Q1022",
    "updatedAt": "2022-03-09T12:00:00.000Z"
  },
  {
    "airportIcao": "RJFT",
    "metar": "RJFT 091200Z VRB02KT CAVOK 07/00 Q1021",
    "updatedAt": "2022-03-09T12:00:00.000Z"
  },
  {
    "airportIcao": "RJFU",
    "metar": "RJFU 091200Z 30006KT CAVOK 10/04 Q1022",
    "updatedAt": "2022-03-09T12:00:00.000Z"
  },
  {
    "airportIcao": "RJGG",
    "metar": "RJGG 091230Z 32013KT CAVOK 09/04 Q1021 NOSIG",
    "updatedAt": "2022-03-09T12:30:00.000Z"
  },
  {
    "airportIcao": "RJKA",
    "metar": "RJKA 091000Z 34005KT 9999 FEW045 15/08 Q1020",
    "updatedAt": "2022-03-09T10:00:00.000Z"
  },
  {
    "airportIcao": "RJKI",
    "metar": "RJKI 091200Z AUTO 01008KT 9999 NSC 17/07 Q1021",
    "updatedAt": "2022-03-09T12:00:00.000Z"
  },
  {
    "airportIcao": "RJNG",
    "metar": "RJNG 090627Z 24008KT 190V280 9999 FEW030 SCT120 BKN210 14/M02 Q1018 RMK 1CU030 3AC120 A3007",
    "updatedAt": "2022-03-09T06:27:00.000Z"
  },
  {
    "airportIcao": "RJNK",
    "metar": "RJNK 091200Z 16003KT 9999 SCT060 04/02 Q1023",
    "updatedAt": "2022-03-09T12:00:00.000Z"
  },
  {
    "airportIcao": "RJNS",
    "metar": "RJNS 091200Z 03003KT 010V080 9999 FEW030 09/03 Q1019",
    "updatedAt": "2022-03-09T12:00:00.000Z"
  },
  {
    "airportIcao": "RJNT",
    "metar": "RJNT 091200Z 17003KT CAVOK 04/M01 Q1023",
    "updatedAt": "2022-03-09T12:00:00.000Z"
  },
  {
    "airportIcao": "RJNW",
    "metar": "RJNW 091000Z 00000KT CAVOK 03/M00 Q1021",
    "updatedAt": "2022-03-09T10:00:00.000Z"
  },
  {
    "airportIcao": "RJNY",
    "metar": "RJNY 091219Z 11006KT 9999 FEW020 BKN050 10/04 Q1020 RMK 1CU020 5SC050 A3013",
    "updatedAt": "2022-03-09T12:19:00.000Z"
  },
  {
    "airportIcao": "RJOA",
    "metar": "RJOA 091200Z 36006KT CAVOK 09/00 Q1021",
    "updatedAt": "2022-03-09T12:00:00.000Z"
  },
  {
    "airportIcao": "RJOB",
    "metar": "RJOB 091200Z 01006KT CAVOK 07/01 Q1022",
    "updatedAt": "2022-03-09T12:00:00.000Z"
  },
  {
    "airportIcao": "RJOC",
    "metar": "RJOC 091100Z VRB02KT 9999 FEW025 08/05 Q1022",
    "updatedAt": "2022-03-09T11:00:00.000Z"
  },
  {
    "airportIcao": "RJOE",
    "metar": "RJOE 090529Z 34010G20KT 300V010 9999 FEW020 SCT100 BKN150 13/M03 Q1019 RMK 1CU020 4AC100 5AC150 A3009",
    "updatedAt": "2022-03-09T05:29:00.000Z"
  },
  {
    "airportIcao": "RJOF",
    "metar": "RJOF 090511Z 20007KT 9999 FEW030 BKN045 16/04 Q1020 RMK 1CU030 5CU045 A3012",
    "updatedAt": "2022-03-09T05:11:00.000Z"
  },
  {
    "airportIcao": "RJOH",
    "metar": "RJOH 091200Z 10004KT 9999 FEW030 08/04 Q1022",
    "updatedAt": "2022-03-09T12:00:00.000Z"
  },
  {
    "airportIcao": "RJOI",
    "metar": "RJOI 091156Z 31005KT 10SM CLR 09/02 A3019 RMK AO2 SLP224 T00940017 10133 20094 53019",
    "updatedAt": "2022-03-09T11:56:00.000Z"
  },
  {
    "airportIcao": "RJOK",
    "metar": "RJOK 091100Z 36005KT CAVOK 10/03 Q1021",
    "updatedAt": "2022-03-09T11:00:00.000Z"
  },
  {
    "airportIcao": "RJOM",
    "metar": "RJOM 091200Z 11008KT CAVOK 09/01 Q1022",
    "updatedAt": "2022-03-09T12:00:00.000Z"
  },
  {
    "airportIcao": "RJOO",
    "metar": "RJOO 091100Z 35005KT 310V020 9999 FEW030 10/M01 Q1022 RMK 1CU030 A3018",
    "updatedAt": "2022-03-09T11:00:00.000Z"
  },
  {
    "airportIcao": "RJOR",
    "metar": "RJOR 091200Z 16004KT 9999 FEW025 SCT040 06/04 Q1023",
    "updatedAt": "2022-03-09T12:00:00.000Z"
  },
  {
    "airportIcao": "RJOS",
    "metar": "RJOS 091200Z 01007KT 9999 FEW030 09/M00 Q1021",
    "updatedAt": "2022-03-09T12:00:00.000Z"
  },
  {
    "airportIcao": "RJOT",
    "metar": "RJOT 091200Z 15008KT 9999 FEW035 05/M01 Q1022",
    "updatedAt": "2022-03-09T12:00:00.000Z"
  },
  {
    "airportIcao": "RJOW",
    "metar": "RJOW 091000Z VRB02KT 8000 FEW025 10/05 Q1021",
    "updatedAt": "2022-03-09T10:00:00.000Z"
  },
  {
    "airportIcao": "RJOY",
    "metar": "RJOY 091000Z 04004KT 9999 FEW050 11/M01 Q1021",
    "updatedAt": "2022-03-09T10:00:00.000Z"
  },
  {
    "airportIcao": "RJOZ",
    "metar": "RJOZ 090457Z 25010KT 9999 FEW030 13/08 Q1019 RMK 2CU030 A3012",
    "updatedAt": "2022-03-09T04:57:00.000Z"
  },
  {
    "airportIcao": "RJSA",
    "metar": "RJSA 091200Z 20004KT 9999 FEW030 M02/M05 Q1021",
    "updatedAt": "2022-03-09T12:00:00.000Z"
  },
  {
    "airportIcao": "RJSC",
    "metar": "RJSC 091000Z 35005KT 310V020 9999 FEW050 BKN060 03/01 Q1021",
    "updatedAt": "2022-03-09T10:00:00.000Z"
  },
  {
    "airportIcao": "RJSF",
    "metar": "RJSF 091100Z 33005KT 9999 FEW030 SCT050 05/M04 Q1020",
    "updatedAt": "2022-03-09T11:00:00.000Z"
  },
  {
    "airportIcao": "RJSI",
    "metar": "RJSI 091000Z 14003KT 120V190 9999 FEW040 01/M00 Q1021",
    "updatedAt": "2022-03-09T10:00:00.000Z"
  },
  {
    "airportIcao": "RJSK",
    "metar": "RJSK 091212Z 14002KT 7000 SCT000 00/M00 Q1022 RMK 3ST000 A3019",
    "updatedAt": "2022-03-09T12:12:00.000Z"
  },
  {
    "airportIcao": "RJSM",
    "metar": "RJSM 091200Z 35003KT 9999 FEW030 00/M02 Q1022",
    "updatedAt": "2022-03-09T12:00:00.000Z"
  },
  {
    "airportIcao": "RJSN",
    "metar": "RJSN 091200Z 12003KT 9999 FEW035 SCT060 BKN080 07/01 Q1022",
    "updatedAt": "2022-03-09T12:00:00.000Z"
  },
  {
    "airportIcao": "RJSO",
    "metar": "RJSO 090453Z 28010KT 9999 FEW030 05/M03 Q1019 RMK 2CU030 A3012",
    "updatedAt": "2022-03-09T04:53:00.000Z"
  },
  {
    "airportIcao": "RJSR",
    "metar": "RJSR 091000Z 23004KT 9999 FEW020 01/M02 Q1022",
    "updatedAt": "2022-03-09T10:00:00.000Z"
  },
  {
    "airportIcao": "RJSS",
    "metar": "RJSS 091200Z 12003KT 9999 FEW030 BKN070 05/01 Q1022",
    "updatedAt": "2022-03-09T12:00:00.000Z"
  },
  {
    "airportIcao": "RJSU",
    "metar": "RJSU 090526Z 14007KT 9999 FEW030 BKN070 10/M01 Q1019 RMK 1CU030 5AC070 A3010",
    "updatedAt": "2022-03-09T05:26:00.000Z"
  },
  {
    "airportIcao": "RJSY",
    "metar": "RJSY 091200Z 08003KT 9999 -SHRA FEW005 BKN035 03/03 Q1022",
    "updatedAt": "2022-03-09T12:00:00.000Z"
  },
  {
    "airportIcao": "RJTC",
    "metar": "RJTC 090630Z 15004KT 080V230 9999 FEW030 BKN090 BKN230 13/M03 Q1018 RMK 1CU030 5AC090 6CI230 A3007",
    "updatedAt": "2022-03-09T06:30:00.000Z"
  },
  {
    "airportIcao": "RJTE",
    "metar": "RJTE 090536Z 05006KT 9999 FEW040 BKN/// 12/03 Q1018 RMK 2CU040 A3009",
    "updatedAt": "2022-03-09T05:36:00.000Z"
  },
  {
    "airportIcao": "RJTF",
    "metar": "RJTF 090700Z VRB03KT 9999 FEW030 SCT090 BKN160 13/M04 Q1018",
    "updatedAt": "2022-03-09T07:00:00.000Z"
  },
  {
    "airportIcao": "RJTI",
    "metar": "RJTI 090700Z 17006KT 9999 FEW040 SCT180 BKN/// 11/01 Q1018",
    "updatedAt": "2022-03-09T07:00:00.000Z"
  },
  {
    "airportIcao": "RJTO",
    "metar": "RJTO 090800Z 05008KT 9999 FEW030 BKN120 BKN/// 11/03 Q1018",
    "updatedAt": "2022-03-09T08:00:00.000Z"
  },
  {
    "airportIcao": "RJTT",
    "metar": "RJTT 091230Z 06012KT 9999 FEW030 09/03 Q1021 BECMG TL1400 36008KT",
    "updatedAt": "2022-03-09T12:30:00.000Z"
  },
  {
    "airportIcao": "RJTY",
    "metar": "RJTY 091156Z AUTO 06005KT 10SM CLR 07/M02 A3018 RMK AO2 SLP226 T00671022 10125 20067 52021 $",
    "updatedAt": "2022-03-09T11:56:00.000Z"
  },
  {
    "airportIcao": "RKJB",
    "metar": "RKJB 091200Z 08002KT 4500 BR NSC 05/02 Q1023 NOSIG",
    "updatedAt": "2022-03-09T12:00:00.000Z"
  },
  {
    "airportIcao": "RKJK",
    "metar": "RKJK 091156Z 30004KT 5SM HZ CLR 01/M01 A3016 RMK AO2A SLP218 T00141013 10111 20014 52003 $",
    "updatedAt": "2022-03-09T11:56:00.000Z"
  },
  {
    "airportIcao": "RKNY",
    "metar": "RKNY 091200Z AUTO 26004KT 7000 NCD 05/02 Q1021",
    "updatedAt": "2022-03-09T12:00:00.000Z"
  },
  {
    "airportIcao": "RKPC",
    "metar": "RKPC 091230Z 19003KT 4000 BR NSC 08/05 Q1023 NOSIG",
    "updatedAt": "2022-03-09T12:30:00.000Z"
  },
  {
    "airportIcao": "RKPK",
    "metar": "RKPK 091200Z 12004KT 9000 NSC 09/03 Q1023",
    "updatedAt": "2022-03-09T12:00:00.000Z"
  },
  {
    "airportIcao": "RKSG",
    "metar": "RKSG 091156Z AUTO 00000KT 6SM BR CLR 04/03 A3018 RMK AO2 SLP224 T00370031 10157 20036 53008 $",
    "updatedAt": "2022-03-09T11:56:00.000Z"
  },
  {
    "airportIcao": "RKSI",
    "metar": "RKSI 091230Z 28002KT 3000 BR NSC 02/02 Q1023 NOSIG",
    "updatedAt": "2022-03-09T12:30:00.000Z"
  },
  {
    "airportIcao": "RKSM",
    "metar": "RKSM 091200Z 04002KT 9999 FEW200 07/M02 A3020",
    "updatedAt": "2022-03-09T12:00:00.000Z"
  },
  {
    "airportIcao": "RKSO",
    "metar": "RKSO 091158Z 00000KT 3SM BR CLR 05/04 A3018 RMK AO2A SLP224 T00470042 10143 20045 53007 TSNO $",
    "updatedAt": "2022-03-09T11:58:00.000Z"
  },
  {
    "airportIcao": "RKSS",
    "metar": "RKSS 091200Z 35004KT 320V020 4000 BR NSC 04/02 Q1022 NOSIG",
    "updatedAt": "2022-03-09T12:00:00.000Z"
  },
  {
    "airportIcao": "RKTN",
    "metar": "RKTN 091200Z 16004KT CAVOK 10/03 Q1023",
    "updatedAt": "2022-03-09T12:00:00.000Z"
  },
  {
    "airportIcao": "RKTU",
    "metar": "RKTU 091200Z 08001KT CAVOK 06/M03 Q1022",
    "updatedAt": "2022-03-09T12:00:00.000Z"
  },
  {
    "airportIcao": "ROAH",
    "metar": "ROAH 091230Z 04007KT 9999 FEW035 18/08 Q1021",
    "updatedAt": "2022-03-09T12:30:00.000Z"
  },
  {
    "airportIcao": "RODE",
    "metar": "RODE 091159Z AUTO 03010KT 10SM SCT045 17/10 A3016 RMK AO2 SLP255 T01720100 10206 20167 53009 PWINO $",
    "updatedAt": "2022-03-09T11:59:00.000Z"
  },
  {
    "airportIcao": "RODN",
    "metar": "RODN 091156Z AUTO 04006KT 10SM CLR 12/09 A3014 RMK AO2 SLP214 T01190086 10209 20119 53012 $",
    "updatedAt": "2022-03-09T11:56:00.000Z"
  },
  {
    "airportIcao": "ROIG",
    "metar": "ROIG 091100Z 07013KT 9999 FEW043 BKN048 20/12 Q1018",
    "updatedAt": "2022-03-09T11:00:00.000Z"
  },
  {
    "airportIcao": "ROMD",
    "metar": "ROMD 091200Z AUTO 03008KT 350V060 9999 SCT043 SCT046 BKN050 18/09 Q1020",
    "updatedAt": "2022-03-09T12:00:00.000Z"
  },
  {
    "airportIcao": "ROMY",
    "metar": "ROMY 091100Z 07009KT 9999 SCT043 18/10 Q1019",
    "updatedAt": "2022-03-09T11:00:00.000Z"
  },
  {
    "airportIcao": "RORK",
    "metar": "RORK 091200Z AUTO 02011KT 9999 BKN043 OVC050 18/10 Q1020",
    "updatedAt": "2022-03-09T12:00:00.000Z"
  },
  {
    "airportIcao": "RORS",
    "metar": "RORS 091000Z 08011KT 9999 FEW043 19/10 Q1018",
    "updatedAt": "2022-03-09T10:00:00.000Z"
  },
  {
    "airportIcao": "RORY",
    "metar": "RORY 091200Z AUTO 02009KT 350V060 9999 FEW045 18/09 Q1021",
    "updatedAt": "2022-03-09T12:00:00.000Z"
  },
  {
    "airportIcao": "ROTM",
    "metar": "ROTM 091156Z 06006KT 9999 FEW040 16/09 A3017 RMK SLP203 T01560094 10200 20156 53010",
    "updatedAt": "2022-03-09T11:56:00.000Z"
  },
  {
    "airportIcao": "ROYN",
    "metar": "ROYN 091200Z AUTO 11007KT 9999 SCT039 SCT044 BKN050 20/13 Q1019",
    "updatedAt": "2022-03-09T12:00:00.000Z"
  },
  {
    "airportIcao": "RPLB",
    "metar": "RPLB 091200Z 07011KT 9999 FEW020 27/19 Q1010 NOSIG RMK A2983",
    "updatedAt": "2022-03-09T12:00:00.000Z"
  },
  {
    "airportIcao": "RPLI",
    "metar": "RPLI 091200Z 06006KT 9999 FEW018 26/18 Q1010 NOSIG RMK A2983",
    "updatedAt": "2022-03-09T12:00:00.000Z"
  },
  {
    "airportIcao": "RPLL",
    "metar": "RPLL 091200Z 13009KT 090V200 9999 FEW025 27/21 Q1010 NOSIG RMK A2983",
    "updatedAt": "2022-03-09T12:00:00.000Z"
  },
  {
    "airportIcao": "RPMD",
    "metar": "RPMD 091200Z VRB02KT 9999 VCSH FEW015CB BKN090 BKN260 26/26 Q1009 RMK A2980 VCSH N W/CB",
    "updatedAt": "2022-03-09T12:00:00.000Z"
  },
  {
    "airportIcao": "RPMZ",
    "metar": "RPMZ 091200Z 03003KT 9999 FEW017 BKN090 26/25 Q1008 RMK A2977",
    "updatedAt": "2022-03-09T12:00:00.000Z"
  },
  {
    "airportIcao": "RPVM",
    "metar": "RPVM 091200Z 01009KT 9999 FEW020 BKN100 27/24 Q1009 RMK A2980",
    "updatedAt": "2022-03-09T12:00:00.000Z"
  },
  {
    "airportIcao": "SAAC",
    "metar": "SAAC 091240Z 18009KT 8000 -TSRA FEW050CB BKN060 21/19 Q1013",
    "updatedAt": "2022-03-09T12:40:00.000Z"
  },
  {
    "airportIcao": "SAAP",
    "metar": "SAAP 091030Z 18002KT 9999 TS FEW040CB BKN100 18/17 Q1011",
    "updatedAt": "2022-03-09T10:30:00.000Z"
  },
  {
    "airportIcao": "SAAR",
    "metar": "SAAR 091242Z 12006KT 4000 RA SCT010 OVC031 18/17 Q1014 RETS",
    "updatedAt": "2022-03-09T12:42:00.000Z"
  },
  {
    "airportIcao": "SAAV",
    "metar": "SAAV 091212Z 18005KT 6000 TSRA BKN020 FEW045CB OVC050 20/19 Q1012",
    "updatedAt": "2022-03-09T12:12:00.000Z"
  },
  {
    "airportIcao": "SABE",
    "metar": "SABE 091200Z VRB02KT 6000 RA NSC 19/17 Q1016 TEMPO 5000 RA RMK PP999",
    "updatedAt": "2022-03-09T12:00:00.000Z"
  },
  {
    "airportIcao": "SACO",
    "metar": "SACO 091200Z VRB02KT 9999 FEW030 FEW050TCU 22/18 Q1011 NOSIG",
    "updatedAt": "2022-03-09T12:00:00.000Z"
  },
  {
    "airportIcao": "SADF",
    "metar": "SADF 091200Z 22004KT 190V270 9999 -RA NSC 18/17 Q1017 RMK PP002",
    "updatedAt": "2022-03-09T12:00:00.000Z"
  },
  {
    "airportIcao": "SAEZ",
    "metar": "SAEZ 091238Z 36005KT 3000 -RA SCT037 BKN070 17/16 Q1016 NOSIG RMK PP001",
    "updatedAt": "2022-03-09T12:38:00.000Z"
  },
  {
    "airportIcao": "SAME",
    "metar": "SAME 091200Z 18015G26KT CAVOK 21/07 Q1016",
    "updatedAt": "2022-03-09T12:00:00.000Z"
  },
  {
    "airportIcao": "SANE",
    "metar": "SANE 091220Z 00000KT 3000 BR OVC015 21/21 Q1010",
    "updatedAt": "2022-03-09T12:20:00.000Z"
  },
  {
    "airportIcao": "SANT",
    "metar": "SANT 091200Z VRB02KT 6000 SCT005 BKN009 20/20 Q1011 RMK PP000",
    "updatedAt": "2022-03-09T12:00:00.000Z"
  },
  {
    "airportIcao": "SAOC",
    "metar": "SAOC 091200Z 20008KT 9999 FEW020 SCT100 20/16 Q1013",
    "updatedAt": "2022-03-09T12:00:00.000Z"
  },
  {
    "airportIcao": "SARC",
    "metar": "SARC 091200Z 36008KT CAVOK 25/23 Q1011",
    "updatedAt": "2022-03-09T12:00:00.000Z"
  },
  {
    "airportIcao": "SARE",
    "metar": "SARE 091200Z 03006KT CAVOK 25/22 Q1011 RMK PP///",
    "updatedAt": "2022-03-09T12:00:00.000Z"
  },
  {
    "airportIcao": "SARF",
    "metar": "SARF 091200Z 05005KT CAVOK 27/22 Q1011",
    "updatedAt": "2022-03-09T12:00:00.000Z"
  },
  {
    "airportIcao": "SARI",
    "metar": "SARI 091200Z 05005KT 020V090 CAVOK 26/22 Q1013",
    "updatedAt": "2022-03-09T12:00:00.000Z"
  },
  {
    "airportIcao": "SARL",
    "metar": "SARL 091200Z 09009KT 9999 FEW020 BKN100 25/22 Q1012",
    "updatedAt": "2022-03-09T12:00:00.000Z"
  },
  {
    "airportIcao": "SARP",
    "metar": "SARP 091200Z 09003KT CAVOK 26/22 Q1012",
    "updatedAt": "2022-03-09T12:00:00.000Z"
  },
  {
    "airportIcao": "SASA",
    "metar": "SASA 091200Z VRB02KT 9999 SCT 002 BKN 020 20/18 Q1015 RMK PP000",
    "updatedAt": "2022-03-09T12:00:00.000Z"
  },
  {
    "airportIcao": "SASJ",
    "metar": "SASJ 091243Z 16004KT 2200 -DZ BCFG OVC004 21/20 Q1014",
    "updatedAt": "2022-03-09T12:43:00.000Z"
  },
  {
    "airportIcao": "SAVC",
    "metar": "SAVC 091214Z 27018G36KT CAVOK 13/M01 Q1007",
    "updatedAt": "2022-03-09T12:14:00.000Z"
  },
  {
    "airportIcao": "SAWE",
    "metar": "SAWE 091200Z 20012KT 9999 NSC 08/06 Q0997",
    "updatedAt": "2022-03-09T12:00:00.000Z"
  },
  {
    "airportIcao": "SAWG",
    "metar": "SAWG 091200Z 23025G36KT CAVOK 08/04 Q0999",
    "updatedAt": "2022-03-09T12:00:00.000Z"
  },
  {
    "airportIcao": "SAWH",
    "metar": "SAWH 091200Z 25015KT 9999 VCSH BKN040 BKN070 07/03 Q1000",
    "updatedAt": "2022-03-09T12:00:00.000Z"
  },
  {
    "airportIcao": "SAZM",
    "metar": "SAZM 091200Z 34015KT CAVOK 19/15 Q1014 RMK PP///",
    "updatedAt": "2022-03-09T12:00:00.000Z"
  },
  {
    "airportIcao": "SAZN",
    "metar": "SAZN 091200Z 23010KT CAVOK 13/01 Q1019",
    "updatedAt": "2022-03-09T12:00:00.000Z"
  },
  {
    "airportIcao": "SAZS",
    "metar": "SAZS 091200Z 29015KT 9999 FEW030 08/00 Q1019 RMK PP///",
    "updatedAt": "2022-03-09T12:00:00.000Z"
  },
  {
    "airportIcao": "SBAF",
    "metar": "SBAF 091200Z 13002KT 9999 FEW020 SCT070 30/20 Q1015",
    "updatedAt": "2022-03-09T12:00:00.000Z"
  },
  {
    "airportIcao": "SBAN",
    "metar": "SBAN 091200Z 06007KT CAVOK 24/15 Q1019",
    "updatedAt": "2022-03-09T12:00:00.000Z"
  },
  {
    "airportIcao": "SBAR",
    "metar": "SBAR 091200Z 12009KT 080V150 9000 4000W -SHRA SCT020 FEW023TCU 26/24 Q1012",
    "updatedAt": "2022-03-09T12:00:00.000Z"
  },
  {
    "airportIcao": "SBAU",
    "metar": "SBAU 090900Z 17010KT CAVOK 25/19 Q1013",
    "updatedAt": "2022-03-09T09:00:00.000Z"
  },
  {
    "airportIcao": "SBAX",
    "metar": "SBAX 091200Z 07007KT CAVOK 24/16 Q1020",
    "updatedAt": "2022-03-09T12:00:00.000Z"
  },
  {
    "airportIcao": "SBBE",
    "metar": "SBBE 091200Z 08007KT 9999 SCT015 SCT100 28/24 Q1011",
    "updatedAt": "2022-03-09T12:00:00.000Z"
  },
  {
    "airportIcao": "SBBG",
    "metar": "SBBG 091200Z 06009KT 9999 FEW020 OVC090 21/18 Q1015",
    "updatedAt": "2022-03-09T12:00:00.000Z"
  },
  {
    "airportIcao": "SBBH",
    "metar": "SBBH 091200Z 08007KT CAVOK 26/17 Q1019",
    "updatedAt": "2022-03-09T12:00:00.000Z"
  },
  {
    "airportIcao": "SBBI",
    "metar": "SBBI 091200Z 08008KT 9999 BKN013 BKN100 22/20 Q1019",
    "updatedAt": "2022-03-09T12:00:00.000Z"
  },
  {
    "airportIcao": "SBBQ",
    "metar": "SBBQ 091200Z 04007KT 9999 SCT015 22/17 Q1023",
    "updatedAt": "2022-03-09T12:00:00.000Z"
  },
  {
    "airportIcao": "SBBR",
    "metar": "SBBR 091200Z 06004KT CAVOK 23/16 Q1019",
    "updatedAt": "2022-03-09T12:00:00.000Z"
  },
  {
    "airportIcao": "SBBU",
    "metar": "SBBU 091200Z 12010KT CAVOK 27/22 Q1017",
    "updatedAt": "2022-03-09T12:00:00.000Z"
  },
  {
    "airportIcao": "SBBV",
    "metar": "SBBV 091200Z 09007KT 9999 SCT007 SCT025 FEW030TCU BKN100 23/22 Q1013",
    "updatedAt": "2022-03-09T12:00:00.000Z"
  },
  {
    "airportIcao": "SBBW",
    "metar": "SBBW 091200Z 09002KT CAVOK 29/23 Q1015",
    "updatedAt": "2022-03-09T12:00:00.000Z"
  },
  {
    "airportIcao": "SBCA",
    "metar": "SBCA 091200Z 06016KT CAVOK 24/19 Q1017",
    "updatedAt": "2022-03-09T12:00:00.000Z"
  },
  {
    "airportIcao": "SBCB",
    "metar": "SBCB 091200Z 06014KT CAVOK 29/23 Q1015",
    "updatedAt": "2022-03-09T12:00:00.000Z"
  },
  {
    "airportIcao": "SBCC",
    "metar": "SBCC 091200Z 08004KT 9999 OVC002 22/22 Q1014",
    "updatedAt": "2022-03-09T12:00:00.000Z"
  },
  {
    "airportIcao": "SBCF",
    "metar": "SBCF 091200Z 09006KT 9999 FEW020 25/17 Q1019",
    "updatedAt": "2022-03-09T12:00:00.000Z"
  },
  {
    "airportIcao": "SBCG",
    "metar": "SBCG 091200Z 24004KT 200V290 9999 FEW045 27/21 Q1015",
    "updatedAt": "2022-03-09T12:00:00.000Z"
  },
  {
    "airportIcao": "SBCH",
    "metar": "SBCH 091200Z 07006KT 9999 FEW005 BKN100 23/21 Q1016",
    "updatedAt": "2022-03-09T12:00:00.000Z"
  },
  {
    "airportIcao": "SBCJ",
    "metar": "SBCJ 091200Z 05003KT 5000 -RA BR SCT006 SCT012 OVC080 22/20 Q1017",
    "updatedAt": "2022-03-09T12:00:00.000Z"
  },
  {
    "airportIcao": "SBCO",
    "metar": "SBCO 091200Z 10013KT 9999 BKN011 SCT100 24/22 Q1014",
    "updatedAt": "2022-03-09T12:00:00.000Z"
  },
  {
    "airportIcao": "SBCP",
    "metar": "SBCP 091200Z 04008KT CAVOK 29/21 Q1015",
    "updatedAt": "2022-03-09T12:00:00.000Z"
  },
  {
    "airportIcao": "SBCR",
    "metar": "SBCR 091200Z VRB02KT 9999 FEW030 BKN100 26/24 Q1012",
    "updatedAt": "2022-03-09T12:00:00.000Z"
  },
  {
    "airportIcao": "SBCT",
    "metar": "SBCT 091200Z 09005KT 9999 SCT008 BKN012 22/21 Q1019",
    "updatedAt": "2022-03-09T12:00:00.000Z"
  },
  {
    "airportIcao": "SBCY",
    "metar": "SBCY 091200Z 33005KT 9999 FEW020 BKN100 25/23 Q1013",
    "updatedAt": "2022-03-09T12:00:00.000Z"
  },
  {
    "airportIcao": "SBDN",
    "metar": "SBDN 091200Z 09010KT CAVOK 28/22 Q1014",
    "updatedAt": "2022-03-09T12:00:00.000Z"
  },
  {
    "airportIcao": "SBEG",
    "metar": "SBEG 091200Z 32002KT 9999 1800SW R29///// R11///// -RA SCT002 BKN100 24/23 Q1012",
    "updatedAt": "2022-03-09T12:00:00.000Z"
  },
  {
    "airportIcao": "SBES",
    "metar": "SBES 091200Z 06011KT CAVOK 29/23 Q1015",
    "updatedAt": "2022-03-09T12:00:00.000Z"
  },
  {
    "airportIcao": "SBFI",
    "metar": "SBFI 091200Z 07007KT CAVOK 28/21 Q1013",
    "updatedAt": "2022-03-09T12:00:00.000Z"
  },
  {
    "airportIcao": "SBFL",
    "metar": "SBFL 091200Z 20005KT 9999 BKN020 BKN080 26/23 Q1014",
    "updatedAt": "2022-03-09T12:00:00.000Z"
  },
  {
    "airportIcao": "SBFN",
    "metar": "SBFN 091200Z AUTO 10009KT 080V140 9999 FEW013 SCT047 27/24 Q1012",
    "updatedAt": "2022-03-09T12:00:00.000Z"
  },
  {
    "airportIcao": "SBFS",
    "metar": "SBFS 091200Z 05004KT CAVOK 30/25 Q1015",
    "updatedAt": "2022-03-09T12:00:00.000Z"
  },
  {
    "airportIcao": "SBFZ",
    "metar": "SBFZ 091200Z 15007KT 9999 FEW015 BKN023 FEW030TCU 28/25 Q1011 RESHRA",
    "updatedAt": "2022-03-09T12:00:00.000Z"
  },
  {
    "airportIcao": "SBGL",
    "metar": "SBGL 091200Z 02005KT CAVOK 29/23 Q1014",
    "updatedAt": "2022-03-09T12:00:00.000Z"
  },
  {
    "airportIcao": "SBGM",
    "metar": "SBGM 091200Z VRB02KT 9000 NSC 25/24 Q1011",
    "updatedAt": "2022-03-09T12:00:00.000Z"
  },
  {
    "airportIcao": "SBGO",
    "metar": "SBGO 091200Z 27003KT CAVOK 23/18 Q1017",
    "updatedAt": "2022-03-09T12:00:00.000Z"
  },
  {
    "airportIcao": "SBGR",
    "metar": "SBGR 091200Z 10002KT 6000 FEW010 25/21 Q1019",
    "updatedAt": "2022-03-09T12:00:00.000Z"
  },
  {
    "airportIcao": "SBGW",
    "metar": "SBGW 091200Z 04005KT 350V100 CAVOK 27/20 Q1018",
    "updatedAt": "2022-03-09T12:00:00.000Z"
  },
  {
    "airportIcao": "SBHT",
    "metar": "SBHT 091200Z 00000KT 9999 -RA FEW010 OVC080 24/24 Q1012",
    "updatedAt": "2022-03-09T12:00:00.000Z"
  },
  {
    "airportIcao": "SBIH",
    "metar": "SBIH 091200Z 09004KT 9999 SCT006 BKN070 26/24 Q1012",
    "updatedAt": "2022-03-09T12:00:00.000Z"
  },
  {
    "airportIcao": "SBIL",
    "metar": "SBIL 091200Z 28004KT 9999 TS SCT026 FEW032CB BKN041 26/25 Q1014",
    "updatedAt": "2022-03-09T12:00:00.000Z"
  },
  {
    "airportIcao": "SBIP",
    "metar": "SBIP 091200Z AUTO VRB04KT 9999 SCT024 28/16 Q1017",
    "updatedAt": "2022-03-09T12:00:00.000Z"
  },
  {
    "airportIcao": "SBIZ",
    "metar": "SBIZ 091200Z 09003KT 9999 BKN015 27/25 Q1012",
    "updatedAt": "2022-03-09T12:00:00.000Z"
  },
  {
    "airportIcao": "SBJE",
    "metar": "SBJE 091200Z 06009KT 9999 VCSH SCT016 BKN090 27/25 Q1011",
    "updatedAt": "2022-03-09T12:00:00.000Z"
  },
  {
    "airportIcao": "SBJP",
    "metar": "SBJP 091200Z 11007KT 080V140 9999 SCT020 FEW025TCU 29/25 Q1012",
    "updatedAt": "2022-03-09T12:00:00.000Z"
  },
  {
    "airportIcao": "SBJR",
    "metar": "SBJR 091200Z 11002KT 9999 FEW040 30/22 Q1014",
    "updatedAt": "2022-03-09T12:00:00.000Z"
  },
  {
    "airportIcao": "SBJU",
    "metar": "SBJU 091200Z 11002KT 9999 SCT015 BKN017 26/24 Q1016",
    "updatedAt": "2022-03-09T12:00:00.000Z"
  },
  {
    "airportIcao": "SBJV",
    "metar": "SBJV 091200Z 36001KT 9999 SCT025 BKN060 26/24 Q1015",
    "updatedAt": "2022-03-09T12:00:00.000Z"
  },
  {
    "airportIcao": "SBKG",
    "metar": "SBKG 091200Z 11009KT 9999 BKN020 27/20 Q1014",
    "updatedAt": "2022-03-09T12:00:00.000Z"
  },
  {
    "airportIcao": "SBKP",
    "metar": "SBKP 091200Z 05006KT CAVOK 27/19 Q1017",
    "updatedAt": "2022-03-09T12:00:00.000Z"
  },
  {
    "airportIcao": "SBLB",
    "metar": "SBLB 091200Z AUTO 04008KT 9999 NCD 28/22 Q1016 W///S3",
    "updatedAt": "2022-03-09T12:00:00.000Z"
  },
  {
    "airportIcao": "SBLO",
    "metar": "SBLO 091200Z 11008KT CAVOK 28/23 Q1016",
    "updatedAt": "2022-03-09T12:00:00.000Z"
  },
  {
    "airportIcao": "SBLS",
    "metar": "SBLS 091200Z 12007KT 050V140 9999 FEW018 25/18 Q1020",
    "updatedAt": "2022-03-09T12:00:00.000Z"
  },
  {
    "airportIcao": "SBMA",
    "metar": "SBMA 091200Z 00000KT 9999 FEW008 SCT020 BKN080 24/24 Q1012 RETS",
    "updatedAt": "2022-03-09T12:00:00.000Z"
  },
  {
    "airportIcao": "SBME",
    "metar": "SBME 091200Z 10007KT CAVOK 29/24 Q1015",
    "updatedAt": "2022-03-09T12:00:00.000Z"
  },
  {
    "airportIcao": "SBMG",
    "metar": "SBMG 091200Z 10009KT CAVOK 25/21 Q1014",
    "updatedAt": "2022-03-09T12:00:00.000Z"
  },
  {
    "airportIcao": "SBMK",
    "metar": "SBMK 091200Z 12004KT 030V190 9999 FEW025 26/17 Q1018",
    "updatedAt": "2022-03-09T12:00:00.000Z"
  },
  {
    "airportIcao": "SBML",
    "metar": "SBML 090900Z 16010KT CAVOK 24/22 Q1016",
    "updatedAt": "2022-03-09T09:00:00.000Z"
  },
  {
    "airportIcao": "SBMN",
    "metar": "SBMN 091200Z 31002KT 8000 -RA SCT005 FEW025TCU BKN090 25/24 Q1012",
    "updatedAt": "2022-03-09T12:00:00.000Z"
  },
  {
    "airportIcao": "SBMO",
    "metar": "SBMO 091200Z 06008KT 9999 BKN022 28/22 Q1013",
    "updatedAt": "2022-03-09T12:00:00.000Z"
  },
  {
    "airportIcao": "SBMQ",
    "metar": "SBMQ 091200Z 02007KT 5000 -RA BKN004 BKN080 27/24 Q1011",
    "updatedAt": "2022-03-09T12:00:00.000Z"
  },
  {
    "airportIcao": "SBMS",
    "metar": "SBMS 091200Z 15006KT 9999 BKN025 31/23 Q1011",
    "updatedAt": "2022-03-09T12:00:00.000Z"
  },
  {
    "airportIcao": "SBMT",
    "metar": "SBMT 091200Z 12003KT 9999 SCT019 25/20 Q1018",
    "updatedAt": "2022-03-09T12:00:00.000Z"
  },
  {
    "airportIcao": "SBNF",
    "metar": "SBNF 091200Z 26006KT 9999 FEW016 SCT021 27/23 Q1014",
    "updatedAt": "2022-03-09T12:00:00.000Z"
  },
  {
    "airportIcao": "SBNM",
    "metar": "SBNM 091200Z AUTO 12006KT CAVOK 23/22 Q1014",
    "updatedAt": "2022-03-09T12:00:00.000Z"
  },
  {
    "airportIcao": "SBNT",
    "metar": "SBNT 091200Z 16007KT 9999 BKN020 29/25 Q1011",
    "updatedAt": "2022-03-09T12:00:00.000Z"
  },
  {
    "airportIcao": "SBPA",
    "metar": "SBPA 091237Z 10014KT 9999 BKN013 26/24 Q1014",
    "updatedAt": "2022-03-09T12:37:00.000Z"
  },
  {
    "airportIcao": "SBPB",
    "metar": "SBPB 091200Z 06005KT 9999 BKN012 26/25 Q////",
    "updatedAt": "2022-03-09T12:00:00.000Z"
  },
  {
    "airportIcao": "SBPG",
    "metar": "SBPG 091200Z 05005KT 9000 SCT018 BKN070 24/21 Q1018",
    "updatedAt": "2022-03-09T12:00:00.000Z"
  },
  {
    "airportIcao": "SBPJ",
    "metar": "SBPJ 091200Z 20005KT 9999 FEW025 SCT100 26/24 Q1013",
    "updatedAt": "2022-03-09T12:00:00.000Z"
  },
  {
    "airportIcao": "SBPK",
    "metar": "SBPK 091215Z 01002KT 9999 BKN030 25/22 Q1015",
    "updatedAt": "2022-03-09T12:15:00.000Z"
  },
  {
    "airportIcao": "SBPL",
    "metar": "SBPL 091200Z 16009KT 9999 OVC022 26/22 Q1014",
    "updatedAt": "2022-03-09T12:00:00.000Z"
  },
  {
    "airportIcao": "SBPP",
    "metar": "SBPP 091200Z 03006KT CAVOK 26/20 Q1099",
    "updatedAt": "2022-03-09T12:00:00.000Z"
  },
  {
    "airportIcao": "SBPR",
    "metar": "SBPR 091200Z 10012KT 9999 FEW025 24/18 Q1020",
    "updatedAt": "2022-03-09T12:00:00.000Z"
  },
  {
    "airportIcao": "SBPS",
    "metar": "SBPS 091200Z 17003KT 120V210 9999 SCT020 BKN100 27/23 Q1015",
    "updatedAt": "2022-03-09T12:00:00.000Z"
  },
  {
    "airportIcao": "SBPV",
    "metar": "SBPV 091200Z 34003KT 9999 BKN005 24/23 Q1010",
    "updatedAt": "2022-03-09T12:00:00.000Z"
  },
  {
    "airportIcao": "SBRB",
    "metar": "SBRB 091200Z 27003KT CAVOK 24/23 Q1011",
    "updatedAt": "2022-03-09T12:00:00.000Z"
  },
  {
    "airportIcao": "SBRF",
    "metar": "SBRF 091200Z VRB02KT 9999 VCSH BKN017 SCT050 28/25 Q1011 RERA",
    "updatedAt": "2022-03-09T12:00:00.000Z"
  },
  {
    "airportIcao": "SBRJ",
    "metar": "SBRJ 091200Z 34005KT 9999 FEW040 27/22 Q1014",
    "updatedAt": "2022-03-09T12:00:00.000Z"
  },
  {
    "airportIcao": "SBRP",
    "metar": "SBRP 091200Z 11008KT CAVOK 25/21 Q1016",
    "updatedAt": "2022-03-09T12:00:00.000Z"
  },
  {
    "airportIcao": "SBSC",
    "metar": "SBSC 091200Z 35010KT CAVOK 30/21 Q1014",
    "updatedAt": "2022-03-09T12:00:00.000Z"
  },
  {
    "airportIcao": "SBSG",
    "metar": "SBSG 091200Z 18006KT 140V220 9999 BKN023 FEW026TCU 29/25 Q1011",
    "updatedAt": "2022-03-09T12:00:00.000Z"
  },
  {
    "airportIcao": "SBSJ",
    "metar": "SBSJ 091200Z 12003KT 9999 SCT017 25/20 Q1018",
    "updatedAt": "2022-03-09T12:00:00.000Z"
  },
  {
    "airportIcao": "SBSL",
    "metar": "SBSL 091200Z 14004KT 9999 SCT015 SCT080 24/24 Q1011",
    "updatedAt": "2022-03-09T12:00:00.000Z"
  },
  {
    "airportIcao": "SBSM",
    "metar": "SBSM 091200Z 11007KT 9999 FEW006 BKN100 22/21 Q1013",
    "updatedAt": "2022-03-09T12:00:00.000Z"
  },
  {
    "airportIcao": "SBSN",
    "metar": "SBSN 091200Z 27001KT 9999 -TSRA SCT010 SCT015 FEW020CB OVC080 24/24 Q1012",
    "updatedAt": "2022-03-09T12:00:00.000Z"
  },
  {
    "airportIcao": "SBSP",
    "metar": "SBSP 091200Z 18004KT 8000 FEW013 23/19 Q1019",
    "updatedAt": "2022-03-09T12:00:00.000Z"
  },
  {
    "airportIcao": "SBSR",
    "metar": "SBSR 091200Z 16004KT 090V210 9999 VCSH FEW030 BKN060 BKN100 25/19 Q1016",
    "updatedAt": "2022-03-09T12:00:00.000Z"
  },
  {
    "airportIcao": "SBST",
    "metar": "SBST 091200Z 01003KT 9999 FEW014 29/23 Q1014",
    "updatedAt": "2022-03-09T12:00:00.000Z"
  },
  {
    "airportIcao": "SBSV",
    "metar": "SBSV 091200Z 10006KT 9999 SCT023 31/24 Q1013",
    "updatedAt": "2022-03-09T12:00:00.000Z"
  },
  {
    "airportIcao": "SBTA",
    "metar": "SBTA 091200Z 06008KT CAVOK 26/19 Q1017",
    "updatedAt": "2022-03-09T12:00:00.000Z"
  },
  {
    "airportIcao": "SBTE",
    "metar": "SBTE 091200Z 03004KT 9999 SCT013 BKN070 28/24 Q1011",
    "updatedAt": "2022-03-09T12:00:00.000Z"
  },
  {
    "airportIcao": "SBTF",
    "metar": "SBTF 091200Z 00000KT 9999 FEW008 OVC080 24/24 Q1011",
    "updatedAt": "2022-03-09T12:00:00.000Z"
  },
  {
    "airportIcao": "SBTT",
    "metar": "SBTT 091200Z 10005KT 9999 FEW007 BKN070 22/21 Q1011",
    "updatedAt": "2022-03-09T12:00:00.000Z"
  },
  {
    "airportIcao": "SBUA",
    "metar": "SBUA 091200Z 10005KT 070V150 9999 SCT009 24/23 Q1011",
    "updatedAt": "2022-03-09T12:00:00.000Z"
  },
  {
    "airportIcao": "SBUF",
    "metar": "SBUF 091200Z 13006KT 9999 SCT019 29/20 Q1013",
    "updatedAt": "2022-03-09T12:00:00.000Z"
  },
  {
    "airportIcao": "SBUL",
    "metar": "SBUL 091200Z 06011KT CAVOK 25/14 Q1019",
    "updatedAt": "2022-03-09T12:00:00.000Z"
  },
  {
    "airportIcao": "SBUR",
    "metar": "SBUR 091200Z 06005KT 9999 FEW030 SCT100 26/14 Q1019",
    "updatedAt": "2022-03-09T12:00:00.000Z"
  },
  {
    "airportIcao": "SBUY",
    "metar": "SBUY 091200Z 00000KT CAVOK 23/23 Q1010",
    "updatedAt": "2022-03-09T12:00:00.000Z"
  },
  {
    "airportIcao": "SBVH",
    "metar": "SBVH 091200Z 08008KT 9999 FEW004 23/20 Q1013",
    "updatedAt": "2022-03-09T12:00:00.000Z"
  },
  {
    "airportIcao": "SBVT",
    "metar": "SBVT 091200Z 30002KT 9999 SCT025 SCT070 26/21 Q1016",
    "updatedAt": "2022-03-09T12:00:00.000Z"
  },
  {
    "airportIcao": "SBYS",
    "metar": "SBYS 091200Z 06001KT 9999 FEW030 BKN090 23/20 Q1017",
    "updatedAt": "2022-03-09T12:00:00.000Z"
  },
  {
    "airportIcao": "SCAP",
    "metar": "SCAP 091100Z AUTO VRB05KT 9999 ////// 08/04 Q1020",
    "updatedAt": "2022-03-09T11:00:00.000Z"
  },
  {
    "airportIcao": "SCAR",
    "metar": "SCAR 091100Z 00000KT 9999 BKN100 20/16 Q1013",
    "updatedAt": "2022-03-09T11:00:00.000Z"
  },
  {
    "airportIcao": "SCAT",
    "metar": "SCAT 091134Z 02006KT 3000 BR OVC002 15/14 Q1015",
    "updatedAt": "2022-03-09T11:34:00.000Z"
  },
  {
    "airportIcao": "SCBA",
    "metar": "SCBA 091237Z AUTO 29022KT 9999 FEW036/// 07/02 Q1011",
    "updatedAt": "2022-03-09T12:37:00.000Z"
  },
  {
    "airportIcao": "SCCC",
    "metar": "SCCC 091200Z 30020KT 9999 FEW040 12/M03 Q1009",
    "updatedAt": "2022-03-09T12:00:00.000Z"
  },
  {
    "airportIcao": "SCCF",
    "metar": "SCCF 091100Z 07008KT CAVOK 10/06 Q1026",
    "updatedAt": "2022-03-09T11:00:00.000Z"
  },
  {
    "airportIcao": "SCCH",
    "metar": "SCCH 091100Z AUTO 21011KT //// R/////// FEW010 12/10 Q1018",
    "updatedAt": "2022-03-09T11:00:00.000Z"
  },
  {
    "airportIcao": "SCCI",
    "metar": "SCCI 091200Z 25010KT 9999 FEW040 SCT100 07/03 Q1000 NOSIG",
    "updatedAt": "2022-03-09T12:00:00.000Z"
  },
  {
    "airportIcao": "SCCY",
    "metar": "SCCY 091200Z VRB05KT 9999 SCT036 10/03 Q1014",
    "updatedAt": "2022-03-09T12:00:00.000Z"
  },
  {
    "airportIcao": "SCDA",
    "metar": "SCDA 091100Z 18008KT CAVOK 20/14 Q1013",
    "updatedAt": "2022-03-09T11:00:00.000Z"
  },
  {
    "airportIcao": "SCEL",
    "metar": "SCEL 091216Z 35003KT 7000 NSC 14/07 Q1017 NOSIG",
    "updatedAt": "2022-03-09T12:16:00.000Z"
  },
  {
    "airportIcao": "SCFA",
    "metar": "SCFA 091100Z 33001KT 9999 FEW009 17/15 Q1014 NOSIG",
    "updatedAt": "2022-03-09T11:00:00.000Z"
  },
  {
    "airportIcao": "SCFM",
    "metar": "SCFM 091200Z 21022KT 9999 SCT040 09/04 Q1000",
    "updatedAt": "2022-03-09T12:00:00.000Z"
  },
  {
    "airportIcao": "SCFT",
    "metar": "SCFT 091100Z AUTO VRB06KT 9999 OVC049/// 09/04 Q1017",
    "updatedAt": "2022-03-09T11:00:00.000Z"
  },
  {
    "airportIcao": "SCGE",
    "metar": "SCGE 091100Z 18010KT 9999 FEW027 SCT090 10/08 Q1022",
    "updatedAt": "2022-03-09T11:00:00.000Z"
  },
  {
    "airportIcao": "SCGZ",
    "metar": "SCGZ 091200Z 24009KT 210V290 9999 FEW026 SCT040 OVC060 07/05 Q1000 REDZ",
    "updatedAt": "2022-03-09T12:00:00.000Z"
  },
  {
    "airportIcao": "SCHR",
    "metar": "SCHR 091200Z 32010KT 9999 BKN040 07/03 Q1010",
    "updatedAt": "2022-03-09T12:00:00.000Z"
  },
  {
    "airportIcao": "SCIC",
    "metar": "SCIC 091100Z AUTO 19004KT 9999 SCT011 BKN014 12/09 Q1017",
    "updatedAt": "2022-03-09T11:00:00.000Z"
  },
  {
    "airportIcao": "SCIE",
    "metar": "SCIE 091100Z 13006KT 110V170 CAVOK 12/08 Q1020",
    "updatedAt": "2022-03-09T11:00:00.000Z"
  },
  {
    "airportIcao": "SCIP",
    "metar": "SCIP 091100Z 08010KT 9999 -SHRA BKN016 OVC021 22/20 Q1021 NOSIG",
    "updatedAt": "2022-03-09T11:00:00.000Z"
  },
  {
    "airportIcao": "SCJO",
    "metar": "SCJO 090200Z 00000KT 9999 SCT040 07/06 Q1019",
    "updatedAt": "2022-03-09T02:00:00.000Z"
  },
  {
    "airportIcao": "SCMK",
    "metar": "SCMK 091100Z AUTO 21009KT //// // OVC027/// 10/08 Q1020",
    "updatedAt": "2022-03-09T11:00:00.000Z"
  },
  {
    "airportIcao": "SCNT",
    "metar": "SCNT 091200Z 23012KT 9999 BKN040 10/00 Q1004",
    "updatedAt": "2022-03-09T12:00:00.000Z"
  },
  {
    "airportIcao": "SCON",
    "metar": "SCON 091100Z AUTO VRB01KT 9999 SCT069/// 09/08 Q1021",
    "updatedAt": "2022-03-09T11:00:00.000Z"
  },
  {
    "airportIcao": "SCPQ",
    "metar": "SCPQ 091200Z 36002KT 9999 SCT025 07/06 Q1022",
    "updatedAt": "2022-03-09T12:00:00.000Z"
  },
  {
    "airportIcao": "SCQP",
    "metar": "SCQP 091100Z 00000KT 0300 R01/0800 FG VV002 07/07 Q1023",
    "updatedAt": "2022-03-09T11:00:00.000Z"
  },
  {
    "airportIcao": "SCRG",
    "metar": "SCRG 091100Z 19004KT CAVOK 11/09 Q1018",
    "updatedAt": "2022-03-09T11:00:00.000Z"
  },
  {
    "airportIcao": "SCRM",
    "metar": "SCRM 091200Z 01021KT 0300 FG VV000 00/M00 Q1003 NOSIG",
    "updatedAt": "2022-03-09T12:00:00.000Z"
  },
  {
    "airportIcao": "SCSE",
    "metar": "SCSE 091100Z 24003KT 180V270 CAVOK 13/11 Q1014",
    "updatedAt": "2022-03-09T11:00:00.000Z"
  },
  {
    "airportIcao": "SCSN",
    "metar": "SCSN 091100Z AUTO 19003KT 120V220 CAVOK 09/08 Q1016",
    "updatedAt": "2022-03-09T11:00:00.000Z"
  },
  {
    "airportIcao": "SCTB",
    "metar": "SCTB 091100Z 00000KT CAVOK 11/07 Q1017",
    "updatedAt": "2022-03-09T11:00:00.000Z"
  },
  {
    "airportIcao": "SCTE",
    "metar": "SCTE 091100Z 35003KT 9999 BKN045 OVC060 07/07 Q1023 NOSIG",
    "updatedAt": "2022-03-09T11:00:00.000Z"
  },
  {
    "airportIcao": "SCTN",
    "metar": "SCTN 091100Z AUTO 01005KT //// R/////// NCD 10/10 Q1021",
    "updatedAt": "2022-03-09T11:00:00.000Z"
  },
  {
    "airportIcao": "SCVD",
    "metar": "SCVD 091100Z AUTO 06003KT 0600 R35/0750N -RA VV002 06/06 Q1024",
    "updatedAt": "2022-03-09T11:00:00.000Z"
  },
  {
    "airportIcao": "SCVM",
    "metar": "SCVM 091200Z VRB02KT CAVOK 15/08 Q1016",
    "updatedAt": "2022-03-09T12:00:00.000Z"
  },
  {
    "airportIcao": "SECA",
    "metar": "SECA 091200Z 31002KT 9999 SCT020 17/17 Q1019",
    "updatedAt": "2022-03-09T12:00:00.000Z"
  },
  {
    "airportIcao": "SECO",
    "metar": "SECO 091225Z 34003KT 5000 BCFG SCT005 BKN020 22/22 Q1012 RMK A2989",
    "updatedAt": "2022-03-09T12:25:00.000Z"
  },
  {
    "airportIcao": "SECU",
    "metar": "SECU 091200Z 36003KT 9999 SCT020 BKN040 10/08 Q1026",
    "updatedAt": "2022-03-09T12:00:00.000Z"
  },
  {
    "airportIcao": "SEGU",
    "metar": "SEGU 091200Z 25004KT 9999 FEW010 SCT200 26/24 Q1010 NOSIG RMK A2982",
    "updatedAt": "2022-03-09T12:00:00.000Z"
  },
  {
    "airportIcao": "SEJD",
    "metar": "SEJD 091200Z 25001KT 9999 SCT040 BKN100 20/20 Q1012 RMK A2990",
    "updatedAt": "2022-03-09T12:00:00.000Z"
  },
  {
    "airportIcao": "SELT",
    "metar": "SELT 091200Z 03001KT CAVOK 02/02 Q1031",
    "updatedAt": "2022-03-09T12:00:00.000Z"
  },
  {
    "airportIcao": "SEMT",
    "metar": "SEMT 091200Z 05002KT 9999 FEW023 SCT200 24/23 Q1011 RMK A2987",
    "updatedAt": "2022-03-09T12:00:00.000Z"
  },
  {
    "airportIcao": "SENL",
    "metar": "SENL 091200Z 29001KT CAVOK 22/22 Q1012 RMK A2989",
    "updatedAt": "2022-03-09T12:00:00.000Z"
  },
  {
    "airportIcao": "SEQM",
    "metar": "SEQM 091200Z 14003KT 9999 FEW005 SCT080 08/07 Q1026 NOSIG RMK A3032",
    "updatedAt": "2022-03-09T12:00:00.000Z"
  },
  {
    "airportIcao": "SERO",
    "metar": "SERO 091200Z 17003KT 9999 FEW0200 24/23 Q1011",
    "updatedAt": "2022-03-09T12:00:00.000Z"
  },
  {
    "airportIcao": "SESA",
    "metar": "SESA 091200Z 22015KT 9999 SCT010 26/24 Q1011 RMK A2986",
    "updatedAt": "2022-03-09T12:00:00.000Z"
  },
  {
    "airportIcao": "SESG",
    "metar": "SESG 091100Z 12004KT 9999 FEW035 OVC100 18/M02 Q1012",
    "updatedAt": "2022-03-09T11:00:00.000Z"
  },
  {
    "airportIcao": "SESM",
    "metar": "SESM 091200Z 34008KT 9999 SCT030 BKN100 18/17 Q1016 RMK A3000",
    "updatedAt": "2022-03-09T12:00:00.000Z"
  },
  {
    "airportIcao": "SFAL",
    "metar": "SFAL 091150Z 07031KT 2000 +RA OVC006 10/08 Q0989 TEMPO 5000 -RA OVC007",
    "updatedAt": "2022-03-09T11:50:00.000Z"
  },
  {
    "airportIcao": "SGAS",
    "metar": "SGAS 091230Z 03006KT CAVOK 29/22 Q1010",
    "updatedAt": "2022-03-09T12:30:00.000Z"
  },
  {
    "airportIcao": "SGEN",
    "metar": "SGEN 091230Z 07008KT CAVOK 26/19 Q1011",
    "updatedAt": "2022-03-09T12:30:00.000Z"
  },
  {
    "airportIcao": "SGES",
    "metar": "SGES 091230Z 05007KT CAVOK 29/23 Q1013",
    "updatedAt": "2022-03-09T12:30:00.000Z"
  },
  {
    "airportIcao": "SKAR",
    "metar": "SKAR 091200Z 00000KT 9999 SCT025 16/15 Q1018 RMK A3007",
    "updatedAt": "2022-03-09T12:00:00.000Z"
  },
  {
    "airportIcao": "SKBG",
    "metar": "SKBG 091200Z VRB02KT 9999 SCT010 BKN040 19/19 Q1016 RMK A3000",
    "updatedAt": "2022-03-09T12:00:00.000Z"
  },
  {
    "airportIcao": "SKBO",
    "metar": "SKBO 091200Z 03003KT 2000 BR FEW017 06/06 Q1026 BECMG FM1300 9999 NSW A3031",
    "updatedAt": "2022-03-09T12:00:00.000Z"
  },
  {
    "airportIcao": "SKBQ",
    "metar": "SKBQ 091200Z 16003KT 5000 BR BKN005 24/23 Q1010 BECMG 7000 VCFG SCT008 RMK A2985",
    "updatedAt": "2022-03-09T12:00:00.000Z"
  },
  {
    "airportIcao": "SKCC",
    "metar": "SKCC 091200Z VRB02KT 4000 BCFG SCT007 BKN070 23/23 Q1015 RMK A2999",
    "updatedAt": "2022-03-09T12:00:00.000Z"
  },
  {
    "airportIcao": "SKCG",
    "metar": "SKCG 091200Z 10003KT 9999 FEW015 24/23 Q1010 RMK A2983",
    "updatedAt": "2022-03-09T12:00:00.000Z"
  },
  {
    "airportIcao": "SKCL",
    "metar": "SKCL 091200Z VRB04KT 9999 FEW023 BKN040 21/19 Q1016 NOSIG",
    "updatedAt": "2022-03-09T12:00:00.000Z"
  },
  {
    "airportIcao": "SKEJ",
    "metar": "SKEJ 091200Z 17003KT 9999 SCT025 25/23 Q1010 RMK A2985",
    "updatedAt": "2022-03-09T12:00:00.000Z"
  },
  {
    "airportIcao": "SKIB",
    "metar": "SKIB 091200Z 28009KT 9999 BKN030 20/15 Q1019 RMK A3009",
    "updatedAt": "2022-03-09T12:00:00.000Z"
  },
  {
    "airportIcao": "SKIP",
    "metar": "SKIP 091200Z 00000KT 0100 FG VV002 06/06 Q1028 RMK A3038",
    "updatedAt": "2022-03-09T12:00:00.000Z"
  },
  {
    "airportIcao": "SKLC",
    "metar": "SKLC 091200Z 00000KT 9999 SCT015 24/23 Q1011 RMK A2986",
    "updatedAt": "2022-03-09T12:00:00.000Z"
  },
  {
    "airportIcao": "SKLT",
    "metar": "SKLT 091200Z VRB02KT 9999 SCT007 OVC080 22/22 Q1010 RMK A2984",
    "updatedAt": "2022-03-09T12:00:00.000Z"
  },
  {
    "airportIcao": "SKMD",
    "metar": "SKMD 091200Z 19003KT 9999 FEW020 BKN080 17/16 Q1020 RMK A3015",
    "updatedAt": "2022-03-09T12:00:00.000Z"
  },
  {
    "airportIcao": "SKMR",
    "metar": "SKMR 091200Z 18003KT 9999 FEW015 23/23 Q1011 RMK A2985",
    "updatedAt": "2022-03-09T12:00:00.000Z"
  },
  {
    "airportIcao": "SKMZ",
    "metar": "SKMZ 091200Z 09006KT 9000 SCT015 11/07 Q1026 RMK A3030",
    "updatedAt": "2022-03-09T12:00:00.000Z"
  },
  {
    "airportIcao": "SKNV",
    "metar": "SKNV 091200Z 00000KT 9999 FEW040TCU SCT100 23/21 Q1013 RMK TCU/SE/S A2992",
    "updatedAt": "2022-03-09T12:00:00.000Z"
  },
  {
    "airportIcao": "SKPC",
    "metar": "SKPC 091200Z 03006KT 9999 NSC 26/22 Q1010 RMK A2983",
    "updatedAt": "2022-03-09T12:00:00.000Z"
  },
  {
    "airportIcao": "SKPE",
    "metar": "SKPE 091200Z 11010KT 9999 FEW015 17/13 Q1017 RMK A3005",
    "updatedAt": "2022-03-09T12:00:00.000Z"
  },
  {
    "airportIcao": "SKPS",
    "metar": "SKPS 091200Z 18004KT 9999 FEW025 14/12 Q1020 RMK A3014",
    "updatedAt": "2022-03-09T12:00:00.000Z"
  },
  {
    "airportIcao": "SKPV",
    "metar": "SKPV 091200Z 04006KT 9999 SCT016 26/23 Q1013 REDZ RMK A2993",
    "updatedAt": "2022-03-09T12:00:00.000Z"
  },
  {
    "airportIcao": "SKRG",
    "metar": "SKRG 091200Z 35003KT 0900 R01/1500U FG VV003 12/12 Q1025 BECMG FM1330 2000 BR BKN004 RMK A3028",
    "updatedAt": "2022-03-09T12:00:00.000Z"
  },
  {
    "airportIcao": "SKRH",
    "metar": "SKRH 091200Z 09005KT 050V110 9999 FEW012 25/21 Q1013 NOSIG RMK A2991",
    "updatedAt": "2022-03-09T12:00:00.000Z"
  },
  {
    "airportIcao": "SKSM",
    "metar": "SKSM 091200Z VRB02KT 9999 NSC 24/20 Q1011 RMK A2988",
    "updatedAt": "2022-03-09T12:00:00.000Z"
  },
  {
    "airportIcao": "SKSP",
    "metar": "SKSP 091200Z 09008KT 050V130 9999 FEW017 26/23 Q1012 RMK A2990",
    "updatedAt": "2022-03-09T12:00:00.000Z"
  },
  {
    "airportIcao": "SKUC",
    "metar": "SKUC 091200Z 00000KT 9999 FEW030 25/19 Q1012 RMK A2991",
    "updatedAt": "2022-03-09T12:00:00.000Z"
  },
  {
    "airportIcao": "SKUI",
    "metar": "SKUI 091200Z 19005KT 3000 -RA BKN007 OVC070 23/23 Q1011 RMK A2986",
    "updatedAt": "2022-03-09T12:00:00.000Z"
  },
  {
    "airportIcao": "SKVP",
    "metar": "SKVP 091200Z 06009KT 9999 FEW020 25/18 Q1013 RMK A2993",
    "updatedAt": "2022-03-09T12:00:00.000Z"
  },
  {
    "airportIcao": "SKVV",
    "metar": "SKVV 091200Z 28005KT 9999 BKN023 SCT090 24/21 Q1013 RMK A2991",
    "updatedAt": "2022-03-09T12:00:00.000Z"
  },
  {
    "airportIcao": "SLAL",
    "metar": "SLAL 091200Z 00000KT 5000 VCFG FEW008 12/09 Q1029",
    "updatedAt": "2022-03-09T12:00:00.000Z"
  },
  {
    "airportIcao": "SLCA",
    "metar": "SLCA 091200Z 00000KT 9999 NSC 23/21 Q1015",
    "updatedAt": "2022-03-09T12:00:00.000Z"
  },
  {
    "airportIcao": "SLCB",
    "metar": "SLCB 091200Z 00000KT 9999 FEW030 BKN200 17/11 Q1024",
    "updatedAt": "2022-03-09T12:00:00.000Z"
  },
  {
    "airportIcao": "SLCO",
    "metar": "SLCO 091214Z 00000KT 9999 BKN003 OVC080 24/23 Q1011",
    "updatedAt": "2022-03-09T12:14:00.000Z"
  },
  {
    "airportIcao": "SLCP",
    "metar": "SLCP 091200Z 36003KT 9999 NSC 23/22 Q1014",
    "updatedAt": "2022-03-09T12:00:00.000Z"
  },
  {
    "airportIcao": "SLET",
    "metar": "SLET 091237Z 31007KT 9999 NSC 26/22 Q1011",
    "updatedAt": "2022-03-09T12:37:00.000Z"
  },
  {
    "airportIcao": "SLJE",
    "metar": "SLJE 091200Z 00000KT 9999 FEW013 SCT070 24/22 Q1015",
    "updatedAt": "2022-03-09T12:00:00.000Z"
  },
  {
    "airportIcao": "SLJO",
    "metar": "SLJO 091200Z 00000KT 9999 FEW012 BKN080 24/23 Q1010",
    "updatedAt": "2022-03-09T12:00:00.000Z"
  },
  {
    "airportIcao": "SLLP",
    "metar": "SLLP 091200Z 13005KT 4000E VCFG FEW002 SCT012 FEW017CB BKN070 07/06 Q1036",
    "updatedAt": "2022-03-09T12:00:00.000Z"
  },
  {
    "airportIcao": "SLMG",
    "metar": "SLMG 091200Z 00000KT 9999 FEW017 BKN080 23/22 Q1009",
    "updatedAt": "2022-03-09T12:00:00.000Z"
  },
  {
    "airportIcao": "SLPO",
    "metar": "SLPO 091200Z 00000KT 9999 FEW010 SCT200 07/04 Q1036",
    "updatedAt": "2022-03-09T12:00:00.000Z"
  },
  {
    "airportIcao": "SLPS",
    "metar": "SLPS 091200Z 00000KT 9999 BKN070 27/23 Q1013",
    "updatedAt": "2022-03-09T12:00:00.000Z"
  },
  {
    "airportIcao": "SLRB",
    "metar": "SLRB 091200Z 00000KT 9999 BKN017 24/22 Q1015",
    "updatedAt": "2022-03-09T12:00:00.000Z"
  },
  {
    "airportIcao": "SLRI",
    "metar": "SLRI 091200Z 00000KT 9999 SCT010 BKN080 24/23 Q1011",
    "updatedAt": "2022-03-09T12:00:00.000Z"
  },
  {
    "airportIcao": "SLRQ",
    "metar": "SLRQ 091200Z 00000KT 9999 BKN005 24/23 Q1010",
    "updatedAt": "2022-03-09T12:00:00.000Z"
  },
  {
    "airportIcao": "SLRY",
    "metar": "SLRY 091200Z 00000KT 9999 OVC006 23/23 Q1010",
    "updatedAt": "2022-03-09T12:00:00.000Z"
  },
  {
    "airportIcao": "SLSA",
    "metar": "SLSA 091200Z 36004KT 8000 VCSH SCT010 SCT080 BKN200 24/24 Q1009",
    "updatedAt": "2022-03-09T12:00:00.000Z"
  },
  {
    "airportIcao": "SLSV",
    "metar": "SLSV 091200Z 00000KT 9999 BKN070 23/22 Q1010",
    "updatedAt": "2022-03-09T12:00:00.000Z"
  },
  {
    "airportIcao": "SLTJ",
    "metar": "SLTJ 091200Z 33003KT 9999 NSC 18/14 Q1019",
    "updatedAt": "2022-03-09T12:00:00.000Z"
  },
  {
    "airportIcao": "SLTR",
    "metar": "SLTR 091200Z 32003KT 9999 SCT005 BKN070 BKN200 23/22 Q1010",
    "updatedAt": "2022-03-09T12:00:00.000Z"
  },
  {
    "airportIcao": "SLVM",
    "metar": "SLVM 091200Z 00000KT 9999 FEW070 24/22 Q1010",
    "updatedAt": "2022-03-09T12:00:00.000Z"
  },
  {
    "airportIcao": "SLVR",
    "metar": "SLVR 091240Z 32003KT 7000 BKN003 24/23 Q1012",
    "updatedAt": "2022-03-09T12:40:00.000Z"
  },
  {
    "airportIcao": "SLYA",
    "metar": "SLYA 091200Z 00000KT 9999 FEW020 24/24 Q1011",
    "updatedAt": "2022-03-09T12:00:00.000Z"
  },
  {
    "airportIcao": "SMJP",
    "metar": "SMJP 091200Z 00000KT 9999 -RA FEW006 BKN020 24/24 Q1012 NOSIG",
    "updatedAt": "2022-03-09T12:00:00.000Z"
  },
  {
    "airportIcao": "SMZO",
    "metar": "SMZO 091200Z 00000KT 9999 VCSH BKN010 BKN025 26/25 Q1011 NOSIG",
    "updatedAt": "2022-03-09T12:00:00.000Z"
  },
  {
    "airportIcao": "SOCA",
    "metar": "SOCA 091230Z AUTO 05004KT 010V090 2800 +RA BR FEW022/// SCT029/// BKN038/// ///CB 24/23 Q1011 TEMPO 3000 SHRA SCT008 BKN010CB",
    "updatedAt": "2022-03-09T12:30:00.000Z"
  },
  {
    "airportIcao": "SPCL",
    "metar": "SPCL 090300Z 36002KT 9999 BKN015 BKN070 24/24 Q1010 RMK PP000",
    "updatedAt": "2022-03-09T03:00:00.000Z"
  },
  {
    "airportIcao": "SPHI",
    "metar": "SPHI 091200Z 16004KT CAVOK 21/18 Q1012 RMK BIRD HAZARD RWY 19/01 TN21.3 PP000",
    "updatedAt": "2022-03-09T12:00:00.000Z"
  },
  {
    "airportIcao": "SPHO",
    "metar": "SPHO 091200Z 16003KT 9999 FEW008 BKN060 12/11 Q1026 RMK TN11.3 PP000",
    "updatedAt": "2022-03-09T12:00:00.000Z"
  },
  {
    "airportIcao": "SPHY",
    "metar": "SPHY 091200Z 35003KT 8000 PRFG SCT012 BKN060 07/05 Q1033 RMK TX14.3/TN5.1 BIRD HAZARD RWY03/21 PP000",
    "updatedAt": "2022-03-09T12:00:00.000Z"
  },
  {
    "airportIcao": "SPJC",
    "metar": "SPJC 091200Z 16006KT 5000 BR OVC003 20/19 Q1012 NOSIG RMK TN20.2 PP000",
    "updatedAt": "2022-03-09T12:00:00.000Z"
  },
  {
    "airportIcao": "SPJL",
    "metar": "SPJL 091200Z 23002KT 9999 BKN015 BKN070 07/05 Q1034 RMK TN5.9/RAB00E42 PP017",
    "updatedAt": "2022-03-09T12:00:00.000Z"
  },
  {
    "airportIcao": "SPJR",
    "metar": "SPJR 091230Z VRB02KT 9999 SCT026 BKN050 10/07 Q1027",
    "updatedAt": "2022-03-09T12:30:00.000Z"
  },
  {
    "airportIcao": "SPLO",
    "metar": "SPLO 091200Z 15011KT 9999 OVC040 22/16 Q1013 RMK TN19.8 PP000",
    "updatedAt": "2022-03-09T12:00:00.000Z"
  },
  {
    "airportIcao": "SPME",
    "metar": "SPME 090200Z 25006KT 9999 SCT020 27/23 Q1011 RMK BIRD HAZARD RWY 32/14 PP000",
    "updatedAt": "2022-03-09T02:00:00.000Z"
  },
  {
    "airportIcao": "SPQT",
    "metar": "SPQT 091200Z VRB01KT 9999 FEW007 SCT040 BKN080 23/22 Q1011 NOSIG RMK TN21.4 PP000",
    "updatedAt": "2022-03-09T12:00:00.000Z"
  },
  {
    "airportIcao": "SPQU",
    "metar": "SPQU 091231Z VRB02KT 7000 OVC005 11/10 Q1027",
    "updatedAt": "2022-03-09T12:31:00.000Z"
  },
  {
    "airportIcao": "SPRU",
    "metar": "SPRU 091200Z VRB02KT 6000 BKN120 20/19 Q1012 RMK BCFG OVER SEA FU QUAD N PP000",
    "updatedAt": "2022-03-09T12:00:00.000Z"
  },
  {
    "airportIcao": "SPSO",
    "metar": "SPSO 091200Z 22004KT 8000 NSC 21/19 Q1012 RMK BIRD HAZARD RWY 22/04 TN21.5 PP000",
    "updatedAt": "2022-03-09T12:00:00.000Z"
  },
  {
    "airportIcao": "SPST",
    "metar": "SPST 091200Z VRB02KT 8000 VCSH SCT012 SCT015 OVC080 23/23 Q1010 RMK RA NOCHE BIRD HAZARD RWY 17/35 TN23.2 PP003",
    "updatedAt": "2022-03-09T12:00:00.000Z"
  },
  {
    "airportIcao": "SPTN",
    "metar": "SPTN 091200Z 22003KT 9999 OVC050 20/14 Q1015 RMK TN19.7 PP000",
    "updatedAt": "2022-03-09T12:00:00.000Z"
  },
  {
    "airportIcao": "SPTU",
    "metar": "SPTU 091200Z 31002KT 5000 RA BKN010 OVC100 21/20 Q1009 RMK TX32.0/TN20.8 BIRD HAZARD RWY 01/19 RA NOCHE PP450",
    "updatedAt": "2022-03-09T12:00:00.000Z"
  },
  {
    "airportIcao": "SPZO",
    "metar": "SPZO 091230Z 00000KT 9999 BKN040 OVC080 11/07 Q1030 NOSIG RMK BIRD HAZARD RWY 28",
    "updatedAt": "2022-03-09T12:30:00.000Z"
  },
  {
    "airportIcao": "SUAA",
    "metar": "SUAA 091200Z VRB03KT 9999 FEW020 BKN070 19/15 Q1016",
    "updatedAt": "2022-03-09T12:00:00.000Z"
  },
  {
    "airportIcao": "SUCA",
    "metar": "SUCA 091200Z 25008KT 9999 -RA FEW020 OVC070 18/14 Q1016",
    "updatedAt": "2022-03-09T12:00:00.000Z"
  },
  {
    "airportIcao": "SUDU",
    "metar": "SUDU 091200Z 10007KT 9999 FEW020 BKN070 BKN200 19/17 Q1016",
    "updatedAt": "2022-03-09T12:00:00.000Z"
  },
  {
    "airportIcao": "SULS",
    "metar": "SULS 091200Z 28005KT 260V320 9999 FEW026 BKN200 21/16 Q1017",
    "updatedAt": "2022-03-09T12:00:00.000Z"
  },
  {
    "airportIcao": "SUMU",
    "metar": "SUMU 091200Z 36004KT CAVOK 20/14 Q1016 NOSIG",
    "updatedAt": "2022-03-09T12:00:00.000Z"
  },
  {
    "airportIcao": "SUSO",
    "metar": "SUSO 091215Z 18012KT 9000 -RA SCT013 FEW033TCU BKN083 20/19 Q1013",
    "updatedAt": "2022-03-09T12:15:00.000Z"
  },
  {
    "airportIcao": "SVBI",
    "metar": "SVBI 091203Z AUTO 00004KT NCD 25/18 Q1015",
    "updatedAt": "2022-03-09T12:03:00.000Z"
  },
  {
    "airportIcao": "SVBM",
    "metar": "SVBM 091200Z 00000KT 9999 SCT020 23/19 Q1015",
    "updatedAt": "2022-03-09T12:00:00.000Z"
  },
  {
    "airportIcao": "SVBS",
    "metar": "SVBS 091203Z AUTO 04002KT NCD 19/// Q1015",
    "updatedAt": "2022-03-09T12:03:00.000Z"
  },
  {
    "airportIcao": "SVGD",
    "metar": "SVGD 091203Z AUTO 00004KT NCD 25/18 Q1012",
    "updatedAt": "2022-03-09T12:03:00.000Z"
  },
  {
    "airportIcao": "SVGU",
    "metar": "SVGU 091203Z AUTO 07005KT NCD 24/19 Q1012",
    "updatedAt": "2022-03-09T12:03:00.000Z"
  },
  {
    "airportIcao": "SVJM",
    "metar": "SVJM 091203Z AUTO 07002KT NCD 19/15 Q1012",
    "updatedAt": "2022-03-09T12:03:00.000Z"
  },
  {
    "airportIcao": "SVMG",
    "metar": "SVMG 091203Z AUTO 07004KT NCD 25/25 Q1012",
    "updatedAt": "2022-03-09T12:03:00.000Z"
  },
  {
    "airportIcao": "SVMI",
    "metar": "SVMI 091200Z 11004KT 9999 FEW016 25/20 Q1013",
    "updatedAt": "2022-03-09T12:00:00.000Z"
  },
  {
    "airportIcao": "SVVA",
    "metar": "SVVA 091203Z AUTO 35004KT NCD ///// Q1013",
    "updatedAt": "2022-03-09T12:03:00.000Z"
  },
  {
    "airportIcao": "SYCJ",
    "metar": "SYCJ 091200Z 14006KT 110V180 7000 -RA SCT015 BKN034 24/23 Q1012 NOSIG",
    "updatedAt": "2022-03-09T12:00:00.000Z"
  },
  {
    "airportIcao": "SYEC",
    "metar": "SYEC 091200Z 06006KT 9999 VCSH SCT017 SCT034 BKN090 Q1012 NOSIG RMK VCSH S-SW",
    "updatedAt": "2022-03-09T12:00:00.000Z"
  },
  {
    "airportIcao": "SYLT",
    "metar": "SYLT 091200Z 25008KT 9999 SCT020 OVC100 24/23 Q//// NOSIG",
    "updatedAt": "2022-03-09T12:00:00.000Z"
  },
  {
    "airportIcao": "SYMB",
    "metar": "SYMB 091200Z 00000KT 7000 VCSH BKN014 SCT032 OVC080 24/24 Q//// NOSIG RMK VCSH ALQDS",
    "updatedAt": "2022-03-09T12:00:00.000Z"
  },
  {
    "airportIcao": "TAPA",
    "metar": "TAPA 091200Z 07011KT 030V120 9999 SCT018 26/20 Q1016 NOSIG",
    "updatedAt": "2022-03-09T12:00:00.000Z"
  },
  {
    "airportIcao": "TBPB",
    "metar": "TBPB 091200Z 08019KT 9999 -SHRA FEW018 26/22 Q1014 NOSIG",
    "updatedAt": "2022-03-09T12:00:00.000Z"
  },
  {
    "airportIcao": "TDCF",
    "metar": "TDCF 091200Z 08004KT 9999 -SHRA BKN015 24/22 Q1014",
    "updatedAt": "2022-03-09T12:00:00.000Z"
  },
  {
    "airportIcao": "TDPD",
    "metar": "TDPD 091200Z 12012G22KT 9999 BKN012 SCT036 24/23 Q1016",
    "updatedAt": "2022-03-09T12:00:00.000Z"
  },
  {
    "airportIcao": "TFFF",
    "metar": "TFFF 091230Z AUTO 09014KT 9999 SCT025 SCT035 BKN043 27/22 Q1015",
    "updatedAt": "2022-03-09T12:30:00.000Z"
  },
  {
    "airportIcao": "TFFR",
    "metar": "TFFR 091230Z AUTO 08014KT 040V120 9999 BKN025 BKN034 BKN042 26/21 Q1016",
    "updatedAt": "2022-03-09T12:30:00.000Z"
  },
  {
    "airportIcao": "TGPY",
    "metar": "TGPY 091200Z 07010KT 9999 -SHRA BKN017 BKN034 25/23 Q1013 NOSIG RMK VCSH-ALQUADS",
    "updatedAt": "2022-03-09T12:00:00.000Z"
  },
  {
    "airportIcao": "TIST",
    "metar": "TIST 091153Z 08010KT 10SM CLR 25/21 A3002",
    "updatedAt": "2022-03-09T11:53:00.000Z"
  },
  {
    "airportIcao": "TISX",
    "metar": "TISX 091153Z 06015G23KT 8SM RA SCT026 BKN040 25/21 A3003",
    "updatedAt": "2022-03-09T11:53:00.000Z"
  },
  {
    "airportIcao": "TJBQ",
    "metar": "TJBQ 091150Z 11006KT 10SM CLR 23/21 A3005",
    "updatedAt": "2022-03-09T11:50:00.000Z"
  },
  {
    "airportIcao": "TJIG",
    "metar": "TJIG 091145Z 12007KT 10SM SCT020 SCT030 BKN070 24/22 A3003",
    "updatedAt": "2022-03-09T11:45:00.000Z"
  },
  {
    "airportIcao": "TJNR",
    "metar": "TJNR 091153Z AUTO 07009KT 10SM CLR A3005 RMK AO2 SLP177 60006 70008 53017 $",
    "updatedAt": "2022-03-09T11:53:00.000Z"
  },
  {
    "airportIcao": "TJSJ",
    "metar": "TJSJ 091156Z 13003KT 10SM -RA FEW024 SCT046 SCT075 24/22 A3004",
    "updatedAt": "2022-03-09T11:56:00.000Z"
  },
  {
    "airportIcao": "TKPK",
    "metar": "TKPK 091200Z 07015KT 9999 SCT016 25/22 Q1016",
    "updatedAt": "2022-03-09T12:00:00.000Z"
  },
  {
    "airportIcao": "TKPN",
    "metar": "TKPN 091200Z 07013KT 9999 VCSH BKN018 25/24 Q1016 RESH",
    "updatedAt": "2022-03-09T12:00:00.000Z"
  },
  {
    "airportIcao": "TLPC",
    "metar": "TLPC 091200Z 07008KT 9999 VCSH FEW018TCU SCT020 26/23 Q1015 TEMPO SHRA",
    "updatedAt": "2022-03-09T12:00:00.000Z"
  },
  {
    "airportIcao": "TLPL",
    "metar": "TLPL 091200Z 06017KT 9999 SCT025 26/22 Q1014 NOSIG",
    "updatedAt": "2022-03-09T12:00:00.000Z"
  },
  {
    "airportIcao": "TNCA",
    "metar": "TNCA 091200Z 08011KT 9999 VCSH FEW014 25/21 Q1014 NOSIG",
    "updatedAt": "2022-03-09T12:00:00.000Z"
  },
  {
    "airportIcao": "TNCB",
    "metar": "TNCB 091155Z 07011KT 040V100 9999 FEW022 26/21 Q1013",
    "updatedAt": "2022-03-09T11:55:00.000Z"
  },
  {
    "airportIcao": "TNCC",
    "metar": "TNCC 091200Z 08012KT 9999 VCSH FEW018 26/21 Q1013 NOSIG",
    "updatedAt": "2022-03-09T12:00:00.000Z"
  },
  {
    "airportIcao": "TNCE",
    "metar": "TNCE 091155Z AUTO 07015KT 040V100 //// // ///////// 26/21 Q1016 RE//",
    "updatedAt": "2022-03-09T11:55:00.000Z"
  },
  {
    "airportIcao": "TNCM",
    "metar": "TNCM 091200Z 06014KT 9999 FEW017 26/22 Q1017 NOSIG",
    "updatedAt": "2022-03-09T12:00:00.000Z"
  },
  {
    "airportIcao": "TQPF",
    "metar": "TQPF 091200Z 08011KT 9999 FEW020 25/21 Q1017",
    "updatedAt": "2022-03-09T12:00:00.000Z"
  },
  {
    "airportIcao": "TRPG",
    "metar": "TRPG 091200Z 08012KT 9999 VCSH BKN016 24/22 Q1017 RMK VCSH-NE SE-W",
    "updatedAt": "2022-03-09T12:00:00.000Z"
  },
  {
    "airportIcao": "TTCP",
    "metar": "TTCP 091200Z 04004KT 9999 VCSH FEW016 SCT036 25/22 Q1013 NOSIG RMK VCSH S",
    "updatedAt": "2022-03-09T12:00:00.000Z"
  },
  {
    "airportIcao": "TTPP",
    "metar": "TTPP 091200Z 00000KT 9999 VCSH FEW016 SCT038 25/22 Q1013 NOSIG RMK VCSH NW/ N/ NE/ SSE",
    "updatedAt": "2022-03-09T12:00:00.000Z"
  },
  {
    "airportIcao": "TUPJ",
    "metar": "TUPJ 091200Z 08011KT 10SM SCT019 26/22 A3004 RMK Q1017 VIS 16KM",
    "updatedAt": "2022-03-09T12:00:00.000Z"
  },
  {
    "airportIcao": "TVSA",
    "metar": "TVSA 091200Z 07011KT 040V100 9999 BKN016 26/22 Q1013 NOSIG",
    "updatedAt": "2022-03-09T12:00:00.000Z"
  },
  {
    "airportIcao": "TXKF",
    "metar": "TXKF 091155Z 21009KT 9999 FEW018 21/18 Q1023",
    "updatedAt": "2022-03-09T11:55:00.000Z"
  },
  {
    "airportIcao": "UAAA",
    "metar": "UAAA 091230Z 24003MPS 5000 FU SCT033CB OVC100 07/02 Q1011 NOSIG",
    "updatedAt": "2022-03-09T12:30:00.000Z"
  },
  {
    "airportIcao": "UAAH",
    "metar": "UAAH 091130Z 06008MPS CAVOK 03/M04 Q1015 NOSIG RMK QFE724/0965",
    "updatedAt": "2022-03-09T11:30:00.000Z"
  },
  {
    "airportIcao": "UAAT",
    "metar": "UAAT 091230Z 04003MPS 9999 SCT100 BKN200 04/M01 Q1011 NOSIG RMK QFE707/0943",
    "updatedAt": "2022-03-09T12:30:00.000Z"
  },
  {
    "airportIcao": "UACC",
    "metar": "UACC 091230Z 06007MPS CAVOK M08/M11 Q1020 NOSIG RMK QFE733/0978",
    "updatedAt": "2022-03-09T12:30:00.000Z"
  },
  {
    "airportIcao": "UACK",
    "metar": "UACK 091200Z 07005MPS CAVOK M11/M14 Q1024 NOSIG RMK QFE744/0992",
    "updatedAt": "2022-03-09T12:00:00.000Z"
  },
  {
    "airportIcao": "UACP",
    "metar": "UACP 091130Z 10003MPS CAVOK M12/M17 Q1028 NOSIG RMK QFE758/1011",
    "updatedAt": "2022-03-09T11:30:00.000Z"
  },
  {
    "airportIcao": "UADD",
    "metar": "UADD 091230Z 35003MPS 9999 -SHRA BKN050CB OVC100 09/07 Q1010 NOSIG RMK QFE701/0935",
    "updatedAt": "2022-03-09T12:30:00.000Z"
  },
  {
    "airportIcao": "UAII",
    "metar": "UAII 091230Z VRB01MPS 2700 -SHRA BR SCT004 OVC033CB 09/09 Q1012 NOSIG RMK QBB140 QFE722/0963",
    "updatedAt": "2022-03-09T12:30:00.000Z"
  },
  {
    "airportIcao": "UAIT",
    "metar": "UAIT 091230Z 29005MPS 9999 BKN026CB 09/06 Q1012 NOSIG RMK QFE732/0977",
    "updatedAt": "2022-03-09T12:30:00.000Z"
  },
  {
    "airportIcao": "UAKD",
    "metar": "UAKD 091230Z 06005MPS 9000 -SN FEW016 OVC031 M02/M03 Q1015 NOSIG RMK QFE727/0970",
    "updatedAt": "2022-03-09T12:30:00.000Z"
  },
  {
    "airportIcao": "UAKK",
    "metar": "UAKK 091230Z 07005MPS CAVOK M04/M08 Q1017 NOSIG RMK QFE715/0954",
    "updatedAt": "2022-03-09T12:30:00.000Z"
  },
  {
    "airportIcao": "UAOO",
    "metar": "UAOO 091230Z 30005MPS CAVOK 09/M03 Q1014 NOSIG RMK QFE749/0999",
    "updatedAt": "2022-03-09T12:30:00.000Z"
  },
  {
    "airportIcao": "UARR",
    "metar": "UARR 091230Z 10007MPS 2400 SHSN BLSN BKN010 OVC033CB M01/M02 Q1015 NOSIG RMK QFE758/1011",
    "updatedAt": "2022-03-09T12:30:00.000Z"
  },
  {
    "airportIcao": "UASK",
    "metar": "UASK 091230Z 00000MPS 9999 NSC M10/M13 Q1022 NOSIG RMK QFE741/0988",
    "updatedAt": "2022-03-09T12:30:00.000Z"
  },
  {
    "airportIcao": "UASP",
    "metar": "UASP 091230Z 06006MPS CAVOK M08/M11 Q1027 NOSIG RMK QFE759/1013",
    "updatedAt": "2022-03-09T12:30:00.000Z"
  },
  {
    "airportIcao": "UASS",
    "metar": "UASS 091230Z 04006MPS CAVOK M04/M09 Q1023 NOSIG RMK QFE746/0995",
    "updatedAt": "2022-03-09T12:30:00.000Z"
  },
  {
    "airportIcao": "UATE",
    "metar": "UATE 091230Z 20005MPS 150V220 CAVOK 11/02 Q1009 NOSIG RMK QFE754/1006",
    "updatedAt": "2022-03-09T12:30:00.000Z"
  },
  {
    "airportIcao": "UATG",
    "metar": "UATG 091230Z 12003MPS CAVOK 09/00 Q1012 NOSIG RMK QFE761/1014",
    "updatedAt": "2022-03-09T12:30:00.000Z"
  },
  {
    "airportIcao": "UATT",
    "metar": "UATT 091230Z 09005MPS 9999 OVC030 M07/M11 Q1018 NOSIG RMK QFE744/0992",
    "updatedAt": "2022-03-09T12:30:00.000Z"
  },
  {
    "airportIcao": "UAUU",
    "metar": "UAUU 091230Z 08003MPS CAVOK M10/M15 Q1024 NOSIG RMK QFE752/1003",
    "updatedAt": "2022-03-09T12:30:00.000Z"
  },
  {
    "airportIcao": "UBBB",
    "metar": "UBBB 091230Z 08006KT 9999 SCT019 09/04 Q1008 NOSIG",
    "updatedAt": "2022-03-09T12:30:00.000Z"
  },
  {
    "airportIcao": "UBBF",
    "metar": "UBBF 091230Z 08008KT 9999 OVC023 08/03 Q1006 NOSIG RMK MT OBSC",
    "updatedAt": "2022-03-09T12:30:00.000Z"
  },
  {
    "airportIcao": "UBBG",
    "metar": "UBBG 091230Z 10018KT 9999 OVC066 09/02 Q1005 NOSIG",
    "updatedAt": "2022-03-09T12:30:00.000Z"
  },
  {
    "airportIcao": "UBBL",
    "metar": "UBBL 091200Z 10009KT 9999 OVC011 11/08 Q1009 NOSIG RMK MT PT OBSC",
    "updatedAt": "2022-03-09T12:00:00.000Z"
  },
  {
    "airportIcao": "UBBN",
    "metar": "UBBN 091230Z 12012G24KT 9999 SCT040 OVC083 13/M00 Q1001 NOSIG RMK MT OP QFE677",
    "updatedAt": "2022-03-09T12:30:00.000Z"
  },
  {
    "airportIcao": "UBBQ",
    "metar": "UBBQ 091200Z 17010KT 9999 BKN150 09/M00 Q1007 NOSIG RMK MT OP",
    "updatedAt": "2022-03-09T12:00:00.000Z"
  },
  {
    "airportIcao": "UBBY",
    "metar": "UBBY 091200Z 16008KT 9999 BKN033 OVC080 08/01 Q1009 NOSIG RMK MT PT OBSC",
    "updatedAt": "2022-03-09T12:00:00.000Z"
  },
  {
    "airportIcao": "UBEE",
    "metar": "UBEE 091200Z 16013KT 9999 SCT036 OVC100 12/01 Q1007 NOSIG",
    "updatedAt": "2022-03-09T12:00:00.000Z"
  },
  {
    "airportIcao": "UCFL",
    "metar": "UCFL 091200Z 10004MPS 9999 SCT026CB BKN093 06/02 Q1012 R07/CLRD95",
    "updatedAt": "2022-03-09T12:00:00.000Z"
  },
  {
    "airportIcao": "UCFM",
    "metar": "UCFM 091230Z 11002MPS 9999 SCT066CB 09/04 Q1010 R08/0///95 NOSIG",
    "updatedAt": "2022-03-09T12:30:00.000Z"
  },
  {
    "airportIcao": "UCFO",
    "metar": "UCFO 091230Z 27010MPS 6000 FEW050CB 10/07 Q1010 R12/0///95 TEMPO 27012G17MPS",
    "updatedAt": "2022-03-09T12:30:00.000Z"
  },
  {
    "airportIcao": "UDSG",
    "metar": "UDSG 091230Z 36003KT 8000 OVC020 03/01 Q1001 RMK R02/29//55 NOSIG",
    "updatedAt": "2022-03-09T12:30:00.000Z"
  },
  {
    "airportIcao": "UDYZ",
    "metar": "UDYZ 091230Z 15011KT 9999 -RA BKN040 10/02 Q1001 R09/000070 NOSIG",
    "updatedAt": "2022-03-09T12:30:00.000Z"
  },
  {
    "airportIcao": "UEEE",
    "metar": "UEEE 091230Z 33002MPS CAVOK M23/M25 Q1017 R23L/450150 NOSIG RMK QFE754",
    "updatedAt": "2022-03-09T12:30:00.000Z"
  },
  {
    "airportIcao": "UERP",
    "metar": "UERP 091200Z 10005MPS CAVOK M17/M21 Q1011 R17/390236 NOSIG RMK QFE714",
    "updatedAt": "2022-03-09T12:00:00.000Z"
  },
  {
    "airportIcao": "UERR",
    "metar": "UERR 091230Z 10004MPS 9999 OVC032 M11/M21 Q1009 R07/810345 NOSIG RMK QFE727/0969",
    "updatedAt": "2022-03-09T12:30:00.000Z"
  },
  {
    "airportIcao": "UGAM",
    "metar": "UGAM 091230Z 29009KT 3000 RA BR OVC025 03/02 Q1005",
    "updatedAt": "2022-03-09T12:30:00.000Z"
  },
  {
    "airportIcao": "UGKO",
    "metar": "UGKO 091230Z 25012KT 9999 -SHRA BKN024CB OVC050 06/05 Q1007 NOSIG",
    "updatedAt": "2022-03-09T12:30:00.000Z"
  },
  {
    "airportIcao": "UGMS",
    "metar": "UGMS 091230Z 00000KT 4000 OVC030 01/01 Q1003",
    "updatedAt": "2022-03-09T12:30:00.000Z"
  },
  {
    "airportIcao": "UGSB",
    "metar": "UGSB 091230Z 27012KT 7000 -RA FEW009 BKN019 06/05 Q1010 NOSIG",
    "updatedAt": "2022-03-09T12:30:00.000Z"
  },
  {
    "airportIcao": "UGTB",
    "metar": "UGTB 091230Z 05010KT 9999 -RA FEW024 SCT028 OVC032 05/02 Q1006 NOSIG",
    "updatedAt": "2022-03-09T12:30:00.000Z"
  },
  {
    "airportIcao": "UHBB",
    "metar": "UHBB 091200Z 17006MPS 9999 SCT033 02/M05 Q1005 R18/090060 NOSIG RMK QFE739/0985",
    "updatedAt": "2022-03-09T12:00:00.000Z"
  },
  {
    "airportIcao": "UHHH",
    "metar": "UHHH 091230Z 21002MPS CAVOK M03/M08 Q1016 R88/090060 NOSIG RMK QFE756/1008",
    "updatedAt": "2022-03-09T12:30:00.000Z"
  },
  {
    "airportIcao": "UHMA",
    "metar": "UHMA 091200Z 06003G10MPS CAVOK M03/M12 Q1031 R01/////// NOSIG RMK TDZ R01/06003G10MPS END R01/25002G05MPS QFE769/1026",
    "updatedAt": "2022-03-09T12:00:00.000Z"
  },
  {
    "airportIcao": "UHMD",
    "metar": "UHMD 090500Z 05005MPS CAVOK M07/M12 Q1028 RMK QFE771/1028",
    "updatedAt": "2022-03-09T05:00:00.000Z"
  },
  {
    "airportIcao": "UHMM",
    "metar": "UHMM 091200Z 00000MPS 1200 1100S R10/1400D SHSN VV005 M01/M02 Q1013 RMK QFE745 R28/11002MPS",
    "updatedAt": "2022-03-09T12:00:00.000Z"
  },
  {
    "airportIcao": "UHPP",
    "metar": "UHPP 091200Z 17004MPS 8000 -SHSN FEW011 OVC024CB 01/01 Q1003 R34L/290155 NOSIG RMK QFE749/0999",
    "updatedAt": "2022-03-09T12:00:00.000Z"
  },
  {
    "airportIcao": "UHSS",
    "metar": "UHSS 091200Z 00000MPS 9999 NSC M08/M10 Q1018 R01/810365 NOSIG RMK QFE762/1016",
    "updatedAt": "2022-03-09T12:00:00.000Z"
  },
  {
    "airportIcao": "UHWW",
    "metar": "UHWW 091230Z 12004MPS 9999 NSC M00/M04 Q1021 R25L/0///70 NOSIG RMK QFE764",
    "updatedAt": "2022-03-09T12:30:00.000Z"
  },
  {
    "airportIcao": "UIAA",
    "metar": "UIAA 091230Z 29010MPS 9999 NSC 00/M14 Q1005 R29/70D NOSIG RMK QFE696/0928",
    "updatedAt": "2022-03-09T12:30:00.000Z"
  },
  {
    "airportIcao": "UIBB",
    "metar": "UIBB 091230Z 28004MPS 9999 NSC M11/M16 Q1018 R30/821045 NOSIG RMK QFE720/0961",
    "updatedAt": "2022-03-09T12:30:00.000Z"
  },
  {
    "airportIcao": "UIII",
    "metar": "UIII 091230Z 07002MPS CAVOK M03/M12 Q1018 R30/60D NOSIG RMK QFE718/0958",
    "updatedAt": "2022-03-09T12:30:00.000Z"
  },
  {
    "airportIcao": "UIUU",
    "metar": "UIUU 091230Z 33003MPS 9999 NSC M02/M10 Q1016 R26/820550 NOSIG RMK QFE718/0958",
    "updatedAt": "2022-03-09T12:30:00.000Z"
  },
  {
    "airportIcao": "UKLL",
    "metar": "UKLL 091230Z 30002MPS 240V010 CAVOK 01/M09 Q1020 NOSIG",
    "updatedAt": "2022-03-09T12:30:00.000Z"
  },
  {
    "airportIcao": "ULAA",
    "metar": "ULAA 091230Z 30005MPS 9999 BKN014 M06/M09 Q1027 R26/490345 NOSIG RMK QFE769/1025",
    "updatedAt": "2022-03-09T12:30:00.000Z"
  },
  {
    "airportIcao": "ULLI",
    "metar": "ULLI 091230Z 11002MPS CAVOK M04/M18 Q1034 R88/190055 NOSIG",
    "updatedAt": "2022-03-09T12:30:00.000Z"
  },
  {
    "airportIcao": "ULMM",
    "metar": "ULMM 091230Z 00000MPS CAVOK M04/M08 Q1024 R31/390050 NOSIG RMK QFE760",
    "updatedAt": "2022-03-09T12:30:00.000Z"
  },
  {
    "airportIcao": "ULOO",
    "metar": "ULOO 091230Z 12003MPS CAVOK M03/M20 Q1031 R19/090060 NOSIG RMK QFE769",
    "updatedAt": "2022-03-09T12:30:00.000Z"
  },
  {
    "airportIcao": "ULPB",
    "metar": "ULPB 091230Z 23004MPS CAVOK M04/M15 Q1032 R19/09//60 NOSIG RMK QFE770/1027",
    "updatedAt": "2022-03-09T12:30:00.000Z"
  },
  {
    "airportIcao": "ULWC",
    "metar": "ULWC 091230Z 02003MPS CAVOK M08/M19 Q1031 R03/410160 NOSIG RMK QFE763/1018",
    "updatedAt": "2022-03-09T12:30:00.000Z"
  },
  {
    "airportIcao": "UMBB",
    "metar": "UMBB 091200Z 00000MPS 8000 OVC026CB 00/M04 Q1023 NOSIG",
    "updatedAt": "2022-03-09T12:00:00.000Z"
  },
  {
    "airportIcao": "UMGG",
    "metar": "UMGG 091230Z 02005G08MPS 9999 BKN058CB BKN100 M01/M09 Q1022 NOSIG",
    "updatedAt": "2022-03-09T12:30:00.000Z"
  },
  {
    "airportIcao": "UMII",
    "metar": "UMII 091200Z 06006G09MPS 9999 FEW033 M04/M13 Q1024 NOSIG",
    "updatedAt": "2022-03-09T12:00:00.000Z"
  },
  {
    "airportIcao": "UMIO",
    "metar": "UMIO 091230Z 07005MPS 9999 BKN038 M03/M11 Q1024 NOSIG RMK QFE750/1000",
    "updatedAt": "2022-03-09T12:30:00.000Z"
  },
  {
    "airportIcao": "UMKK",
    "metar": "UMKK 091230Z 03006MPS 9999 BKN014 04/02 Q1026 R06/95D NOSIG RMK QFE768/1024",
    "updatedAt": "2022-03-09T12:30:00.000Z"
  },
  {
    "airportIcao": "UMMG",
    "metar": "UMMG 091200Z 11002MPS 9999 BKN020 M00/M04 Q1025 NOSIG",
    "updatedAt": "2022-03-09T12:00:00.000Z"
  },
  {
    "airportIcao": "UMMS",
    "metar": "UMMS 091230Z 04005G09MPS 340V150 9999 SCT043 M01/M12 Q1023 NOSIG",
    "updatedAt": "2022-03-09T12:30:00.000Z"
  },
  {
    "airportIcao": "UMOO",
    "metar": "UMOO 091200Z 02006G09MPS 9999 BKN033 M01/M11 Q1025 NOSIG",
    "updatedAt": "2022-03-09T12:00:00.000Z"
  },
  {
    "airportIcao": "UNAA",
    "metar": "UNAA 091230Z 25004MPS CAVOK M06/M17 Q1026 R20/CLRD65 NOSIG RMK QFE746",
    "updatedAt": "2022-03-09T12:30:00.000Z"
  },
  {
    "airportIcao": "UNBB",
    "metar": "UNBB 091230Z VRB01MPS CAVOK M10/M18 Q1027 R24/810260 NOSIG RMK QFE748",
    "updatedAt": "2022-03-09T12:30:00.000Z"
  },
  {
    "airportIcao": "UNEE",
    "metar": "UNEE 091230Z 24003MPS CAVOK M13/M19 Q1027 R23/410160 NOSIG RMK QFE747",
    "updatedAt": "2022-03-09T12:30:00.000Z"
  },
  {
    "airportIcao": "UNKL",
    "metar": "UNKL 091230Z 26007MPS 9999 SCT034CB M11/M17 Q1023 R29/CLRD60 NOSIG RMK QFE741",
    "updatedAt": "2022-03-09T12:30:00.000Z"
  },
  {
    "airportIcao": "UNNT",
    "metar": "UNNT 091230Z 23003MPS CAVOK M13/M19 Q1029 R25/810260 R16/////// NOSIG RMK QFE762/1016",
    "updatedAt": "2022-03-09T12:30:00.000Z"
  },
  {
    "airportIcao": "UNOO",
    "metar": "UNOO 091230Z 01003MPS CAVOK M12/M21 Q1029 R25/CLRD60 NOSIG RMK QFE764",
    "updatedAt": "2022-03-09T12:30:00.000Z"
  },
  {
    "airportIcao": "UNTT",
    "metar": "UNTT 091230Z 26003MPS CAVOK M12/M20 Q1026 R21/////// NOSIG RMK QFE755",
    "updatedAt": "2022-03-09T12:30:00.000Z"
  },
  {
    "airportIcao": "UNWW",
    "metar": "UNWW 091230Z 22003MPS CAVOK M10/M19 Q1027 R19/920242 NOSIG RMK QFE743",
    "updatedAt": "2022-03-09T12:30:00.000Z"
  },
  {
    "airportIcao": "UOOO",
    "metar": "UOOO 091200Z 19005MPS CAVOK M35/M39 Q1014 R19/32//44 NOSIG RMK QFE744/0992",
    "updatedAt": "2022-03-09T12:00:00.000Z"
  },
  {
    "airportIcao": "URFF",
    "metar": "URFF 091230Z 05005MPS 9999 FEW042 03/M07 Q1012 R01/090095 NOSIG",
    "updatedAt": "2022-03-09T12:30:00.000Z"
  },
  {
    "airportIcao": "URKA",
    "metar": "URKA 091230Z 01005MPS 9999 SCT034 04/M04 Q1012 R04/010070 NOSIG RMK QFE755/1006",
    "updatedAt": "2022-03-09T12:30:00.000Z"
  },
  {
    "airportIcao": "URKK",
    "metar": "URKK 091230Z 06002MPS CAVOK 02/M02 Q1012 R23L/CLRD70 NOSIG RMK QFE755",
    "updatedAt": "2022-03-09T12:30:00.000Z"
  },
  {
    "airportIcao": "URMG",
    "metar": "URMG 091230Z 36002MPS 340V040 6000 -RA BKN/// OVC015 01/01 Q1010 R26/190060 NOSIG RMK QFE743/0990",
    "updatedAt": "2022-03-09T12:30:00.000Z"
  },
  {
    "airportIcao": "URML",
    "metar": "URML 091230Z 03002MPS 9999 BKN015 05/02 Q1009 R32/01//70 NOSIG RMK QFE756/1009",
    "updatedAt": "2022-03-09T12:30:00.000Z"
  },
  {
    "airportIcao": "URMM",
    "metar": "URMM 091230Z 09006MPS 9999 -SN SCT014 OVC025 00/M04 Q1009 R12/090070 TEMPO 1000 SHSN BKN002 BKN020CB RMK MT OBSC QFE729/0972",
    "updatedAt": "2022-03-09T12:30:00.000Z"
  },
  {
    "airportIcao": "URMN",
    "metar": "URMN 091230Z 06003MPS 9999 -SHSN OVC025CB 01/M05 Q1008 R24/010070 NOSIG RMK QFE719",
    "updatedAt": "2022-03-09T12:30:00.000Z"
  },
  {
    "airportIcao": "URMO",
    "metar": "URMO 091230Z 04004MPS 4100 -SG BR OVC006 M01/M02 Q1008 R09/290150 NOSIG RMK QFE712/0950",
    "updatedAt": "2022-03-09T12:30:00.000Z"
  },
  {
    "airportIcao": "URMT",
    "metar": "URMT 091230Z 04002MPS 340V070 8000 -SN BKN030 01/M06 Q1009 R07/190060 NOSIG RMK QFE717",
    "updatedAt": "2022-03-09T12:30:00.000Z"
  },
  {
    "airportIcao": "URRP",
    "metar": "URRP 091230Z 09002MPS 030V170 9999 FEW/// SCT028CB 02/M05 Q1011 R05/CLRD70 NOSIG RMK QFE754/1005",
    "updatedAt": "2022-03-09T12:30:00.000Z"
  },
  {
    "airportIcao": "URSS",
    "metar": "URSS 091230Z 36002MPS 9999 -SHRA FEW015 OVC040CB 05/02 Q1008 R02/210260 R06/210260 NOSIG RMK R06/35002MPS MT OBSC QFE755",
    "updatedAt": "2022-03-09T12:30:00.000Z"
  },
  {
    "airportIcao": "URWA",
    "metar": "URWA 091230Z 32002MPS 280V360 CAVOK 06/M04 Q1012 R27/150060 NOSIG RMK QFE761/1014",
    "updatedAt": "2022-03-09T12:30:00.000Z"
  },
  {
    "airportIcao": "URWI",
    "metar": "URWI 091230Z 32006MPS CAVOK 03/M06 Q1010 R27/010065 NOSIG",
    "updatedAt": "2022-03-09T12:30:00.000Z"
  },
  {
    "airportIcao": "URWW",
    "metar": "URWW 091230Z 25007MPS 9999 OVC009 M01/M03 Q1009 R24/220050 TEMPO 0300 FZFG OVC001 RMK OBST OBSC",
    "updatedAt": "2022-03-09T12:30:00.000Z"
  },
  {
    "airportIcao": "USCC",
    "metar": "USCC 091230Z 11005MPS 3200 -SN BR SCT030 M11/M13 Q1025 R09/420545 NOSIG RMK QFE748",
    "updatedAt": "2022-03-09T12:30:00.000Z"
  },
  {
    "airportIcao": "USCM",
    "metar": "USCM 091230Z 01003MPS 6000 BKN018 M12/M15 Q1020 R36/490152 TEMPO 1000 SN BR VV005 RMK QFE726",
    "updatedAt": "2022-03-09T12:30:00.000Z"
  },
  {
    "airportIcao": "USDA",
    "metar": "USDA 091230Z 32008MPS 7000 -SN BLSN FEW002 M15/M16 Q1017 R04/390142 NOSIG RMK QBB070 QFE761/1015",
    "updatedAt": "2022-03-09T12:30:00.000Z"
  },
  {
    "airportIcao": "USHH",
    "metar": "USHH 091230Z 26002MPS CAVOK M20/M25 Q1032 R24/010060 NOSIG",
    "updatedAt": "2022-03-09T12:30:00.000Z"
  },
  {
    "airportIcao": "USNN",
    "metar": "USNN 091230Z 27002MPS CAVOK M25/M29 Q1029 R21/31//65 NOSIG RMK QFE767",
    "updatedAt": "2022-03-09T12:30:00.000Z"
  },
  {
    "airportIcao": "USPP",
    "metar": "USPP 091230Z 36003MPS 310V030 CAVOK M12/M22 Q1027 R21/090060 NOSIG RMK QFE759",
    "updatedAt": "2022-03-09T12:30:00.000Z"
  },
  {
    "airportIcao": "USRR",
    "metar": "USRR 091230Z 33003MPS CAVOK M23/M28 Q1031 R25/31//60 NOSIG RMK QFE768",
    "updatedAt": "2022-03-09T12:30:00.000Z"
  },
  {
    "airportIcao": "USSS",
    "metar": "USSS 091230Z 08005MPS 9999 SCT036 M11/M17 Q1025 R08L/82//60 NOSIG RMK QFE749/0998",
    "updatedAt": "2022-03-09T12:30:00.000Z"
  },
  {
    "airportIcao": "USTR",
    "metar": "USTR 091230Z 08002MPS 020V100 CAVOK M13/M21 Q1029 R30/450157 R03/450157 NOSIG",
    "updatedAt": "2022-03-09T12:30:00.000Z"
  },
  {
    "airportIcao": "UTAA",
    "metar": "UTAA 091200Z 10012KT 9999 FEW100 18/07 Q1012 R88/CLRD70 NOSIG",
    "updatedAt": "2022-03-09T12:00:00.000Z"
  },
  {
    "airportIcao": "UTAK",
    "metar": "UTAK 091200Z 13004KT 9999 FEW033 BKN100 11/05 Q1008 R16R/CLRD70 NOSIG",
    "updatedAt": "2022-03-09T12:00:00.000Z"
  },
  {
    "airportIcao": "UTAM",
    "metar": "UTAM 091200Z 32004KT CAVOK 18/04 Q1016 R88/CLRD70 NOSIG",
    "updatedAt": "2022-03-09T12:00:00.000Z"
  },
  {
    "airportIcao": "UTAT",
    "metar": "UTAT 091200Z 15010KT 120V180 CAVOK 14/M03 Q1014 R26/CLRD70 NOSIG",
    "updatedAt": "2022-03-09T12:00:00.000Z"
  },
  {
    "airportIcao": "UTAV",
    "metar": "UTAV 091200Z 26004KT 9999 BKN030 12/07 Q1017 R31/29//50 NOSIG",
    "updatedAt": "2022-03-09T12:00:00.000Z"
  },
  {
    "airportIcao": "UTDD",
    "metar": "UTDD 091230Z VRB01MPS 3500 BR SCT031CB BKN038 OVC046 11/10 Q1017 R09/29//50 TEMPO TS RMK QFE694/0926",
    "updatedAt": "2022-03-09T12:30:00.000Z"
  },
  {
    "airportIcao": "UTDK",
    "metar": "UTDK 091230Z 17007MPS 9999 -SHRA SCT015 OVC029CB 11/09 Q1021 R01/29//50 RMK QFE708/0944",
    "updatedAt": "2022-03-09T12:30:00.000Z"
  },
  {
    "airportIcao": "UTDL",
    "metar": "UTDL 091230Z 32001MPS 4500 BR SCT059CB OVC086 11/10 Q1015 R26/290250 NOSIG RMK QFE723/0964",
    "updatedAt": "2022-03-09T12:30:00.000Z"
  },
  {
    "airportIcao": "UTDT",
    "metar": "UTDT 091230Z 21004MPS 150V250 9999 FEW006 BKN023CB OVC073 13/10 Q1017 R35/290350 RMK QBB200 QFE723/0965",
    "updatedAt": "2022-03-09T12:30:00.000Z"
  },
  {
    "airportIcao": "UTFA",
    "metar": "UTFA 090700Z 36004KT 7000 BKN050CB 12/06 Q1013 R88/09//70",
    "updatedAt": "2022-03-09T07:00:00.000Z"
  },
  {
    "airportIcao": "UTFF",
    "metar": "UTFF 091230Z 28020KT 6000 SCT025CB 11/07 Q1013 R18/CLRD70",
    "updatedAt": "2022-03-09T12:30:00.000Z"
  },
  {
    "airportIcao": "UTFN",
    "metar": "UTFN 091230Z 23014KT 2800 -SHRA BR OVC050CB 11/09 Q1012 R28/CLRD70 NOSIG",
    "updatedAt": "2022-03-09T12:30:00.000Z"
  },
  {
    "airportIcao": "UTNN",
    "metar": "UTNN 091230Z 13008KT CAVOK 14/M05 Q1015 R15/CLRD60 NOSIG",
    "updatedAt": "2022-03-09T12:30:00.000Z"
  },
  {
    "airportIcao": "UTNU",
    "metar": "UTNU 091230Z 14008KT CAVOK 14/M06 Q1015 R13/CLRD70 NOSIG",
    "updatedAt": "2022-03-09T12:30:00.000Z"
  },
  {
    "airportIcao": "UTSA",
    "metar": "UTSA 091200Z 21006KT 9000 OVC009 08/06 Q1017 R25/19//68 NOSIG",
    "updatedAt": "2022-03-09T12:00:00.000Z"
  },
  {
    "airportIcao": "UTSB",
    "metar": "UTSB 091230Z 22004KT 9999 OVC020 10/07 Q1018 R01/190065 NOSIG",
    "updatedAt": "2022-03-09T12:30:00.000Z"
  },
  {
    "airportIcao": "UTSK",
    "metar": "UTSK 091230Z 29008KT 9999 FEW050CB 14/09 Q1018 R16/CLRD70",
    "updatedAt": "2022-03-09T12:30:00.000Z"
  },
  {
    "airportIcao": "UTSS",
    "metar": "UTSS 091230Z 23010KT 200V260 9999 BKN068CB 12/04 Q1016 R27/19//65 NOSIG",
    "updatedAt": "2022-03-09T12:30:00.000Z"
  },
  {
    "airportIcao": "UTST",
    "metar": "UTST 091230Z 21012KT 9999 FEW016 SCT060CB 13/09 Q1019 R25/CLRD70 NOSIG",
    "updatedAt": "2022-03-09T12:30:00.000Z"
  },
  {
    "airportIcao": "UTTT",
    "metar": "UTTT 091230Z 19016KT 150V210 9999 BKN031CB 13/09 Q1014 R08R/29//50 NOSIG",
    "updatedAt": "2022-03-09T12:30:00.000Z"
  },
  {
    "airportIcao": "UUBC",
    "metar": "UUBC 091230Z 06005MPS 9999 SCT034 M05/M15 Q1023 R13/410155 NOSIG RMK QFE749/0999",
    "updatedAt": "2022-03-09T12:30:00.000Z"
  },
  {
    "airportIcao": "UUBP",
    "metar": "UUBP 091230Z 35005MPS 9999 -SN BKN022 M03/M08 Q1021 R34/490150 NOSIG RMK QFE748/0998",
    "updatedAt": "2022-03-09T12:30:00.000Z"
  },
  {
    "airportIcao": "UUBW",
    "metar": "UUBW 091230Z 02005MPS CAVOK M05/M17 Q1026 R30/010060 NOSIG",
    "updatedAt": "2022-03-09T12:30:00.000Z"
  },
  {
    "airportIcao": "UUDD",
    "metar": "UUDD 091230Z 04006MPS CAVOK M06/M18 Q1025 R88/190050 NOSIG",
    "updatedAt": "2022-03-09T12:30:00.000Z"
  },
  {
    "airportIcao": "UUDL",
    "metar": "UUDL 091230Z 02004MPS CAVOK M08/M19 Q1029 R23/420155 NOSIG RMK QFE764",
    "updatedAt": "2022-03-09T12:30:00.000Z"
  },
  {
    "airportIcao": "UUEE",
    "metar": "UUEE 091230Z 01007MPS CAVOK M06/M18 Q1026 R06R/120051 R06C/120051 NOSIG",
    "updatedAt": "2022-03-09T12:30:00.000Z"
  },
  {
    "airportIcao": "UUMO",
    "metar": "UUMO 091230Z 04005MPS CAVOK M06/M18 Q1025 R07/CLRD60 NOSIG RMK QFE754/1006",
    "updatedAt": "2022-03-09T12:30:00.000Z"
  },
  {
    "airportIcao": "UUOB",
    "metar": "UUOB 091230Z 04006MPS 5000 -SN BR OVC010 M04/M07 Q1016 R29/410355 NOSIG",
    "updatedAt": "2022-03-09T12:30:00.000Z"
  },
  {
    "airportIcao": "UUOK",
    "metar": "UUOK 091230Z 05005MPS 010V100 9999 OVC019 M04/M09 Q1019 R30/410145 NOSIG RMK QFE745/0994",
    "updatedAt": "2022-03-09T12:30:00.000Z"
  },
  {
    "airportIcao": "UUOL",
    "metar": "UUOL 091230Z 01009MPS 9999 SCT013 M07/M11 Q1019 R15/850150 NOSIG",
    "updatedAt": "2022-03-09T12:30:00.000Z"
  },
  {
    "airportIcao": "UUOO",
    "metar": "UUOO 091230Z 03007G12MPS 9000 -SN OVC010 M05/M09 Q1017 R30/190050 NOSIG RMK QFE749",
    "updatedAt": "2022-03-09T12:30:00.000Z"
  },
  {
    "airportIcao": "UUWW",
    "metar": "UUWW 091230Z 03006MPS CAVOK M06/M18 Q1025 R06/250040 NOSIG",
    "updatedAt": "2022-03-09T12:30:00.000Z"
  },
  {
    "airportIcao": "UUYY",
    "metar": "UUYY 091230Z 15001MPS CAVOK M12/M21 Q1030 R18/61D NOSIG RMK QFE764/1019",
    "updatedAt": "2022-03-09T12:30:00.000Z"
  },
  {
    "airportIcao": "UWGG",
    "metar": "UWGG 091230Z 04005MPS CAVOK M06/M19 Q1026 R36R/090060 NOSIG",
    "updatedAt": "2022-03-09T12:30:00.000Z"
  },
  {
    "airportIcao": "UWKD",
    "metar": "UWKD 091230Z 02006MPS CAVOK M11/M19 Q1024 R11/60D NOSIG RMK QFE758/1011",
    "updatedAt": "2022-03-09T12:30:00.000Z"
  },
  {
    "airportIcao": "UWKE",
    "metar": "UWKE 091230Z 05007MPS CAVOK M11/M18 Q1023 R03/810070 NOSIG RMK QFE750/1000",
    "updatedAt": "2022-03-09T12:30:00.000Z"
  },
  {
    "airportIcao": "UWKS",
    "metar": "UWKS 091230Z 04004MPS CAVOK M09/M19 Q1025 R06/010060 NOSIG RMK QFE753",
    "updatedAt": "2022-03-09T12:30:00.000Z"
  },
  {
    "airportIcao": "UWLL",
    "metar": "UWLL 091230Z 04009MPS 8000 -SN BKN035 M10/M14 Q1021 R02/810260 NOSIG RMK QFE753/1005",
    "updatedAt": "2022-03-09T12:30:00.000Z"
  },
  {
    "airportIcao": "UWLW",
    "metar": "UWLW 091200Z 02007MPS 9999 SCT021 M09/M14 Q1021 R02/CLRD60 NOSIG RMK QFE759/1012",
    "updatedAt": "2022-03-09T12:00:00.000Z"
  },
  {
    "airportIcao": "UWOO",
    "metar": "UWOO 091230Z 12006MPS 9000 OVC036 M06/M10 Q1020 R08/920253 NOSIG RMK QFE754/1006",
    "updatedAt": "2022-03-09T12:30:00.000Z"
  },
  {
    "airportIcao": "UWOR",
    "metar": "UWOR 091200Z 10003MPS CAVOK M13/M15 Q1021 R07/810255 NOSIG RMK QFE741/0988",
    "updatedAt": "2022-03-09T12:00:00.000Z"
  },
  {
    "airportIcao": "UWPS",
    "metar": "UWPS 091230Z 04008MPS 9999 DRSN NSC M09/M17 Q1020 R02/420940 NOSIG RMK QFE745",
    "updatedAt": "2022-03-09T12:30:00.000Z"
  },
  {
    "airportIcao": "UWSG",
    "metar": "UWSG 091230Z 05009MPS 7000 -SN BKN048 M05/M08 Q1015 R08/290350 NOSIG RMK QFE759/1012",
    "updatedAt": "2022-03-09T12:30:00.000Z"
  },
  {
    "airportIcao": "UWUU",
    "metar": "UWUU 091230Z 30002MPS 9999 OVC018 M07/M09 Q1021 R32L/610244 TEMPO 0500 +SHSN BKN006CB",
    "updatedAt": "2022-03-09T12:30:00.000Z"
  },
  {
    "airportIcao": "UWWW",
    "metar": "UWWW 091230Z 02005MPS 5000 -SN SCT033 M09/M12 Q1019 R33/450245 NOSIG RMK QFE753/1005",
    "updatedAt": "2022-03-09T12:30:00.000Z"
  },
  {
    "airportIcao": "VAAH",
    "metar": "VAAH 091230Z 14003KT 4000 FU SCT080 34/19 Q1009 NOSIG",
    "updatedAt": "2022-03-09T12:30:00.000Z"
  },
  {
    "airportIcao": "VAAU",
    "metar": "VAAU 091200Z 07003KT 5000 HZ FEW020 SCT100 26/17 Q1013 NOSIG",
    "updatedAt": "2022-03-09T12:00:00.000Z"
  },
  {
    "airportIcao": "VABB",
    "metar": "VABB 091230Z 29007KT 3000 FU NSC 31/19 Q1008 NOSIG",
    "updatedAt": "2022-03-09T12:30:00.000Z"
  },
  {
    "airportIcao": "VABO",
    "metar": "VABO 091230Z 01005KT 6000 FEW020 35/15 Q1009 NOSIG",
    "updatedAt": "2022-03-09T12:30:00.000Z"
  },
  {
    "airportIcao": "VABP",
    "metar": "VABP 091200Z 32005KT 6000 FEW030 BKN100 28/10 Q1012 NOSIG",
    "updatedAt": "2022-03-09T12:00:00.000Z"
  },
  {
    "airportIcao": "VABV",
    "metar": "VABV 091200Z 13004KT 5000 FU FEW025 SCT080 33/16 Q1009 NOSIG",
    "updatedAt": "2022-03-09T12:00:00.000Z"
  },
  {
    "airportIcao": "VAID",
    "metar": "VAID 091200Z 20006KT 6000 NSC 29/10 Q1013 NOSIG",
    "updatedAt": "2022-03-09T12:00:00.000Z"
  },
  {
    "airportIcao": "VAJB",
    "metar": "VAJB 091230Z 30004KT 5000 HZ NSC 29/10 Q1013",
    "updatedAt": "2022-03-09T12:30:00.000Z"
  },
  {
    "airportIcao": "VAJJ",
    "metar": "VAJJ 091230Z 32007KT 2500 HZ FEW020 SCT100 29/21 Q1008 NOSIG",
    "updatedAt": "2022-03-09T12:30:00.000Z"
  },
  {
    "airportIcao": "VAJL",
    "metar": "VAJL 091200Z 14007KT 7000 FEW100 29/11 Q1012 NOSIG",
    "updatedAt": "2022-03-09T12:00:00.000Z"
  },
  {
    "airportIcao": "VAKE",
    "metar": "VAKE 090930Z 01008KT 5000 FU NSC 35/06 Q1010 NOSIG",
    "updatedAt": "2022-03-09T09:30:00.000Z"
  },
  {
    "airportIcao": "VAKP",
    "metar": "VAKP 091000Z 07004KT 9000 FEW020 34/11 Q1011",
    "updatedAt": "2022-03-09T10:00:00.000Z"
  },
  {
    "airportIcao": "VANP",
    "metar": "VANP 091230Z 05003KT 4000 HZ FEW100 32/12 Q1012 NOSIG",
    "updatedAt": "2022-03-09T12:30:00.000Z"
  },
  {
    "airportIcao": "VAOZ",
    "metar": "VAOZ 091230Z 07008KT 6000 SCT040 26/13 Q1014 NOSIG",
    "updatedAt": "2022-03-09T12:30:00.000Z"
  },
  {
    "airportIcao": "VAPR",
    "metar": "VAPR 090700Z 02014KT 6000 NSC 34/08 Q1012",
    "updatedAt": "2022-03-09T07:00:00.000Z"
  },
  {
    "airportIcao": "VARK",
    "metar": "VARK 091200Z 02009KT 6000 NSC 35/12 Q1009",
    "updatedAt": "2022-03-09T12:00:00.000Z"
  },
  {
    "airportIcao": "VASD",
    "metar": "VASD 091200Z 08008KT 4000 HZ NSC 28/11 Q1012 NOSIG",
    "updatedAt": "2022-03-09T12:00:00.000Z"
  },
  {
    "airportIcao": "VASU",
    "metar": "VASU 091230Z 28006KT 5000 FU FEW025 33/17 Q1009 NOSIG",
    "updatedAt": "2022-03-09T12:30:00.000Z"
  },
  {
    "airportIcao": "VAUD",
    "metar": "VAUD 091230Z 30004KT 4000 TS SCT030 BKN035 FEW040CB 25/16 Q1013 NOSIG",
    "updatedAt": "2022-03-09T12:30:00.000Z"
  },
  {
    "airportIcao": "VCBI",
    "metar": "VCBI 091210Z VRB05KT 9000 FEW018 29/26 Q1006 NOSIG",
    "updatedAt": "2022-03-09T12:10:00.000Z"
  },
  {
    "airportIcao": "VCRI",
    "metar": "VCRI 091210Z 05008KT 9999 FEW018 32/24 Q1006 NOSIG",
    "updatedAt": "2022-03-09T12:10:00.000Z"
  },
  {
    "airportIcao": "VDPP",
    "metar": "VDPP 091230Z 02004KT 350V050 9000 SCT017 32/23 Q1007",
    "updatedAt": "2022-03-09T12:30:00.000Z"
  },
  {
    "airportIcao": "VDSR",
    "metar": "VDSR 091230Z 00000KT 9000 SCT015 29/24 Q1007",
    "updatedAt": "2022-03-09T12:30:00.000Z"
  },
  {
    "airportIcao": "VDSV",
    "metar": "VDSV 091230Z /////KT 9000 FEW015 ///// Q////",
    "updatedAt": "2022-03-09T12:30:00.000Z"
  },
  {
    "airportIcao": "VEAT",
    "metar": "VEAT 091230Z 00000KT 4000 HZ NSC 29/22 Q1009 NOSIG",
    "updatedAt": "2022-03-09T12:30:00.000Z"
  },
  {
    "airportIcao": "VEBI",
    "metar": "VEBI 090900Z 09004KT 5000 HZ SCT020 28/12 Q1012",
    "updatedAt": "2022-03-09T09:00:00.000Z"
  },
  {
    "airportIcao": "VEBN",
    "metar": "VEBN 091230Z 32002KT 4000 HZ NSC 29/12 Q1009 NOSIG",
    "updatedAt": "2022-03-09T12:30:00.000Z"
  },
  {
    "airportIcao": "VEBS",
    "metar": "VEBS 091230Z 13009KT 5000 HZ NSC 29/23 Q1008 BECMG 3000 HZ",
    "updatedAt": "2022-03-09T12:30:00.000Z"
  },
  {
    "airportIcao": "VEBU",
    "metar": "VEBU 091200Z 36004KT 6000 NSC 32/11 Q1010",
    "updatedAt": "2022-03-09T12:00:00.000Z"
  },
  {
    "airportIcao": "VECC",
    "metar": "VECC 091230Z 30004KT 4000 HZ NSC 30/13 Q1008 NOSIG",
    "updatedAt": "2022-03-09T12:30:00.000Z"
  },
  {
    "airportIcao": "VECO",
    "metar": "VECO 091200Z 00000KT 4200 HZ NSC 29/17 Q1008",
    "updatedAt": "2022-03-09T12:00:00.000Z"
  },
  {
    "airportIcao": "VEDG",
    "metar": "VEDG 091230Z 32003KT 4000 HZ NSC 27/12 Q1009 NOSIG",
    "updatedAt": "2022-03-09T12:30:00.000Z"
  },
  {
    "airportIcao": "VEGT",
    "metar": "VEGT 091230Z 00000KT 4000 HZ FEW100 28/15 Q1007 NOSIG",
    "updatedAt": "2022-03-09T12:30:00.000Z"
  },
  {
    "airportIcao": "VEGY",
    "metar": "VEGY 091200Z 28004KT 4500 HZ NSC 28/14 Q1010",
    "updatedAt": "2022-03-09T12:00:00.000Z"
  },
  {
    "airportIcao": "VEIM",
    "metar": "VEIM 091200Z 29008KT 5000 HZ FEW018 25/11 Q1011 NOSIG",
    "updatedAt": "2022-03-09T12:00:00.000Z"
  },
  {
    "airportIcao": "VEJH",
    "metar": "VEJH 091230Z 36002KT 6000 NSC 32/11 Q1010",
    "updatedAt": "2022-03-09T12:30:00.000Z"
  },
  {
    "airportIcao": "VEJR",
    "metar": "VEJR 091030Z 07007KT 6000 SKC 33/05 Q1012",
    "updatedAt": "2022-03-09T10:30:00.000Z"
  },
  {
    "airportIcao": "VEJS",
    "metar": "VEJS 091200Z 00000KT 5000 HZ NSC 31/11 Q1009",
    "updatedAt": "2022-03-09T12:00:00.000Z"
  },
  {
    "airportIcao": "VEKO",
    "metar": "VEKO 091200Z 02002KT 5000 HZ BKN100 30/11 Q1010",
    "updatedAt": "2022-03-09T12:00:00.000Z"
  },
  {
    "airportIcao": "VELP",
    "metar": "VELP 090930Z 02005KT 4000 HZ NSC 31/16 Q1010 NOSIG",
    "updatedAt": "2022-03-09T09:30:00.000Z"
  },
  {
    "airportIcao": "VELR",
    "metar": "VELR 091230Z 01005KT 5000 HZ FEW020 30/21 Q1008",
    "updatedAt": "2022-03-09T12:30:00.000Z"
  },
  {
    "airportIcao": "VEMN",
    "metar": "VEMN 091200Z 00000KT 3000 HZ FEW020 30/16 Q1008 NOSIG",
    "updatedAt": "2022-03-09T12:00:00.000Z"
  },
  {
    "airportIcao": "VEMR",
    "metar": "VEMR 090930Z 12005KT 4500 HZ NSC 33/14 Q1008",
    "updatedAt": "2022-03-09T09:30:00.000Z"
  },
  {
    "airportIcao": "VEPT",
    "metar": "VEPT 091230Z 25004KT 4000 HZ NSC 26/13 Q1009 NOSIG",
    "updatedAt": "2022-03-09T12:30:00.000Z"
  },
  {
    "airportIcao": "VEPY",
    "metar": "VEPY 090900Z 21005KT 5000 HZ FEW015 24/02 Q1016 NOSIG",
    "updatedAt": "2022-03-09T09:00:00.000Z"
  },
  {
    "airportIcao": "VERC",
    "metar": "VERC 091230Z 32003KT 6000 NSC 26/10 Q1013 NOSIG",
    "updatedAt": "2022-03-09T12:30:00.000Z"
  },
  {
    "airportIcao": "VERP",
    "metar": "VERP 091230Z 00000KT 6000 NSC 31/13 Q1011 NOSIG",
    "updatedAt": "2022-03-09T12:30:00.000Z"
  },
  {
    "airportIcao": "VERU",
    "metar": "VERU 091130Z 24005KT 5000 HZ NSC 28/17 Q1007 NOSIG",
    "updatedAt": "2022-03-09T11:30:00.000Z"
  },
  {
    "airportIcao": "VETJ",
    "metar": "VETJ 090430Z 00000KT 5000 HZ FEW100 27/11 Q1012 NOSIG",
    "updatedAt": "2022-03-09T04:30:00.000Z"
  },
  {
    "airportIcao": "VGEG",
    "metar": "VGEG 091200Z 24003KT 3100 HZ FEW018 BKN100 28/24 Q1008 NOSIG",
    "updatedAt": "2022-03-09T12:00:00.000Z"
  },
  {
    "airportIcao": "VGHS",
    "metar": "VGHS 091230Z 29006KT 4000 HZ NSC 30/18 Q1009 NOSIG",
    "updatedAt": "2022-03-09T12:30:00.000Z"
  },
  {
    "airportIcao": "VHHH",
    "metar": "VHHH 091230Z 08010KT CAVOK 20/06 Q1016 NOSIG",
    "updatedAt": "2022-03-09T12:30:00.000Z"
  },
  {
    "airportIcao": "VIAR",
    "metar": "VIAR 091200Z 30005KT 5000 HZ FEW100 25/17 Q1013 NOSIG",
    "updatedAt": "2022-03-09T12:00:00.000Z"
  },
  {
    "airportIcao": "VIDP",
    "metar": "VIDP 091230Z 30006KT 4000 HZ FEW100 26/06 Q1012 NOSIG",
    "updatedAt": "2022-03-09T12:30:00.000Z"
  },
  {
    "airportIcao": "VIJP",
    "metar": "VIJP 091230Z VRB02KT 3000 HZ SCT030 FEW035CB BKN100 29/12 Q1012 NOSIG",
    "updatedAt": "2022-03-09T12:30:00.000Z"
  },
  {
    "airportIcao": "VIKG",
    "metar": "VIKG 090430Z 12004KT 4000 HZ NSC 24/16 Q1016",
    "updatedAt": "2022-03-09T04:30:00.000Z"
  },
  {
    "airportIcao": "VILK",
    "metar": "VILK 091230Z 30006KT 5000 HZ FEW100 SCT200 29/14 Q1010 NOSIG",
    "updatedAt": "2022-03-09T12:30:00.000Z"
  },
  {
    "airportIcao": "VLLB",
    "metar": "VLLB 091100Z 18002KT CAVOK 31/18 Q1007 NOSIG",
    "updatedAt": "2022-03-09T11:00:00.000Z"
  },
  {
    "airportIcao": "VLLN",
    "metar": "VLLN 091100Z 18004KT 9999 FEW020 29/23 Q1008 NOSIG",
    "updatedAt": "2022-03-09T11:00:00.000Z"
  },
  {
    "airportIcao": "VLPS",
    "metar": "VLPS 091000Z 32002KT 9999 SCT100 35/20 Q1007 NOSIG",
    "updatedAt": "2022-03-09T10:00:00.000Z"
  },
  {
    "airportIcao": "VLSK",
    "metar": "VLSK 091100Z 18002KT 7000 NSC 31/18 Q1008 NOSIG",
    "updatedAt": "2022-03-09T11:00:00.000Z"
  },
  {
    "airportIcao": "VLVT",
    "metar": "VLVT 091100Z 09002KT 8000 NSC 29/20 Q1008 NOSIG",
    "updatedAt": "2022-03-09T11:00:00.000Z"
  },
  {
    "airportIcao": "VMMC",
    "metar": "VMMC 091230Z VRB03KT CAVOK 19/11 Q1015 NOSIG",
    "updatedAt": "2022-03-09T12:30:00.000Z"
  },
  {
    "airportIcao": "VNKT",
    "metar": "VNKT 091220Z 25006KT 9999 FEW020 22/09 Q1016 NOSIG",
    "updatedAt": "2022-03-09T12:20:00.000Z"
  },
  {
    "airportIcao": "VOAR",
    "metar": "VOAR 091200Z 08007 6000 FEW018 31/14 Q1009 NOSIG",
    "updatedAt": "2022-03-09T12:00:00.000Z"
  },
  {
    "airportIcao": "VOAT",
    "metar": "VOAT 090600Z 32004KT 6000 SCT015 30/23 Q1012 NOSIG",
    "updatedAt": "2022-03-09T06:00:00.000Z"
  },
  {
    "airportIcao": "VOBG",
    "metar": "VOBG 091200Z 09009KT 8000 NSC 30/08 Q1012 NOSIG",
    "updatedAt": "2022-03-09T12:00:00.000Z"
  },
  {
    "airportIcao": "VOBL",
    "metar": "VOBL 091230Z 10009KT CAVOK 29/06 Q1013 NOSIG",
    "updatedAt": "2022-03-09T12:30:00.000Z"
  },
  {
    "airportIcao": "VOBM",
    "metar": "VOBM 091230Z 09004KT 8000 SCT012 31/07 Q1012",
    "updatedAt": "2022-03-09T12:30:00.000Z"
  },
  {
    "airportIcao": "VOBZ",
    "metar": "VOBZ 091230Z 18005KT 6000 NSC 32/22 Q1008 NOSIG",
    "updatedAt": "2022-03-09T12:30:00.000Z"
  },
  {
    "airportIcao": "VOCB",
    "metar": "VOCB 091230Z 10008KT 7000 NSC 34/13 Q1009 NOSIG",
    "updatedAt": "2022-03-09T12:30:00.000Z"
  },
  {
    "airportIcao": "VOCI",
    "metar": "VOCI 091230Z 30009KT 5000 HZ FEW015 30/23 Q1006 NOSIG",
    "updatedAt": "2022-03-09T12:30:00.000Z"
  },
  {
    "airportIcao": "VOCL",
    "metar": "VOCL 091230Z 30006KT 6000 FEW015 30/23 Q1007 NOSIG",
    "updatedAt": "2022-03-09T12:30:00.000Z"
  },
  {
    "airportIcao": "VOCP",
    "metar": "VOCP 091100Z 09014KT 6000 FEW020 35/15 Q1007 NOSIG",
    "updatedAt": "2022-03-09T11:00:00.000Z"
  },
  {
    "airportIcao": "VOGB",
    "metar": "VOGB 091100Z 00000KT 8000 FEW018 SCT020 34/15 Q1010",
    "updatedAt": "2022-03-09T11:00:00.000Z"
  },
  {
    "airportIcao": "VOGO",
    "metar": "VOGO 091200Z 27011KT 6000 SCT090 30/24 Q1007 NOSIG",
    "updatedAt": "2022-03-09T12:00:00.000Z"
  },
  {
    "airportIcao": "VOHB",
    "metar": "VOHB 091230Z 08006KT 9999 SCT015 33/11 Q1011",
    "updatedAt": "2022-03-09T12:30:00.000Z"
  },
  {
    "airportIcao": "VOHS",
    "metar": "VOHS 091230Z 05006KT 6000 FEW020 31/13 Q1012 NOSIG",
    "updatedAt": "2022-03-09T12:30:00.000Z"
  },
  {
    "airportIcao": "VOHY",
    "metar": "VOHY 091230Z 11004KT 6000 FEW020 29/13 Q1013 NOSIG",
    "updatedAt": "2022-03-09T12:30:00.000Z"
  },
  {
    "airportIcao": "VOJV",
    "metar": "VOJV 091230Z 34004KT 6000 FEW018 30/13 Q1010",
    "updatedAt": "2022-03-09T12:30:00.000Z"
  },
  {
    "airportIcao": "VOKN",
    "metar": "VOKN 091230Z 28008KT 6000 FEW012 31/22 Q1007 TEMPO5000 HZ",
    "updatedAt": "2022-03-09T12:30:00.000Z"
  },
  {
    "airportIcao": "VOKU",
    "metar": "VOKU 091100Z 10005KT 5000 HZ FEW020 35/11 Q1010",
    "updatedAt": "2022-03-09T11:00:00.000Z"
  },
  {
    "airportIcao": "VOMD",
    "metar": "VOMD 091230Z 08011KT 6000 FEW020 34/17 Q1007 NOSIG",
    "updatedAt": "2022-03-09T12:30:00.000Z"
  },
  {
    "airportIcao": "VOML",
    "metar": "VOML 091230Z 29006KT 6000 FEW020 SCT080 31/23 Q1007 NOSIG",
    "updatedAt": "2022-03-09T12:30:00.000Z"
  },
  {
    "airportIcao": "VOMM",
    "metar": "VOMM 091230Z 09009KT 6000 NSC 29/21 Q1008 NOSIG",
    "updatedAt": "2022-03-09T12:30:00.000Z"
  },
  {
    "airportIcao": "VOMY",
    "metar": "VOMY 091230Z 02005KT 8000 FEW015 32/10 Q1010",
    "updatedAt": "2022-03-09T12:30:00.000Z"
  },
  {
    "airportIcao": "VOND",
    "metar": "VOND 090800Z 04002KT 6000 NSC 33/10 Q1013 NOSIG",
    "updatedAt": "2022-03-09T08:00:00.000Z"
  },
  {
    "airportIcao": "VOPB",
    "metar": "VOPB 091200Z 08006KT 5000 TS SCT014 FEW022TCU BKN090 29/25 Q1008 TEMPO DZ",
    "updatedAt": "2022-03-09T12:00:00.000Z"
  },
  {
    "airportIcao": "VORY",
    "metar": "VORY 091230Z 15008KT 5000 HZ NSC 31/22 Q1008 NOSIG",
    "updatedAt": "2022-03-09T12:30:00.000Z"
  },
  {
    "airportIcao": "VOSM",
    "metar": "VOSM 090700Z 16005KT 6000 FEW020 34/13 Q1011 NOSIG",
    "updatedAt": "2022-03-09T07:00:00.000Z"
  },
  {
    "airportIcao": "VOSR",
    "metar": "VOSR 090830Z 23004KT 5000 FU NSC 32/23 Q1009 NOSIG",
    "updatedAt": "2022-03-09T08:30:00.000Z"
  },
  {
    "airportIcao": "VOTK",
    "metar": "VOTK 091200Z 12006KT 5000 HZ FEW020 32/22 Q1008 NOSIG",
    "updatedAt": "2022-03-09T12:00:00.000Z"
  },
  {
    "airportIcao": "VOTP",
    "metar": "VOTP 091230Z 08010KT 6000 FEW020 31/15 Q1008 NOSIG",
    "updatedAt": "2022-03-09T12:30:00.000Z"
  },
  {
    "airportIcao": "VOTR",
    "metar": "VOTR 091230Z 07009KT 6000 FEW016 32/20 Q1008 NOSIG",
    "updatedAt": "2022-03-09T12:30:00.000Z"
  },
  {
    "airportIcao": "VOTV",
    "metar": "VOTV 091230Z 25004KT 6000 FEW015 30/23 Q1007 BECMG 5000 COR HZ",
    "updatedAt": "2022-03-09T12:30:00.000Z"
  },
  {
    "airportIcao": "VOVZ",
    "metar": "VOVZ 091230Z 24004KT 3000 HZ FU FEW018 29/19 Q1009 NOSIG",
    "updatedAt": "2022-03-09T12:30:00.000Z"
  },
  {
    "airportIcao": "VQPR",
    "metar": "VQPR 090530Z 17005KT 9999 NSC 18/M03 Q1023",
    "updatedAt": "2022-03-09T05:30:00.000Z"
  },
  {
    "airportIcao": "VRMM",
    "metar": "VRMM 091200Z 07007KT 9999 FEW018 30/25 Q1007 NOSIG",
    "updatedAt": "2022-03-09T12:00:00.000Z"
  },
  {
    "airportIcao": "VTBD",
    "metar": "VTBD 091230Z 20005KT 9000 FEW020 SCT040 31/24 Q1008 NOSIG",
    "updatedAt": "2022-03-09T12:30:00.000Z"
  },
  {
    "airportIcao": "VTBO",
    "metar": "VTBO 090900Z 24004KT 8000 FEW020 32/24 Q1007",
    "updatedAt": "2022-03-09T09:00:00.000Z"
  },
  {
    "airportIcao": "VTBS",
    "metar": "VTBS 091230Z 21005KT 7000 FEW020 31/23 Q1008 NOSIG",
    "updatedAt": "2022-03-09T12:30:00.000Z"
  },
  {
    "airportIcao": "VTBU",
    "metar": "VTBU 091230Z 27003KT 6000 FEW020 28/25 Q1008 NOSIG",
    "updatedAt": "2022-03-09T12:30:00.000Z"
  },
  {
    "airportIcao": "VTCC",
    "metar": "VTCC 091230Z 19006KT 160V220 9999 FEW035 31/22 Q1008 NOSIG",
    "updatedAt": "2022-03-09T12:30:00.000Z"
  },
  {
    "airportIcao": "VTCH",
    "metar": "VTCH 091200Z 13007KT 6000 FEW020CB SCT025 32/18 Q1006 NOSIG",
    "updatedAt": "2022-03-09T12:00:00.000Z"
  },
  {
    "airportIcao": "VTCL",
    "metar": "VTCL 091200Z 13005KT CAVOK 34/22 Q1007 NOSIG",
    "updatedAt": "2022-03-09T12:00:00.000Z"
  },
  {
    "airportIcao": "VTCN",
    "metar": "VTCN 091100Z 18005KT 140V220 CAVOK 33/21 Q1007 NOSIG",
    "updatedAt": "2022-03-09T11:00:00.000Z"
  },
  {
    "airportIcao": "VTCP",
    "metar": "VTCP 091100Z 00000KT CAVOK 33/24 Q1007 NOSIG",
    "updatedAt": "2022-03-09T11:00:00.000Z"
  },
  {
    "airportIcao": "VTCT",
    "metar": "VTCT 091200Z VRB02KT CAVOK 28/24 Q1008 NOSIG",
    "updatedAt": "2022-03-09T12:00:00.000Z"
  },
  {
    "airportIcao": "VTPB",
    "metar": "VTPB 091100Z VRB02KT 9999 FEW030 34/20 Q1007 NOSIG",
    "updatedAt": "2022-03-09T11:00:00.000Z"
  },
  {
    "airportIcao": "VTPH",
    "metar": "VTPH 091100Z 15005KT 110V170 9999 FEW030 29/23 Q1007 NOSIG",
    "updatedAt": "2022-03-09T11:00:00.000Z"
  },
  {
    "airportIcao": "VTPM",
    "metar": "VTPM 091100Z 23008KT 9999 FEW035 33/21 Q1007 NOSIG",
    "updatedAt": "2022-03-09T11:00:00.000Z"
  },
  {
    "airportIcao": "VTPO",
    "metar": "VTPO 091000Z VRB02KT 9999 FEW025 34/22 Q1007 NOSIG",
    "updatedAt": "2022-03-09T10:00:00.000Z"
  },
  {
    "airportIcao": "VTPP",
    "metar": "VTPP 091200Z 00000KT 8000 NSC 30/22 Q1007 NOSIG",
    "updatedAt": "2022-03-09T12:00:00.000Z"
  },
  {
    "airportIcao": "VTPT",
    "metar": "VTPT 091100Z /////KT 9999 FEW026 33/22 Q1006 NOSIG",
    "updatedAt": "2022-03-09T11:00:00.000Z"
  },
  {
    "airportIcao": "VTSB",
    "metar": "VTSB 091200Z 03007KT 9999 FEW020 29/22 Q1008 NOSIG",
    "updatedAt": "2022-03-09T12:00:00.000Z"
  },
  {
    "airportIcao": "VTSC",
    "metar": "VTSC 091000Z 10009KT 070V130 9999 FEW022 29/24 Q1007 NOSIG",
    "updatedAt": "2022-03-09T10:00:00.000Z"
  },
  {
    "airportIcao": "VTSE",
    "metar": "VTSE 091100Z 09010KT 5000 RA FEW016TCU BKN020 BKN080 26/24 Q1008 NOSIG",
    "updatedAt": "2022-03-09T11:00:00.000Z"
  },
  {
    "airportIcao": "VTSF",
    "metar": "VTSF 091200Z 09004KT 9999 FEW018 29/25 Q1009 NOSIG",
    "updatedAt": "2022-03-09T12:00:00.000Z"
  },
  {
    "airportIcao": "VTSG",
    "metar": "VTSG 091200Z 09002KT 9999 FEW020 SCT100 28/24 Q1007 NOSIG",
    "updatedAt": "2022-03-09T12:00:00.000Z"
  },
  {
    "airportIcao": "VTSM",
    "metar": "VTSM 091200Z 13008KT 9999 SCT020 29/23 Q1009 NOSIG",
    "updatedAt": "2022-03-09T12:00:00.000Z"
  },
  {
    "airportIcao": "VTSP",
    "metar": "VTSP 091230Z VRB02KT 9999 -RA FEW020 SCT050 28/25 Q1007 NOSIG",
    "updatedAt": "2022-03-09T12:30:00.000Z"
  },
  {
    "airportIcao": "VTSR",
    "metar": "VTSR 091200Z 11003KT 040V180 9999 FEW020 29/19 Q1008 NOSIG",
    "updatedAt": "2022-03-09T12:00:00.000Z"
  },
  {
    "airportIcao": "VTSS",
    "metar": "VTSS 091230Z 05007KT 010V080 9999 SCT020 SCT100 28/24 Q1008 NOSIG",
    "updatedAt": "2022-03-09T12:30:00.000Z"
  },
  {
    "airportIcao": "VTST",
    "metar": "VTST 091200Z 03005KT 350V070 9999 SCT030 BKN090 28/23 Q1007 NOSIG",
    "updatedAt": "2022-03-09T12:00:00.000Z"
  },
  {
    "airportIcao": "VTUD",
    "metar": "VTUD 091200Z 01002KT 9000 NSC 30/19 Q1008 NOSIG",
    "updatedAt": "2022-03-09T12:00:00.000Z"
  },
  {
    "airportIcao": "VTUI",
    "metar": "VTUI 091100Z VRB02KT CAVOK 31/17 Q1008 NOSIG",
    "updatedAt": "2022-03-09T11:00:00.000Z"
  },
  {
    "airportIcao": "VTUK",
    "metar": "VTUK 091200Z 12002KT CAVOK 30/19 Q1009 NOSIG",
    "updatedAt": "2022-03-09T12:00:00.000Z"
  },
  {
    "airportIcao": "VTUL",
    "metar": "VTUL 091200Z 00000KT CAVOK 27/23 Q1008 NOSIG",
    "updatedAt": "2022-03-09T12:00:00.000Z"
  },
  {
    "airportIcao": "VTUO",
    "metar": "VTUO 091200Z 17003KT 9000 NSC 30/19 Q1009 NOSIG",
    "updatedAt": "2022-03-09T12:00:00.000Z"
  },
  {
    "airportIcao": "VTUQ",
    "metar": "VTUQ 091100Z 02003KT 330V080 9999 SCT030 32/20 Q1008 NOSIG",
    "updatedAt": "2022-03-09T11:00:00.000Z"
  },
  {
    "airportIcao": "VTUU",
    "metar": "VTUU 091200Z 27003KT 220V310 9000 NSC 29/19 Q1008 NOSIG",
    "updatedAt": "2022-03-09T12:00:00.000Z"
  },
  {
    "airportIcao": "VTUV",
    "metar": "VTUV 091200Z 30002KT 9000 NSC 28/22 Q1008 NOSIG",
    "updatedAt": "2022-03-09T12:00:00.000Z"
  },
  {
    "airportIcao": "VTUW",
    "metar": "VTUW 091200Z 05002KT CAVOK 28/18 Q1009 NOSIG",
    "updatedAt": "2022-03-09T12:00:00.000Z"
  },
  {
    "airportIcao": "VVCI",
    "metar": "VVCI 091230Z 07005KT 6000 -RA FEW010 BKN015 OVC019 18/18 Q1013 NOSIG",
    "updatedAt": "2022-03-09T12:30:00.000Z"
  },
  {
    "airportIcao": "VVCR",
    "metar": "VVCR 091230Z 05017KT CAVOK 24/17 Q1012 NOSIG",
    "updatedAt": "2022-03-09T12:30:00.000Z"
  },
  {
    "airportIcao": "VVCT",
    "metar": "VVCT 091230Z 12008KT 9999 FEW015 FEW017TCU 26/22 Q1009 NOSIG TCU/OVER RWY",
    "updatedAt": "2022-03-09T12:30:00.000Z"
  },
  {
    "airportIcao": "VVDN",
    "metar": "VVDN 091230Z 09004KT 9999 FEW015 BKN040 22/17 Q1013 NOSIG",
    "updatedAt": "2022-03-09T12:30:00.000Z"
  },
  {
    "airportIcao": "VVNB",
    "metar": "VVNB 091230Z 13010KT 9999 SCT015 BKN026 OVC030 21/17 Q1013 NOSIG",
    "updatedAt": "2022-03-09T12:30:00.000Z"
  },
  {
    "airportIcao": "VVPB",
    "metar": "VVPB 091230Z 09009KT 9999 FEW015 BKN050 22/18 Q1013 NOSIG",
    "updatedAt": "2022-03-09T12:30:00.000Z"
  },
  {
    "airportIcao": "VVPQ",
    "metar": "VVPQ 091230Z VRB02KT 9999 FEW017 27/21 Q1008 NOSIG",
    "updatedAt": "2022-03-09T12:30:00.000Z"
  },
  {
    "airportIcao": "VVTS",
    "metar": "VVTS 091230Z 15006KT 130V210 9999 FEW020 28/20 Q1009 NOSIG",
    "updatedAt": "2022-03-09T12:30:00.000Z"
  },
  {
    "airportIcao": "VYMD",
    "metar": "VYMD 091130Z 34002KT 6000 HZ FEW020 36/18 Q1005",
    "updatedAt": "2022-03-09T11:30:00.000Z"
  },
  {
    "airportIcao": "VYNT",
    "metar": "VYNT 091200Z 09002KT 6000 FEW020 33/23 Q1006",
    "updatedAt": "2022-03-09T12:00:00.000Z"
  },
  {
    "airportIcao": "VYYY",
    "metar": "VYYY 091230Z 21003KT 7000 FEW025 SCT250 32/25 Q1007 NOSIG",
    "updatedAt": "2022-03-09T12:30:00.000Z"
  },
  {
    "airportIcao": "WAAA",
    "metar": "WAAA 091230Z 11003KT 8000 FEW019 26/26 Q1008 NOSIG",
    "updatedAt": "2022-03-09T12:30:00.000Z"
  },
  {
    "airportIcao": "WADD",
    "metar": "WADD 091230Z VRB01KT 9999 FEW015CB BKN015 28/25 Q1008 NOSIG RMK CB IN CLIMB-OUT",
    "updatedAt": "2022-03-09T12:30:00.000Z"
  },
  {
    "airportIcao": "WADL",
    "metar": "WADL 091200Z 29004KT 7000 FEW015CB SCT016 27/25 Q1008 NOSIG RMK CB TO NW",
    "updatedAt": "2022-03-09T12:00:00.000Z"
  },
  {
    "airportIcao": "WAHS",
    "metar": "WAHS 091100Z 00000KT 6000 -RA FEW013CB SCT014 26/24 Q1006 NOSIG RMK CB TO S AND NE",
    "updatedAt": "2022-03-09T11:00:00.000Z"
  },
  {
    "airportIcao": "WAJJ",
    "metar": "WAJJ 091230Z 29003KT 9999 FEW012 25/23 Q1010 NOSIG",
    "updatedAt": "2022-03-09T12:30:00.000Z"
  },
  {
    "airportIcao": "WAKK",
    "metar": "WAKK 090730Z 19007KT 9999 SCT015 30/26 Q1005 NOSIG",
    "updatedAt": "2022-03-09T07:30:00.000Z"
  },
  {
    "airportIcao": "WALL",
    "metar": "WALL 091200Z 06003KT 9000 FEW020 28/25 Q1006 NOSIG",
    "updatedAt": "2022-03-09T12:00:00.000Z"
  },
  {
    "airportIcao": "WAMM",
    "metar": "WAMM 091230Z VRB01KT 9999 FEW021 26/25 Q1009 NOSIG",
    "updatedAt": "2022-03-09T12:30:00.000Z"
  },
  {
    "airportIcao": "WAMN",
    "metar": "WAMN 090630Z 32006KT 240V350 9999 FEW021 32/23 Q1006 NOSIG",
    "updatedAt": "2022-03-09T06:30:00.000Z"
  },
  {
    "airportIcao": "WAOO",
    "metar": "WAOO 091230Z AUTO 11003KT 9999 FEW043 FEW049 SCT055 25/25 Q1007",
    "updatedAt": "2022-03-09T12:30:00.000Z"
  },
  {
    "airportIcao": "WAPP",
    "metar": "WAPP 091230Z 32004KT 9999 SCT018 26/25 Q1007 NOSIG",
    "updatedAt": "2022-03-09T12:30:00.000Z"
  },
  {
    "airportIcao": "WAQQ",
    "metar": "WAQQ 090300Z 22006KT 9999 SCT014 28/25 Q1009",
    "updatedAt": "2022-03-09T03:00:00.000Z"
  },
  {
    "airportIcao": "WARR",
    "metar": "WARR 091230Z 28004KT 8000 SCT020 28/24 Q1008 NOSIG",
    "updatedAt": "2022-03-09T12:30:00.000Z"
  },
  {
    "airportIcao": "WBGB",
    "metar": "WBGB 091200Z VRB02KT 9999 FEW016 27/25 Q1009",
    "updatedAt": "2022-03-09T12:00:00.000Z"
  },
  {
    "airportIcao": "WBGG",
    "metar": "WBGG 091230Z 00000KT 9999 SCT020 26/23 Q1009 NOSIG",
    "updatedAt": "2022-03-09T12:30:00.000Z"
  },
  {
    "airportIcao": "WBGR",
    "metar": "WBGR 091200Z 06004KT 9999 SCT014 25/24 Q1009",
    "updatedAt": "2022-03-09T12:00:00.000Z"
  },
  {
    "airportIcao": "WBGS",
    "metar": "WBGS 091200Z VRB01KT 9999 SCT017 25/24 Q1009",
    "updatedAt": "2022-03-09T12:00:00.000Z"
  },
  {
    "airportIcao": "WBGY",
    "metar": "WBGY 091200Z AUTO 00000KT //// // ////// 26/24 Q1008",
    "updatedAt": "2022-03-09T12:00:00.000Z"
  },
  {
    "airportIcao": "WBKK",
    "metar": "WBKK 091230Z 00000KT 9999 FEW014 26/24 Q1009 NOSIG",
    "updatedAt": "2022-03-09T12:30:00.000Z"
  },
  {
    "airportIcao": "WBKL",
    "metar": "WBKL 091200Z VRB03KT 9999 FEW012 26/24 Q1009",
    "updatedAt": "2022-03-09T12:00:00.000Z"
  },
  {
    "airportIcao": "WBKS",
    "metar": "WBKS 091200Z 30007KT 270V340 9999 FEW014 24/23 Q1007",
    "updatedAt": "2022-03-09T12:00:00.000Z"
  },
  {
    "airportIcao": "WBKT",
    "metar": "WBKT 091200Z 26004KT 8000 -RA FEW012 SCT033 24/23 Q1009",
    "updatedAt": "2022-03-09T12:00:00.000Z"
  },
  {
    "airportIcao": "WBKW",
    "metar": "WBKW 091200Z 00000KT 9999 FEW016 26/25 Q1007",
    "updatedAt": "2022-03-09T12:00:00.000Z"
  },
  {
    "airportIcao": "WBSB",
    "metar": "WBSB 091230Z 03002KT 9999 FEW014 SCT140 BKN280 26/24 Q1009 NOSIG",
    "updatedAt": "2022-03-09T12:30:00.000Z"
  },
  {
    "airportIcao": "WIBB",
    "metar": "WIBB 091230Z 00000KT 7000 SCT013 29/26 Q1005",
    "updatedAt": "2022-03-09T12:30:00.000Z"
  },
  {
    "airportIcao": "WIDD",
    "metar": "WIDD 091230Z 06010KT 9999 FEW014 28/24 Q1009 NOSIG",
    "updatedAt": "2022-03-09T12:30:00.000Z"
  },
  {
    "airportIcao": "WIDN",
    "metar": "WIDN 091030Z 04008KT 9999 SCT017 29/24 Q1007 NOSIG",
    "updatedAt": "2022-03-09T10:30:00.000Z"
  },
  {
    "airportIcao": "WIEE",
    "metar": "WIEE 090530Z 21006KT 9999 FEW020 30/25 Q1008 NOSIG",
    "updatedAt": "2022-03-09T05:30:00.000Z"
  },
  {
    "airportIcao": "WIHH",
    "metar": "WIHH 091200Z 00000KT 6000 SCT020 26/23 Q1007 NOSIG",
    "updatedAt": "2022-03-09T12:00:00.000Z"
  },
  {
    "airportIcao": "WIII",
    "metar": "WIII 091230Z 21005KT 8000 FEW018 26/24 Q1007 NOSIG",
    "updatedAt": "2022-03-09T12:30:00.000Z"
  },
  {
    "airportIcao": "WIMM",
    "metar": "WIMM 091230Z 03004KT 9999 FEW017CB BKN018 28/26 Q1006 NOSIG",
    "updatedAt": "2022-03-09T12:30:00.000Z"
  },
  {
    "airportIcao": "WIOO",
    "metar": "WIOO 091230Z 20003KT 6000 BKN011 76/25 Q1008 NOSIG",
    "updatedAt": "2022-03-09T12:30:00.000Z"
  },
  {
    "airportIcao": "WIPP",
    "metar": "WIPP 091230Z 00000KT 9999 FEW010 FEW012CB 29/25 Q1007 RMK CB TOSW",
    "updatedAt": "2022-03-09T12:30:00.000Z"
  },
  {
    "airportIcao": "WMAU",
    "metar": "WMAU 091200Z AUTO 35009KT 290V060 //// // ////// 28/25 Q1008",
    "updatedAt": "2022-03-09T12:00:00.000Z"
  },
  {
    "airportIcao": "WMBA",
    "metar": "WMBA 091200Z VRB03KT 9999 SCT030 29/26 Q1006",
    "updatedAt": "2022-03-09T12:00:00.000Z"
  },
  {
    "airportIcao": "WMKA",
    "metar": "WMKA 091200Z 00000KT 9000 -TSRA FEW017CB SCT026 27/26 Q1007",
    "updatedAt": "2022-03-09T12:00:00.000Z"
  },
  {
    "airportIcao": "WMKB",
    "metar": "WMKB 091200Z VRB01KT 9000 FEW017CB 29/26 Q1006 NOSIG",
    "updatedAt": "2022-03-09T12:00:00.000Z"
  },
  {
    "airportIcao": "WMKC",
    "metar": "WMKC 091200Z 09006KT 040V120 9999 FEW018 27/25 Q1008",
    "updatedAt": "2022-03-09T12:00:00.000Z"
  },
  {
    "airportIcao": "WMKD",
    "metar": "WMKD 091200Z 33006KT 9000 -RA SCT024 26/24 Q1008 NOSIG",
    "updatedAt": "2022-03-09T12:00:00.000Z"
  },
  {
    "airportIcao": "WMKE",
    "metar": "WMKE 091200Z AUTO 05004KT 330V110 //// // ////// 27/24 Q1008",
    "updatedAt": "2022-03-09T12:00:00.000Z"
  },
  {
    "airportIcao": "WMKI",
    "metar": "WMKI 091200Z 00000KT 8000 TS FEW017CB 29/25 Q1006",
    "updatedAt": "2022-03-09T12:00:00.000Z"
  },
  {
    "airportIcao": "WMKJ",
    "metar": "WMKJ 091200Z 05004KT 010V100 8000 FEW017CB 28/24 Q1007",
    "updatedAt": "2022-03-09T12:00:00.000Z"
  },
  {
    "airportIcao": "WMKK",
    "metar": "WMKK 091230Z 00000KT 9999 FEW017CB 28/26 Q1006 NOSIG",
    "updatedAt": "2022-03-09T12:30:00.000Z"
  },
  {
    "airportIcao": "WMKL",
    "metar": "WMKL 091200Z VRB06KT 9999 SCT025 29/25 Q1007",
    "updatedAt": "2022-03-09T12:00:00.000Z"
  },
  {
    "airportIcao": "WMKM",
    "metar": "WMKM 091200Z 09003KT 020V150 9000 -RA FEW010 FEW016CB SCT026 27/26 Q1007",
    "updatedAt": "2022-03-09T12:00:00.000Z"
  },
  {
    "airportIcao": "WMKN",
    "metar": "WMKN 091200Z VRB03KT 9999 SCT022 28/24 Q1008",
    "updatedAt": "2022-03-09T12:00:00.000Z"
  },
  {
    "airportIcao": "WMKP",
    "metar": "WMKP 091230Z VRB02KT 9999 FEW025 30/25 Q1007 NOSIG",
    "updatedAt": "2022-03-09T12:30:00.000Z"
  },
  {
    "airportIcao": "WMSA",
    "metar": "WMSA 091200Z 00000KT 9999 FEW026 28/24 Q1007 RETS",
    "updatedAt": "2022-03-09T12:00:00.000Z"
  },
  {
    "airportIcao": "WSAP",
    "metar": "WSAP 091200Z 06008KT 9999 FEW016 BKN150 29/24 Q1007",
    "updatedAt": "2022-03-09T12:00:00.000Z"
  },
  {
    "airportIcao": "WSSL",
    "metar": "WSSL 091200Z 05008KT 9999 FEW018TCU SCT160 28/24 Q1007",
    "updatedAt": "2022-03-09T12:00:00.000Z"
  },
  {
    "airportIcao": "WSSS",
    "metar": "WSSS 091230Z 02010KT 9999 FEW017 BKN070 28/24 Q1008 NOSIG",
    "updatedAt": "2022-03-09T12:30:00.000Z"
  },
  {
    "airportIcao": "YABA",
    "metar": "YABA 091200Z AUTO 08011KT 9999 // NCD 19/16 Q1019",
    "updatedAt": "2022-03-09T12:00:00.000Z"
  },
  {
    "airportIcao": "YAMB",
    "metar": "YAMB 091230Z AUTO 15003KT 9999 // BKN027 BKN034 OVC049 25/20 Q1012",
    "updatedAt": "2022-03-09T12:30:00.000Z"
  },
  {
    "airportIcao": "YARG",
    "metar": "YARG 091200Z AUTO 26004KT 9999 // NCD 32/23 Q1009",
    "updatedAt": "2022-03-09T12:00:00.000Z"
  },
  {
    "airportIcao": "YAYE",
    "metar": "YAYE 091200Z AUTO 16007KT 9999 // NCD 25/01 Q1016",
    "updatedAt": "2022-03-09T12:00:00.000Z"
  },
  {
    "airportIcao": "YAYT",
    "metar": "YAYT 091054Z 34002KT 8000 NSC 26/M02 Q1011",
    "updatedAt": "2022-03-09T10:54:00.000Z"
  },
  {
    "airportIcao": "YBAS",
    "metar": "YBAS 091230Z AUTO 00000KT 9999 // NCD 20/07 Q1016 RF00.0/000.0",
    "updatedAt": "2022-03-09T12:30:00.000Z"
  },
  {
    "airportIcao": "YBBN",
    "metar": "YBBN 091230Z 15011KT 9999 FEW017 BKN250 25/22 Q1012",
    "updatedAt": "2022-03-09T12:30:00.000Z"
  },
  {
    "airportIcao": "YBCG",
    "metar": "YBCG 091230Z AUTO 19009KT 9999 // NCD 23/20 Q1013 RF00.0/001.8",
    "updatedAt": "2022-03-09T12:30:00.000Z"
  },
  {
    "airportIcao": "YBCS",
    "metar": "YBCS 091230Z AUTO 28003KT 9999 // SCT033 SCT048 29/25 Q1010",
    "updatedAt": "2022-03-09T12:30:00.000Z"
  },
  {
    "airportIcao": "YBCV",
    "metar": "YBCV 091200Z AUTO 17008KT 9999 // OVC100 29/11 Q1012",
    "updatedAt": "2022-03-09T12:00:00.000Z"
  },
  {
    "airportIcao": "YBDV",
    "metar": "YBDV 091200Z AUTO 17016KT 9999 // NCD 29/10 Q1012",
    "updatedAt": "2022-03-09T12:00:00.000Z"
  },
  {
    "airportIcao": "YBHI",
    "metar": "YBHI 091200Z AUTO 17009KT 9999 // NCD 21/06 Q1017",
    "updatedAt": "2022-03-09T12:00:00.000Z"
  },
  {
    "airportIcao": "YBHM",
    "metar": "YBHM 091230Z AUTO 35008KT 9999 // NCD 29/26 Q1010 RF00.0/000.0",
    "updatedAt": "2022-03-09T12:30:00.000Z"
  },
  {
    "airportIcao": "YBLN",
    "metar": "YBLN 091230Z AUTO 18009KT 150V210 9999 // NCD 24/13 Q1016 RF00.0/000.0",
    "updatedAt": "2022-03-09T12:30:00.000Z"
  },
  {
    "airportIcao": "YBMA",
    "metar": "YBMA 091230Z AUTO 17005KT 9999 // SCT120 32/09 Q1010 RF00.0/000.0",
    "updatedAt": "2022-03-09T12:30:00.000Z"
  },
  {
    "airportIcao": "YBMK",
    "metar": "YBMK 091200Z AUTO 36009KT 9999 VCTS BKN019 BKN023 OVC028 29/26 Q1010",
    "updatedAt": "2022-03-09T12:00:00.000Z"
  },
  {
    "airportIcao": "YBNA",
    "metar": "YBNA 091200Z AUTO 18012KT //// // ////// 24/21 Q1013",
    "updatedAt": "2022-03-09T12:00:00.000Z"
  },
  {
    "airportIcao": "YBOK",
    "metar": "YBOK 091200Z AUTO 01005KT 9999 // NCD 22/20 Q1013",
    "updatedAt": "2022-03-09T12:00:00.000Z"
  },
  {
    "airportIcao": "YBPN",
    "metar": "YBPN 091200Z AUTO 34004KT 9999 // NCD 27/26 Q1009",
    "updatedAt": "2022-03-09T12:00:00.000Z"
  },
  {
    "airportIcao": "YBRK",
    "metar": "YBRK 091230Z AUTO 19001KT 9999 // SCT036 28/24 Q1010 RF00.0/000.2",
    "updatedAt": "2022-03-09T12:30:00.000Z"
  },
  {
    "airportIcao": "YBRM",
    "metar": "YBRM 091230Z AUTO 31006KT 9999 // NCD 29/26 Q1009 RF00.0/000.0",
    "updatedAt": "2022-03-09T12:30:00.000Z"
  },
  {
    "airportIcao": "YBTL",
    "metar": "YBTL 091230Z AUTO 36009KT 9999 // SCT020 SCT026 SCT029 30/26 Q1009",
    "updatedAt": "2022-03-09T12:30:00.000Z"
  },
  {
    "airportIcao": "YBUD",
    "metar": "YBUD 091200Z AUTO 25003KT 9999 // NCD 25/25 Q1011",
    "updatedAt": "2022-03-09T12:00:00.000Z"
  },
  {
    "airportIcao": "YBWP",
    "metar": "YBWP 091200Z AUTO 10004KT 9999 // NCD 28/26 Q1009",
    "updatedAt": "2022-03-09T12:00:00.000Z"
  },
  {
    "airportIcao": "YBWW",
    "metar": "YBWW 091230Z AUTO 15007KT 9999 // NCD 21/18 Q1013 RF00.0/000.0",
    "updatedAt": "2022-03-09T12:30:00.000Z"
  },
  {
    "airportIcao": "YBWX",
    "metar": "YBWX 091200Z AUTO 35006KT //// // ////// 30/26 Q1009",
    "updatedAt": "2022-03-09T12:00:00.000Z"
  },
  {
    "airportIcao": "YCAR",
    "metar": "YCAR 091200Z AUTO 20013KT 9999 // NCD 30/22 Q1007",
    "updatedAt": "2022-03-09T12:00:00.000Z"
  },
  {
    "airportIcao": "YCAS",
    "metar": "YCAS 090900Z AUTO /////KT //// // ////// ///// Q////",
    "updatedAt": "2022-03-09T09:00:00.000Z"
  },
  {
    "airportIcao": "YCBA",
    "metar": "YCBA 091200Z AUTO 19007KT 9999 // NCD 24/10 Q1015",
    "updatedAt": "2022-03-09T12:00:00.000Z"
  },
  {
    "airportIcao": "YCBB",
    "metar": "YCBB 091200Z AUTO 11007KT 9999 // SCT046 SCT077 18/16 Q1016",
    "updatedAt": "2022-03-09T12:00:00.000Z"
  },
  {
    "airportIcao": "YCBP",
    "metar": "YCBP 091200Z AUTO 15013KT 9999 // NCD 24/01 Q1018",
    "updatedAt": "2022-03-09T12:00:00.000Z"
  },
  {
    "airportIcao": "YCCY",
    "metar": "YCCY 091200Z AUTO 17004KT 9999 // BKN120 30/12 Q1008",
    "updatedAt": "2022-03-09T12:00:00.000Z"
  },
  {
    "airportIcao": "YCDU",
    "metar": "YCDU 091200Z AUTO 15015KT 9999 // NCD 17/12 Q1021",
    "updatedAt": "2022-03-09T12:00:00.000Z"
  },
  {
    "airportIcao": "YCFS",
    "metar": "YCFS 091230Z AUTO 22007KT 9999 // NCD 21/18 Q1014 RF00.0/005.0",
    "updatedAt": "2022-03-09T12:30:00.000Z"
  },
  {
    "airportIcao": "YCIN",
    "metar": "YCIN 091230Z AUTO 35005KT 9999 // NCD 27/25 Q1009 RF00.0/000.0",
    "updatedAt": "2022-03-09T12:30:00.000Z"
  },
  {
    "airportIcao": "YCNM",
    "metar": "YCNM 091200Z AUTO 16007KT //// // ////// 22/15 Q1013",
    "updatedAt": "2022-03-09T12:00:00.000Z"
  },
  {
    "airportIcao": "YCOM",
    "metar": "YCOM 091200Z AUTO 23013KT 9999 // OVC032 09/08 Q1020",
    "updatedAt": "2022-03-09T12:00:00.000Z"
  },
  {
    "airportIcao": "YDBY",
    "metar": "YDBY 091200Z AUTO 01006KT 9999 // NCD 28/25 Q1009",
    "updatedAt": "2022-03-09T12:00:00.000Z"
  },
  {
    "airportIcao": "YEML",
    "metar": "YEML 091200Z AUTO 07011KT 9999 // SCT120 30/22 Q1009",
    "updatedAt": "2022-03-09T12:00:00.000Z"
  },
  {
    "airportIcao": "YESP",
    "metar": "YESP 091200Z AUTO 09013KT 9999 // NCD 20/11 Q1021",
    "updatedAt": "2022-03-09T12:00:00.000Z"
  },
  {
    "airportIcao": "YFRT",
    "metar": "YFRT 091230Z AUTO 12015KT 9999 // NCD 17/11 Q1022 RF00.0/000.0",
    "updatedAt": "2022-03-09T12:30:00.000Z"
  },
  {
    "airportIcao": "YGEL",
    "metar": "YGEL 091230Z AUTO 16015KT 9999 // ////// 26/16 Q1011 RF00.0/000.0",
    "updatedAt": "2022-03-09T12:30:00.000Z"
  },
  {
    "airportIcao": "YGFN",
    "metar": "YGFN 091200Z AUTO 00000KT 9999 // BKN070 OVC082 21/20 Q1014",
    "updatedAt": "2022-03-09T12:00:00.000Z"
  },
  {
    "airportIcao": "YGLA",
    "metar": "YGLA 091244Z AUTO 11019G31KT 9999 -TSRA SCT010 BKN039 OVC050 23/21 Q1010 RERA",
    "updatedAt": "2022-03-09T12:44:00.000Z"
  },
  {
    "airportIcao": "YGTE",
    "metar": "YGTE 091200Z AUTO 07003KT 9999 // NCD 27/26 Q1007",
    "updatedAt": "2022-03-09T12:00:00.000Z"
  },
  {
    "airportIcao": "YGTH",
    "metar": "YGTH 091200Z AUTO 19008KT 9999 // NCD 20/11 Q1015",
    "updatedAt": "2022-03-09T12:00:00.000Z"
  },
  {
    "airportIcao": "YHID",
    "metar": "YHID 091230Z AUTO 00000KT 9999 // NCD 27/25 Q1009 RF00.0/000.0",
    "updatedAt": "2022-03-09T12:30:00.000Z"
  },
  {
    "airportIcao": "YHUG",
    "metar": "YHUG 091230Z AUTO 00000KT 7000 // NCD 27/11 Q1009",
    "updatedAt": "2022-03-09T12:30:00.000Z"
  },
  {
    "airportIcao": "YKRY",
    "metar": "YKRY 091200Z AUTO 00000KT 9999 // NCD 23/22 Q1014",
    "updatedAt": "2022-03-09T12:00:00.000Z"
  },
  {
    "airportIcao": "YLEC",
    "metar": "YLEC 091200Z AUTO 12008KT 9999 // NCD 22/02 Q1017",
    "updatedAt": "2022-03-09T12:00:00.000Z"
  },
  {
    "airportIcao": "YLHI",
    "metar": "YLHI 091230Z AUTO 27012KT 9999 // BKN009 24/23 Q1009 RF00.0/003.6",
    "updatedAt": "2022-03-09T12:30:00.000Z"
  },
  {
    "airportIcao": "YLIS",
    "metar": "YLIS 090900Z AUTO /////KT //// // ////// ///// Q////",
    "updatedAt": "2022-03-09T09:00:00.000Z"
  },
  {
    "airportIcao": "YLRE",
    "metar": "YLRE 091200Z AUTO 17013KT 9999 // NCD 33/13 Q1009",
    "updatedAt": "2022-03-09T12:00:00.000Z"
  },
  {
    "airportIcao": "YMAV",
    "metar": "YMAV 091230Z AUTO 16011KT 9999 // NCD 15/10 Q1022 RF00.0/000.0",
    "updatedAt": "2022-03-09T12:30:00.000Z"
  },
  {
    "airportIcao": "YMAY",
    "metar": "YMAY 091200Z AUTO 13014KT 9999 // NCD 17/08 Q1017",
    "updatedAt": "2022-03-09T12:00:00.000Z"
  },
  {
    "airportIcao": "YMDG",
    "metar": "YMDG 091200Z AUTO 06005KT 9999 // SCT027 19/17 Q1016",
    "updatedAt": "2022-03-09T12:00:00.000Z"
  },
  {
    "airportIcao": "YMEK",
    "metar": "YMEK 091200Z AUTO 13006KT 9999 // NCD 32/07 Q1014",
    "updatedAt": "2022-03-09T12:00:00.000Z"
  },
  {
    "airportIcao": "YMEN",
    "metar": "YMEN 091200Z AUTO 14011KT 9999 // NCD 15/10 Q1022",
    "updatedAt": "2022-03-09T12:00:00.000Z"
  },
  {
    "airportIcao": "YMER",
    "metar": "YMER 091200Z AUTO 22007KT 9999 // OVC061 16/12 Q1018",
    "updatedAt": "2022-03-09T12:00:00.000Z"
  },
  {
    "airportIcao": "YMHB",
    "metar": "YMHB 091230Z 21005KT 9999 FEW030 11/07 Q1024",
    "updatedAt": "2022-03-09T12:30:00.000Z"
  },
  {
    "airportIcao": "YMIA",
    "metar": "YMIA 091200Z AUTO 17010KT 9999 // NCD 21/04 Q1018",
    "updatedAt": "2022-03-09T12:00:00.000Z"
  },
  {
    "airportIcao": "YMLT",
    "metar": "YMLT 091230Z AUTO 17009KT 9999 // NCD 10/05 Q1023 RF00.0/000.0",
    "updatedAt": "2022-03-09T12:30:00.000Z"
  },
  {
    "airportIcao": "YMML",
    "metar": "YMML 091200Z 16013KT 9999 FEW020 14/09 Q1022",
    "updatedAt": "2022-03-09T12:00:00.000Z"
  },
  {
    "airportIcao": "YMOR",
    "metar": "YMOR 091200Z AUTO 12008KT 9999 // NCD 23/15 Q1012",
    "updatedAt": "2022-03-09T12:00:00.000Z"
  },
  {
    "airportIcao": "YMTG",
    "metar": "YMTG 091200Z AUTO 15008KT //// // ////// 13/11 Q1024",
    "updatedAt": "2022-03-09T12:00:00.000Z"
  },
  {
    "airportIcao": "YNAR",
    "metar": "YNAR 091200Z AUTO 16006KT 9999 // NCD 18/12 Q1016",
    "updatedAt": "2022-03-09T12:00:00.000Z"
  },
  {
    "airportIcao": "YNBR",
    "metar": "YNBR 091200Z AUTO 15010KT 9999 // NCD 22/15 Q1013",
    "updatedAt": "2022-03-09T12:00:00.000Z"
  },
  {
    "airportIcao": "YNTN",
    "metar": "YNTN 091200Z AUTO 35006KT 9999 // NCD 31/24 Q1008",
    "updatedAt": "2022-03-09T12:00:00.000Z"
  },
  {
    "airportIcao": "YNWN",
    "metar": "YNWN 091200Z AUTO 07005KT 9999 // NCD 32/09 Q1012",
    "updatedAt": "2022-03-09T12:00:00.000Z"
  },
  {
    "airportIcao": "YOLD",
    "metar": "YOLD 091200Z AUTO 17009KT 9999 // NCD 22/03 Q1017",
    "updatedAt": "2022-03-09T12:00:00.000Z"
  },
  {
    "airportIcao": "YPAD",
    "metar": "YPAD 091230Z 15014KT CAVOK 16/12 Q1021",
    "updatedAt": "2022-03-09T12:30:00.000Z"
  },
  {
    "airportIcao": "YPBO",
    "metar": "YPBO 091200Z AUTO 16005KT 070V200 9999 // ////// 27/20 Q1010 RESHRA",
    "updatedAt": "2022-03-09T12:00:00.000Z"
  },
  {
    "airportIcao": "YPCC",
    "metar": "YPCC 091230Z AUTO 04005KT 9999 // SCT022 28/26 Q1009 RF00.0/001.2",
    "updatedAt": "2022-03-09T12:30:00.000Z"
  },
  {
    "airportIcao": "YPDN",
    "metar": "YPDN 091230Z 19006KT 9999 FEW020 28/23 Q1009",
    "updatedAt": "2022-03-09T12:30:00.000Z"
  },
  {
    "airportIcao": "YPEA",
    "metar": "YPEA 091230Z 16007KT CAVOK 27/09 Q1014",
    "updatedAt": "2022-03-09T12:30:00.000Z"
  },
  {
    "airportIcao": "YPGV",
    "metar": "YPGV 091230Z AUTO 08004KT 9999 // NCD 29/24 Q1008 RF00.0/000.0",
    "updatedAt": "2022-03-09T12:30:00.000Z"
  },
  {
    "airportIcao": "YPJT",
    "metar": "YPJT 091230Z AUTO 19009KT 9999 // NCD 27/11 Q1014 RF00.0/000.0",
    "updatedAt": "2022-03-09T12:30:00.000Z"
  },
  {
    "airportIcao": "YPKG",
    "metar": "YPKG 091230Z AUTO 08009KT 9999 // NCD 25/07 Q1019 RF00.0/000.0",
    "updatedAt": "2022-03-09T12:30:00.000Z"
  },
  {
    "airportIcao": "YPKU",
    "metar": "YPKU 091230Z AUTO 00000KT 9999 // NCD 29/26 Q1008 RF00.0/000.0",
    "updatedAt": "2022-03-09T12:30:00.000Z"
  },
  {
    "airportIcao": "YPLM",
    "metar": "YPLM 091230Z AUTO 27010KT 9999 // NCD 32/14 Q1008 RF00.0/000.0",
    "updatedAt": "2022-03-09T12:30:00.000Z"
  },
  {
    "airportIcao": "YPPD",
    "metar": "YPPD 091230Z AUTO 25010KT 9999 // NCD 31/27 Q1010 RF00.0/000.0",
    "updatedAt": "2022-03-09T12:30:00.000Z"
  },
  {
    "airportIcao": "YPPH",
    "metar": "YPPH 091230Z 21009KT CAVOK 28/10 Q1014",
    "updatedAt": "2022-03-09T12:30:00.000Z"
  },
  {
    "airportIcao": "YPTN",
    "metar": "YPTN 091230Z AUTO 00000KT 9999 // NCD 28/25 Q1008 RF00.0////./",
    "updatedAt": "2022-03-09T12:30:00.000Z"
  },
  {
    "airportIcao": "YPWR",
    "metar": "YPWR 091230Z AUTO 16013KT 9999 // NCD 21/06 Q1019 RF00.0/000.0",
    "updatedAt": "2022-03-09T12:30:00.000Z"
  },
  {
    "airportIcao": "YPXM",
    "metar": "YPXM 091230Z AUTO 13001KT 9999 // SCT014 25/23 Q1010 RF00.0/000.2",
    "updatedAt": "2022-03-09T12:30:00.000Z"
  },
  {
    "airportIcao": "YRMD",
    "metar": "YRMD 091200Z AUTO 27005KT 9999 // NCD 29/07 Q1008",
    "updatedAt": "2022-03-09T12:00:00.000Z"
  },
  {
    "airportIcao": "YSCB",
    "metar": "YSCB 091230Z AUTO 15011KT 9999 // NCD 13/07 Q1018",
    "updatedAt": "2022-03-09T12:30:00.000Z"
  },
  {
    "airportIcao": "YSDU",
    "metar": "YSDU 091230Z AUTO 09008KT 9999 // NCD 19/16 Q1014 RF00.0/000.0",
    "updatedAt": "2022-03-09T12:30:00.000Z"
  },
  {
    "airportIcao": "YSNF",
    "metar": "YSNF 091242Z AUTO 07015KT 6000 -RA OVC006 23/23 Q1013 RF00.0/015.0",
    "updatedAt": "2022-03-09T12:42:00.000Z"
  },
  {
    "airportIcao": "YSNW",
    "metar": "YSNW 091200Z AUTO 22005KT 9999 // NCD 15/11 Q1016",
    "updatedAt": "2022-03-09T12:00:00.000Z"
  },
  {
    "airportIcao": "YSRI",
    "metar": "YSRI 091230Z AUTO 17005KT 9999 // OVC054 19/15 Q1016 RF00.0/000.0",
    "updatedAt": "2022-03-09T12:30:00.000Z"
  },
  {
    "airportIcao": "YSSY",
    "metar": "YSSY 091230Z 19019KT 9999 FEW032 19/14 Q1015",
    "updatedAt": "2022-03-09T12:30:00.000Z"
  },
  {
    "airportIcao": "YSTW",
    "metar": "YSTW 091230Z AUTO 13005KT 9999 // NCD 17/16 Q1015 RF00.0/000.0",
    "updatedAt": "2022-03-09T12:30:00.000Z"
  },
  {
    "airportIcao": "YSWG",
    "metar": "YSWG 091200Z AUTO 14012KT 9999 // NCD 18/10 Q1015",
    "updatedAt": "2022-03-09T12:00:00.000Z"
  },
  {
    "airportIcao": "YTEF",
    "metar": "YTEF 091200Z AUTO 13006KT //// // NCD 32/18 Q1010",
    "updatedAt": "2022-03-09T12:00:00.000Z"
  },
  {
    "airportIcao": "YTNK",
    "metar": "YTNK 091200Z AUTO 10005KT 9999 // NCD 30/10 Q1011",
    "updatedAt": "2022-03-09T12:00:00.000Z"
  },
  {
    "airportIcao": "YTRE",
    "metar": "YTRE 091200Z AUTO 26007KT 9999 // NCD 20/15 Q1015",
    "updatedAt": "2022-03-09T12:00:00.000Z"
  },
  {
    "airportIcao": "YWGT",
    "metar": "YWGT 091200Z AUTO 19006KT 9999 // NCD 15/07 Q1018",
    "updatedAt": "2022-03-09T12:00:00.000Z"
  },
  {
    "airportIcao": "YWHA",
    "metar": "YWHA 091200Z AUTO 17014KT 9999 // ////// 19/14 Q1020",
    "updatedAt": "2022-03-09T12:00:00.000Z"
  },
  {
    "airportIcao": "YWLM",
    "metar": "YWLM 091230Z AUTO 19016G26KT 0000 // OVC036 OVC115 21/16 Q1015",
    "updatedAt": "2022-03-09T12:30:00.000Z"
  },
  {
    "airportIcao": "ZBAA",
    "metar": "ZBAA 091230Z VRB01MPS 6000 NSC 11/03 Q1015 NOSIG",
    "updatedAt": "2022-03-09T12:30:00.000Z"
  },
  {
    "airportIcao": "ZBAD",
    "metar": "ZBAD 091230Z 14003MPS 5000 HZ BKN040 12/04 Q1015 NOSIG",
    "updatedAt": "2022-03-09T12:30:00.000Z"
  },
  {
    "airportIcao": "ZBHH",
    "metar": "ZBHH 091200Z 03002MPS 8000 NSC 05/M09 Q1013 NOSIG",
    "updatedAt": "2022-03-09T12:00:00.000Z"
  },
  {
    "airportIcao": "ZBSJ",
    "metar": "ZBSJ 091200Z 36002MPS 5000 HZ NSC 14/03 Q1015 NOSIG",
    "updatedAt": "2022-03-09T12:00:00.000Z"
  },
  {
    "airportIcao": "ZBTJ",
    "metar": "ZBTJ 091230Z VRB01MPS 3500 HZ NSC 07/03 Q1015 NOSIG",
    "updatedAt": "2022-03-09T12:30:00.000Z"
  },
  {
    "airportIcao": "ZBYN",
    "metar": "ZBYN 091230Z 10002MPS 7000 NSC 10/M04 Q1015 NOSIG",
    "updatedAt": "2022-03-09T12:30:00.000Z"
  },
  {
    "airportIcao": "ZGGG",
    "metar": "ZGGG 091230Z 12002MPS CAVOK 21/10 Q1015 NOSIG",
    "updatedAt": "2022-03-09T12:30:00.000Z"
  },
  {
    "airportIcao": "ZGHA",
    "metar": "ZGHA 091200Z 15003MPS CAVOK 22/09 Q1013 NOSIG",
    "updatedAt": "2022-03-09T12:00:00.000Z"
  },
  {
    "airportIcao": "ZGKL",
    "metar": "ZGKL 091200Z VRB01MPS 9999 BKN070 20/11 Q1013 NOSIG",
    "updatedAt": "2022-03-09T12:00:00.000Z"
  },
  {
    "airportIcao": "ZGNN",
    "metar": "ZGNN 091200Z 14003MPS 130V190 9999 BKN046 20/15 Q1013 NOSIG",
    "updatedAt": "2022-03-09T12:00:00.000Z"
  },
  {
    "airportIcao": "ZGOW",
    "metar": "ZGOW 091200Z 13004MPS 100V160 CAVOK 18/12 Q1017 NOSIG",
    "updatedAt": "2022-03-09T12:00:00.000Z"
  },
  {
    "airportIcao": "ZGSZ",
    "metar": "ZGSZ 091200Z 18002MPS CAVOK 18/14 Q1015 NOSIG",
    "updatedAt": "2022-03-09T12:00:00.000Z"
  },
  {
    "airportIcao": "ZHCC",
    "metar": "ZHCC 091200Z 12002MPS CAVOK 16/06 Q1016 NOSIG",
    "updatedAt": "2022-03-09T12:00:00.000Z"
  },
  {
    "airportIcao": "ZHHH",
    "metar": "ZHHH 091200Z 09002MPS CAVOK 17/07 Q1014 NOSIG",
    "updatedAt": "2022-03-09T12:00:00.000Z"
  },
  {
    "airportIcao": "ZJHK",
    "metar": "ZJHK 091200Z 09004MPS 9999 FEW016 SCT033 20/18 Q1014 NOSIG",
    "updatedAt": "2022-03-09T12:00:00.000Z"
  },
  {
    "airportIcao": "ZJSY",
    "metar": "ZJSY 091200Z 09004MPS CAVOK 23/16 Q1013 NOSIG",
    "updatedAt": "2022-03-09T12:00:00.000Z"
  },
  {
    "airportIcao": "ZLLL",
    "metar": "ZLLL 091200Z 35002MPS 8000 NSC 12/M14 Q1015 NOSIG",
    "updatedAt": "2022-03-09T12:00:00.000Z"
  },
  {
    "airportIcao": "ZLXY",
    "metar": "ZLXY 091200Z 04002MPS 8000 NSC 16/06 Q1013 NOSIG",
    "updatedAt": "2022-03-09T12:00:00.000Z"
  },
  {
    "airportIcao": "ZMCK",
    "metar": "ZMCK 091230Z VRB01MPS CAVOK M02/M13 Q1012 NOSIG",
    "updatedAt": "2022-03-09T12:30:00.000Z"
  },
  {
    "airportIcao": "ZMUB",
    "metar": "ZMUB 091200Z VRB01MPS CAVOK M03/M15 Q1011 NOSIG RMK QFE651.8 45",
    "updatedAt": "2022-03-09T12:00:00.000Z"
  },
  {
    "airportIcao": "ZPPP",
    "metar": "ZPPP 091200Z 24004MPS CAVOK 20/M03 Q1017 NOSIG",
    "updatedAt": "2022-03-09T12:00:00.000Z"
  },
  {
    "airportIcao": "ZSAM",
    "metar": "ZSAM 091200Z 13003MPS 090V150 CAVOK 16/11 Q1018 NOSIG",
    "updatedAt": "2022-03-09T12:00:00.000Z"
  },
  {
    "airportIcao": "ZSFZ",
    "metar": "ZSFZ 091200Z 01004MPS 340V050 9999 FEW030 BKN050 16/10 Q1019 NOSIG",
    "updatedAt": "2022-03-09T12:00:00.000Z"
  },
  {
    "airportIcao": "ZSHC",
    "metar": "ZSHC 091230Z 06002MPS CAVOK 13/09 Q1018 NOSIG",
    "updatedAt": "2022-03-09T12:30:00.000Z"
  },
  {
    "airportIcao": "ZSNB",
    "metar": "ZSNB 091200Z 12004MPS CAVOK 13/09 Q1020 NOSIG",
    "updatedAt": "2022-03-09T12:00:00.000Z"
  },
  {
    "airportIcao": "ZSNJ",
    "metar": "ZSNJ 091200Z 12002MPS CAVOK 16/03 Q1017 NOSIG",
    "updatedAt": "2022-03-09T12:00:00.000Z"
  },
  {
    "airportIcao": "ZSOF",
    "metar": "ZSOF 091200Z 11004MPS CAVOK 18/03 Q1015 NOSIG",
    "updatedAt": "2022-03-09T12:00:00.000Z"
  },
  {
    "airportIcao": "ZSPD",
    "metar": "ZSPD 091230Z 15005MPS CAVOK 12/07 Q1020 NOSIG",
    "updatedAt": "2022-03-09T12:30:00.000Z"
  },
  {
    "airportIcao": "ZSQD",
    "metar": "ZSQD 091200Z 16006MPS CAVOK 10/04 Q1019 NOSIG",
    "updatedAt": "2022-03-09T12:00:00.000Z"
  },
  {
    "airportIcao": "ZSSS",
    "metar": "ZSSS 091230Z 14007MPS CAVOK 14/08 Q1020 NOSIG",
    "updatedAt": "2022-03-09T12:30:00.000Z"
  },
  {
    "airportIcao": "ZUCK",
    "metar": "ZUCK 091200Z 31002MPS CAVOK 23/11 Q1009 NOSIG",
    "updatedAt": "2022-03-09T12:00:00.000Z"
  },
  {
    "airportIcao": "ZUGY",
    "metar": "ZUGY 091200Z 17003MPS CAVOK 16/09 Q1014 NOSIG",
    "updatedAt": "2022-03-09T12:00:00.000Z"
  },
  {
    "airportIcao": "ZUTF",
    "metar": "ZUTF 091200Z 00000MPS CAVOK 20/12 Q1010 NOSIG",
    "updatedAt": "2022-03-09T12:00:00.000Z"
  },
  {
    "airportIcao": "ZUUU",
    "metar": "ZUUU 091200Z 35002MPS CAVOK 22/10 Q1011 NOSIG",
    "updatedAt": "2022-03-09T12:00:00.000Z"
  },
  {
    "airportIcao": "ZWSH",
    "metar": "ZWSH 091200Z 19003MPS 150V220 9000 NSC 16/M14 Q1009 NOSIG",
    "updatedAt": "2022-03-09T12:00:00.000Z"
  },
  {
    "airportIcao": "ZWWW",
    "metar": "ZWWW 091230Z 00000MPS 9999 BKN046 06/01 Q1016 NOSIG",
    "updatedAt": "2022-03-09T12:30:00.000Z"
  },
  {
    "airportIcao": "ZYCC",
    "metar": "ZYCC 091200Z 18003MPS CAVOK 05/M08 Q1013 NOSIG",
    "updatedAt": "2022-03-09T12:00:00.000Z"
  },
  {
    "airportIcao": "ZYHB",
    "metar": "ZYHB 091200Z 16004MPS 120V180 6000 NSC 03/M03 Q1012 NOSIG",
    "updatedAt": "2022-03-09T12:00:00.000Z"
  },
  {
    "airportIcao": "ZYTL",
    "metar": "ZYTL 091230Z 11004MPS 3500 BR NSC 04/03 Q1019 NOSIG",
    "updatedAt": "2022-03-09T12:30:00.000Z"
  },
  {
    "airportIcao": "ZYTX",
    "metar": "ZYTX 091230Z 16002MPS CAVOK 06/M08 Q1015 NOSIG",
    "updatedAt": "2022-03-09T12:30:00.000Z"
  }
]
