XX1N 291230Z 00020KT 6000 RA OVC100 10/10 Q1100
XX2N 291230Z 18020KT 8000 +RA OVC120 20/20 Q1200
