XX1N 291230Z 00010KT 1000 -RA OVC010 10/10 Q1000
XX1E 291330Z 09010KT 2000 RA OVC020 20/20 Q1100
XX1S 291430Z 18010KT 3000 RA OVC030 30/30 Q1200
XX1W 291530Z 27010KT 4000 +RA OVC040 40/40 Q1300
